{
  "type": "FeatureCollection",
  "features": [
    {
      "type": "Feature",
      "properties": {
        "uuid": "ae95d02d-5f7d-4db7-957a-c509cc38f804",
        "inat_id": 235459919,
        "timestamp": "2024-08-12T20:18:09-06:00",
        "date": "2024-08-12",
        "olc": "857PQ5XX+",
        "elevation": 3208.0,
        "tavg": null,
        "tmin": 18.9,
        "tmax": 32.8,
        "precipitation": 0.0,
        "windspeed": 15.6,
        "winddirection": null,
        "presure": 1012.6,
        "species": "Polyozellus multiplex",
        "location": "Santa Fe National Forest, Tererro, NM, US",
        "num_identification_agreements": 2
      },
      "geometry": {
        "type": "Point",
        "coordinates": [
          -105.800550701,
          35.7986694548
        ]
      }
    }
  ]
}