{
  "type": "FeatureCollection",
  "features": [
    {
      "type": "Feature",
      "properties": {
        "uuid": "38876156-659d-4fc9-b203-888b3fceeff7",
        "inat_id": 132155933,
        "timestamp": "2022-08-22T17:05:19-06:00",
        "date": "2022-08-22",
        "olc": "859JR477+",
        "elevation": 3139.0,
        "tavg": null,
        "tmin": 8.0,
        "tmax": 20.0,
        "precipitation": 6.7,
        "windspeed": 7.4,
        "winddirection": null,
        "presure": 1031.2,
        "species": "Polyozellus multiplex",
        "location": "Grand Mesa Uncompahgre and Gunnison National Forests, Ophir, CO, US",
        "num_identification_agreements": 2
      },
      "geometry": {
        "type": "Point",
        "coordinates": [
          -107.8857416667,
          37.8143916667
        ]
      }
    }
  ]
}