{
  "type": "FeatureCollection",
  "features": [
    {
      "type": "Feature",
      "properties": {
        "uuid": "0b6c65f2-0476-4d86-a15b-47cf52353aaf",
        "inat_id": 131499962,
        "timestamp": "2022-08-18T10:57:02-06:00",
        "date": "2022-08-18",
        "olc": "859JW5PQ+",
        "elevation": 2692.0,
        "tavg": null,
        "tmin": 9.0,
        "tmax": 23.0,
        "precipitation": 0.6,
        "windspeed": 6.6,
        "winddirection": null,
        "presure": 1032.2,
        "species": "Polyozellus multiplex",
        "location": "Telluride",
        "num_identification_agreements": 2
      },
      "geometry": {
        "type": "Point",
        "coordinates": [
          -107.8122851998,
          37.9374924863
        ]
      }
    }
  ]
}