{
  "type": "FeatureCollection",
  "features": [
    {
      "type": "Feature",
      "properties": {
        "uuid": "a708e1bb-e959-4511-9eda-01d20867445b",
        "inat_id": 179049126,
        "timestamp": "2023-08-18T11:00:26-06:00",
        "date": "2023-08-18",
        "olc": "859JV3WV+",
        "elevation": 2570.0,
        "tavg": null,
        "tmin": 11.0,
        "tmax": 22.0,
        "precipitation": 3.3,
        "windspeed": 5.9,
        "winddirection": null,
        "presure": 1032.5,
        "species": "Trichaptum biforme",
        "location": "Grand Mesa Uncompahgre and Gunnison National Forests, Telluride, CO, US",
        "num_identification_agreements": 1
      },
      "geometry": {
        "type": "Point",
        "coordinates": [
          -107.9059916667,
          37.8962383333
        ]
      }
    }
  ]
}