{
  "type": "FeatureCollection",
  "features": [
    {
      "type": "Feature",
      "properties": {
        "uuid": "ee85ddb7-6329-4aeb-b0c8-3062de625775",
        "inat_id": 134243212,
        "timestamp": "2022-09-08T18:30:08-06:00",
        "date": "2022-09-08",
        "olc": "85FPXC32+",
        "elevation": 2747.0,
        "tavg": null,
        "tmin": 3.6,
        "tmax": 16.6,
        "precipitation": 2.9,
        "windspeed": 7.2,
        "winddirection": null,
        "presure": 1017.6,
        "species": "Trichaptum biforme",
        "location": "Hessie Rd, Nederland, CO, US",
        "num_identification_agreements": 2
      },
      "geometry": {
        "type": "Point",
        "coordinates": [
          -105.5980329832,
          39.953359153
        ]
      }
    }
  ]
}