{
  "type": "FeatureCollection",
  "features": [
    {
      "type": "Feature",
      "properties": {
        "uuid": "a80633c2-c537-4a7e-a897-bc491c347197",
        "inat_id": 58832638,
        "timestamp": "2020-08-06T14:39:05-06:00",
        "date": "2020-08-06",
        "olc": "85GP3F4H+",
        "elevation": 2760.0,
        "tavg": null,
        "tmin": 17.0,
        "tmax": 32.0,
        "precipitation": null,
        "windspeed": null,
        "winddirection": null,
        "presure": null,
        "species": "Trichaptum biforme",
        "location": "Arapaho & Roosevelt National Forests Pawnee National Grassland, Jamestown, CO, US",
        "num_identification_agreements": 2
      },
      "geometry": {
        "type": "Point",
        "coordinates": [
          -105.5215043303,
          40.0555174699
        ]
      }
    }
  ]
}