{
  "type": "FeatureCollection",
  "features": [
    {
      "type": "Feature",
      "properties": {
        "uuid": "39a7d610-a165-477e-a0ad-3096795b7460",
        "inat_id": 131033200,
        "timestamp": "2022-08-09T09:11:00-06:00",
        "date": "2022-08-09",
        "olc": "857PP4JM+",
        "elevation": 2406.0,
        "tavg": null,
        "tmin": 13.9,
        "tmax": 28.3,
        "precipitation": null,
        "windspeed": 9.8,
        "winddirection": null,
        "presure": 1017.1,
        "species": "Floccularia luteovirens",
        "location": "Santa Fe County, NM, USA",
        "num_identification_agreements": 1
      },
      "geometry": {
        "type": "Point",
        "coordinates": [
          -105.8654679406,
          35.730403215
        ]
      }
    }
  ]
}