{
  "type": "FeatureCollection",
  "features": [
    {
      "type": "Feature",
      "properties": {
        "uuid": "3a7faba7-e04a-490f-a5c8-6185bd08dd17",
        "inat_id": 235635654,
        "timestamp": "2024-08-13T12:42:31-06:00",
        "date": "2024-08-13",
        "olc": "85FJ4P54+",
        "elevation": 2885.0,
        "tavg": null,
        "tmin": 7.0,
        "tmax": 14.0,
        "precipitation": 9.4,
        "windspeed": 9.5,
        "winddirection": null,
        "presure": 1018.9,
        "species": "Floccularia luteovirens",
        "location": "Somerset, CO 81434, USA",
        "num_identification_agreements": 1
      },
      "geometry": {
        "type": "Point",
        "coordinates": [
          -107.2948361111,
          39.1094777778
        ]
      }
    }
  ]
}