{
  "type": "FeatureCollection",
  "features": [
    {
      "type": "Feature",
      "properties": {
        "uuid": "eb91faaf-8184-491f-9a62-5f9bb20bc16a",
        "inat_id": 238370014,
        "timestamp": "2024-08-27T14:45:00-06:00",
        "date": "2024-08-27",
        "olc": "85FPXCP6+",
        "elevation": 3082.0,
        "tavg": null,
        "tmin": null,
        "tmax": null,
        "precipitation": null,
        "windspeed": 7.7,
        "winddirection": null,
        "presure": null,
        "species": "Floccularia luteovirens",
        "location": "Boulder County, CO, USA",
        "num_identification_agreements": 1
      },
      "geometry": {
        "type": "Point",
        "coordinates": [
          -105.5895694444,
          39.9856111111
        ]
      }
    }
  ]
}