{
  "type": "FeatureCollection",
  "features": [
    {
      "type": "Feature",
      "properties": {
        "uuid": "071dddc2-173a-41bb-bf2a-71852b031684",
        "inat_id": 133299420,
        "timestamp": "2022-08-21T17:49:16-06:00",
        "date": "2022-08-21",
        "olc": "859JQ3X2+",
        "elevation": 3192.0,
        "tavg": null,
        "tmin": 9.0,
        "tmax": 17.0,
        "precipitation": 1.7,
        "windspeed": 4.5,
        "winddirection": null,
        "presure": 1031.4,
        "species": "Hygrophorus fragrans",
        "location": "San Juan National Forest - Headquarters, Dolores, CO, US",
        "num_identification_agreements": 2
      },
      "geometry": {
        "type": "Point",
        "coordinates": [
          -107.9475166667,
          37.7995916667
        ]
      }
    }
  ]
}