{
  "type": "FeatureCollection",
  "features": [
    {
      "type": "Feature",
      "properties": {
        "uuid": "01c94329-de40-4338-a79b-3f0734a0a948",
        "inat_id": 307374507,
        "timestamp": "2025-08-12T13:57:30-06:00",
        "date": "2025-08-12",
        "olc": "859JR45G+",
        "elevation": 3144.0,
        "tavg": null,
        "tmin": 10.0,
        "tmax": 24.0,
        "precipitation": 0.0,
        "windspeed": 6.7,
        "winddirection": null,
        "presure": 1031.4,
        "species": "Hygrophorus fragrans",
        "location": "Ophir, CO 81426, USA",
        "num_identification_agreements": 1
      },
      "geometry": {
        "type": "Point",
        "coordinates": [
          -107.8732972222,
          37.8076805556
        ]
      }
    }
  ]
}