{
  "type": "FeatureCollection",
  "features": [
    {
      "type": "Feature",
      "properties": {
        "uuid": "cc4725e3-ccdd-4cdc-b4fe-8669840dcac9",
        "inat_id": 135790173,
        "timestamp": "2022-09-17T13:38:45-06:00",
        "date": "2022-09-17",
        "olc": "85GP2CQR+",
        "elevation": 3168.0,
        "tavg": null,
        "tmin": 12.0,
        "tmax": 26.0,
        "precipitation": 1.7,
        "windspeed": 7.1,
        "winddirection": null,
        "presure": 1015.2,
        "species": "Hygrophorus fragrans",
        "location": "Boulder County, US-CO, US",
        "num_identification_agreements": 6
      },
      "geometry": {
        "type": "Point",
        "coordinates": [
          -105.559785,
          40.0386549722
        ]
      }
    }
  ]
}