{
  "type": "FeatureCollection",
  "features": [
    {
      "type": "Feature",
      "properties": {
        "uuid": "02197061-dcb4-45fc-82dd-e86896d7f181",
        "inat_id": 15294984,
        "timestamp": "2018-08-09T11:24:50-06:00",
        "date": "2018-08-09",
        "olc": "85FPMHF3+",
        "elevation": 2838.0,
        "tavg": null,
        "tmin": 14.0,
        "tmax": 31.0,
        "precipitation": null,
        "windspeed": 3.7,
        "winddirection": null,
        "presure": null,
        "species": "Hypomyces ochraceus",
        "location": "23539–24799 Squaw Pass Rd, Evergreen, CO, US",
        "num_identification_agreements": 1
      },
      "geometry": {
        "type": "Point",
        "coordinates": [
          -105.44638,
          39.6746466667
        ]
      }
    }
  ]
}