{
  "type": "FeatureCollection",
  "features": [
    {
      "type": "Feature",
      "properties": {
        "uuid": "39f23c79-e404-44c5-8482-77bcf59d16ec",
        "inat_id": 349114362,
        "timestamp": "2026-04-11T16:14:17-06:00",
        "date": "2026-04-11",
        "olc": "857MVF7H+",
        "elevation": 2675.0,
        "tavg": null,
        "tmin": 7.9,
        "tmax": 17.8,
        "precipitation": 2.4,
        "windspeed": 9.2,
        "winddirection": null,
        "presure": null,
        "species": "Fomitopsis schrenkii",
        "location": "Jemez Springs, NM 87025, USA",
        "num_identification_agreements": 1
      },
      "geometry": {
        "type": "Point",
        "coordinates": [
          -106.5201416667,
          35.8642138889
        ]
      }
    }
  ]
}