{
  "type": "FeatureCollection",
  "features": [
    {
      "type": "Feature",
      "properties": {
        "uuid": "da9a8a67-8736-4cd0-bcee-06af44e1beee",
        "inat_id": 277947534,
        "timestamp": "2025-04-27T13:26:23-06:00",
        "date": "2025-04-27",
        "olc": "857MVF6C+",
        "elevation": 2730.0,
        "tavg": null,
        "tmin": 10.0,
        "tmax": 20.5,
        "precipitation": 0.0,
        "windspeed": 25.1,
        "winddirection": null,
        "presure": 1014.7,
        "species": "Fomitopsis schrenkii",
        "location": "Valles Caldera National Preserve, Jemez Springs, NM, US",
        "num_identification_agreements": 1
      },
      "geometry": {
        "type": "Point",
        "coordinates": [
          -106.5275416667,
          35.862325
        ]
      }
    }
  ]
}