{
  "type": "FeatureCollection",
  "features": [
    {
      "type": "Feature",
      "properties": {
        "uuid": "3de46a6d-e0f7-4f00-a233-afc5026bad40",
        "inat_id": 320053772,
        "timestamp": "2025-10-10T13:11:46-06:00",
        "date": "2025-10-10",
        "olc": "857MRHX2+",
        "elevation": 2771.0,
        "tavg": null,
        "tmin": 12.3,
        "tmax": 21.0,
        "precipitation": 0.1,
        "windspeed": 5.6,
        "winddirection": null,
        "presure": null,
        "species": "Fomitopsis schrenkii",
        "location": "Valles Caldera National Preserve, Sandoval County, US-NM, US",
        "num_identification_agreements": 1
      },
      "geometry": {
        "type": "Point",
        "coordinates": [
          -106.4498099644,
          35.8495718791
        ]
      }
    }
  ]
}