{
  "type": "FeatureCollection",
  "features": [
    {
      "type": "Feature",
      "properties": {
        "uuid": "51a65ffd-cfec-4138-88e8-b94c041c1363",
        "inat_id": 97375666,
        "timestamp": "2017-08-16T12:46:44-04:00",
        "date": "2017-08-16",
        "olc": "857MRGVP+",
        "elevation": 2750.0,
        "tavg": null,
        "tmin": 15.3,
        "tmax": 26.0,
        "precipitation": null,
        "windspeed": 9.0,
        "winddirection": null,
        "presure": null,
        "species": "Fomitopsis schrenkii",
        "location": "Pines, New Mexico, United States",
        "num_identification_agreements": 1
      },
      "geometry": {
        "type": "Point",
        "coordinates": [
          -106.463441,
          35.843534
        ]
      }
    }
  ]
}