{
  "type": "FeatureCollection",
  "features": [
    {
      "type": "Feature",
      "properties": {
        "uuid": "320a3bf2-66a0-40f6-abe7-2eefaf684ee1",
        "inat_id": 389713130,
        "timestamp": "2026-08-09T11:00:02-06:00",
        "date": "2026-08-09",
        "olc": "857MVJW2+",
        "elevation": 2887.0,
        "tavg": null,
        "tmin": 20.2,
        "tmax": 32.3,
        "precipitation": 8.8,
        "windspeed": 8.3,
        "winddirection": null,
        "presure": null,
        "species": "Fomitopsis schrenkii",
        "location": "Los Alamos County, NM, USA",
        "num_identification_agreements": 2
      },
      "geometry": {
        "type": "Point",
        "coordinates": [
          -106.3987309579,
          35.8968535066
        ]
      }
    }
  ]
}