{
  "type": "FeatureCollection",
  "features": [
    {
      "type": "Feature",
      "properties": {
        "uuid": "3d2f29a3-4a33-41b2-8dc6-cecfb6c45b08",
        "inat_id": 236315980,
        "timestamp": "2024-08-16T13:21:38-06:00",
        "date": "2024-08-16",
        "olc": "857PM8X2+",
        "elevation": 2518.0,
        "tavg": null,
        "tmin": 16.7,
        "tmax": 34.4,
        "precipitation": null,
        "windspeed": 11.2,
        "winddirection": null,
        "presure": 1012.5,
        "species": "Fomitopsis schrenkii",
        "location": "New Mexico, US",
        "num_identification_agreements": 1
      },
      "geometry": {
        "type": "Point",
        "coordinates": [
          -105.699354017,
          35.6977083472
        ]
      }
    }
  ]
}