{
  "type": "FeatureCollection",
  "features": [
    {
      "type": "Feature",
      "properties": {
        "uuid": "427e53b5-8f59-4415-a5ec-09cd3e3fe68e",
        "inat_id": 305581500,
        "timestamp": "2025-08-04T16:04:17-06:00",
        "date": "2025-08-04",
        "olc": "857PR97P+",
        "elevation": 2878.0,
        "tavg": null,
        "tmin": 14.4,
        "tmax": 28.9,
        "precipitation": 0.0,
        "windspeed": 15.1,
        "winddirection": null,
        "presure": 1014.8,
        "species": "Fomitopsis schrenkii",
        "location": "New Mexico, US",
        "num_identification_agreements": 1
      },
      "geometry": {
        "type": "Point",
        "coordinates": [
          -105.6131430484,
          35.8145860281
        ]
      }
    }
  ]
}