{
  "type": "FeatureCollection",
  "features": [
    {
      "type": "Feature",
      "properties": {
        "uuid": "28ee624c-fd50-4205-902e-2201c8679371",
        "inat_id": 268619352,
        "timestamp": "2025-03-28T10:58:00-06:00",
        "date": "2025-03-28",
        "olc": "857PP5H5+",
        "elevation": 2538.0,
        "tavg": null,
        "tmin": 5.0,
        "tmax": 23.3,
        "precipitation": null,
        "windspeed": 14.3,
        "winddirection": null,
        "presure": 1006.3,
        "species": "Fomitopsis schrenkii",
        "location": "Santa Fe County, NM, USA",
        "num_identification_agreements": 1
      },
      "geometry": {
        "type": "Point",
        "coordinates": [
          -105.8406611111,
          35.7277444444
        ]
      }
    }
  ]
}