{
  "type": "FeatureCollection",
  "features": [
    {
      "type": "Feature",
      "properties": {
        "uuid": "b66cd1e3-2b4e-4608-ad4c-b1b90e7eb8f1",
        "inat_id": 284468323,
        "timestamp": "2025-05-25T17:15:23-06:00",
        "date": "2025-05-25",
        "olc": "857PR9VM+",
        "elevation": 2896.0,
        "tavg": null,
        "tmin": 7.2,
        "tmax": 20.6,
        "precipitation": 2.8,
        "windspeed": 19.9,
        "winddirection": null,
        "presure": 1011.8,
        "species": "Fomitopsis schrenkii",
        "location": "Santa Fe National Forest, Tererro, NM, US",
        "num_identification_agreements": 1
      },
      "geometry": {
        "type": "Point",
        "coordinates": [
          -105.6162033333,
          35.8437633333
        ]
      }
    }
  ]
}