{
  "type": "FeatureCollection",
  "features": [
    {
      "type": "Feature",
      "properties": {
        "uuid": "72625ad6-7f74-456b-8f34-b7d1c2179ccf",
        "inat_id": 346503859,
        "timestamp": "2026-03-30T18:03:18-06:00",
        "date": "2026-03-30",
        "olc": "857PM7CF+",
        "elevation": 2340.0,
        "tavg": null,
        "tmin": 3.3,
        "tmax": 23.9,
        "precipitation": 0.0,
        "windspeed": 8.0,
        "winddirection": null,
        "presure": null,
        "species": "Fomitopsis schrenkii",
        "location": "Glorieta, NM 87535, USA",
        "num_identification_agreements": 1
      },
      "geometry": {
        "type": "Point",
        "coordinates": [
          -105.7260298356,
          35.6716500225
        ]
      }
    }
  ]
}