{
  "type": "FeatureCollection",
  "features": [
    {
      "type": "Feature",
      "properties": {
        "uuid": "73f939de-04f7-42d1-b78e-5bd9b12e8dd7",
        "inat_id": 27132951,
        "timestamp": "2019-06-15T17:39:01-06:00",
        "date": "2019-06-15",
        "olc": "857PR9F4+",
        "elevation": 2679.0,
        "tavg": null,
        "tmin": 14.4,
        "tmax": 29.4,
        "precipitation": null,
        "windspeed": 16.3,
        "winddirection": null,
        "presure": 1007.4,
        "species": "Fomitopsis schrenkii",
        "location": "Tererro, NM 87573, USA",
        "num_identification_agreements": 2
      },
      "geometry": {
        "type": "Point",
        "coordinates": [
          -105.6434074044,
          35.8230130334
        ]
      }
    }
  ]
}