{
  "type": "FeatureCollection",
  "features": [
    {
      "type": "Feature",
      "properties": {
        "uuid": "505acd06-86e3-4542-bf2b-dcff3a5f6712",
        "inat_id": 229971529,
        "timestamp": "2024-07-14T11:05:38-06:00",
        "date": "2024-07-14",
        "olc": "857PVCW2+",
        "elevation": 2961.0,
        "tavg": null,
        "tmin": 14.4,
        "tmax": 31.7,
        "precipitation": 0.0,
        "windspeed": 11.8,
        "winddirection": null,
        "presure": 1016.3,
        "species": "Fomitopsis schrenkii",
        "location": "Rociada, NM 87742, USA",
        "num_identification_agreements": 1
      },
      "geometry": {
        "type": "Point",
        "coordinates": [
          -105.5996222222,
          35.8972805556
        ]
      }
    }
  ]
}