{
  "type": "FeatureCollection",
  "features": [
    {
      "type": "Feature",
      "properties": {
        "uuid": "e8b1ee36-50ef-4943-a2a6-498e21edcb7e",
        "inat_id": 317396143,
        "timestamp": "2025-09-24T14:01:00-06:00",
        "date": "2025-09-24",
        "olc": "857PP5G5+",
        "elevation": 2538.0,
        "tavg": null,
        "tmin": 6.0,
        "tmax": 22.0,
        "precipitation": 0.0,
        "windspeed": 11.8,
        "winddirection": null,
        "presure": 1029.1,
        "species": "Fomitopsis schrenkii",
        "location": "Santa Fe, New Mexico, United States",
        "num_identification_agreements": 1
      },
      "geometry": {
        "type": "Point",
        "coordinates": [
          -105.84041667,
          35.72738333
        ]
      }
    }
  ]
}