{
  "type": "FeatureCollection",
  "features": [
    {
      "type": "Feature",
      "properties": {
        "uuid": "92b3393c-0151-4d38-9463-29b459e1fac8",
        "inat_id": 171827812,
        "timestamp": "2023-06-17T18:25:00-06:00",
        "date": "2023-06-17",
        "olc": "858M37XJ+",
        "elevation": 2511.0,
        "tavg": null,
        "tmin": 13.2,
        "tmax": 23.2,
        "precipitation": 0.2,
        "windspeed": 14.8,
        "winddirection": null,
        "presure": 1022.1,
        "species": "Fomitopsis schrenkii",
        "location": "Rio Arriba County, NM, USA",
        "num_identification_agreements": 1
      },
      "geometry": {
        "type": "Point",
        "coordinates": [
          -106.7188724341,
          36.0996377076
        ]
      }
    }
  ]
}