{
  "type": "FeatureCollection",
  "features": [
    {
      "type": "Feature",
      "properties": {
        "uuid": "fd273a41-73b1-418b-9460-6ca653e9dfa4",
        "inat_id": 197960518,
        "timestamp": "2023-09-02T16:45:00-06:00",
        "date": "2023-09-02",
        "olc": "858P9WP2+",
        "elevation": 2620.0,
        "tavg": null,
        "tmin": 1.0,
        "tmax": 25.1,
        "precipitation": 0.0,
        "windspeed": 5.7,
        "winddirection": null,
        "presure": 1032.1,
        "species": "Fomitopsis schrenkii",
        "location": "Colfax County, NM, USA",
        "num_identification_agreements": 2
      },
      "geometry": {
        "type": "Point",
        "coordinates": [
          -105.0997805556,
          36.3865388889
        ]
      }
    },
    {
      "type": "Feature",
      "properties": {
        "uuid": "de0bd99a-e3d2-43ae-a4b1-6f9f16b458c0",
        "inat_id": 197960516,
        "timestamp": "2023-09-02T16:42:00-06:00",
        "date": "2023-09-02",
        "olc": "858P9WP2+",
        "elevation": 2620.0,
        "tavg": null,
        "tmin": 1.0,
        "tmax": 25.1,
        "precipitation": 0.0,
        "windspeed": 5.7,
        "winddirection": null,
        "presure": 1032.1,
        "species": "Fomitopsis schrenkii",
        "location": "Colfax County, NM, USA",
        "num_identification_agreements": 2
      },
      "geometry": {
        "type": "Point",
        "coordinates": [
          -105.0999333333,
          36.3865611111
        ]
      }
    }
  ]
}