{
  "type": "FeatureCollection",
  "features": [
    {
      "type": "Feature",
      "properties": {
        "uuid": "913eadca-cceb-4d3a-a4a2-997154e49967",
        "inat_id": 350625439,
        "timestamp": "2024-09-28T10:21:00-06:00",
        "date": "2024-09-28",
        "olc": "858P59QQ+",
        "elevation": 2566.0,
        "tavg": null,
        "tmin": 12.8,
        "tmax": 24.0,
        "precipitation": 0.0,
        "windspeed": 14.5,
        "winddirection": null,
        "presure": 1024.0,
        "species": "Fomitopsis schrenkii",
        "location": "Taos, New Mexico, United States",
        "num_identification_agreements": 1
      },
      "geometry": {
        "type": "Point",
        "coordinates": [
          -105.6111696901,
          36.18948194
        ]
      }
    }
  ]
}