{
  "type": "FeatureCollection",
  "features": [
    {
      "type": "Feature",
      "properties": {
        "uuid": "178760ab-2082-44f8-b7ec-02fa2e7b5ed7",
        "inat_id": 31780307,
        "timestamp": "2019-08-20T14:02:47-06:00",
        "date": "2019-08-20",
        "olc": "858QC2M6+",
        "elevation": 2148.0,
        "tavg": null,
        "tmin": 2.1,
        "tmax": 25.1,
        "precipitation": null,
        "windspeed": 5.9,
        "winddirection": null,
        "presure": null,
        "species": "Fomitopsis schrenkii",
        "location": "Colfax County, US-NM, US",
        "num_identification_agreements": 2
      },
      "geometry": {
        "type": "Point",
        "coordinates": [
          -104.9892740418,
          36.43366382
        ]
      }
    }
  ]
}