{
  "type": "FeatureCollection",
  "features": [
    {
      "type": "Feature",
      "properties": {
        "uuid": "b7bb754a-9fbf-49a8-95de-b72da285753b",
        "inat_id": 307203505,
        "timestamp": "2025-08-17T15:53:35-06:00",
        "date": "2025-08-17",
        "olc": "859JR37Q+",
        "elevation": 3206.0,
        "tavg": null,
        "tmin": 8.0,
        "tmax": 23.0,
        "precipitation": 0.1,
        "windspeed": 9.2,
        "winddirection": null,
        "presure": 1031.8,
        "species": "Fomitopsis schrenkii",
        "location": "Telluride, CO, US",
        "num_identification_agreements": 2
      },
      "geometry": {
        "type": "Point",
        "coordinates": [
          -107.9112383333,
          37.81357
        ]
      }
    }
  ]
}