{
  "type": "FeatureCollection",
  "features": [
    {
      "type": "Feature",
      "properties": {
        "uuid": "aa109b61-b786-470a-98b3-a9a8b3611e0d",
        "inat_id": 308864267,
        "timestamp": "2025-08-24T13:32:58-06:00",
        "date": "2025-08-24",
        "olc": "859JFF82+",
        "elevation": 2409.0,
        "tavg": null,
        "tmin": 13.9,
        "tmax": 27.2,
        "precipitation": 2.3,
        "windspeed": 9.7,
        "winddirection": null,
        "presure": 1019.5,
        "species": "Fomitopsis schrenkii",
        "location": "La Plata County, US-CO, US",
        "num_identification_agreements": 1
      },
      "geometry": {
        "type": "Point",
        "coordinates": [
          -107.5477415,
          37.4673284
        ]
      }
    }
  ]
}