{
  "type": "FeatureCollection",
  "features": [
    {
      "type": "Feature",
      "properties": {
        "uuid": "ff3f2d66-ea09-433a-a550-5d5576d71d8e",
        "inat_id": 306771364,
        "timestamp": "2025-08-12T13:07:06-06:00",
        "date": "2025-08-12",
        "olc": "859JR46G+",
        "elevation": 3121.0,
        "tavg": null,
        "tmin": 10.0,
        "tmax": 24.0,
        "precipitation": 0.0,
        "windspeed": 6.7,
        "winddirection": null,
        "presure": 1031.4,
        "species": "Fomitopsis schrenkii",
        "location": "Ophir, CO 81426, USA",
        "num_identification_agreements": 1
      },
      "geometry": {
        "type": "Point",
        "coordinates": [
          -107.8735231997,
          37.8103551
        ]
      }
    },
    {
      "type": "Feature",
      "properties": {
        "uuid": "65fe1fb9-8834-43c7-a808-792883a88137",
        "inat_id": 306118787,
        "timestamp": "2025-08-13T09:49:00-06:00",
        "date": "2025-08-13",
        "olc": "859JR46G+",
        "elevation": 3040.0,
        "tavg": null,
        "tmin": 13.0,
        "tmax": 26.0,
        "precipitation": 0.0,
        "windspeed": 8.0,
        "winddirection": null,
        "presure": 1031.2,
        "species": "Fomitopsis schrenkii",
        "location": "San Miguel County, CO, USA",
        "num_identification_agreements": 2
      },
      "geometry": {
        "type": "Point",
        "coordinates": [
          -107.8727861111,
          37.8111611111
        ]
      }
    }
  ]
}