{
  "type": "FeatureCollection",
  "features": [
    {
      "type": "Feature",
      "properties": {
        "uuid": "0497ab4a-b741-4817-ab33-511950bda40c",
        "inat_id": 326418545,
        "timestamp": "2025-11-13T15:27:33-07:00",
        "date": "2025-11-13",
        "olc": "859JCVV5+",
        "elevation": 2524.0,
        "tavg": null,
        "tmin": -3.0,
        "tmax": 16.0,
        "precipitation": 0.0,
        "windspeed": 4.8,
        "winddirection": null,
        "presure": 1027.7,
        "species": "Fomitopsis schrenkii",
        "location": "Pagosa Springs, CO, US",
        "num_identification_agreements": 1
      },
      "geometry": {
        "type": "Point",
        "coordinates": [
          -107.1414721667,
          37.443825
        ]
      }
    }
  ]
}