{
  "type": "FeatureCollection",
  "features": [
    {
      "type": "Feature",
      "properties": {
        "uuid": "98211657-018f-4c33-831e-c606fff9415f",
        "inat_id": 131737204,
        "timestamp": "2022-08-21T08:41:40-06:00",
        "date": "2022-08-21",
        "olc": "859JW5PM+",
        "elevation": 2675.0,
        "tavg": null,
        "tmin": 9.0,
        "tmax": 17.0,
        "precipitation": 1.7,
        "windspeed": 4.5,
        "winddirection": null,
        "presure": 1031.4,
        "species": "Fomitopsis schrenkii",
        "location": "Grand Mesa Uncompahgre and Gunnison National Forests, Telluride, CO, US",
        "num_identification_agreements": 1
      },
      "geometry": {
        "type": "Point",
        "coordinates": [
          -107.815925,
          37.9371383333
        ]
      }
    }
  ]
}