{
  "type": "FeatureCollection",
  "features": [
    {
      "type": "Feature",
      "properties": {
        "uuid": "847d4f22-ff41-44ee-acf1-90ffd931e6cf",
        "inat_id": 108056465,
        "timestamp": "2021-06-25T07:07:33-06:00",
        "date": "2021-06-25",
        "olc": "859JJ93G+",
        "elevation": 3330.0,
        "tavg": null,
        "tmin": 7.0,
        "tmax": 16.0,
        "precipitation": 6.3,
        "windspeed": 6.3,
        "winddirection": null,
        "presure": 1027.1,
        "species": "Fomitopsis schrenkii",
        "location": "San Juan National Forest, Durango, CO, US",
        "num_identification_agreements": 1
      },
      "geometry": {
        "type": "Point",
        "coordinates": [
          -107.62348,
          37.6037366667
        ]
      }
    }
  ]
}