{
  "type": "FeatureCollection",
  "features": [
    {
      "type": "Feature",
      "properties": {
        "uuid": "6054322b-d6d4-4253-bd4b-3c2fcb628be5",
        "inat_id": 328847739,
        "timestamp": "2025-11-29T12:15:05-07:00",
        "date": "2025-11-29",
        "olc": "859JFWM3+",
        "elevation": 2617.0,
        "tavg": null,
        "tmin": -6.0,
        "tmax": 8.0,
        "precipitation": 0.0,
        "windspeed": 5.8,
        "winddirection": null,
        "presure": 1019.8,
        "species": "Fomitopsis schrenkii",
        "location": "Piedra Falls Trail, Creede, CO, US",
        "num_identification_agreements": 1
      },
      "geometry": {
        "type": "Point",
        "coordinates": [
          -107.09555,
          37.4833966667
        ]
      }
    },
    {
      "type": "Feature",
      "properties": {
        "uuid": "b67c7154-b32b-49b3-8f30-a7b8ec5f06a7",
        "inat_id": 263023433,
        "timestamp": "2024-09-03T18:35:35-06:00",
        "date": "2024-09-03",
        "olc": "859JFWM3+",
        "elevation": 2661.0,
        "tavg": null,
        "tmin": 5.0,
        "tmax": 15.0,
        "precipitation": null,
        "windspeed": 10.5,
        "winddirection": null,
        "presure": null,
        "species": "Fomitopsis schrenkii",
        "location": "San Juan National Forest - Headquarters, Creede, CO, US",
        "num_identification_agreements": 1
      },
      "geometry": {
        "type": "Point",
        "coordinates": [
          -107.0955805,
          37.4831866667
        ]
      }
    }
  ]
}