{
  "type": "FeatureCollection",
  "features": [
    {
      "type": "Feature",
      "properties": {
        "uuid": "469b28bb-e9bf-46d0-89a3-6c9608258529",
        "inat_id": 331491769,
        "timestamp": "2025-12-20T14:40:20-07:00",
        "date": "2025-12-20",
        "olc": "859JGQ4F+",
        "elevation": 2521.0,
        "tavg": null,
        "tmin": -5.0,
        "tmax": 11.0,
        "precipitation": 0.0,
        "windspeed": 4.0,
        "winddirection": null,
        "presure": 1019.4,
        "species": "Fomitopsis schrenkii",
        "location": "Williams Creek Reservoir Swa Trail, Pagosa Springs, CO, US",
        "num_identification_agreements": 1
      },
      "geometry": {
        "type": "Point",
        "coordinates": [
          -107.225905,
          37.5068716667
        ]
      }
    }
  ]
}