{
  "type": "FeatureCollection",
  "features": [
    {
      "type": "Feature",
      "properties": {
        "uuid": "6f0f5701-99da-4086-af2e-25b93b83ffb9",
        "inat_id": 306573890,
        "timestamp": "2025-08-15T10:39:14-06:00",
        "date": "2025-08-15",
        "olc": "859JV54F+",
        "elevation": 2981.0,
        "tavg": null,
        "tmin": 11.0,
        "tmax": 21.0,
        "precipitation": 6.4,
        "windspeed": 5.8,
        "winddirection": null,
        "presure": 1031.4,
        "species": "Fomitopsis schrenkii",
        "location": "Grand Mesa Uncompahgre and Gunnison National Forests, Ophir, CO, US",
        "num_identification_agreements": 2
      },
      "geometry": {
        "type": "Point",
        "coordinates": [
          -107.8253383333,
          37.85538
        ]
      }
    }
  ]
}