{
  "type": "FeatureCollection",
  "features": [
    {
      "type": "Feature",
      "properties": {
        "uuid": "e672d9e0-bc1c-4e03-9516-0aa9c9413169",
        "inat_id": 306556316,
        "timestamp": "2025-08-15T11:21:04-06:00",
        "date": "2025-08-15",
        "olc": "859JV54G+",
        "elevation": 2983.0,
        "tavg": null,
        "tmin": 11.0,
        "tmax": 21.0,
        "precipitation": 6.4,
        "windspeed": 5.8,
        "winddirection": null,
        "presure": 1031.4,
        "species": "Fomitopsis schrenkii",
        "location": "Ophir, CO 81426, USA",
        "num_identification_agreements": 2
      },
      "geometry": {
        "type": "Point",
        "coordinates": [
          -107.8239863,
          37.8550492
        ]
      }
    }
  ]
}