{
  "type": "FeatureCollection",
  "features": [
    {
      "type": "Feature",
      "properties": {
        "uuid": "b1971951-10c2-400c-b9bb-728b78e78441",
        "inat_id": 236400433,
        "timestamp": "2024-08-17T13:12:20-06:00",
        "date": "2024-08-17",
        "olc": "859JV4JR+",
        "elevation": 3275.0,
        "tavg": null,
        "tmin": 12.0,
        "tmax": 23.0,
        "precipitation": 4.9,
        "windspeed": 9.4,
        "winddirection": null,
        "presure": 1034.5,
        "species": "Fomitopsis schrenkii",
        "location": "Grand Mesa Uncompahgre and Gunnison National Forests, Telluride, CO, US",
        "num_identification_agreements": 1
      },
      "geometry": {
        "type": "Point",
        "coordinates": [
          -107.8586416667,
          37.880025
        ]
      }
    }
  ]
}