{
  "type": "FeatureCollection",
  "features": [
    {
      "type": "Feature",
      "properties": {
        "uuid": "2f074859-0e10-4f9c-b793-ed2f80e2d365",
        "inat_id": 310837092,
        "timestamp": "2025-09-01T12:21:49-06:00",
        "date": "2025-09-01",
        "olc": "859JW47F+",
        "elevation": 2971.0,
        "tavg": null,
        "tmin": 9.0,
        "tmax": 22.0,
        "precipitation": 0.0,
        "windspeed": 8.8,
        "winddirection": null,
        "presure": 1034.9,
        "species": "Fomitopsis schrenkii",
        "location": "Grand Mesa Uncompahgre and Gunnison National Forests, Telluride, CO, US",
        "num_identification_agreements": 1
      },
      "geometry": {
        "type": "Point",
        "coordinates": [
          -107.8751088324,
          37.9130148182
        ]
      }
    },
    {
      "type": "Feature",
      "properties": {
        "uuid": "91582294-f1e1-4719-befd-3247dce439b8",
        "inat_id": 307159889,
        "timestamp": "2025-08-17T17:14:01-06:00",
        "date": "2025-08-17",
        "olc": "859JW47F+",
        "elevation": 2949.0,
        "tavg": null,
        "tmin": 8.0,
        "tmax": 23.0,
        "precipitation": 0.1,
        "windspeed": 9.2,
        "winddirection": null,
        "presure": 1031.8,
        "species": "Fomitopsis schrenkii",
        "location": "Grand Mesa Uncompahgre and Gunnison National Forests, Telluride, CO, US",
        "num_identification_agreements": 1
      },
      "geometry": {
        "type": "Point",
        "coordinates": [
          -107.8756481327,
          37.9146593204
        ]
      }
    }
  ]
}