{
  "type": "FeatureCollection",
  "features": [
    {
      "type": "Feature",
      "properties": {
        "uuid": "aabfd173-1cef-4811-b1e4-37e229109830",
        "inat_id": 386411685,
        "timestamp": "2026-07-29T16:21:20-06:00",
        "date": "2026-07-29",
        "olc": "859JW46G+",
        "elevation": 3027.0,
        "tavg": null,
        "tmin": 12.0,
        "tmax": 25.0,
        "precipitation": 10.3,
        "windspeed": 4.2,
        "winddirection": null,
        "presure": null,
        "species": "Fomitopsis schrenkii",
        "location": "Grand Mesa Uncompahgre and Gunnison National Forests, Telluride, CO, US",
        "num_identification_agreements": 1
      },
      "geometry": {
        "type": "Point",
        "coordinates": [
          -107.8744386212,
          37.9121710243
        ]
      }
    }
  ]
}