{
  "type": "FeatureCollection",
  "features": [
    {
      "type": "Feature",
      "properties": {
        "uuid": "e177761c-2174-4cc6-b60c-e18d928db144",
        "inat_id": 55336648,
        "timestamp": "2020-08-03T10:48:39-06:00",
        "date": "2020-08-03",
        "olc": "859JR65F+",
        "elevation": 3025.0,
        "tavg": null,
        "tmin": 15.0,
        "tmax": 25.0,
        "precipitation": null,
        "windspeed": 9.7,
        "winddirection": null,
        "presure": null,
        "species": "Fomitopsis schrenkii",
        "location": "San Juan National Forest, CO, US",
        "num_identification_agreements": 2
      },
      "geometry": {
        "type": "Point",
        "coordinates": [
          -107.77703,
          37.80815833
        ]
      }
    }
  ]
}