{
  "type": "FeatureCollection",
  "features": [
    {
      "type": "Feature",
      "properties": {
        "uuid": "0bb6c36c-6592-4f76-a41f-071f7ee9ade0",
        "inat_id": 54744737,
        "timestamp": "2020-07-28T08:52:23-06:00",
        "date": "2020-07-28",
        "olc": "859JQCHC+",
        "elevation": 3353.0,
        "tavg": null,
        "tmin": 10.0,
        "tmax": 22.0,
        "precipitation": null,
        "windspeed": 8.5,
        "winddirection": null,
        "presure": null,
        "species": "Fomitopsis schrenkii",
        "location": "Silverton, CO 81433, USA",
        "num_identification_agreements": 2
      },
      "geometry": {
        "type": "Point",
        "coordinates": [
          -107.5783666667,
          37.7794944444
        ]
      }
    }
  ]
}