{
  "type": "FeatureCollection",
  "features": [
    {
      "type": "Feature",
      "properties": {
        "uuid": "89eac9d4-be1b-4ba8-bbf4-f0cbf4352113",
        "inat_id": 135865607,
        "timestamp": "2022-09-20T12:40:02-06:00",
        "date": "2022-09-20",
        "olc": "859M662R+",
        "elevation": 2778.0,
        "tavg": null,
        "tmin": 6.0,
        "tmax": 14.0,
        "precipitation": 1.8,
        "windspeed": 18.5,
        "winddirection": null,
        "presure": 1038.8,
        "species": "Fomitopsis schrenkii",
        "location": "San Juan National Forest - Headquarters, Pagosa Springs, CO, US",
        "num_identification_agreements": 1
      },
      "geometry": {
        "type": "Point",
        "coordinates": [
          -106.758055,
          37.20227
        ]
      }
    }
  ]
}