{
  "type": "FeatureCollection",
  "features": [
    {
      "type": "Feature",
      "properties": {
        "uuid": "036a4ba0-7f76-413a-a33c-09316daa209f",
        "inat_id": 310947615,
        "timestamp": "2025-09-01T14:07:48-06:00",
        "date": "2025-09-01",
        "olc": "859MF4FV+",
        "elevation": 3012.0,
        "tavg": null,
        "tmin": 4.0,
        "tmax": 17.0,
        "precipitation": 0.8,
        "windspeed": 13.3,
        "winddirection": null,
        "presure": 1042.6,
        "species": "Fomitopsis schrenkii",
        "location": "Fall Creek Rd, Creede, CO, US",
        "num_identification_agreements": 1
      },
      "geometry": {
        "type": "Point",
        "coordinates": [
          -106.855995,
          37.4726633333
        ]
      }
    }
  ]
}