{
  "type": "FeatureCollection",
  "features": [
    {
      "type": "Feature",
      "properties": {
        "uuid": "234c8ca2-a145-4475-aee9-250d50a450da",
        "inat_id": 365912147,
        "timestamp": "2026-04-07T11:27:35-06:00",
        "date": "2026-04-07",
        "olc": "85CJG7MJ+",
        "elevation": 2409.0,
        "tavg": null,
        "tmin": 6.7,
        "tmax": 21.7,
        "precipitation": 0.0,
        "windspeed": 6.1,
        "winddirection": null,
        "presure": null,
        "species": "Fomitopsis schrenkii",
        "location": "SH-347, Montrose, CO, US",
        "num_identification_agreements": 1
      },
      "geometry": {
        "type": "Point",
        "coordinates": [
          -107.7175938952,
          38.5329378584
        ]
      }
    }
  ]
}