{
  "type": "FeatureCollection",
  "features": [
    {
      "type": "Feature",
      "properties": {
        "uuid": "ed871ffb-d1f4-4ca0-98c5-57d69d03dbdc",
        "inat_id": 220875608,
        "timestamp": "2022-07-30T08:29:07-06:00",
        "date": "2022-07-30",
        "olc": "85CJ5CFV+",
        "elevation": 2978.0,
        "tavg": null,
        "tmin": 10.0,
        "tmax": 17.0,
        "precipitation": 8.9,
        "windspeed": 4.2,
        "winddirection": null,
        "presure": 1033.4,
        "species": "Fomitopsis schrenkii",
        "location": "Grand Mesa Uncompahgre and Gunnison National Forests, Cimarron, CO, US",
        "num_identification_agreements": 1
      },
      "geometry": {
        "type": "Point",
        "coordinates": [
          -107.5567866667,
          38.1727666667
        ]
      }
    }
  ]
}