{
  "type": "FeatureCollection",
  "features": [
    {
      "type": "Feature",
      "properties": {
        "uuid": "05b49798-ebe3-4865-89e7-00de89702cb5",
        "inat_id": 372797390,
        "timestamp": "2026-06-01T14:43:24-06:00",
        "date": "2026-06-01",
        "olc": "85CPPCVP+",
        "elevation": 2796.0,
        "tavg": null,
        "tmin": 6.0,
        "tmax": 16.0,
        "precipitation": 0.5,
        "windspeed": 5.4,
        "winddirection": null,
        "presure": 1017.2,
        "species": "Fomitopsis schrenkii",
        "location": "Guffey, CO, US",
        "num_identification_agreements": 1
      },
      "geometry": {
        "type": "Point",
        "coordinates": [
          -105.563805,
          38.7429366667
        ]
      }
    }
  ]
}