{
  "type": "FeatureCollection",
  "features": [
    {
      "type": "Feature",
      "properties": {
        "uuid": "7704afcf-f755-4747-89d6-9eca2cd14e57",
        "inat_id": 162760902,
        "timestamp": "2023-05-20T12:16:31-06:00",
        "date": "2023-05-20",
        "olc": "85CP3W25+",
        "elevation": 2728.0,
        "tavg": null,
        "tmin": 9.0,
        "tmax": 19.2,
        "precipitation": 6.4,
        "windspeed": 9.2,
        "winddirection": null,
        "presure": 1022.2,
        "species": "Fomitopsis schrenkii",
        "location": "Colorado, US",
        "num_identification_agreements": 1
      },
      "geometry": {
        "type": "Point",
        "coordinates": [
          -105.0912205275,
          38.0502330141
        ]
      }
    }
  ]
}