{
  "type": "FeatureCollection",
  "features": [
    {
      "type": "Feature",
      "properties": {
        "uuid": "4b9f770a-4274-491c-86e7-bb4980c7c314",
        "inat_id": 139330636,
        "timestamp": "2020-07-07T18:14:38-06:00",
        "date": "2020-07-07",
        "olc": "85CP5RF5+",
        "elevation": 2736.0,
        "tavg": null,
        "tmin": null,
        "tmax": null,
        "precipitation": null,
        "windspeed": null,
        "winddirection": null,
        "presure": null,
        "species": "Fomitopsis schrenkii",
        "location": "Custer County, CO, USA",
        "num_identification_agreements": 1
      },
      "geometry": {
        "type": "Point",
        "coordinates": [
          -105.1913512498,
          38.1742961462
        ]
      }
    }
  ]
}