{
  "type": "FeatureCollection",
  "features": [
    {
      "type": "Feature",
      "properties": {
        "uuid": "d2f413ed-2aaf-407e-a79a-62aaab0cdb82",
        "inat_id": 301703167,
        "timestamp": "2025-07-27T11:33:15-06:00",
        "date": "2025-07-27",
        "olc": "85CP2897+",
        "elevation": 2614.0,
        "tavg": null,
        "tmin": 10.0,
        "tmax": 29.0,
        "precipitation": 0.0,
        "windspeed": 7.3,
        "winddirection": null,
        "presure": 1018.2,
        "species": "Fomitopsis schrenkii",
        "location": "Silver Cliff, CO 81252, USA",
        "num_identification_agreements": 1
      },
      "geometry": {
        "type": "Point",
        "coordinates": [
          -105.6860277778,
          38.0180166667
        ]
      }
    }
  ]
}