{
  "type": "FeatureCollection",
  "features": [
    {
      "type": "Feature",
      "properties": {
        "uuid": "8089fb5d-32f5-46a1-ad06-fcbfd11cfdff",
        "inat_id": 236645647,
        "timestamp": "2024-08-18T18:15:55-06:00",
        "date": "2024-08-18",
        "olc": "85CQQ498+",
        "elevation": 2181.0,
        "tavg": null,
        "tmin": 20.0,
        "tmax": 29.0,
        "precipitation": 0.3,
        "windspeed": 14.3,
        "winddirection": null,
        "presure": 1024.8,
        "species": "Fomitopsis schrenkii",
        "location": "Pike and San Isabel National Forests, Colorado Springs, CO, US",
        "num_identification_agreements": 1
      },
      "geometry": {
        "type": "Point",
        "coordinates": [
          -104.8826883333,
          38.7688666667
        ]
      }
    }
  ]
}