{
  "type": "FeatureCollection",
  "features": [
    {
      "type": "Feature",
      "properties": {
        "uuid": "bb8d5def-fafa-4ef8-85d5-d878f588359b",
        "inat_id": 83880993,
        "timestamp": "2021-06-20T12:20:42-06:00",
        "date": "2021-06-20",
        "olc": "85CQQ5W7+",
        "elevation": 1873.0,
        "tavg": null,
        "tmin": 11.7,
        "tmax": 32.2,
        "precipitation": 5.1,
        "windspeed": 13.7,
        "winddirection": null,
        "presure": 1007.2,
        "species": "Fomitopsis schrenkii",
        "location": "Reno Scotty Terr, Colorado Springs, CO, US",
        "num_identification_agreements": 2
      },
      "geometry": {
        "type": "Point",
        "coordinates": [
          -104.83705145,
          38.7967296
        ]
      }
    }
  ]
}