{
  "type": "FeatureCollection",
  "features": [
    {
      "type": "Feature",
      "properties": {
        "uuid": "fb17bc71-2015-4b10-85d2-d72a7842d75d",
        "inat_id": 247691348,
        "timestamp": "2024-10-16T10:40:29-06:00",
        "date": "2024-10-16",
        "olc": "85CQX22V+",
        "elevation": 2868.0,
        "tavg": null,
        "tmin": -2.0,
        "tmax": 21.6,
        "precipitation": 0.0,
        "windspeed": 12.2,
        "winddirection": null,
        "presure": 1022.8,
        "species": "Fomitopsis schrenkii",
        "location": "Pike and San Isabel National Forests, Colorado Springs, CO, US",
        "num_identification_agreements": 1
      },
      "geometry": {
        "type": "Point",
        "coordinates": [
          -104.9552916667,
          38.9523383333
        ]
      }
    }
  ]
}