{
  "type": "FeatureCollection",
  "features": [
    {
      "type": "Feature",
      "properties": {
        "uuid": "e687dc7d-866e-4ca3-b977-f613813489a3",
        "inat_id": 16210099,
        "timestamp": "2018-09-02T17:39:37-05:00",
        "date": "2018-09-02",
        "olc": "85CQX2GG+",
        "elevation": 2770.0,
        "tavg": null,
        "tmin": 14.1,
        "tmax": 23.9,
        "precipitation": null,
        "windspeed": 10.0,
        "winddirection": null,
        "presure": 1013.2,
        "species": "Fomitopsis schrenkii",
        "location": "Pike National Forest, Colorado Springs, CO, US",
        "num_identification_agreements": 1
      },
      "geometry": {
        "type": "Point",
        "coordinates": [
          -104.9733716667,
          38.975075
        ]
      }
    }
  ]
}