{
  "type": "FeatureCollection",
  "features": [
    {
      "type": "Feature",
      "properties": {
        "uuid": "800c677d-e303-4765-8a69-df3c4f5768d9",
        "inat_id": 367648276,
        "timestamp": "2025-10-13T11:14:29-06:00",
        "date": "2025-10-13",
        "olc": "85CQV33J+",
        "elevation": 2101.0,
        "tavg": null,
        "tmin": 6.0,
        "tmax": 12.0,
        "precipitation": 0.0,
        "windspeed": 22.3,
        "winddirection": null,
        "presure": 1020.2,
        "species": "Fomitopsis schrenkii",
        "location": "Colorado, US",
        "num_identification_agreements": 1
      },
      "geometry": {
        "type": "Point",
        "coordinates": [
          -104.9194567924,
          38.8538646033
        ]
      }
    }
  ]
}