{
  "type": "FeatureCollection",
  "features": [
    {
      "type": "Feature",
      "properties": {
        "uuid": "b591de66-ce7b-4fef-a1ee-b4da20382d63",
        "inat_id": 75577191,
        "timestamp": "2021-04-28T08:30:56-06:00",
        "date": "2021-04-28",
        "olc": "85CQR3JM+",
        "elevation": 2215.0,
        "tavg": null,
        "tmin": 3.9,
        "tmax": 13.9,
        "precipitation": 0.0,
        "windspeed": 24.5,
        "winddirection": null,
        "presure": 1016.8,
        "species": "Fomitopsis schrenkii",
        "location": "Manitou Springs, CO, US",
        "num_identification_agreements": 1
      },
      "geometry": {
        "type": "Point",
        "coordinates": [
          -104.915475,
          38.83058833
        ]
      }
    }
  ]
}