{
  "type": "FeatureCollection",
  "features": [
    {
      "type": "Feature",
      "properties": {
        "uuid": "e1055ba0-bc33-4460-bf97-67157e411047",
        "inat_id": 292875519,
        "timestamp": "2025-05-17T09:28:35-06:00",
        "date": "2025-05-17",
        "olc": "85FJ2244+",
        "elevation": 2936.0,
        "tavg": null,
        "tmin": 8.8,
        "tmax": 27.0,
        "precipitation": 0.0,
        "windspeed": 12.4,
        "winddirection": null,
        "presure": 1011.1,
        "species": "Fomitopsis schrenkii",
        "location": "Cedaredge, CO, US",
        "num_identification_agreements": 2
      },
      "geometry": {
        "type": "Point",
        "coordinates": [
          -107.992705,
          39.0062361167
        ]
      }
    }
  ]
}