{
  "type": "FeatureCollection",
  "features": [
    {
      "type": "Feature",
      "properties": {
        "uuid": "1f832002-4ba9-4d23-8a5e-e96e3b26d7f1",
        "inat_id": 122984300,
        "timestamp": "2022-06-21T14:27:38-06:00",
        "date": "2022-06-21",
        "olc": "85FMMW22+",
        "elevation": 2752.0,
        "tavg": null,
        "tmin": 7.0,
        "tmax": 16.0,
        "precipitation": 0.0,
        "windspeed": 14.2,
        "winddirection": null,
        "presure": 1038.8,
        "species": "Fomitopsis schrenkii",
        "location": "White River National Forest, Silverthorne, CO, US",
        "num_identification_agreements": 1
      },
      "geometry": {
        "type": "Point",
        "coordinates": [
          -106.0996305385,
          39.6508449968
        ]
      }
    }
  ]
}