{
  "type": "FeatureCollection",
  "features": [
    {
      "type": "Feature",
      "properties": {
        "uuid": "3b8a9a61-f7e2-41b0-a9b7-81fe437d42b4",
        "inat_id": 243215774,
        "timestamp": "2024-09-21T15:24:29-06:00",
        "date": "2024-09-21",
        "olc": "85FMJVGG+",
        "elevation": 2945.0,
        "tavg": null,
        "tmin": 2.0,
        "tmax": 15.0,
        "precipitation": 3.9,
        "windspeed": 21.9,
        "winddirection": null,
        "presure": 1029.8,
        "species": "Fomitopsis schrenkii",
        "location": "Summit County, US-CO, US",
        "num_identification_agreements": 1
      },
      "geometry": {
        "type": "Point",
        "coordinates": [
          -106.12375,
          39.62722
        ]
      }
    }
  ]
}