{
  "type": "FeatureCollection",
  "features": [
    {
      "type": "Feature",
      "properties": {
        "uuid": "85a1b3c2-9dcf-4907-9d02-8c3c17b1417b",
        "inat_id": 270275653,
        "timestamp": "2025-04-13T12:09:25-06:00",
        "date": "2025-04-13",
        "olc": "85FPGPRG+",
        "elevation": 2449.0,
        "tavg": null,
        "tmin": 6.7,
        "tmax": 18.3,
        "precipitation": null,
        "windspeed": 15.8,
        "winddirection": null,
        "presure": 1009.6,
        "species": "Fomitopsis schrenkii",
        "location": "Pleasant Park Corridor, CO, USA",
        "num_identification_agreements": 1
      },
      "geometry": {
        "type": "Point",
        "coordinates": [
          -105.2735445997,
          39.5420456
        ]
      }
    }
  ]
}