{
  "type": "FeatureCollection",
  "features": [
    {
      "type": "Feature",
      "properties": {
        "uuid": "9a75ba63-9def-40e5-8136-e2d0c9cae93c",
        "inat_id": 333106272,
        "timestamp": "2026-01-01T12:48:00-07:00",
        "date": "2026-01-01",
        "olc": "85FPGJ65+",
        "elevation": 2609.0,
        "tavg": null,
        "tmin": -6.0,
        "tmax": -3.0,
        "precipitation": 0.1,
        "windspeed": 21.2,
        "winddirection": null,
        "presure": 1015.7,
        "species": "Fomitopsis schrenkii",
        "location": "Staunton State Park",
        "num_identification_agreements": 1
      },
      "geometry": {
        "type": "Point",
        "coordinates": [
          -105.392081067,
          39.5101210012
        ]
      }
    }
  ]
}