{
  "type": "FeatureCollection",
  "features": [
    {
      "type": "Feature",
      "properties": {
        "uuid": "37e8feeb-f938-4e55-9426-870ee50f8a9a",
        "inat_id": 181498369,
        "timestamp": "2023-09-02T16:21:59-06:00",
        "date": "2023-09-02",
        "olc": "85FPXGX6+",
        "elevation": 2573.0,
        "tavg": null,
        "tmin": 20.0,
        "tmax": 33.0,
        "precipitation": 0.0,
        "windspeed": 7.7,
        "winddirection": null,
        "presure": 1021.0,
        "species": "Fomitopsis schrenkii",
        "location": "Colorado, US",
        "num_identification_agreements": 1
      },
      "geometry": {
        "type": "Point",
        "coordinates": [
          -105.489868875,
          39.9994324628
        ]
      }
    }
  ]
}