{
  "type": "FeatureCollection",
  "features": [
    {
      "type": "Feature",
      "properties": {
        "uuid": "ac2ec7fb-3b04-4b28-8c98-3e43de244ec8",
        "inat_id": 120853704,
        "timestamp": "2022-06-03T14:35:43-06:00",
        "date": "2022-06-03",
        "olc": "85FPF5JV+",
        "elevation": 3002.0,
        "tavg": null,
        "tmin": -4.3,
        "tmax": 7.2,
        "precipitation": 0.0,
        "windspeed": 8.9,
        "winddirection": null,
        "presure": 1013.5,
        "species": "Fomitopsis schrenkii",
        "location": "Park County, US-CO, US",
        "num_identification_agreements": 2
      },
      "geometry": {
        "type": "Point",
        "coordinates": [
          -105.80515186,
          39.48187142
        ]
      }
    }
  ]
}