{
  "type": "FeatureCollection",
  "features": [
    {
      "type": "Feature",
      "properties": {
        "uuid": "f63f1e1c-f57e-4b84-8992-21136ef78802",
        "inat_id": 373113961,
        "timestamp": "2026-06-06T09:18:00-06:00",
        "date": "2026-06-06",
        "olc": "85FPGJ4G+",
        "elevation": 2696.0,
        "tavg": null,
        "tmin": 15.0,
        "tmax": 31.1,
        "precipitation": 0.0,
        "windspeed": 9.5,
        "winddirection": null,
        "presure": null,
        "species": "Fomitopsis schrenkii",
        "location": "Pine Junction Area, CO, USA",
        "num_identification_agreements": 1
      },
      "geometry": {
        "type": "Point",
        "coordinates": [
          -105.3745206099,
          39.5069627149
        ]
      }
    }
  ]
}