{
  "type": "FeatureCollection",
  "features": [
    {
      "type": "Feature",
      "properties": {
        "uuid": "51a51858-46e8-46b9-b696-2be24be3c08a",
        "inat_id": 352021140,
        "timestamp": "2025-11-18T14:08:55-07:00",
        "date": "2025-11-18",
        "olc": "85FPHP6R+",
        "elevation": 2675.0,
        "tavg": null,
        "tmin": 2.0,
        "tmax": 16.0,
        "precipitation": 0.0,
        "windspeed": 16.3,
        "winddirection": null,
        "presure": 1016.2,
        "species": "Fomitopsis schrenkii",
        "location": "Morrison, CO, US",
        "num_identification_agreements": 1
      },
      "geometry": {
        "type": "Point",
        "coordinates": [
          -105.2580655162,
          39.562019397
        ]
      }
    }
  ]
}