{
  "type": "FeatureCollection",
  "features": [
    {
      "type": "Feature",
      "properties": {
        "uuid": "08e3213d-3766-4aff-9704-b79259067db4",
        "inat_id": 232570661,
        "timestamp": "2024-07-29T12:30:06-06:00",
        "date": "2024-07-29",
        "olc": "85FPPMG9+",
        "elevation": 2126.0,
        "tavg": null,
        "tmin": 17.0,
        "tmax": 35.0,
        "precipitation": 0.0,
        "windspeed": 11.9,
        "winddirection": null,
        "presure": 1018.3,
        "species": "Fomitopsis schrenkii",
        "location": "Beaver Brook Trail, Golden, CO, US",
        "num_identification_agreements": 1
      },
      "geometry": {
        "type": "Point",
        "coordinates": [
          -105.3309116667,
          39.7258333333
        ]
      }
    }
  ]
}