{
  "type": "FeatureCollection",
  "features": [
    {
      "type": "Feature",
      "properties": {
        "uuid": "7af47501-bb9b-4dbf-a834-583d5c62d148",
        "inat_id": 119145048,
        "timestamp": "2022-05-28T13:15:35-06:00",
        "date": "2022-05-28",
        "olc": "85FPMHX8+",
        "elevation": 2634.0,
        "tavg": null,
        "tmin": -1.5,
        "tmax": 8.9,
        "precipitation": 0.0,
        "windspeed": 14.4,
        "winddirection": null,
        "presure": 1006.7,
        "species": "Fomitopsis schrenkii",
        "location": "Arapaho & Roosevelt National Forests Pawnee National Grassland, Evergreen, CO, US",
        "num_identification_agreements": 1
      },
      "geometry": {
        "type": "Point",
        "coordinates": [
          -105.43345,
          39.69785
        ]
      }
    }
  ]
}