{
  "type": "FeatureCollection",
  "features": [
    {
      "type": "Feature",
      "properties": {
        "uuid": "427bc313-979c-48b9-baf3-8d5a5788bf4c",
        "inat_id": 309619827,
        "timestamp": "2025-08-27T12:08:51-06:00",
        "date": "2025-08-27",
        "olc": "85FPJ74H+",
        "elevation": 3385.0,
        "tavg": null,
        "tmin": 0.6,
        "tmax": 10.6,
        "precipitation": 2.1,
        "windspeed": 12.8,
        "winddirection": null,
        "presure": 1022.3,
        "species": "Fomitopsis schrenkii",
        "location": "Clear Creek County, US-CO, US",
        "num_identification_agreements": 1
      },
      "geometry": {
        "type": "Point",
        "coordinates": [
          -105.721045956,
          39.6073912181
        ]
      }
    }
  ]
}