{
  "type": "FeatureCollection",
  "features": [
    {
      "type": "Feature",
      "properties": {
        "uuid": "039a3bf5-739f-48a7-ab84-14e88b66c654",
        "inat_id": 307293968,
        "timestamp": "2025-08-09T13:02:00-06:00",
        "date": "2025-08-09",
        "olc": "85FP6JHG+",
        "elevation": 3058.0,
        "tavg": null,
        "tmin": 10.0,
        "tmax": 21.0,
        "precipitation": 1.6,
        "windspeed": 8.0,
        "winddirection": null,
        "presure": 1016.7,
        "species": "Fomitopsis schrenkii",
        "location": "Jefferson County, CO, USA",
        "num_identification_agreements": 1
      },
      "geometry": {
        "type": "Point",
        "coordinates": [
          -105.3745494639,
          39.2279535642
        ]
      }
    }
  ]
}