{
  "type": "FeatureCollection",
  "features": [
    {
      "type": "Feature",
      "properties": {
        "uuid": "b5fd0739-2634-4460-b3dc-fee54f6833ad",
        "inat_id": 309030137,
        "timestamp": "2024-05-11T07:54:07-06:00",
        "date": "2024-05-11",
        "olc": "85FPMP79+",
        "elevation": 2053.0,
        "tavg": null,
        "tmin": 5.0,
        "tmax": 17.0,
        "precipitation": 1.1,
        "windspeed": 8.8,
        "winddirection": null,
        "presure": 1016.8,
        "species": "Fomitopsis schrenkii",
        "location": "Kerr Gulch, Golden, CO, USA",
        "num_identification_agreements": 1
      },
      "geometry": {
        "type": "Point",
        "coordinates": [
          -105.2805633333,
          39.6631431389
        ]
      }
    }
  ]
}