{
  "type": "FeatureCollection",
  "features": [
    {
      "type": "Feature",
      "properties": {
        "uuid": "bd1e761b-5b43-4ac4-b568-dae96be0af5d",
        "inat_id": 298504512,
        "timestamp": "2025-07-12T20:30:12-06:00",
        "date": "2025-07-12",
        "olc": "85FPFM8V+",
        "elevation": 2459.0,
        "tavg": null,
        "tmin": 15.0,
        "tmax": 28.3,
        "precipitation": 0.0,
        "windspeed": 9.6,
        "winddirection": null,
        "presure": 1015.9,
        "species": "Fomitopsis schrenkii",
        "location": "S Baird Rd, Conifer, CO, US",
        "num_identification_agreements": 1
      },
      "geometry": {
        "type": "Point",
        "coordinates": [
          -105.3066633333,
          39.4663366667
        ]
      }
    }
  ]
}