{
  "type": "FeatureCollection",
  "features": [
    {
      "type": "Feature",
      "properties": {
        "uuid": "1d8eab86-663e-4df7-88a9-29d1a20a34d2",
        "inat_id": 59398258,
        "timestamp": "2019-07-28",
        "date": "2019-07-28",
        "olc": "85FP6JWR+",
        "elevation": 2501.0,
        "tavg": null,
        "tmin": null,
        "tmax": null,
        "precipitation": null,
        "windspeed": null,
        "winddirection": null,
        "presure": null,
        "species": "Fomitopsis schrenkii",
        "location": "Jefferson County, CO, USA",
        "num_identification_agreements": 2
      },
      "geometry": {
        "type": "Point",
        "coordinates": [
          -105.3582916667,
          39.2468527778
        ]
      }
    }
  ]
}