{
  "type": "FeatureCollection",
  "features": [
    {
      "type": "Feature",
      "properties": {
        "uuid": "0189344c-b25e-4ada-80cf-f21c95190056",
        "inat_id": 177162060,
        "timestamp": "2023-08-06T10:34:03-06:00",
        "date": "2023-08-06",
        "olc": "85FPRJWM+",
        "elevation": 2372.0,
        "tavg": null,
        "tmin": 15.0,
        "tmax": 19.0,
        "precipitation": 1.9,
        "windspeed": 10.9,
        "winddirection": null,
        "presure": 1026.9,
        "species": "Fomitopsis schrenkii",
        "location": "Golden Gate Canyon State Park, Golden, CO, US",
        "num_identification_agreements": 1
      },
      "geometry": {
        "type": "Point",
        "coordinates": [
          -105.366005,
          39.8470166667
        ]
      }
    }
  ]
}