{
  "type": "FeatureCollection",
  "features": [
    {
      "type": "Feature",
      "properties": {
        "uuid": "e90868bb-0fe9-40ba-b43e-47bec1083a09",
        "inat_id": 190724217,
        "timestamp": "2023-11-11T14:51:24-07:00",
        "date": "2023-11-11",
        "olc": "85FPCGFM+",
        "elevation": 2554.0,
        "tavg": null,
        "tmin": -14.0,
        "tmax": -0.8,
        "precipitation": 0.0,
        "windspeed": 11.4,
        "winddirection": null,
        "presure": 1022.5,
        "species": "Fomitopsis schrenkii",
        "location": "Bailey, CO, US",
        "num_identification_agreements": 1
      },
      "geometry": {
        "type": "Point",
        "coordinates": [
          -105.4655246791,
          39.4248202568
        ]
      }
    }
  ]
}