{
  "type": "FeatureCollection",
  "features": [
    {
      "type": "Feature",
      "properties": {
        "uuid": "c0926ea4-227b-4e36-a6f2-9977ab215cbd",
        "inat_id": 364864982,
        "timestamp": "2026-05-24T11:57:10-06:00",
        "date": "2026-05-24",
        "olc": "85FPRF8X+",
        "elevation": 2607.0,
        "tavg": null,
        "tmin": 0.0,
        "tmax": 4.0,
        "precipitation": 1.8,
        "windspeed": 14.0,
        "winddirection": null,
        "presure": null,
        "species": "Fomitopsis schrenkii",
        "location": "SH-119, Black Hawk, CO, US",
        "num_identification_agreements": 1
      },
      "geometry": {
        "type": "Point",
        "coordinates": [
          -105.5023060535,
          39.8163954345
        ]
      }
    },
    {
      "type": "Feature",
      "properties": {
        "uuid": "7568e20e-ce5c-4331-8b36-039e3dbb6c97",
        "inat_id": 364864572,
        "timestamp": "2026-05-24T11:52:50-06:00",
        "date": "2026-05-24",
        "olc": "85FPRF8X+",
        "elevation": 2542.0,
        "tavg": null,
        "tmin": 0.0,
        "tmax": 4.0,
        "precipitation": 1.8,
        "windspeed": 14.0,
        "winddirection": null,
        "presure": null,
        "species": "Fomitopsis schrenkii",
        "location": "SH-119, Black Hawk, CO, US",
        "num_identification_agreements": 1
      },
      "geometry": {
        "type": "Point",
        "coordinates": [
          -105.5014519285,
          39.8160552065
        ]
      }
    }
  ]
}