{
  "type": "FeatureCollection",
  "features": [
    {
      "type": "Feature",
      "properties": {
        "uuid": "cbc26a0d-0c2e-4bfa-834b-74eb55e6e263",
        "inat_id": 173781119,
        "timestamp": "2023-07-14",
        "date": "2023-07-14",
        "olc": "85FP5XF3+",
        "elevation": 2631.0,
        "tavg": null,
        "tmin": 13.7,
        "tmax": 26.8,
        "precipitation": 1.5,
        "windspeed": 17.5,
        "winddirection": null,
        "presure": 1012.4,
        "species": "Fomitopsis schrenkii",
        "location": "Woodland Park, CO 80863, USA",
        "num_identification_agreements": 1
      },
      "geometry": {
        "type": "Point",
        "coordinates": [
          -105.0471067429,
          39.1733305642
        ]
      }
    }
  ]
}