{
  "type": "FeatureCollection",
  "features": [
    {
      "type": "Feature",
      "properties": {
        "uuid": "26e3cf2a-3089-418a-af55-acfd58bd0a88",
        "inat_id": 364868812,
        "timestamp": "2026-05-24T14:54:22-06:00",
        "date": "2026-05-24",
        "olc": "85FPGM6J+",
        "elevation": 2639.0,
        "tavg": null,
        "tmin": 10.0,
        "tmax": 24.4,
        "precipitation": 0.2,
        "windspeed": 7.1,
        "winddirection": null,
        "presure": null,
        "species": "Fomitopsis schrenkii",
        "location": "Colorado, US",
        "num_identification_agreements": 1
      },
      "geometry": {
        "type": "Point",
        "coordinates": [
          -105.317854586,
          39.511459729
        ]
      }
    }
  ]
}