{
  "type": "FeatureCollection",
  "features": [
    {
      "type": "Feature",
      "properties": {
        "uuid": "c8dfa172-e640-4775-b860-d89fd1a786b0",
        "inat_id": 304594950,
        "timestamp": "2025-08-06T14:54:39-06:00",
        "date": "2025-08-06",
        "olc": "85FP4X28+",
        "elevation": 2805.0,
        "tavg": null,
        "tmin": 16.4,
        "tmax": 33.9,
        "precipitation": 0.0,
        "windspeed": 15.0,
        "winddirection": null,
        "presure": 1015.4,
        "species": "Fomitopsis schrenkii",
        "location": "Teller County, US-CO, US",
        "num_identification_agreements": 1
      },
      "geometry": {
        "type": "Point",
        "coordinates": [
          -105.0336314531,
          39.1002767128
        ]
      }
    }
  ]
}