{
  "type": "FeatureCollection",
  "features": [
    {
      "type": "Feature",
      "properties": {
        "uuid": "437fe024-79d4-4814-a279-20fdbaf447bf",
        "inat_id": 178443217,
        "timestamp": "2023-08-13T12:03:00-06:00",
        "date": "2023-08-13",
        "olc": "85FPXCP8+",
        "elevation": 3031.0,
        "tavg": null,
        "tmin": 2.8,
        "tmax": 13.4,
        "precipitation": 2.9,
        "windspeed": 13.5,
        "winddirection": null,
        "presure": 1022.9,
        "species": "Fomitopsis schrenkii",
        "location": "Nederland, CO, US",
        "num_identification_agreements": 1
      },
      "geometry": {
        "type": "Point",
        "coordinates": [
          -105.5845416667,
          39.9850083333
        ]
      }
    }
  ]
}