{
  "type": "FeatureCollection",
  "features": [
    {
      "type": "Feature",
      "properties": {
        "uuid": "a28bdb01-a717-4579-affa-dc409544cd0f",
        "inat_id": 321032552,
        "timestamp": "2025-10-11T17:46:57-06:00",
        "date": "2025-10-11",
        "olc": "85FPPG25+",
        "elevation": 2813.0,
        "tavg": null,
        "tmin": -2.2,
        "tmax": 6.4,
        "precipitation": 3.7,
        "windspeed": 13.3,
        "winddirection": null,
        "presure": 1012.6,
        "species": "Fomitopsis schrenkii",
        "location": "Clear Creek County, US-CO, US",
        "num_identification_agreements": 1
      },
      "geometry": {
        "type": "Point",
        "coordinates": [
          -105.4902359192,
          39.7002995666
        ]
      }
    }
  ]
}