{
  "type": "FeatureCollection",
  "features": [
    {
      "type": "Feature",
      "properties": {
        "uuid": "5eff78a7-5307-4ed3-8fb5-5c79a5f930b4",
        "inat_id": 344985599,
        "timestamp": "2024-05-30T19:15:17-06:00",
        "date": "2024-05-30",
        "olc": "85FPXHH2+",
        "elevation": 2476.0,
        "tavg": null,
        "tmin": 12.0,
        "tmax": 26.0,
        "precipitation": 0.3,
        "windspeed": 9.4,
        "winddirection": null,
        "presure": 1016.6,
        "species": "Fomitopsis schrenkii",
        "location": "Nederland, CO 80466, USA",
        "num_identification_agreements": 1
      },
      "geometry": {
        "type": "Point",
        "coordinates": [
          -105.4497918114,
          39.9792759007
        ]
      }
    }
  ]
}