{
  "type": "FeatureCollection",
  "features": [
    {
      "type": "Feature",
      "properties": {
        "uuid": "26b1e71a-7948-4fcc-9e83-44c3e8c9f867",
        "inat_id": 87922500,
        "timestamp": "2021-07-20T14:19:13-06:00",
        "date": "2021-07-20",
        "olc": "85FPM8P2+",
        "elevation": 2898.0,
        "tavg": null,
        "tmin": 12.0,
        "tmax": 20.0,
        "precipitation": 0.3,
        "windspeed": 11.4,
        "winddirection": null,
        "presure": 1041.9,
        "species": "Fomitopsis schrenkii",
        "location": "Arapaho & Roosevelt National Forests Pawnee National Grassland, Idaho Springs, CO, US",
        "num_identification_agreements": 1
      },
      "geometry": {
        "type": "Point",
        "coordinates": [
          -105.6979,
          39.68645
        ]
      }
    }
  ]
}