{
  "type": "FeatureCollection",
  "features": [
    {
      "type": "Feature",
      "properties": {
        "uuid": "b2bd021a-b31b-47bc-9900-c6b25a8c2f7b",
        "inat_id": 286699898,
        "timestamp": "2025-06-03T16:06:29-06:00",
        "date": "2025-06-03",
        "olc": "85GJ23PP+",
        "elevation": 1909.0,
        "tavg": null,
        "tmin": 6.1,
        "tmax": 23.3,
        "precipitation": 0.0,
        "windspeed": 10.8,
        "winddirection": null,
        "presure": 1008.7,
        "species": "Fomitopsis schrenkii",
        "location": "Meeker, CO 81641, USA",
        "num_identification_agreements": 1
      },
      "geometry": {
        "type": "Point",
        "coordinates": [
          -107.9131298885,
          40.037463526
        ]
      }
    }
  ]
}