{
  "type": "FeatureCollection",
  "features": [
    {
      "type": "Feature",
      "properties": {
        "uuid": "6043ef46-7c8b-4857-ae70-8f01f174fe3a",
        "inat_id": 300216030,
        "timestamp": "2025-07-09T06:57:31-06:00",
        "date": "2025-07-09",
        "olc": "85GMRC2C+",
        "elevation": 2718.0,
        "tavg": null,
        "tmin": 10.6,
        "tmax": 28.1,
        "precipitation": 0.0,
        "windspeed": 12.7,
        "winddirection": null,
        "presure": 1017.7,
        "species": "Fomitopsis schrenkii",
        "location": "Walden, CO, US",
        "num_identification_agreements": 1
      },
      "geometry": {
        "type": "Point",
        "coordinates": [
          -106.578925,
          40.8016916667
        ]
      }
    }
  ]
}