{
  "type": "FeatureCollection",
  "features": [
    {
      "type": "Feature",
      "properties": {
        "uuid": "a9d7c8f1-5680-421e-a60e-b81aab5cd3ea",
        "inat_id": 348750855,
        "timestamp": "2026-04-09T11:44:59-06:00",
        "date": "2026-04-09",
        "olc": "85GP2G75+",
        "elevation": 2650.0,
        "tavg": null,
        "tmin": 4.0,
        "tmax": 24.0,
        "precipitation": 1.4,
        "windspeed": 4.1,
        "winddirection": null,
        "presure": null,
        "species": "Fomitopsis schrenkii",
        "location": "Boulder, CO, US",
        "num_identification_agreements": 1
      },
      "geometry": {
        "type": "Point",
        "coordinates": [
          -105.4924083333,
          40.0132638833
        ]
      }
    }
  ]
}