{
  "type": "FeatureCollection",
  "features": [
    {
      "type": "Feature",
      "properties": {
        "uuid": "284f6d3a-893f-4b42-8681-d0b3be86aa6b",
        "inat_id": 370661797,
        "timestamp": "2026-06-11T09:10:57-06:00",
        "date": "2026-06-11",
        "olc": "85GP94WP+",
        "elevation": 3018.0,
        "tavg": null,
        "tmin": 5.0,
        "tmax": 20.7,
        "precipitation": 0.0,
        "windspeed": 6.9,
        "winddirection": null,
        "presure": null,
        "species": "Fomitopsis schrenkii",
        "location": "Rocky Mountain, Rocky Mountain National Park, Rocky Mountain National Park, Grand County, US-CO, US",
        "num_identification_agreements": 1
      },
      "geometry": {
        "type": "Point",
        "coordinates": [
          -105.8639678955,
          40.3966827393
        ]
      }
    }
  ]
}