{
  "type": "FeatureCollection",
  "features": [
    {
      "type": "Feature",
      "properties": {
        "uuid": "001786df-ca72-44c4-ae18-71b5a19a8b13",
        "inat_id": 300774826,
        "timestamp": "2025-07-24T10:26:06-06:00",
        "date": "2025-07-24",
        "olc": "85GP79W3+",
        "elevation": 2990.0,
        "tavg": null,
        "tmin": 6.8,
        "tmax": 25.6,
        "precipitation": 0.1,
        "windspeed": 9.0,
        "winddirection": null,
        "presure": 1030.8,
        "species": "Fomitopsis schrenkii",
        "location": "Rocky Mountain National Park, Estes Park, CO, US",
        "num_identification_agreements": 1
      },
      "geometry": {
        "type": "Point",
        "coordinates": [
          -105.6457283333,
          40.2969783333
        ]
      }
    }
  ]
}