{
  "type": "FeatureCollection",
  "features": [
    {
      "type": "Feature",
      "properties": {
        "uuid": "82d24a5c-0788-4675-b2b9-6741563018dc",
        "inat_id": 300022089,
        "timestamp": "2025-07-21T14:22:00-06:00",
        "date": "2025-07-21",
        "olc": "85GPHC72+",
        "elevation": 2777.0,
        "tavg": null,
        "tmin": null,
        "tmax": null,
        "precipitation": null,
        "windspeed": null,
        "winddirection": null,
        "presure": null,
        "species": "Fomitopsis schrenkii",
        "location": "Bellvue, CO, US",
        "num_identification_agreements": 1
      },
      "geometry": {
        "type": "Point",
        "coordinates": [
          -105.5987912553,
          40.5627061874
        ]
      }
    }
  ]
}