{
  "type": "FeatureCollection",
  "features": [
    {
      "type": "Feature",
      "properties": {
        "uuid": "76c47f51-7705-4014-81a9-8c8a5457f1f5",
        "inat_id": 249368424,
        "timestamp": "2024-10-26T10:42:34-06:00",
        "date": "2024-10-26",
        "olc": "85GPMMQ2+",
        "elevation": 1789.0,
        "tavg": null,
        "tmin": 1.7,
        "tmax": 21.1,
        "precipitation": 0.0,
        "windspeed": 5.1,
        "winddirection": null,
        "presure": 1023.7,
        "species": "Fomitopsis schrenkii",
        "location": "Bellvue, CO 80512, USA",
        "num_identification_agreements": 1
      },
      "geometry": {
        "type": "Point",
        "coordinates": [
          -105.3482004628,
          40.688581087
        ]
      }
    }
  ]
}