{
  "type": "FeatureCollection",
  "features": [
    {
      "type": "Feature",
      "properties": {
        "uuid": "fc7245b0-f747-4772-8075-59fbc2894eec",
        "inat_id": 57703748,
        "timestamp": "2020-08-25T16:02:06-06:00",
        "date": "2020-08-25",
        "olc": "85GP6C4H+",
        "elevation": 2609.0,
        "tavg": null,
        "tmin": null,
        "tmax": null,
        "precipitation": null,
        "windspeed": 7.6,
        "winddirection": null,
        "presure": null,
        "species": "Fomitopsis schrenkii",
        "location": "Allenspark, CO 80510, USA",
        "num_identification_agreements": 1
      },
      "geometry": {
        "type": "Point",
        "coordinates": [
          -105.5704666667,
          40.2057888889
        ]
      }
    },
    {
      "type": "Feature",
      "properties": {
        "uuid": "86013bdb-4b07-4d04-bcef-985211410742",
        "inat_id": 53121719,
        "timestamp": "2020-07-10T18:01:36-06:00",
        "date": "2020-07-10",
        "olc": "85GP6C4H+",
        "elevation": 2609.0,
        "tavg": null,
        "tmin": 2.2,
        "tmax": 29.4,
        "precipitation": null,
        "windspeed": 9.2,
        "winddirection": null,
        "presure": null,
        "species": "Fomitopsis schrenkii",
        "location": "Allenspark, CO 80510, USA",
        "num_identification_agreements": 1
      },
      "geometry": {
        "type": "Point",
        "coordinates": [
          -105.5703222222,
          40.2059277778
        ]
      }
    }
  ]
}