{
  "type": "FeatureCollection",
  "features": [
    {
      "type": "Feature",
      "properties": {
        "uuid": "33e1faaa-84b5-493b-aa6e-62c27e3d8a20",
        "inat_id": 122253464,
        "timestamp": "2022-06-16T09:22:56-06:00",
        "date": "2022-06-16",
        "olc": "85MRVC3F+",
        "elevation": 1725.0,
        "tavg": null,
        "tmin": 5.6,
        "tmax": 25.0,
        "precipitation": 0.0,
        "windspeed": 9.7,
        "winddirection": null,
        "presure": 1017.2,
        "species": "Fomitopsis schrenkii",
        "location": "Black Hills National Forest, Custer, SD, US",
        "num_identification_agreements": 1
      },
      "geometry": {
        "type": "Point",
        "coordinates": [
          -103.5759806784,
          43.8546348656
        ]
      }
    }
  ]
}