{
  "type": "FeatureCollection",
  "features": [
    {
      "type": "Feature",
      "properties": {
        "uuid": "bf046811-55e1-43b6-aec4-a6fe5eaacbb4",
        "inat_id": 7612238,
        "timestamp": "2017-08-22T10:29:00-05:00",
        "date": "2017-08-22",
        "olc": "85MRRCWP+",
        "elevation": 1880.0,
        "tavg": null,
        "tmin": 6.7,
        "tmax": 23.9,
        "precipitation": 0.0,
        "windspeed": 9.3,
        "winddirection": null,
        "presure": 1020.9,
        "species": "Fomitopsis schrenkii",
        "location": "Sylvan Lake, East Custer, SD 57730, USA",
        "num_identification_agreements": 1
      },
      "geometry": {
        "type": "Point",
        "coordinates": [
          -103.5642992,
          43.8461838
        ]
      }
    }
  ]
}