{
  "type": "FeatureCollection",
  "features": [
    {
      "type": "Feature",
      "properties": {
        "uuid": "1ff2b1a9-91d0-4c37-bcf9-4c469a59b6ee",
        "inat_id": 17264695,
        "timestamp": "2018-10-05T10:10:08-05:00",
        "date": "2018-10-05",
        "olc": "85MRVC5W+",
        "elevation": 1912.0,
        "tavg": null,
        "tmin": -2.2,
        "tmax": 8.9,
        "precipitation": null,
        "windspeed": 7.0,
        "winddirection": null,
        "presure": 1012.9,
        "species": "Fomitopsis schrenkii",
        "location": "Black Hills National Forest, Keystone, SD, US",
        "num_identification_agreements": 1
      },
      "geometry": {
        "type": "Point",
        "coordinates": [
          -103.553375,
          43.8596383333
        ]
      }
    }
  ]
}