{
  "type": "FeatureCollection",
  "features": [
    {
      "type": "Feature",
      "properties": {
        "uuid": "b4798c13-b5f1-4963-8683-1a448ca1c3ec",
        "inat_id": 175634138,
        "timestamp": "2023-07-29T14:31:36-06:00",
        "date": "2023-07-29",
        "olc": "85MRVF27+",
        "elevation": 2046.0,
        "tavg": null,
        "tmin": 11.7,
        "tmax": 24.4,
        "precipitation": 10.4,
        "windspeed": 10.1,
        "winddirection": null,
        "presure": 1021.1,
        "species": "Fomitopsis schrenkii",
        "location": "Custer State Park, Custer, SD, US",
        "num_identification_agreements": 1
      },
      "geometry": {
        "type": "Point",
        "coordinates": [
          -103.5366583333,
          43.8507083333
        ]
      }
    }
  ]
}