{
  "type": "FeatureCollection",
  "features": [
    {
      "type": "Feature",
      "properties": {
        "uuid": "e8c98c69-0b82-4015-864e-c0d7ccb5a05a",
        "inat_id": 31055123,
        "timestamp": "2019-08-14T12:21:00-04:00",
        "date": "2019-08-14",
        "olc": "85MRVH35+",
        "elevation": 1597.0,
        "tavg": null,
        "tmin": 10.0,
        "tmax": 20.0,
        "precipitation": 0.0,
        "windspeed": 7.0,
        "winddirection": null,
        "presure": 1020.3,
        "species": "Fomitopsis schrenkii",
        "location": "Custer County, SD, USA",
        "num_identification_agreements": 3
      },
      "geometry": {
        "type": "Point",
        "coordinates": [
          -103.441925,
          43.8534888889
        ]
      }
    }
  ]
}