{
  "type": "FeatureCollection",
  "features": [
    {
      "type": "Feature",
      "properties": {
        "uuid": "dc205d7f-98fb-45a2-acaf-f9a6d96548a4",
        "inat_id": 29381444,
        "timestamp": "2019-07-23T07:10:36-06:00",
        "date": "2019-07-23",
        "olc": "85PR6GJF+",
        "elevation": 1392.0,
        "tavg": null,
        "tmin": 15.0,
        "tmax": 28.0,
        "precipitation": null,
        "windspeed": 8.7,
        "winddirection": null,
        "presure": null,
        "species": "Fomitopsis schrenkii",
        "location": "Nemo, SD 57759, USA",
        "num_identification_agreements": 1
      },
      "geometry": {
        "type": "Point",
        "coordinates": [
          -103.4759216309,
          44.2313194275
        ]
      }
    }
  ]
}