{
  "type": "FeatureCollection",
  "features": [
    {
      "type": "Feature",
      "properties": {
        "uuid": "02d990f7-817b-4675-9cb4-421a682495a3",
        "inat_id": 368680474,
        "timestamp": "2026-05-07T10:33:12-06:00",
        "date": "2026-05-07",
        "olc": "85PR82C2+",
        "elevation": 1790.0,
        "tavg": null,
        "tmin": -1.0,
        "tmax": 16.0,
        "precipitation": 0.0,
        "windspeed": 5.7,
        "winddirection": null,
        "presure": null,
        "species": "Fomitopsis schrenkii",
        "location": "Little Spearfish, Lead, SD, US",
        "num_identification_agreements": 1
      },
      "geometry": {
        "type": "Point",
        "coordinates": [
          -103.9981833333,
          44.3209216667
        ]
      }
    }
  ]
}