{
  "type": "FeatureCollection",
  "features": [
    {
      "type": "Feature",
      "properties": {
        "uuid": "8f4b3329-ef95-4654-8426-f542ce8662f3",
        "inat_id": 47765504,
        "timestamp": "2020-05-25T22:59:54+00:00",
        "date": "2020-05-25",
        "olc": "85PR97CF+",
        "elevation": 1400.0,
        "tavg": null,
        "tmin": 6.0,
        "tmax": 14.0,
        "precipitation": null,
        "windspeed": 11.8,
        "winddirection": null,
        "presure": null,
        "species": "Fomitopsis schrenkii",
        "location": "Deadwood",
        "num_identification_agreements": 1
      },
      "geometry": {
        "type": "Point",
        "coordinates": [
          -103.7257475603,
          44.3718769362
        ]
      }
    }
  ]
}