{
  "type": "FeatureCollection",
  "features": [
    {
      "type": "Feature",
      "properties": {
        "uuid": "44dc65cd-08a9-465f-bc7d-5a751b5835d2",
        "inat_id": 194234079,
        "timestamp": "2015-09-08",
        "date": "2015-09-08",
        "olc": "857PQ79R+",
        "elevation": 2626.0,
        "tavg": null,
        "tmin": 12.2,
        "tmax": 28.9,
        "precipitation": null,
        "windspeed": 8.6,
        "winddirection": null,
        "presure": 1012.4,
        "species": "Fomitopsis ochracea",
        "location": "Tererro, NM 87573, USA",
        "num_identification_agreements": 1
      },
      "geometry": {
        "type": "Point",
        "coordinates": [
          -105.7091926038,
          35.7675394863
        ]
      }
    }
  ]
}