{
  "type": "FeatureCollection",
  "features": [
    {
      "type": "Feature",
      "properties": {
        "uuid": "528296a1-3846-4a57-80a1-431ac0df3251",
        "inat_id": 235426698,
        "timestamp": "2024-08-12T11:49:04-06:00",
        "date": "2024-08-12",
        "olc": "859MF7CH+",
        "elevation": 3110.0,
        "tavg": null,
        "tmin": 5.0,
        "tmax": 13.0,
        "precipitation": 4.0,
        "windspeed": 11.7,
        "winddirection": null,
        "presure": 1039.4,
        "species": "Fomitopsis ochracea",
        "location": "Mineral County, US-CO, US",
        "num_identification_agreements": 1
      },
      "geometry": {
        "type": "Point",
        "coordinates": [
          -106.72180186,
          37.47114137
        ]
      }
    }
  ]
}