{
  "type": "FeatureCollection",
  "features": [
    {
      "type": "Feature",
      "properties": {
        "uuid": "0a8087df-95fc-4436-bc32-99a970725454",
        "inat_id": 237021239,
        "timestamp": "2024-08-20T17:53:07-06:00",
        "date": "2024-08-20",
        "olc": "85FJ2244+",
        "elevation": 2951.0,
        "tavg": null,
        "tmin": 16.5,
        "tmax": 34.3,
        "precipitation": 0.0,
        "windspeed": 10.5,
        "winddirection": null,
        "presure": 1016.9,
        "species": "Fomitopsis ochracea",
        "location": "Grand Mesa Uncompahgre and Gunnison National Forests, Cedaredge, CO, US",
        "num_identification_agreements": 2
      },
      "geometry": {
        "type": "Point",
        "coordinates": [
          -107.99405,
          39.0051527833
        ]
      }
    }
  ]
}