{
  "type": "FeatureCollection",
  "features": [
    {
      "type": "Feature",
      "properties": {
        "uuid": "777090a5-a6aa-4bf8-85fd-4731440e1c9f",
        "inat_id": 191879479,
        "timestamp": "2023-07-14",
        "date": "2023-07-14",
        "olc": "85FP2X43+",
        "elevation": 2593.0,
        "tavg": null,
        "tmin": 13.7,
        "tmax": 26.8,
        "precipitation": 1.5,
        "windspeed": 17.5,
        "winddirection": null,
        "presure": 1012.4,
        "species": "Fomitopsis ochracea",
        "location": "Woodland Park, CO 80863, USA",
        "num_identification_agreements": 3
      },
      "geometry": {
        "type": "Point",
        "coordinates": [
          -105.0456633791,
          39.0068980172
        ]
      }
    }
  ]
}