{
  "type": "FeatureCollection",
  "features": [
    {
      "type": "Feature",
      "properties": {
        "uuid": "66e30217-032c-4048-8214-b52612a21e97",
        "inat_id": 88933244,
        "timestamp": "2021-07-27T14:21:15-06:00",
        "date": "2021-07-27",
        "olc": "857PQ537+",
        "elevation": 2653.0,
        "tavg": null,
        "tmin": 16.1,
        "tmax": 28.3,
        "precipitation": null,
        "windspeed": 9.6,
        "winddirection": null,
        "presure": 1016.1,
        "species": "Turbinellus floccosus",
        "location": "Santa Fe National Forest, Santa Fe, NM, US",
        "num_identification_agreements": 3
      },
      "geometry": {
        "type": "Point",
        "coordinates": [
          -105.8351133333,
          35.75323
        ]
      }
    }
  ]
}