{
  "type": "FeatureCollection",
  "features": [
    {
      "type": "Feature",
      "properties": {
        "uuid": "690ed517-c9bd-46ef-968f-19bf46f7c639",
        "inat_id": 235223295,
        "timestamp": "2024-08-11T13:08:46-06:00",
        "date": "2024-08-11",
        "olc": "857PR8RH+",
        "elevation": 2612.0,
        "tavg": null,
        "tmin": 18.9,
        "tmax": 31.1,
        "precipitation": null,
        "windspeed": 15.6,
        "winddirection": null,
        "presure": 1014.4,
        "species": "Turbinellus floccosus",
        "location": "Santa Fe National Forest, Tererro, NM, US",
        "num_identification_agreements": 1
      },
      "geometry": {
        "type": "Point",
        "coordinates": [
          -105.67183,
          35.8405950025
        ]
      }
    }
  ]
}