{
  "type": "FeatureCollection",
  "features": [
    {
      "type": "Feature",
      "properties": {
        "uuid": "12d2b289-6364-4c8a-ae9b-22db6d8e47a5",
        "inat_id": 131946759,
        "timestamp": "2022-08-22T15:15:38-06:00",
        "date": "2022-08-22",
        "olc": "858PHGXR+",
        "elevation": 2843.0,
        "tavg": null,
        "tmin": 8.0,
        "tmax": 18.2,
        "precipitation": 16.0,
        "windspeed": 3.4,
        "winddirection": null,
        "presure": 1030.8,
        "species": "Turbinellus floccosus",
        "location": "Carson National Forest, Taos, NM, US",
        "num_identification_agreements": 1
      },
      "geometry": {
        "type": "Point",
        "coordinates": [
          -105.4577033333,
          36.59787
        ]
      }
    }
  ]
}