{
  "type": "FeatureCollection",
  "features": [
    {
      "type": "Feature",
      "properties": {
        "uuid": "a562a354-4dc2-4624-b6ff-eaef72619858",
        "inat_id": 130060504,
        "timestamp": "2022-08-07T17:11:55-06:00",
        "date": "2022-08-07",
        "olc": "858PJV32+",
        "elevation": 2539.0,
        "tavg": null,
        "tmin": 5.0,
        "tmax": 23.0,
        "precipitation": 11.5,
        "windspeed": 5.9,
        "winddirection": null,
        "presure": 1032.1,
        "species": "Turbinellus floccosus",
        "location": "Cimarron, NM, US",
        "num_identification_agreements": 1
      },
      "geometry": {
        "type": "Point",
        "coordinates": [
          -105.1497945,
          36.6031383425
        ]
      }
    }
  ]
}