{
  "type": "FeatureCollection",
  "features": [
    {
      "type": "Feature",
      "properties": {
        "uuid": "7b6d734e-a847-464e-9d36-9ce432e23178",
        "inat_id": 128900882,
        "timestamp": "2022-07-30T11:56:45-06:00",
        "date": "2022-07-30",
        "olc": "85CP3CGJ+",
        "elevation": 2852.0,
        "tavg": null,
        "tmin": null,
        "tmax": null,
        "precipitation": null,
        "windspeed": null,
        "winddirection": null,
        "presure": null,
        "species": "Turbinellus floccosus",
        "location": "Pike and San Isabel National Forests, Westcliffe, CO, US",
        "num_identification_agreements": 1
      },
      "geometry": {
        "type": "Point",
        "coordinates": [
          -105.5681533333,
          38.0762471667
        ]
      }
    }
  ]
}