{
  "type": "FeatureCollection",
  "features": [
    {
      "type": "Feature",
      "properties": {
        "uuid": "f45fc889-3524-4720-9e08-b6d7d0c7bcea",
        "inat_id": 236337210,
        "timestamp": "2024-08-17T08:29:23-06:00",
        "date": "2024-08-17",
        "olc": "859HJWMP+",
        "elevation": 2643.0,
        "tavg": null,
        "tmin": 12.0,
        "tmax": 23.0,
        "precipitation": 4.9,
        "windspeed": 9.4,
        "winddirection": null,
        "presure": 1034.5,
        "species": "Armillaria solidipes",
        "location": "Montezuma County, US-CO, US",
        "num_identification_agreements": 2
      },
      "geometry": {
        "type": "Point",
        "coordinates": [
          -108.062690949,
          37.6349620908
        ]
      }
    }
  ]
}