{
  "type": "FeatureCollection",
  "features": [
    {
      "type": "Feature",
      "properties": {
        "uuid": "53eb3dc6-0f24-4c5f-968f-fef2e50caa65",
        "inat_id": 235767311,
        "timestamp": "2024-08-14T12:18:30-06:00",
        "date": "2024-08-14",
        "olc": "859JW5PQ+",
        "elevation": 2675.0,
        "tavg": null,
        "tmin": 9.0,
        "tmax": 20.0,
        "precipitation": 0.1,
        "windspeed": 7.9,
        "winddirection": null,
        "presure": 1032.4,
        "species": "Armillaria solidipes",
        "location": "Grand Mesa Uncompahgre and Gunnison National Forests, Telluride, CO, US",
        "num_identification_agreements": 4
      },
      "geometry": {
        "type": "Point",
        "coordinates": [
          -107.81192,
          37.9368583333
        ]
      }
    }
  ]
}