{
  "type": "FeatureCollection",
  "features": [
    {
      "type": "Feature",
      "properties": {
        "uuid": "dc6855bf-bc84-4fc7-9efa-c4d51cb12287",
        "inat_id": 240548456,
        "timestamp": "2024-09-07T12:28:45-06:00",
        "date": "2024-09-07",
        "olc": "85CJ24XF+",
        "elevation": 2984.0,
        "tavg": null,
        "tmin": 10.0,
        "tmax": 21.0,
        "precipitation": 0.6,
        "windspeed": 7.7,
        "winddirection": null,
        "presure": 1034.1,
        "species": "Armillaria solidipes",
        "location": "Ouray County, US-CO, US",
        "num_identification_agreements": 1
      },
      "geometry": {
        "type": "Point",
        "coordinates": [
          -107.8750216667,
          38.0496166667
        ]
      }
    }
  ]
}