{
  "type": "FeatureCollection",
  "features": [
    {
      "type": "Feature",
      "properties": {
        "uuid": "c6587a8a-4835-4f28-9d28-c8a851610c3c",
        "inat_id": 394785812,
        "timestamp": "2026-08-26T10:27:45-06:00",
        "date": "2026-08-26",
        "olc": "85CPPXMM+",
        "elevation": 2908.0,
        "tavg": null,
        "tmin": null,
        "tmax": null,
        "precipitation": null,
        "windspeed": null,
        "winddirection": null,
        "presure": null,
        "species": "Armillaria solidipes",
        "location": "Manitou Springs, CO 80829, USA",
        "num_identification_agreements": 1
      },
      "geometry": {
        "type": "Point",
        "coordinates": [
          -105.01665,
          38.7342416667
        ]
      }
    }
  ]
}