{
  "type": "FeatureCollection",
  "features": [
    {
      "type": "Feature",
      "properties": {
        "uuid": "619fa7ad-155d-49f4-be31-050d2b05a642",
        "inat_id": 315657299,
        "timestamp": "2025-09-21T15:31:02-06:00",
        "date": "2025-09-21",
        "olc": "85CQM4Q4+",
        "elevation": 2404.0,
        "tavg": null,
        "tmin": 14.0,
        "tmax": 21.0,
        "precipitation": 0.0,
        "windspeed": 6.1,
        "winddirection": null,
        "presure": 1019.2,
        "species": "Armillaria solidipes",
        "location": "Colorado, US",
        "num_identification_agreements": 1
      },
      "geometry": {
        "type": "Point",
        "coordinates": [
          -104.8944165699,
          38.6881870587
        ]
      }
    }
  ]
}