{
  "type": "FeatureCollection",
  "features": [
    {
      "type": "Feature",
      "properties": {
        "uuid": "b3878504-6f03-4a65-946e-106775c30acb",
        "inat_id": 317457149,
        "timestamp": "2025-09-28T17:59:16-06:00",
        "date": "2025-09-28",
        "olc": "85CQW39G+",
        "elevation": 2513.0,
        "tavg": null,
        "tmin": 7.0,
        "tmax": 25.0,
        "precipitation": 0.2,
        "windspeed": 14.0,
        "winddirection": null,
        "presure": 1022.0,
        "species": "Armillaria solidipes",
        "location": "Colorado, US",
        "num_identification_agreements": 1
      },
      "geometry": {
        "type": "Point",
        "coordinates": [
          -104.9232292288,
          38.9179963007
        ]
      }
    }
  ]
}