{
  "type": "FeatureCollection",
  "features": [
    {
      "type": "Feature",
      "properties": {
        "uuid": "e802a448-5182-4ab4-b1be-fad95ab47571",
        "inat_id": 240582996,
        "timestamp": "2024-09-08T11:24:10-06:00",
        "date": "2024-09-08",
        "olc": "85FPHJ89+",
        "elevation": 2575.0,
        "tavg": null,
        "tmin": -1.0,
        "tmax": 12.6,
        "precipitation": 2.8,
        "windspeed": 9.4,
        "winddirection": null,
        "presure": 1022.4,
        "species": "Armillaria solidipes",
        "location": "Carol Ln, Conifer, CO, US",
        "num_identification_agreements": 2
      },
      "geometry": {
        "type": "Point",
        "coordinates": [
          -105.382149721,
          39.5658728596
        ]
      }
    }
  ]
}