{
  "type": "FeatureCollection",
  "features": [
    {
      "type": "Feature",
      "properties": {
        "uuid": "89c46c02-3d0a-4a73-8e57-d3074769c719",
        "inat_id": 183776306,
        "timestamp": "2023-09-16T12:49:27-06:00",
        "date": "2023-09-16",
        "olc": "85FPV8VR+",
        "elevation": 2925.0,
        "tavg": null,
        "tmin": -6.1,
        "tmax": 10.0,
        "precipitation": 0.0,
        "windspeed": 8.2,
        "winddirection": null,
        "presure": 1024.6,
        "species": "Armillaria solidipes",
        "location": "S Boulder Creek, Idaho Springs, CO, US",
        "num_identification_agreements": 3
      },
      "geometry": {
        "type": "Point",
        "coordinates": [
          -105.6589883333,
          39.8940916667
        ]
      }
    }
  ]
}