{
  "type": "FeatureCollection",
  "features": [
    {
      "type": "Feature",
      "properties": {
        "uuid": "677269f9-baea-4d35-878b-74c5a8b36402",
        "inat_id": 92682784,
        "timestamp": "2021-08-26T12:01:35-06:00",
        "date": "2021-08-26",
        "olc": "85CMV263+",
        "elevation": 3031.0,
        "tavg": null,
        "tmin": 5.0,
        "tmax": 20.6,
        "precipitation": null,
        "windspeed": 5.8,
        "winddirection": null,
        "presure": 1022.6,
        "species": "Gomphus clavatus",
        "location": "Crested Butte, CO 81224, USA",
        "num_identification_agreements": 1
      },
      "geometry": {
        "type": "Point",
        "coordinates": [
          -106.9971558452,
          38.8624139208
        ]
      }
    }
  ]
}