{
  "type": "FeatureCollection",
  "features": [
    {
      "type": "Feature",
      "properties": {
        "uuid": "93b7b006-5780-4291-b5bd-e72a18b3ce70",
        "inat_id": 133685083,
        "timestamp": "2022-09-03T10:20:12-06:00",
        "date": "2022-09-03",
        "olc": "85GP3FJ7+",
        "elevation": 3068.0,
        "tavg": null,
        "tmin": 17.0,
        "tmax": 31.0,
        "precipitation": 0.0,
        "windspeed": 5.6,
        "winddirection": null,
        "presure": 1026.2,
        "species": "Gomphus clavatus",
        "location": "Waldrop North, Ward, CO, US",
        "num_identification_agreements": 2
      },
      "geometry": {
        "type": "Point",
        "coordinates": [
          -105.536055,
          40.0821528333
        ]
      }
    }
  ]
}