{
  "type": "FeatureCollection",
  "features": [
    {
      "type": "Feature",
      "properties": {
        "uuid": "00e51514-82d6-4fad-90e4-9941ce2d128b",
        "inat_id": 80399974,
        "timestamp": "2021-05-18T12:15:00-06:00",
        "date": "2021-05-18",
        "olc": "85CMR5G3+",
        "elevation": 2723.0,
        "tavg": null,
        "tmin": 2.2,
        "tmax": 11.7,
        "precipitation": null,
        "windspeed": 7.8,
        "winddirection": null,
        "presure": 1014.1,
        "species": "Fomitopsis pinicola",
        "location": "Gunnison County, CO, USA",
        "num_identification_agreements": 1
      },
      "geometry": {
        "type": "Point",
        "coordinates": [
          -106.8458333333,
          38.8257916667
        ]
      }
    }
  ]
}