{
  "type": "FeatureCollection",
  "features": [
    {
      "type": "Feature",
      "properties": {
        "uuid": "77aa5c6e-daed-4bb6-b478-2d35e90107d7",
        "inat_id": 239249466,
        "timestamp": "2024-09-01T12:08:06-06:00",
        "date": "2024-09-01",
        "olc": "85CJVR5M+",
        "elevation": 2738.0,
        "tavg": null,
        "tmin": null,
        "tmax": null,
        "precipitation": null,
        "windspeed": 7.4,
        "winddirection": null,
        "presure": 1023.6,
        "species": "Hygrophorus chrysodon",
        "location": "Grand Mesa Uncompahgre and Gunnison National Forests, Somerset, CO, US",
        "num_identification_agreements": 1
      },
      "geometry": {
        "type": "Point",
        "coordinates": [
          -107.1654195,
          38.8583716667
        ]
      }
    }
  ]
}