{
  "type": "FeatureCollection",
  "features": [
    {
      "type": "Feature",
      "properties": {
        "uuid": "a24a21bd-06f5-4a9a-ace1-5c74e5e51b05",
        "inat_id": 131937738,
        "timestamp": "2022-08-22T11:49:47-06:00",
        "date": "2022-08-22",
        "olc": "85FMFWVJ+",
        "elevation": 3075.0,
        "tavg": null,
        "tmin": 7.0,
        "tmax": 16.0,
        "precipitation": 8.9,
        "windspeed": 7.2,
        "winddirection": null,
        "presure": 1038.3,
        "species": "Hygrophorus chrysodon",
        "location": "White River National Forest, Breckenridge, CO, US",
        "num_identification_agreements": 1
      },
      "geometry": {
        "type": "Point",
        "coordinates": [
          -106.0688465753,
          39.4931337683
        ]
      }
    }
  ]
}