{
  "type": "FeatureCollection",
  "features": [
    {
      "type": "Feature",
      "properties": {
        "uuid": "ed52755e-7dbe-47d0-873f-bf0c75756a34",
        "inat_id": 7463319,
        "timestamp": "2017-08-12T10:46:44-06:00",
        "date": "2017-08-12",
        "olc": "85GP6FCC+",
        "elevation": 2584.0,
        "tavg": null,
        "tmin": 13.6,
        "tmax": 28.3,
        "precipitation": null,
        "windspeed": 4.6,
        "winddirection": null,
        "presure": null,
        "species": "Hygrophorus chrysodon",
        "location": "12650 Peak To Peak Hwy, Allenspark, CO, US",
        "num_identification_agreements": 1
      },
      "geometry": {
        "type": "Point",
        "coordinates": [
          -105.5297098365,
          40.2222379751
        ]
      }
    }
  ]
}