{
  "type": "FeatureCollection",
  "features": [
    {
      "type": "Feature",
      "properties": {
        "uuid": "ab6a2ed8-c5eb-4efe-b5f8-51e0450a2aa8",
        "inat_id": 237225483,
        "timestamp": "2024-08-21T11:06:00-06:00",
        "date": "2024-08-21",
        "olc": "85CQQ4RM+",
        "elevation": 1924.0,
        "tavg": null,
        "tmin": 15.5,
        "tmax": 29.0,
        "precipitation": 2.2,
        "windspeed": 14.0,
        "winddirection": null,
        "presure": 1023.4,
        "species": "Peckorumyces umbonatus",
        "location": "Colorado Springs, CO 80906, USA",
        "num_identification_agreements": 3
      },
      "geometry": {
        "type": "Point",
        "coordinates": [
          -104.86556251,
          38.79110895
        ]
      }
    }
  ]
}