{
  "type": "FeatureCollection",
  "features": [
    {
      "type": "Feature",
      "properties": {
        "uuid": "24ef4794-1c02-4a3c-81e1-c4af5fa19f01",
        "inat_id": 235612369,
        "timestamp": "2024-08-13T15:37:30-06:00",
        "date": "2024-08-13",
        "olc": "85FPGPRG+",
        "elevation": 2449.0,
        "tavg": null,
        "tmin": 16.7,
        "tmax": 28.3,
        "precipitation": null,
        "windspeed": 10.9,
        "winddirection": null,
        "presure": 1013.8,
        "species": "Peckorumyces umbonatus",
        "location": "S Turkey Creek Rd, Morrison, CO, US",
        "num_identification_agreements": 3
      },
      "geometry": {
        "type": "Point",
        "coordinates": [
          -105.2736686173,
          39.5424170438
        ]
      }
    },
    {
      "type": "Feature",
      "properties": {
        "uuid": "997b62e5-9e90-49ab-80ad-b3c2f93b6411",
        "inat_id": 235612278,
        "timestamp": "2024-08-13T15:35:03-06:00",
        "date": "2024-08-13",
        "olc": "85FPGPRG+",
        "elevation": 2449.0,
        "tavg": null,
        "tmin": 16.7,
        "tmax": 28.3,
        "precipitation": null,
        "windspeed": 10.9,
        "winddirection": null,
        "presure": 1013.8,
        "species": "Peckorumyces umbonatus",
        "location": "S Turkey Creek Rd, Morrison, CO, US",
        "num_identification_agreements": 3
      },
      "geometry": {
        "type": "Point",
        "coordinates": [
          -105.2736917028,
          39.5424139639
        ]
      }
    }
  ]
}