{
  "type": "FeatureCollection",
  "features": [
    {
      "type": "Feature",
      "properties": {
        "uuid": "2fad7865-d821-4966-bb41-3cf96b9851b8",
        "inat_id": 85468907,
        "timestamp": "2021-06-30T19:36:22-06:00",
        "date": "2021-06-30",
        "olc": "85FP8J7M+",
        "elevation": 2447.0,
        "tavg": null,
        "tmin": null,
        "tmax": null,
        "precipitation": null,
        "windspeed": null,
        "winddirection": null,
        "presure": null,
        "species": "Rhizopogon rubescens",
        "location": "Wellington Lake, Sedalia, CO, US",
        "num_identification_agreements": 1
      },
      "geometry": {
        "type": "Point",
        "coordinates": [
          -105.3657963,
          39.3149032
        ]
      }
    }
  ]
}