{
  "type": "FeatureCollection",
  "features": [
    {
      "type": "Feature",
      "properties": {
        "uuid": "2a268020-2420-4cf8-8608-e81fd884fe6d",
        "inat_id": 134391298,
        "timestamp": "2022-08-18T14:56:00-06:00",
        "date": "2022-08-18",
        "olc": "859JQ3X6+",
        "elevation": 3100.0,
        "tavg": null,
        "tmin": 9.0,
        "tmax": 23.0,
        "precipitation": 0.6,
        "windspeed": 6.6,
        "winddirection": null,
        "presure": 1032.2,
        "species": "Clavariadelphus occidentalis",
        "location": "Dolores County, CO, USA",
        "num_identification_agreements": 2
      },
      "geometry": {
        "type": "Point",
        "coordinates": [
          -107.9394269997,
          37.7997368997
        ]
      }
    },
    {
      "type": "Feature",
      "properties": {
        "uuid": "cc668b00-9a15-4ef9-822c-b01910d61398",
        "inat_id": 134388434,
        "timestamp": "2022-08-18T14:35:00-06:00",
        "date": "2022-08-18",
        "olc": "859JQ3X6+",
        "elevation": 3100.0,
        "tavg": null,
        "tmin": 9.0,
        "tmax": 23.0,
        "precipitation": 0.6,
        "windspeed": 6.6,
        "winddirection": null,
        "presure": 1032.2,
        "species": "Clavariadelphus occidentalis",
        "location": "Dolores County, CO, USA",
        "num_identification_agreements": 2
      },
      "geometry": {
        "type": "Point",
        "coordinates": [
          -107.9394733997,
          37.7986490997
        ]
      }
    }
  ]
}