{
  "type": "FeatureCollection",
  "features": [
    {
      "type": "Feature",
      "properties": {
        "uuid": "ea444158-e03e-4a86-890b-ea891a919ffe",
        "inat_id": 134777357,
        "timestamp": "2022-08-18T16:52:00-06:00",
        "date": "2022-08-18",
        "olc": "859JR36W+",
        "elevation": 3123.0,
        "tavg": null,
        "tmin": 9.0,
        "tmax": 23.0,
        "precipitation": 0.6,
        "windspeed": 6.6,
        "winddirection": null,
        "presure": 1032.2,
        "species": "Clavariadelphus occidentalis",
        "location": "San Miguel County, CO, USA",
        "num_identification_agreements": 2
      },
      "geometry": {
        "type": "Point",
        "coordinates": [
          -107.9045567997,
          37.811638
        ]
      }
    }
  ]
}