{
  "type": "FeatureCollection",
  "features": [
    {
      "type": "Feature",
      "properties": {
        "uuid": "8cc49439-7068-4de7-97f9-437858392850",
        "inat_id": 241138795,
        "timestamp": "2024-09-03T09:51:00-06:00",
        "date": "2024-09-03",
        "olc": "857PQ5XX+",
        "elevation": 3208.0,
        "tavg": null,
        "tmin": 9.4,
        "tmax": 29.4,
        "precipitation": 0.0,
        "windspeed": 12.3,
        "winddirection": null,
        "presure": 1017.3,
        "species": "Cantharellus cibarius",
        "location": "Santa Fe County, NM, USA",
        "num_identification_agreements": 1
      },
      "geometry": {
        "type": "Point",
        "coordinates": [
          -105.8016805556,
          35.7987777778
        ]
      }
    }
  ]
}