{
  "type": "FeatureCollection",
  "features": [
    {
      "type": "Feature",
      "properties": {
        "uuid": "30cf1793-822e-46c0-a681-e2d0bed6ae47",
        "inat_id": 257502115,
        "timestamp": "2024-08-31T14:56:02-06:00",
        "date": "2024-08-31",
        "olc": "858PRQ3F+",
        "elevation": 3369.0,
        "tavg": null,
        "tmin": 2.6,
        "tmax": 23.2,
        "precipitation": null,
        "windspeed": 4.4,
        "winddirection": null,
        "presure": null,
        "species": "Cantharellus cibarius",
        "location": "Taos County, US-NM, US",
        "num_identification_agreements": 2
      },
      "geometry": {
        "type": "Point",
        "coordinates": [
          -105.2274033333,
          36.8046833333
        ]
      }
    }
  ]
}