{
  "type": "FeatureCollection",
  "features": [
    {
      "type": "Feature",
      "properties": {
        "uuid": "27cb7167-8d03-4747-b022-cac06c405a53",
        "inat_id": 244428384,
        "timestamp": "2024-09-10T14:40:34-06:00",
        "date": "2024-09-10",
        "olc": "85GJ3JQ8+",
        "elevation": 2965.0,
        "tavg": null,
        "tmin": 6.1,
        "tmax": 26.1,
        "precipitation": 0.0,
        "windspeed": 9.1,
        "winddirection": null,
        "presure": 1015.6,
        "species": "Cantharellus cibarius",
        "location": "Colorado, US",
        "num_identification_agreements": 2
      },
      "geometry": {
        "type": "Point",
        "coordinates": [
          -107.3848604474,
          40.0898046817
        ]
      }
    }
  ]
}