{
  "type": "FeatureCollection",
  "features": [
    {
      "type": "Feature",
      "properties": {
        "uuid": "82a69162-0418-4e9e-9162-618ceaac52fa",
        "inat_id": 304868133,
        "timestamp": "2025-08-08T09:10:02-06:00",
        "date": "2025-08-08",
        "olc": "857MWJ64+",
        "elevation": 2884.0,
        "tavg": null,
        "tmin": 20.9,
        "tmax": 32.5,
        "precipitation": 0.8,
        "windspeed": 13.7,
        "winddirection": null,
        "presure": 1025.1,
        "species": "Floccularia albolanaripes",
        "location": "Los Alamos County, NM, USA",
        "num_identification_agreements": 2
      },
      "geometry": {
        "type": "Point",
        "coordinates": [
          -106.3930940997,
          35.9100950997
        ]
      }
    }
  ]
}