{
  "type": "FeatureCollection",
  "features": [
    {
      "type": "Feature",
      "properties": {
        "uuid": "02c8a1f9-8a31-4c61-826c-fac73dd44e79",
        "inat_id": 232548498,
        "timestamp": "2024-07-23T10:54:00-06:00",
        "date": "2024-07-23",
        "olc": "857PQ5WW+",
        "elevation": 3149.0,
        "tavg": null,
        "tmin": 13.3,
        "tmax": 31.1,
        "precipitation": 0.8,
        "windspeed": 14.9,
        "winddirection": null,
        "presure": 1017.5,
        "species": "Floccularia albolanaripes",
        "location": "Santa Fe County, NM, USA",
        "num_identification_agreements": 1
      },
      "geometry": {
        "type": "Point",
        "coordinates": [
          -105.8034834149,
          35.7964412521
        ]
      }
    }
  ]
}