{
  "type": "FeatureCollection",
  "features": [
    {
      "type": "Feature",
      "properties": {
        "uuid": "2758dbf9-3afc-4b4e-b553-0548ef203c7b",
        "inat_id": 309799876,
        "timestamp": "2025-08-27T12:22:00-06:00",
        "date": "2025-08-27",
        "olc": "857PQ6X2+",
        "elevation": 3249.0,
        "tavg": null,
        "tmin": 15.0,
        "tmax": 26.0,
        "precipitation": 1.6,
        "windspeed": 10.3,
        "winddirection": null,
        "presure": 1026.5,
        "species": "Floccularia albolanaripes",
        "location": "Santa Fe, New Mexico, United States",
        "num_identification_agreements": 1
      },
      "geometry": {
        "type": "Point",
        "coordinates": [
          -105.79966111,
          35.79828889
        ]
      }
    },
    {
      "type": "Feature",
      "properties": {
        "uuid": "e42ef0cc-4213-490f-8da5-9322f2f02de0",
        "inat_id": 301931195,
        "timestamp": "2025-07-25T12:14:00-06:00",
        "date": "2025-07-25",
        "olc": "857PQ6X2+",
        "elevation": 3249.0,
        "tavg": null,
        "tmin": 11.7,
        "tmax": 31.7,
        "precipitation": 0.0,
        "windspeed": 10.7,
        "winddirection": null,
        "presure": 1013.9,
        "species": "Floccularia albolanaripes",
        "location": "Santa Fe County, NM, USA",
        "num_identification_agreements": 1
      },
      "geometry": {
        "type": "Point",
        "coordinates": [
          -105.79975,
          35.7985916667
        ]
      }
    }
  ]
}