{
  "type": "FeatureCollection",
  "features": [
    {
      "type": "Feature",
      "properties": {
        "uuid": "471a9595-404e-4a1e-bf21-9f721ea648cb",
        "inat_id": 387343369,
        "timestamp": "2026-08-01T13:01:08-06:00",
        "date": "2026-08-01",
        "olc": "858P4G73+",
        "elevation": 2657.0,
        "tavg": null,
        "tmin": 8.7,
        "tmax": 24.1,
        "precipitation": 2.7,
        "windspeed": 3.2,
        "winddirection": null,
        "presure": null,
        "species": "Floccularia albolanaripes",
        "location": "Agua Sarca Trail, Vadito, NM, US",
        "num_identification_agreements": 1
      },
      "geometry": {
        "type": "Point",
        "coordinates": [
          -105.4960730372,
          36.114389253
        ]
      }
    }
  ]
}