{
  "type": "FeatureCollection",
  "features": [
    {
      "type": "Feature",
      "properties": {
        "uuid": "4337cf6a-d0b2-4524-9b66-0a2b420ec47c",
        "inat_id": 95832601,
        "timestamp": "2021-08-18T17:31:32-07:00",
        "date": "2021-08-18",
        "olc": "859JW5JW+",
        "elevation": 2751.0,
        "tavg": null,
        "tmin": 11.0,
        "tmax": 21.0,
        "precipitation": 7.6,
        "windspeed": 4.9,
        "winddirection": null,
        "presure": 1025.8,
        "species": "Floccularia albolanaripes",
        "location": "Grand Mesa Uncompahgre and Gunnison National Forests, Telluride, CO, US",
        "num_identification_agreements": 2
      },
      "geometry": {
        "type": "Point",
        "coordinates": [
          -107.8044583333,
          37.9302866667
        ]
      }
    }
  ]
}