{
  "type": "FeatureCollection",
  "features": [
    {
      "type": "Feature",
      "properties": {
        "uuid": "3d8b4934-f613-40cf-a25f-414348d4b6ac",
        "inat_id": 237004219,
        "timestamp": "2024-08-19T12:24:43-06:00",
        "date": "2024-08-19",
        "olc": "85FPFJXG+",
        "elevation": 2557.0,
        "tavg": null,
        "tmin": 17.2,
        "tmax": 29.4,
        "precipitation": null,
        "windspeed": 12.0,
        "winddirection": null,
        "presure": 1017.6,
        "species": "Floccularia albolanaripes",
        "location": "Staunton State Park, Pine, CO, US",
        "num_identification_agreements": 3
      },
      "geometry": {
        "type": "Point",
        "coordinates": [
          -105.3726267946,
          39.4994963921
        ]
      }
    }
  ]
}