{
  "type": "FeatureCollection",
  "features": [
    {
      "type": "Feature",
      "properties": {
        "uuid": "da94b4bc-2150-4497-a79a-d3ad4a948be8",
        "inat_id": 308646596,
        "timestamp": "2025-08-21T03:13:00-06:00",
        "date": "2025-08-21",
        "olc": "85FPG7C2+",
        "elevation": 3074.0,
        "tavg": null,
        "tmin": 8.0,
        "tmax": 18.7,
        "precipitation": 0.0,
        "windspeed": 10.6,
        "winddirection": null,
        "presure": 1022.4,
        "species": "Floccularia albolanaripes",
        "location": "Dillon, CO 80435, USA",
        "num_identification_agreements": 1
      },
      "geometry": {
        "type": "Point",
        "coordinates": [
          -105.7491618767,
          39.522250513
        ]
      }
    }
  ]
}