{
  "type": "FeatureCollection",
  "features": [
    {
      "type": "Feature",
      "properties": {
        "uuid": "48dbcbfe-2094-45bb-ba37-039da53cca2b",
        "inat_id": 238664399,
        "timestamp": "2024-08-27T12:54:00-06:00",
        "date": "2024-08-27",
        "olc": "85FPXCJC+",
        "elevation": 3068.0,
        "tavg": null,
        "tmin": 13.2,
        "tmax": 30.0,
        "precipitation": null,
        "windspeed": 6.5,
        "winddirection": null,
        "presure": null,
        "species": "Floccularia albolanaripes",
        "location": "Boulder County, CO, USA",
        "num_identification_agreements": 1
      },
      "geometry": {
        "type": "Point",
        "coordinates": [
          -105.5791583333,
          39.9822166667
        ]
      }
    }
  ]
}