{
  "type": "FeatureCollection",
  "features": [
    {
      "type": "Feature",
      "properties": {
        "uuid": "3077182d-06cf-48bf-a058-732c3c0fb707",
        "inat_id": 178269912,
        "timestamp": "2023-08-13T11:30:52-06:00",
        "date": "2023-08-13",
        "olc": "85FPXCM8+",
        "elevation": 3031.0,
        "tavg": null,
        "tmin": 2.8,
        "tmax": 13.4,
        "precipitation": 2.9,
        "windspeed": 13.5,
        "winddirection": null,
        "presure": 1022.9,
        "species": "Floccularia albolanaripes",
        "location": "Boulder County, US-CO, US",
        "num_identification_agreements": 1
      },
      "geometry": {
        "type": "Point",
        "coordinates": [
          -105.5847630401,
          39.9842157955
        ]
      }
    }
  ]
}