{
  "type": "FeatureCollection",
  "features": [
    {
      "type": "Feature",
      "properties": {
        "uuid": "a37c11e9-6745-4e1d-bae3-a353cfff0acc",
        "inat_id": 307408258,
        "timestamp": "2025-07-27T14:42:17-06:00",
        "date": "2025-07-27",
        "olc": "857PR8RR+",
        "elevation": 2702.0,
        "tavg": null,
        "tmin": 13.9,
        "tmax": 33.9,
        "precipitation": 0.0,
        "windspeed": 9.8,
        "winddirection": null,
        "presure": 1013.4,
        "species": "Cantharellus roseocanus",
        "location": "Iron Gate Rd, Tererro, NM, US",
        "num_identification_agreements": 2
      },
      "geometry": {
        "type": "Point",
        "coordinates": [
          -105.6579583333,
          35.8409466667
        ]
      }
    }
  ]
}