{
  "type": "FeatureCollection",
  "features": [
    {
      "type": "Feature",
      "properties": {
        "uuid": "d59fe56a-3978-4d41-882d-45ffaa148b64",
        "inat_id": 131658998,
        "timestamp": "2022-08-19T17:29:13-06:00",
        "date": "2022-08-19",
        "olc": "857PR6HG+",
        "elevation": 3336.0,
        "tavg": null,
        "tmin": 11.7,
        "tmax": 26.1,
        "precipitation": 0.0,
        "windspeed": 10.0,
        "winddirection": null,
        "presure": 1013.7,
        "species": "Cantharellus roseocanus",
        "location": "Santa Fe National Forest, Santa Fe, NM, US",
        "num_identification_agreements": 1
      },
      "geometry": {
        "type": "Point",
        "coordinates": [
          -105.7737416667,
          35.828005
        ]
      }
    }
  ]
}