{
  "type": "FeatureCollection",
  "features": [
    {
      "type": "Feature",
      "properties": {
        "uuid": "6fabfe3c-90a0-4a5c-8b11-c6f3fc7b54af",
        "inat_id": 235825941,
        "timestamp": "2024-08-14T10:34:00-06:00",
        "date": "2024-08-14",
        "olc": "857PQ6F6+",
        "elevation": 3474.0,
        "tavg": null,
        "tmin": 15.6,
        "tmax": 30.0,
        "precipitation": null,
        "windspeed": 15.7,
        "winddirection": null,
        "presure": 1013.9,
        "species": "Cantharellus roseocanus",
        "location": "Santa Fe County, NM, USA",
        "num_identification_agreements": 1
      },
      "geometry": {
        "type": "Point",
        "coordinates": [
          -105.7891472222,
          35.7731694444
        ]
      }
    }
  ]
}