{
  "type": "FeatureCollection",
  "features": [
    {
      "type": "Feature",
      "properties": {
        "uuid": "30fbbfad-5589-46a8-9688-f9f96453b6fd",
        "inat_id": 309092069,
        "timestamp": "2025-08-10",
        "date": "2025-08-10",
        "olc": "857PQ5WX+",
        "elevation": 3166.0,
        "tavg": null,
        "tmin": 15.6,
        "tmax": 33.3,
        "precipitation": 0.0,
        "windspeed": 12.2,
        "winddirection": null,
        "presure": 1010.4,
        "species": "Cantharellus roseocanus",
        "location": "Santa Fe County, US-NM, US",
        "num_identification_agreements": 2
      },
      "geometry": {
        "type": "Point",
        "coordinates": [
          -105.801523,
          35.795891
        ]
      }
    }
  ]
}