{
  "type": "FeatureCollection",
  "features": [
    {
      "type": "Feature",
      "properties": {
        "uuid": "3f577e7d-e1bc-41c5-9c7f-13f63eb445d9",
        "inat_id": 88742629,
        "timestamp": "2021-07-26T15:24:00+00:00",
        "date": "2021-07-26",
        "olc": "858MPQ48+",
        "elevation": 2973.0,
        "tavg": null,
        "tmin": null,
        "tmax": null,
        "precipitation": null,
        "windspeed": null,
        "winddirection": null,
        "presure": null,
        "species": "Cantharellus roseocanus",
        "location": "Hopewell Lake",
        "num_identification_agreements": 1
      },
      "geometry": {
        "type": "Point",
        "coordinates": [
          -106.2341957912,
          36.7062854931
        ]
      }
    }
  ]
}