{
  "type": "FeatureCollection",
  "features": [
    {
      "type": "Feature",
      "properties": {
        "uuid": "7e2f7413-8288-456f-870e-f1a5d98c283f",
        "inat_id": 236995780,
        "timestamp": "2024-08-14T09:55:36-06:00",
        "date": "2024-08-14",
        "olc": "859HQXFV+",
        "elevation": 3062.0,
        "tavg": null,
        "tmin": 9.0,
        "tmax": 20.0,
        "precipitation": 0.1,
        "windspeed": 7.9,
        "winddirection": null,
        "presure": 1032.4,
        "species": "Cantharellus roseocanus",
        "location": "San Juan National Forest - Headquarters, Dolores, CO, US",
        "num_identification_agreements": 1
      },
      "geometry": {
        "type": "Point",
        "coordinates": [
          -108.0063591536,
          37.7739421863
        ]
      }
    }
  ]
}