{
  "type": "FeatureCollection",
  "features": [
    {
      "type": "Feature",
      "properties": {
        "uuid": "48c28cc8-73d9-4cdf-9365-73a687b9d55e",
        "inat_id": 178118223,
        "timestamp": "2015-08-14T07:55:28-06:00",
        "date": "2015-08-14",
        "olc": "859JW5C8+",
        "elevation": 3264.0,
        "tavg": null,
        "tmin": 11.1,
        "tmax": 24.9,
        "precipitation": null,
        "windspeed": 6.7,
        "winddirection": null,
        "presure": null,
        "species": "Cantharellus roseocanus",
        "location": "Telluride Ski Resort, Telluride, CO, US",
        "num_identification_agreements": 1
      },
      "geometry": {
        "type": "Point",
        "coordinates": [
          -107.8329383333,
          37.9213133333
        ]
      }
    }
  ]
}