{
  "type": "FeatureCollection",
  "features": [
    {
      "type": "Feature",
      "properties": {
        "uuid": "81d24e0b-413d-40e4-afd7-0216ad7f210d",
        "inat_id": 239232178,
        "timestamp": "2024-08-31T18:44:02-06:00",
        "date": "2024-08-31",
        "olc": "859JJ334+",
        "elevation": 2886.0,
        "tavg": null,
        "tmin": 8.0,
        "tmax": 22.0,
        "precipitation": null,
        "windspeed": 5.6,
        "winddirection": null,
        "presure": null,
        "species": "Cantharellus roseocanus",
        "location": "Colorado, US",
        "num_identification_agreements": 1
      },
      "geometry": {
        "type": "Point",
        "coordinates": [
          -107.9428872083,
          37.6035899834
        ]
      }
    }
  ]
}