{
  "type": "FeatureCollection",
  "features": [
    {
      "type": "Feature",
      "properties": {
        "uuid": "ef9df5e9-024a-4981-bd3e-15a83140577b",
        "inat_id": 239236324,
        "timestamp": "2024-09-01T10:02:33-06:00",
        "date": "2024-09-01",
        "olc": "859JQ2RX+",
        "elevation": 3209.0,
        "tavg": null,
        "tmin": 11.0,
        "tmax": 22.0,
        "precipitation": null,
        "windspeed": 4.4,
        "winddirection": null,
        "presure": null,
        "species": "Cantharellus roseocanus",
        "location": "Colorado, US",
        "num_identification_agreements": 1
      },
      "geometry": {
        "type": "Point",
        "coordinates": [
          -107.951247943,
          37.7920061193
        ]
      }
    }
  ]
}