{
  "type": "FeatureCollection",
  "features": [
    {
      "type": "Feature",
      "properties": {
        "uuid": "73563a75-46d1-4e27-a956-98fac18fcfb2",
        "inat_id": 239232859,
        "timestamp": "2024-08-31T19:00:17-06:00",
        "date": "2024-08-31",
        "olc": "859JJ3Q3+",
        "elevation": 3074.0,
        "tavg": null,
        "tmin": 8.0,
        "tmax": 22.0,
        "precipitation": null,
        "windspeed": 5.6,
        "winddirection": null,
        "presure": null,
        "species": "Cantharellus roseocanus",
        "location": "Colorado, US",
        "num_identification_agreements": 1
      },
      "geometry": {
        "type": "Point",
        "coordinates": [
          -107.9469898292,
          37.6380931532
        ]
      }
    }
  ]
}