{
  "type": "FeatureCollection",
  "features": [
    {
      "type": "Feature",
      "properties": {
        "uuid": "484e3d8e-6674-41de-8890-50f387be738e",
        "inat_id": 236726511,
        "timestamp": "2024-08-17T10:01:33-06:00",
        "date": "2024-08-17",
        "olc": "859JR4V3+",
        "elevation": 3267.0,
        "tavg": null,
        "tmin": 12.0,
        "tmax": 23.0,
        "precipitation": 4.9,
        "windspeed": 9.4,
        "winddirection": null,
        "presure": 1034.5,
        "species": "Cantharellus roseocanus",
        "location": "Colorado, US",
        "num_identification_agreements": 2
      },
      "geometry": {
        "type": "Point",
        "coordinates": [
          -107.8952974716,
          37.8446477674
        ]
      }
    }
  ]
}