{
  "type": "FeatureCollection",
  "features": [
    {
      "type": "Feature",
      "properties": {
        "uuid": "8b7b06d0-66a9-40f8-a63b-c10217d46ad7",
        "inat_id": 391524848,
        "timestamp": "2026-08-04T16:56:54-06:00",
        "date": "2026-08-04",
        "olc": "859J6996+",
        "elevation": 2089.0,
        "tavg": null,
        "tmin": 13.3,
        "tmax": 36.1,
        "precipitation": 0.0,
        "windspeed": 6.1,
        "winddirection": null,
        "presure": 1008.2,
        "species": "Cantharellus roseocanus",
        "location": "Bayfield",
        "num_identification_agreements": 1
      },
      "geometry": {
        "type": "Point",
        "coordinates": [
          -107.6378707886,
          37.2189903259
        ]
      }
    }
  ]
}