{
  "type": "FeatureCollection",
  "features": [
    {
      "type": "Feature",
      "properties": {
        "uuid": "b6f7ef43-97a3-4a4d-a27a-e0d8d86a6f83",
        "inat_id": 229040223,
        "timestamp": "2010-09-01T11:36:00-06:00",
        "date": "2010-09-01",
        "olc": "859MF6F8+",
        "elevation": 3157.0,
        "tavg": null,
        "tmin": null,
        "tmax": null,
        "precipitation": null,
        "windspeed": null,
        "winddirection": null,
        "presure": null,
        "species": "Cantharellus roseocanus",
        "location": "Mineral County, CO, USA",
        "num_identification_agreements": 2
      },
      "geometry": {
        "type": "Point",
        "coordinates": [
          -106.7839862311,
          37.4745192992
        ]
      }
    }
  ]
}