{
  "type": "FeatureCollection",
  "features": [
    {
      "type": "Feature",
      "properties": {
        "uuid": "369d475b-f649-44b5-a5b7-74a1b4b26041",
        "inat_id": 236845439,
        "timestamp": "2024-07-27T20:04:30-06:00",
        "date": "2024-07-27",
        "olc": "859MG5RR+",
        "elevation": 2923.0,
        "tavg": null,
        "tmin": 5.0,
        "tmax": 15.0,
        "precipitation": 7.6,
        "windspeed": 14.6,
        "winddirection": null,
        "presure": 1036.3,
        "species": "Cantharellus roseocanus",
        "location": "Rio Grande National Forest, Creede, CO, US",
        "num_identification_agreements": 3
      },
      "geometry": {
        "type": "Point",
        "coordinates": [
          -106.8088387212,
          37.5406429002
        ]
      }
    }
  ]
}