{
  "type": "FeatureCollection",
  "features": [
    {
      "type": "Feature",
      "properties": {
        "uuid": "4ee6fd0d-e7eb-4141-adaf-3a6f23d4bb73",
        "inat_id": 133533344,
        "timestamp": "2022-09-03T15:06:13-06:00",
        "date": "2022-09-03",
        "olc": "859M2G9X+",
        "elevation": 3065.0,
        "tavg": null,
        "tmin": null,
        "tmax": null,
        "precipitation": null,
        "windspeed": null,
        "winddirection": null,
        "presure": null,
        "species": "Cantharellus roseocanus",
        "location": "Rio Grande National Forest, Antonito, CO, US",
        "num_identification_agreements": 2
      },
      "geometry": {
        "type": "Point",
        "coordinates": [
          -106.4519496491,
          37.019669949
        ]
      }
    }
  ]
}