{
  "type": "FeatureCollection",
  "features": [
    {
      "type": "Feature",
      "properties": {
        "uuid": "7ec10de6-0b40-4a69-80be-c70504148ae6",
        "inat_id": 296782118,
        "timestamp": "2024-09-02T14:58:39-06:00",
        "date": "2024-09-02",
        "olc": "859PWXHH+",
        "elevation": 3104.0,
        "tavg": null,
        "tmin": null,
        "tmax": null,
        "precipitation": null,
        "windspeed": null,
        "winddirection": null,
        "presure": null,
        "species": "Cantharellus roseocanus",
        "location": "Rye, CO 81069, USA",
        "num_identification_agreements": 1
      },
      "geometry": {
        "type": "Point",
        "coordinates": [
          -105.0213109722,
          37.927542
        ]
      }
    }
  ]
}