{
  "type": "FeatureCollection",
  "features": [
    {
      "type": "Feature",
      "properties": {
        "uuid": "a002637e-ce19-4cad-8dda-75d6e24b2788",
        "inat_id": 303607405,
        "timestamp": "2025-08-01T17:29:07-06:00",
        "date": "2025-08-01",
        "olc": "859PXRJJ+",
        "elevation": 3165.0,
        "tavg": null,
        "tmin": 13.0,
        "tmax": 30.0,
        "precipitation": 0.8,
        "windspeed": 6.5,
        "winddirection": null,
        "presure": 1021.2,
        "species": "Cantharellus roseocanus",
        "location": "Colorado, US",
        "num_identification_agreements": 1
      },
      "geometry": {
        "type": "Point",
        "coordinates": [
          -105.1689663598,
          37.9800366944
        ]
      }
    }
  ]
}