{
  "type": "FeatureCollection",
  "features": [
    {
      "type": "Feature",
      "properties": {
        "uuid": "e66ce9c1-2b61-4368-a631-f5143980ad21",
        "inat_id": 171485811,
        "timestamp": "2022-08-09T09:04:22-06:00",
        "date": "2022-08-09",
        "olc": "85CMX2FC+",
        "elevation": 3323.0,
        "tavg": null,
        "tmin": 10.0,
        "tmax": 30.0,
        "precipitation": 0.0,
        "windspeed": 9.9,
        "winddirection": null,
        "presure": 1015.4,
        "species": "Cantharellus roseocanus",
        "location": "Grand Mesa Uncompahgre and Gunnison National Forests, Crested Butte, CO, US",
        "num_identification_agreements": 2
      },
      "geometry": {
        "type": "Point",
        "coordinates": [
          -106.9795539019,
          38.9743768994
        ]
      }
    }
  ]
}