{
  "type": "FeatureCollection",
  "features": [
    {
      "type": "Feature",
      "properties": {
        "uuid": "a0454ccb-d22b-4d83-81e3-68c35efddb9e",
        "inat_id": 129697150,
        "timestamp": "2022-08-06T10:48:37-06:00",
        "date": "2022-08-06",
        "olc": "85CP3CHF+",
        "elevation": 2921.0,
        "tavg": null,
        "tmin": null,
        "tmax": null,
        "precipitation": null,
        "windspeed": null,
        "winddirection": null,
        "presure": null,
        "species": "Cantharellus roseocanus",
        "location": "Pike and San Isabel National Forests, Westcliffe, CO, US",
        "num_identification_agreements": 1
      },
      "geometry": {
        "type": "Point",
        "coordinates": [
          -105.5762466667,
          38.0797528333
        ]
      }
    }
  ]
}