{
  "type": "FeatureCollection",
  "features": [
    {
      "type": "Feature",
      "properties": {
        "uuid": "791e25e4-7e38-4d74-9056-9dd559219255",
        "inat_id": 309414539,
        "timestamp": "2025-08-26T14:38:23-06:00",
        "date": "2025-08-26",
        "olc": "85CQP3R2+",
        "elevation": 3052.0,
        "tavg": null,
        "tmin": 13.0,
        "tmax": 15.0,
        "precipitation": 3.2,
        "windspeed": 9.6,
        "winddirection": null,
        "presure": 1027.7,
        "species": "Cantharellus roseocanus",
        "location": "Manitou Springs, CO 80829, USA",
        "num_identification_agreements": 1
      },
      "geometry": {
        "type": "Point",
        "coordinates": [
          -104.949577,
          38.7424041
        ]
      }
    }
  ]
}