{
  "type": "FeatureCollection",
  "features": [
    {
      "type": "Feature",
      "properties": {
        "uuid": "d83b69ca-f953-41ec-89e0-30540dab8234",
        "inat_id": 385783705,
        "timestamp": "2026-07-27T12:19:17-06:00",
        "date": "2026-07-27",
        "olc": "85FH3X8M+",
        "elevation": 3100.0,
        "tavg": null,
        "tmin": 18.1,
        "tmax": 36.1,
        "precipitation": 3.2,
        "windspeed": 3.0,
        "winddirection": null,
        "presure": 1010.9,
        "species": "Cantharellus roseocanus",
        "location": "Lake of the Woods Trail, Molina, CO, US",
        "num_identification_agreements": 1
      },
      "geometry": {
        "type": "Point",
        "coordinates": [
          -108.0168916667,
          39.0665195
        ]
      }
    }
  ]
}