{
  "type": "FeatureCollection",
  "features": [
    {
      "type": "Feature",
      "properties": {
        "uuid": "4692c78f-4364-405d-8d89-a9e2b746dd4a",
        "inat_id": 261896181,
        "timestamp": "2022-08-08T16:57:20-06:00",
        "date": "2022-08-08",
        "olc": "85FJ22WM+",
        "elevation": 3159.0,
        "tavg": null,
        "tmin": 18.7,
        "tmax": 37.2,
        "precipitation": 0.0,
        "windspeed": 10.1,
        "winddirection": null,
        "presure": 1022.2,
        "species": "Cantharellus roseocanus",
        "location": "Grand Mesa Uncompahgre and Gunnison National Forests, Cedaredge, CO, US",
        "num_identification_agreements": 1
      },
      "geometry": {
        "type": "Point",
        "coordinates": [
          -107.9654759826,
          39.0459447244
        ]
      }
    }
  ]
}