{
  "type": "FeatureCollection",
  "features": [
    {
      "type": "Feature",
      "properties": {
        "uuid": "49c29295-4452-48e5-8da0-132be18ee8d6",
        "inat_id": 132588557,
        "timestamp": "2022-08-27T09:23:07-06:00",
        "date": "2022-08-27",
        "olc": "85FJ22W5+",
        "elevation": 3233.0,
        "tavg": null,
        "tmin": 11.8,
        "tmax": 31.0,
        "precipitation": 0.0,
        "windspeed": 8.7,
        "winddirection": null,
        "presure": 1018.8,
        "species": "Cantharellus roseocanus",
        "location": "Delta County, US-CO, US",
        "num_identification_agreements": 1
      },
      "geometry": {
        "type": "Point",
        "coordinates": [
          -107.99147924,
          39.04690266
        ]
      }
    }
  ]
}