{
  "type": "FeatureCollection",
  "features": [
    {
      "type": "Feature",
      "properties": {
        "uuid": "5c0c763a-e6e4-4e6e-8109-6444979f36d6",
        "inat_id": 175428268,
        "timestamp": "2023-07-28T11:15:38-06:00",
        "date": "2023-07-28",
        "olc": "85FPQFP5+",
        "elevation": 2964.0,
        "tavg": null,
        "tmin": 2.2,
        "tmax": 16.5,
        "precipitation": 5.3,
        "windspeed": 12.0,
        "winddirection": null,
        "presure": 1024.0,
        "species": "Cantharellus roseocanus",
        "location": "Colorado, US",
        "num_identification_agreements": 2
      },
      "geometry": {
        "type": "Point",
        "coordinates": [
          -105.5412635279,
          39.7857124949
        ]
      }
    }
  ]
}