{
  "type": "FeatureCollection",
  "features": [
    {
      "type": "Feature",
      "properties": {
        "uuid": "179aecd2-3ee4-4602-863d-24b453546c53",
        "inat_id": 176904545,
        "timestamp": "2023-08-04T09:59:48-06:00",
        "date": "2023-08-04",
        "olc": "85FPFMR9+",
        "elevation": 2616.0,
        "tavg": null,
        "tmin": 15.0,
        "tmax": 28.9,
        "precipitation": 0.0,
        "windspeed": 7.8,
        "winddirection": null,
        "presure": 1014.2,
        "species": "Cantharellus roseocanus",
        "location": "Colorado, US",
        "num_identification_agreements": 1
      },
      "geometry": {
        "type": "Point",
        "coordinates": [
          -105.3314811512,
          39.4914040987
        ]
      }
    }
  ]
}