{
  "type": "FeatureCollection",
  "features": [
    {
      "type": "Feature",
      "properties": {
        "uuid": "349f4527-c975-43b4-8738-e120c58f8860",
        "inat_id": 129265082,
        "timestamp": "2022-08-02T17:52:50-06:00",
        "date": "2022-08-02",
        "olc": "85FP6MCM+",
        "elevation": 2359.0,
        "tavg": null,
        "tmin": 6.7,
        "tmax": 21.6,
        "precipitation": 0.4,
        "windspeed": 10.6,
        "winddirection": null,
        "presure": 1015.6,
        "species": "Cantharellus roseocanus",
        "location": "Colorado, US",
        "num_identification_agreements": 2
      },
      "geometry": {
        "type": "Point",
        "coordinates": [
          -105.3169169465,
          39.2222352518
        ]
      }
    }
  ]
}