{
  "type": "FeatureCollection",
  "features": [
    {
      "type": "Feature",
      "properties": {
        "uuid": "cdd4395a-d583-40d8-ac26-77f6107342d3",
        "inat_id": 308899120,
        "timestamp": "2025-08-24T15:53:00-06:00",
        "date": "2025-08-24",
        "olc": "85FP6V3X+",
        "elevation": 2500.0,
        "tavg": null,
        "tmin": 12.3,
        "tmax": 25.6,
        "precipitation": 3.8,
        "windspeed": 7.3,
        "winddirection": null,
        "presure": 1017.8,
        "species": "Cantharellus roseocanus",
        "location": "Colorado, US",
        "num_identification_agreements": 2
      },
      "geometry": {
        "type": "Point",
        "coordinates": [
          -105.1002105425,
          39.2026742871
        ]
      }
    }
  ]
}