{
  "type": "FeatureCollection",
  "features": [
    {
      "type": "Feature",
      "properties": {
        "uuid": "8144a2ef-9bae-4fb0-b023-81d610d2fa36",
        "inat_id": 131847059,
        "timestamp": "2022-08-21T12:33:14-06:00",
        "date": "2022-08-21",
        "olc": "85FPWC4X+",
        "elevation": 2900.0,
        "tavg": null,
        "tmin": 0.5,
        "tmax": 10.3,
        "precipitation": 8.8,
        "windspeed": 4.8,
        "winddirection": null,
        "presure": 1023.6,
        "species": "Cantharellus roseocanus",
        "location": "Colorado, US",
        "num_identification_agreements": 4
      },
      "geometry": {
        "type": "Point",
        "coordinates": [
          -105.552156659,
          39.9055961377
        ]
      }
    }
  ]
}