{
  "type": "FeatureCollection",
  "features": [
    {
      "type": "Feature",
      "properties": {
        "uuid": "9db8366c-84ff-4688-8185-1fd01deba0ab",
        "inat_id": 388077495,
        "timestamp": "2026-08-03T16:52:38-06:00",
        "date": "2026-08-03",
        "olc": "85FPW6CG+",
        "elevation": 2785.0,
        "tavg": null,
        "tmin": 6.0,
        "tmax": 18.0,
        "precipitation": 2.6,
        "windspeed": 17.0,
        "winddirection": null,
        "presure": null,
        "species": "Cantharellus roseocanus",
        "location": "Colorado, US",
        "num_identification_agreements": 1
      },
      "geometry": {
        "type": "Point",
        "coordinates": [
          -105.7734899124,
          39.922400981
        ]
      }
    }
  ]
}