{
  "type": "FeatureCollection",
  "features": [
    {
      "type": "Feature",
      "properties": {
        "uuid": "cbb2895c-b09d-457f-b3b1-237412f3cfea",
        "inat_id": 176906839,
        "timestamp": "2023-08-04T11:27:18-06:00",
        "date": "2023-08-04",
        "olc": "85FPFMGV+",
        "elevation": 2718.0,
        "tavg": null,
        "tmin": 15.0,
        "tmax": 28.9,
        "precipitation": 0.0,
        "windspeed": 7.8,
        "winddirection": null,
        "presure": 1014.2,
        "species": "Cantharellus roseocanus",
        "location": "Colorado, US",
        "num_identification_agreements": 1
      },
      "geometry": {
        "type": "Point",
        "coordinates": [
          -105.3073994188,
          39.4770738938
        ]
      }
    }
  ]
}