{
  "type": "FeatureCollection",
  "features": [
    {
      "type": "Feature",
      "properties": {
        "uuid": "b322e429-e685-4933-89bc-89b1deb3fdef",
        "inat_id": 176905311,
        "timestamp": "2023-08-04T10:29:43-06:00",
        "date": "2023-08-04",
        "olc": "85FPCJ89+",
        "elevation": 2199.0,
        "tavg": null,
        "tmin": 5.0,
        "tmax": 20.0,
        "precipitation": 0.1,
        "windspeed": 12.8,
        "winddirection": null,
        "presure": 1017.7,
        "species": "Cantharellus roseocanus",
        "location": "Colorado, US",
        "num_identification_agreements": 1
      },
      "geometry": {
        "type": "Point",
        "coordinates": [
          -105.3815158638,
          39.4161272394
        ]
      }
    }
  ]
}