{
  "type": "FeatureCollection",
  "features": [
    {
      "type": "Feature",
      "properties": {
        "uuid": "de69330f-4bc0-4d2c-9c6a-b7c83bb88776",
        "inat_id": 139777265,
        "timestamp": "2022-08-08T10:22:00-06:00",
        "date": "2022-08-08",
        "olc": "85FPQ2H5+",
        "elevation": 2813.0,
        "tavg": null,
        "tmin": 1.4,
        "tmax": 15.2,
        "precipitation": 0.3,
        "windspeed": 7.8,
        "winddirection": null,
        "presure": 1023.1,
        "species": "Cantharellus roseocanus",
        "location": "Grand, Colorado, United States",
        "num_identification_agreements": 2
      },
      "geometry": {
        "type": "Point",
        "coordinates": [
          -105.9921035699,
          39.77781987
        ]
      }
    }
  ]
}