{
  "type": "FeatureCollection",
  "features": [
    {
      "type": "Feature",
      "properties": {
        "uuid": "0efe96d2-3e4d-4d8d-b30e-63f14796dba9",
        "inat_id": 132190572,
        "timestamp": "2022-08-24T12:48:01-06:00",
        "date": "2022-08-24",
        "olc": "85GM886R+",
        "elevation": 2867.0,
        "tavg": null,
        "tmin": 7.5,
        "tmax": 27.7,
        "precipitation": 0.0,
        "windspeed": 5.3,
        "winddirection": null,
        "presure": 1024.3,
        "species": "Cantharellus roseocanus",
        "location": "Colorado, US",
        "num_identification_agreements": 2
      },
      "geometry": {
        "type": "Point",
        "coordinates": [
          -106.65898406,
          40.311966224
        ]
      }
    }
  ]
}