{
  "type": "FeatureCollection",
  "features": [
    {
      "type": "Feature",
      "properties": {
        "uuid": "d31cb4db-6e35-4417-a7ef-c68bfb8717f6",
        "inat_id": 180575094,
        "timestamp": "2023-08-27T19:05:05-06:00",
        "date": "2023-08-27",
        "olc": "85GP3FFR+",
        "elevation": 2814.0,
        "tavg": null,
        "tmin": 15.0,
        "tmax": 30.0,
        "precipitation": 3.2,
        "windspeed": 6.5,
        "winddirection": null,
        "presure": 1023.8,
        "species": "Cantharellus roseocanus",
        "location": "Ward, CO, USA",
        "num_identification_agreements": 3
      },
      "geometry": {
        "type": "Point",
        "coordinates": [
          -105.5086069554,
          40.0727815718
        ]
      }
    }
  ]
}