{
  "type": "FeatureCollection",
  "features": [
    {
      "type": "Feature",
      "properties": {
        "uuid": "1af3889a-cbbf-46e9-a748-b243ec1df99a",
        "inat_id": 146871001,
        "timestamp": "2022-08-28T14:16:00-06:00",
        "date": "2022-08-28",
        "olc": "85GPR324+",
        "elevation": 2582.0,
        "tavg": null,
        "tmin": 9.3,
        "tmax": 22.5,
        "precipitation": 0.0,
        "windspeed": 12.6,
        "winddirection": null,
        "presure": 1011.6,
        "species": "Cantharellus roseocanus",
        "location": "Larimer County, CO, USA",
        "num_identification_agreements": 3
      },
      "geometry": {
        "type": "Point",
        "coordinates": [
          -105.9440874894,
          40.8015803691
        ]
      }
    }
  ]
}