{
  "type": "FeatureCollection",
  "features": [
    {
      "type": "Feature",
      "properties": {
        "uuid": "265d9409-1bfb-4cbe-93dc-624d29b7ffb8",
        "inat_id": 175837347,
        "timestamp": "2023-07-30T10:38:52-06:00",
        "date": "2023-07-30",
        "olc": "85GP4HH5+",
        "elevation": 2533.0,
        "tavg": null,
        "tmin": 16.0,
        "tmax": 33.0,
        "precipitation": 0.2,
        "windspeed": 4.3,
        "winddirection": null,
        "presure": 1023.2,
        "species": "Cantharellus roseocanus",
        "location": "Ceran St Vrain, Ward, CO, US",
        "num_identification_agreements": 2
      },
      "geometry": {
        "type": "Point",
        "coordinates": [
          -105.441405,
          40.1285666667
        ]
      }
    }
  ]
}