{
  "type": "FeatureCollection",
  "features": [
    {
      "type": "Feature",
      "properties": {
        "uuid": "58e7f4a3-acdd-49b7-a472-ad77d97dbcea",
        "inat_id": 177049101,
        "timestamp": "2023-08-06T10:21:51-06:00",
        "date": "2023-08-06",
        "olc": "85GP4G2M+",
        "elevation": 2719.0,
        "tavg": null,
        "tmin": 16.0,
        "tmax": 20.0,
        "precipitation": 2.5,
        "windspeed": 4.4,
        "winddirection": null,
        "presure": 1026.0,
        "species": "Cantharellus roseocanus",
        "location": "Colorado, US",
        "num_identification_agreements": 2
      },
      "geometry": {
        "type": "Point",
        "coordinates": [
          -105.4661553519,
          40.1015529072
        ]
      }
    }
  ]
}