{
  "type": "FeatureCollection",
  "features": [
    {
      "type": "Feature",
      "properties": {
        "uuid": "fa6f3821-ea4a-4a63-9749-b2f340afe48e",
        "inat_id": 236399800,
        "timestamp": "2024-08-17T13:29:30-06:00",
        "date": "2024-08-17",
        "olc": "859JV4JR+",
        "elevation": 3275.0,
        "tavg": null,
        "tmin": 12.0,
        "tmax": 23.0,
        "precipitation": 4.9,
        "windspeed": 9.4,
        "winddirection": null,
        "presure": 1034.5,
        "species": "Clavariadelphus sachalinensis",
        "location": "Grand Mesa Uncompahgre and Gunnison National Forests, Telluride, CO, US",
        "num_identification_agreements": 2
      },
      "geometry": {
        "type": "Point",
        "coordinates": [
          -107.8587716667,
          37.8801283333
        ]
      }
    }
  ]
}