{
  "type": "FeatureCollection",
  "features": [
    {
      "type": "Feature",
      "properties": {
        "uuid": "1dc48e66-2c0a-422a-a45b-6e0046a4819f",
        "inat_id": 5179346,
        "timestamp": "2014-08-29T06:55:00-07:00",
        "date": "2014-08-29",
        "olc": "859JPQ23+",
        "elevation": 3003.0,
        "tavg": null,
        "tmin": 2.0,
        "tmax": 13.0,
        "precipitation": null,
        "windspeed": 17.0,
        "winddirection": null,
        "presure": null,
        "species": "Clavariadelphus sachalinensis",
        "location": "Hinsdale County, CO, USA",
        "num_identification_agreements": 2
      },
      "geometry": {
        "type": "Point",
        "coordinates": [
          -107.2451019287,
          37.7012752749
        ]
      }
    }
  ]
}