{
  "type": "FeatureCollection",
  "features": [
    {
      "type": "Feature",
      "properties": {
        "uuid": "d412efdd-646e-4543-8ccf-16d011a76c88",
        "inat_id": 238351214,
        "timestamp": "2024-08-27T09:29:40-06:00",
        "date": "2024-08-27",
        "olc": "85CJ5J28+",
        "elevation": 3149.0,
        "tavg": null,
        "tmin": null,
        "tmax": null,
        "precipitation": null,
        "windspeed": null,
        "winddirection": null,
        "presure": null,
        "species": "Clavariadelphus sachalinensis",
        "location": "Grand Mesa Uncompahgre and Gunnison National Forests, Cimarron, CO, US",
        "num_identification_agreements": 3
      },
      "geometry": {
        "type": "Point",
        "coordinates": [
          -107.3833305,
          38.1503642
        ]
      }
    }
  ]
}