{
  "type": "FeatureCollection",
  "features": [
    {
      "type": "Feature",
      "properties": {
        "uuid": "843e0971-00c4-4086-988c-912da72c9a09",
        "inat_id": 309419679,
        "timestamp": "2025-08-26T14:02:18-06:00",
        "date": "2025-08-26",
        "olc": "85CQP3P3+",
        "elevation": 3031.0,
        "tavg": null,
        "tmin": 13.0,
        "tmax": 15.0,
        "precipitation": 3.2,
        "windspeed": 9.6,
        "winddirection": null,
        "presure": 1027.7,
        "species": "Clavariadelphus sachalinensis",
        "location": "Teller County, US-CO, US",
        "num_identification_agreements": 1
      },
      "geometry": {
        "type": "Point",
        "coordinates": [
          -104.94512307,
          38.73661341
        ]
      }
    }
  ]
}