{
  "type": "FeatureCollection",
  "features": [
    {
      "type": "Feature",
      "properties": {
        "uuid": "608f90df-c1df-4df2-a5d6-1a43bfe78618",
        "inat_id": 235967374,
        "timestamp": "2024-08-07T12:09:00-06:00",
        "date": "2024-08-07",
        "olc": "857PQ6W3+",
        "elevation": 3368.0,
        "tavg": null,
        "tmin": 17.2,
        "tmax": 34.4,
        "precipitation": 0.0,
        "windspeed": 16.8,
        "winddirection": null,
        "presure": 1012.0,
        "species": "Hygrophorus erubescens",
        "location": "Santa Fe County, NM, USA",
        "num_identification_agreements": 1
      },
      "geometry": {
        "type": "Point",
        "coordinates": [
          -105.7950361111,
          35.7970805556
        ]
      }
    }
  ]
}