{
  "type": "FeatureCollection",
  "features": [
    {
      "type": "Feature",
      "properties": {
        "uuid": "dcaa437e-eaa0-4cde-8176-31ac501f37bc",
        "inat_id": 134303789,
        "timestamp": "2022-08-20T11:05:50-06:00",
        "date": "2022-08-20",
        "olc": "859JR4M9+",
        "elevation": 2982.0,
        "tavg": null,
        "tmin": 10.0,
        "tmax": 17.0,
        "precipitation": 13.8,
        "windspeed": 5.1,
        "winddirection": null,
        "presure": 1029.5,
        "species": "Hygrophorus erubescens",
        "location": "Ophir, CO 81426, USA",
        "num_identification_agreements": 2
      },
      "geometry": {
        "type": "Point",
        "coordinates": [
          -107.8811916667,
          37.8327194444
        ]
      }
    }
  ]
}