{
  "type": "FeatureCollection",
  "features": [
    {
      "type": "Feature",
      "properties": {
        "uuid": "3dd29400-166d-4ade-9879-cdd97c7ccaf7",
        "inat_id": 133691524,
        "timestamp": "2022-08-26",
        "date": "2022-08-26",
        "olc": "85FM7HM3+",
        "elevation": 3068.0,
        "tavg": null,
        "tmin": 5.6,
        "tmax": 13.9,
        "precipitation": null,
        "windspeed": 6.5,
        "winddirection": null,
        "presure": 1017.6,
        "species": "Hygrophorus erubescens",
        "location": "Colorado. Lake Co., San Isabel National Forest, West end of Turquoise Lake, Timberline Lake trailhead.",
        "num_identification_agreements": 1
      },
      "geometry": {
        "type": "Point",
        "coordinates": [
          -106.4468,
          39.2848
        ]
      }
    }
  ]
}