{
  "type": "FeatureCollection",
  "features": [
    {
      "type": "Feature",
      "properties": {
        "uuid": "3c1d79ec-0aad-42af-931a-fc77bd64e70b",
        "inat_id": 91183715,
        "timestamp": "2021-08-14T11:06:45+00:00",
        "date": "2021-08-14",
        "olc": "85FPQ6WF+",
        "elevation": 3447.0,
        "tavg": null,
        "tmin": 6.0,
        "tmax": 28.3,
        "precipitation": 0.0,
        "windspeed": 7.2,
        "winddirection": null,
        "presure": 1033.2,
        "species": "Hygrophorus erubescens",
        "location": "Idaho Springs, CO 80452, USA",
        "num_identification_agreements": 3
      },
      "geometry": {
        "type": "Point",
        "coordinates": [
          -105.7763833333,
          39.7957
        ]
      }
    }
  ]
}