{
  "type": "FeatureCollection",
  "features": [
    {
      "type": "Feature",
      "properties": {
        "uuid": "4adbe2b2-21bc-4597-a62e-edcf79431f21",
        "inat_id": 91350892,
        "timestamp": "2021-08-14T14:44:00-04:00",
        "date": "2021-08-14",
        "olc": "85FPW2MF+",
        "elevation": 3039.0,
        "tavg": null,
        "tmin": 6.0,
        "tmax": 28.3,
        "precipitation": 0.0,
        "windspeed": 7.2,
        "winddirection": null,
        "presure": 1033.2,
        "species": "Hygrophorus erubescens",
        "location": "Arapaho & Roosevelt National Forests Pawnee National Grassland, Parshall, CO, US",
        "num_identification_agreements": 2
      },
      "geometry": {
        "type": "Point",
        "coordinates": [
          -105.9755083333,
          39.9330333333
        ]
      }
    }
  ]
}