{
  "type": "FeatureCollection",
  "features": [
    {
      "type": "Feature",
      "properties": {
        "uuid": "565920aa-312f-494f-a525-edf0ee861b35",
        "inat_id": 91183361,
        "timestamp": "2021-08-14T10:23:12-06:00",
        "date": "2021-08-14",
        "olc": "85FPQ6WG+",
        "elevation": 3511.0,
        "tavg": null,
        "tmin": 6.0,
        "tmax": 28.3,
        "precipitation": 0.0,
        "windspeed": 7.2,
        "winddirection": null,
        "presure": 1033.2,
        "species": "Hygrophorus erubescens",
        "location": "Arapaho & Roosevelt National Forests Pawnee National Grassland, Idaho Springs, CO, US",
        "num_identification_agreements": 2
      },
      "geometry": {
        "type": "Point",
        "coordinates": [
          -105.7749372428,
          39.7970348076
        ]
      }
    }
  ]
}