{
  "type": "FeatureCollection",
  "features": [
    {
      "type": "Feature",
      "properties": {
        "uuid": "615344fe-9d43-467f-9ed4-93fc3b23edb6",
        "inat_id": 175428074,
        "timestamp": "2023-07-28T11:27:59-06:00",
        "date": "2023-07-28",
        "olc": "85FPJM99+",
        "elevation": 2237.0,
        "tavg": null,
        "tmin": 18.0,
        "tmax": 34.0,
        "precipitation": 1.0,
        "windspeed": 11.6,
        "winddirection": null,
        "presure": 1024.4,
        "species": "Hygrophorus erubescens",
        "location": "Evergreen West Central, CO 80439, USA",
        "num_identification_agreements": 1
      },
      "geometry": {
        "type": "Point",
        "coordinates": [
          -105.3320156783,
          39.6198603882
        ]
      }
    }
  ]
}