{
  "type": "FeatureCollection",
  "features": [
    {
      "type": "Feature",
      "properties": {
        "uuid": "2bd4b450-64d5-41b3-b8eb-aa4699962613",
        "inat_id": 240771599,
        "timestamp": "2024-09-08T13:32:08-06:00",
        "date": "2024-09-08",
        "olc": "85FPV3RR+",
        "elevation": 2909.0,
        "tavg": null,
        "tmin": -1.0,
        "tmax": 12.6,
        "precipitation": 2.8,
        "windspeed": 9.4,
        "winddirection": null,
        "presure": 1022.4,
        "species": "Hygrophorus erubescens",
        "location": "Fraser, CO 80442, USA",
        "num_identification_agreements": 1
      },
      "geometry": {
        "type": "Point",
        "coordinates": [
          -105.908523,
          39.890928
        ]
      }
    }
  ]
}