{
  "type": "FeatureCollection",
  "features": [
    {
      "type": "Feature",
      "properties": {
        "uuid": "0e95c624-c05f-4918-9949-a13a7883cb2d",
        "inat_id": 91061012,
        "timestamp": "2021-08-13T11:28:02-06:00",
        "date": "2021-08-13",
        "olc": "85GP27R9+",
        "elevation": 3084.0,
        "tavg": null,
        "tmin": 7.7,
        "tmax": 27.3,
        "precipitation": 0.0,
        "windspeed": 6.7,
        "winddirection": null,
        "presure": 1032.1,
        "species": "Hygrophorus erubescens",
        "location": "Grand County, US-CO, US",
        "num_identification_agreements": 1
      },
      "geometry": {
        "type": "Point",
        "coordinates": [
          -105.7324797227,
          40.0419219031
        ]
      }
    }
  ]
}