{
  "type": "FeatureCollection",
  "features": [
    {
      "type": "Feature",
      "properties": {
        "uuid": "85193f09-4816-4b5c-9363-2fd9e4b17198",
        "inat_id": 235776769,
        "timestamp": "2024-08-11T14:11:00-06:00",
        "date": "2024-08-11",
        "olc": "857MVG35+",
        "elevation": 2606.0,
        "tavg": null,
        "tmin": 15.4,
        "tmax": 28.0,
        "precipitation": null,
        "windspeed": 6.7,
        "winddirection": null,
        "presure": 1027.8,
        "species": "Marasmius oreades",
        "location": "Sandoval County, NM, USA",
        "num_identification_agreements": 1
      },
      "geometry": {
        "type": "Point",
        "coordinates": [
          -106.4918145242,
          35.8544497143
        ]
      }
    }
  ]
}