{
  "type": "FeatureCollection",
  "features": [
    {
      "type": "Feature",
      "properties": {
        "uuid": "9be81c4f-47e0-474d-ba9d-8471fe9f14f9",
        "inat_id": 234736519,
        "timestamp": "2024-08-09T12:38:42-06:00",
        "date": "2024-08-09",
        "olc": "858P9PPF+",
        "elevation": 2607.0,
        "tavg": null,
        "tmin": 10.3,
        "tmax": 20.3,
        "precipitation": 6.4,
        "windspeed": 7.8,
        "winddirection": null,
        "presure": 1032.6,
        "species": "Marasmius oreades",
        "location": "Squaw Valley Ln, Angel Fire, NM, US",
        "num_identification_agreements": 1
      },
      "geometry": {
        "type": "Point",
        "coordinates": [
          -105.2771040705,
          36.3871727977
        ]
      }
    }
  ]
}