{
  "type": "FeatureCollection",
  "features": [
    {
      "type": "Feature",
      "properties": {
        "uuid": "9b580660-8ac1-40d7-bdc0-698361d69a58",
        "inat_id": 288890628,
        "timestamp": "2025-06-11T19:07:07-06:00",
        "date": "2025-06-11",
        "olc": "859J74XJ+",
        "elevation": 1997.0,
        "tavg": null,
        "tmin": 5.6,
        "tmax": 29.4,
        "precipitation": 0.2,
        "windspeed": 9.3,
        "winddirection": null,
        "presure": 1014.9,
        "species": "Marasmius oreades",
        "location": "E. 3rd Ave. & 31st., Durango, CO 81301, USA",
        "num_identification_agreements": 1
      },
      "geometry": {
        "type": "Point",
        "coordinates": [
          -107.8691253611,
          37.2979469167
        ]
      }
    }
  ]
}