{
  "type": "FeatureCollection",
  "features": [
    {
      "type": "Feature",
      "properties": {
        "uuid": "badafd18-908f-45a1-b917-9a78df51c138",
        "inat_id": 333206032,
        "timestamp": "2026-01-02T14:30:13-07:00",
        "date": "2026-01-02",
        "olc": "859J59HG+",
        "elevation": 2096.0,
        "tavg": null,
        "tmin": -1.0,
        "tmax": 8.0,
        "precipitation": 0.0,
        "windspeed": 12.8,
        "winddirection": null,
        "presure": 1019.0,
        "species": "Marasmius oreades",
        "location": "CR-509, Ignacio, CO, US",
        "num_identification_agreements": 2
      },
      "geometry": {
        "type": "Point",
        "coordinates": [
          -107.6238716667,
          37.179705
        ]
      }
    }
  ]
}