{
  "type": "FeatureCollection",
  "features": [
    {
      "type": "Feature",
      "properties": {
        "uuid": "596e4e7c-9d45-4fb3-8436-128348c2f68c",
        "inat_id": 81356783,
        "timestamp": "2021-06-02T15:33:10-06:00",
        "date": "2021-06-02",
        "olc": "85CQQ67X+",
        "elevation": 1759.0,
        "tavg": null,
        "tmin": 8.3,
        "tmax": 22.8,
        "precipitation": 0.0,
        "windspeed": 10.4,
        "winddirection": null,
        "presure": 1015.7,
        "species": "Marasmius oreades",
        "location": "Bison Dr, Widefield, CO, US",
        "num_identification_agreements": 1
      },
      "geometry": {
        "type": "Point",
        "coordinates": [
          -104.7522301841,
          38.7634647936
        ]
      }
    }
  ]
}