{
  "type": "FeatureCollection",
  "features": [
    {
      "type": "Feature",
      "properties": {
        "uuid": "0bde7b19-0189-46e5-bc06-560fd75281db",
        "inat_id": 316098378,
        "timestamp": "2025-09-23T11:40:23-06:00",
        "date": "2025-09-23",
        "olc": "85CQQ5VP+",
        "elevation": 1831.0,
        "tavg": null,
        "tmin": 8.0,
        "tmax": 14.0,
        "precipitation": 3.4,
        "windspeed": 20.4,
        "winddirection": null,
        "presure": 1022.1,
        "species": "Marasmius oreades",
        "location": "Tenderfoot Hill Rd, Colorado Springs, CO, US",
        "num_identification_agreements": 1
      },
      "geometry": {
        "type": "Point",
        "coordinates": [
          -104.8131783333,
          38.7935533333
        ]
      }
    }
  ]
}