{
  "type": "FeatureCollection",
  "features": [
    {
      "type": "Feature",
      "properties": {
        "uuid": "5b3b6452-081f-44df-938a-396796db3a7e",
        "inat_id": 133219766,
        "timestamp": "2022-09-01T09:57:18-06:00",
        "date": "2022-09-01",
        "olc": "85CQR5W4+",
        "elevation": 1874.0,
        "tavg": null,
        "tmin": 15.9,
        "tmax": 30.4,
        "precipitation": 0.0,
        "windspeed": 10.0,
        "winddirection": null,
        "presure": 1007.6,
        "species": "Marasmius oreades",
        "location": "Colorado Springs",
        "num_identification_agreements": 1
      },
      "geometry": {
        "type": "Point",
        "coordinates": [
          -104.8427963257,
          38.8453979492
        ]
      }
    }
  ]
}