{
  "type": "FeatureCollection",
  "features": [
    {
      "type": "Feature",
      "properties": {
        "uuid": "130782d5-ee73-4f7f-b40b-213ce8635983",
        "inat_id": 170330842,
        "timestamp": "2023-06-30T08:16:08-06:00",
        "date": "2023-06-30",
        "olc": "85FH3C7X+",
        "elevation": 1403.0,
        "tavg": null,
        "tmin": 12.8,
        "tmax": 31.7,
        "precipitation": 1.0,
        "windspeed": 11.5,
        "winddirection": null,
        "presure": 1012.0,
        "species": "Marasmius oreades",
        "location": "Grand Junction",
        "num_identification_agreements": 1
      },
      "geometry": {
        "type": "Point",
        "coordinates": [
          -108.5506487265,
          39.0638265776
        ]
      }
    }
  ]
}