{
  "type": "FeatureCollection",
  "features": [
    {
      "type": "Feature",
      "properties": {
        "uuid": "9bd254e3-fa22-4673-9cd1-4d91059389f9",
        "inat_id": 285205797,
        "timestamp": "2025-05-29T17:35:53-06:00",
        "date": "2025-05-29",
        "olc": "85FPXPRP+",
        "elevation": 1675.0,
        "tavg": null,
        "tmin": 9.0,
        "tmax": 19.0,
        "precipitation": 0.9,
        "windspeed": 3.7,
        "winddirection": null,
        "presure": 1023.1,
        "species": "Marasmius oreades",
        "location": "Boulder",
        "num_identification_agreements": 1
      },
      "geometry": {
        "type": "Point",
        "coordinates": [
          -105.2634429932,
          39.9914627075
        ]
      }
    }
  ]
}