{
  "type": "FeatureCollection",
  "features": [
    {
      "type": "Feature",
      "properties": {
        "uuid": "894f2ef6-fc7e-418b-bd69-f5386dd91af3",
        "inat_id": 284062222,
        "timestamp": "2025-05-25T14:12:32-06:00",
        "date": "2025-05-25",
        "olc": "85FPMX2M+",
        "elevation": 1618.0,
        "tavg": null,
        "tmin": 7.8,
        "tmax": 15.0,
        "precipitation": 11.4,
        "windspeed": 11.5,
        "winddirection": null,
        "presure": 1019.4,
        "species": "Marasmius oreades",
        "location": "W Hampden Ave, Sheridan, CO, US",
        "num_identification_agreements": 2
      },
      "geometry": {
        "type": "Point",
        "coordinates": [
          -105.0171306367,
          39.6512085025
        ]
      }
    },
    {
      "type": "Feature",
      "properties": {
        "uuid": "4573c3f7-eb23-445b-8dc5-c19fabfc4410",
        "inat_id": 284061937,
        "timestamp": "2025-05-25T14:11:11-06:00",
        "date": "2025-05-25",
        "olc": "85FPMX2M+",
        "elevation": 1612.0,
        "tavg": null,
        "tmin": 7.8,
        "tmax": 15.0,
        "precipitation": 11.4,
        "windspeed": 11.5,
        "winddirection": null,
        "presure": 1019.4,
        "species": "Marasmius oreades",
        "location": "W Hampden Ave, Sheridan, CO, US",
        "num_identification_agreements": 2
      },
      "geometry": {
        "type": "Point",
        "coordinates": [
          -105.0163037393,
          39.6515242882
        ]
      }
    }
  ]
}