{
  "type": "FeatureCollection",
  "features": [
    {
      "type": "Feature",
      "properties": {
        "uuid": "786347cc-449c-46e5-8556-985bb1e91830",
        "inat_id": 287357618,
        "timestamp": "2025-06-06T10:57:14-06:00",
        "date": "2025-06-06",
        "olc": "85FPMX24+",
        "elevation": 1633.0,
        "tavg": null,
        "tmin": 10.6,
        "tmax": 20.0,
        "precipitation": 8.5,
        "windspeed": 9.8,
        "winddirection": null,
        "presure": 1015.8,
        "species": "Marasmius oreades",
        "location": "MX24+H5 Turtle Pond, Denver, CO 80236, USA",
        "num_identification_agreements": 1
      },
      "geometry": {
        "type": "Point",
        "coordinates": [
          -105.0441210997,
          39.6511135
        ]
      }
    }
  ]
}