{
  "type": "FeatureCollection",
  "features": [
    {
      "type": "Feature",
      "properties": {
        "uuid": "725ce565-3d89-4273-bc8c-8b9fc0f13571",
        "inat_id": 27511651,
        "timestamp": "2019-06-23T10:49:52-06:00",
        "date": "2019-06-23",
        "olc": "85FPWXC6+",
        "elevation": 1611.0,
        "tavg": null,
        "tmin": 5.4,
        "tmax": 18.7,
        "precipitation": null,
        "windspeed": 5.4,
        "winddirection": null,
        "presure": null,
        "species": "Marasmius oreades",
        "location": "Mountain View Elementary School, Broomfield, CO, US",
        "num_identification_agreements": 1
      },
      "geometry": {
        "type": "Point",
        "coordinates": [
          -105.0395666343,
          39.9224523548
        ]
      }
    }
  ]
}