{
  "type": "FeatureCollection",
  "features": [
    {
      "type": "Feature",
      "properties": {
        "uuid": "16602424-e0a6-43bb-8e88-731a919051ce",
        "inat_id": 287964483,
        "timestamp": "2025-06-08T10:40:12-06:00",
        "date": "2025-06-08",
        "olc": "85FPMMQ4+",
        "elevation": 2321.0,
        "tavg": null,
        "tmin": 13.0,
        "tmax": 20.0,
        "precipitation": 0.1,
        "windspeed": 12.0,
        "winddirection": null,
        "presure": 1021.2,
        "species": "Marasmius oreades",
        "location": "Beaver Creek Ln, Evergreen, CO, US",
        "num_identification_agreements": 2
      },
      "geometry": {
        "type": "Point",
        "coordinates": [
          -105.3427955129,
          39.6886903979
        ]
      }
    }
  ]
}