{
  "type": "FeatureCollection",
  "features": [
    {
      "type": "Feature",
      "properties": {
        "uuid": "2b53457d-a2d3-41a4-bd94-4e6ec2782916",
        "inat_id": 165819193,
        "timestamp": "2023-06-05T10:43:47-06:00",
        "date": "2023-06-05",
        "olc": "85FPWWCX+",
        "elevation": 1620.0,
        "tavg": null,
        "tmin": 12.0,
        "tmax": 22.0,
        "precipitation": 4.6,
        "windspeed": 7.5,
        "winddirection": null,
        "presure": 1022.9,
        "species": "Marasmius oreades",
        "location": "Westminster, CO 80020, USA",
        "num_identification_agreements": 1
      },
      "geometry": {
        "type": "Point",
        "coordinates": [
          -105.0501175225,
          39.9205287874
        ]
      }
    }
  ]
}