{
  "type": "FeatureCollection",
  "features": [
    {
      "type": "Feature",
      "properties": {
        "uuid": "278e9ca2-1727-466b-aa1c-a03d08de8f41",
        "inat_id": 7489164,
        "timestamp": "2017-08-12T19:35:12-06:00",
        "date": "2017-08-12",
        "olc": "85FPXQC2+",
        "elevation": 1682.0,
        "tavg": null,
        "tmin": 13.0,
        "tmax": 27.0,
        "precipitation": null,
        "windspeed": 4.8,
        "winddirection": null,
        "presure": null,
        "species": "Marasmius oreades",
        "location": "Harlow Platts Park, Boulder, CO, US",
        "num_identification_agreements": 2
      },
      "geometry": {
        "type": "Point",
        "coordinates": [
          -105.2497633333,
          39.9722966667
        ]
      }
    }
  ]
}