{
  "type": "FeatureCollection",
  "features": [
    {
      "type": "Feature",
      "properties": {
        "uuid": "43fa32cb-dfd5-4059-af6e-52f3003ad57e",
        "inat_id": 79477468,
        "timestamp": "2021-05-19T20:01:17-06:00",
        "date": "2021-05-19",
        "olc": "85FPQVFC+",
        "elevation": 1652.0,
        "tavg": null,
        "tmin": 8.0,
        "tmax": 22.0,
        "precipitation": 0.0,
        "windspeed": 7.2,
        "winddirection": null,
        "presure": 1012.7,
        "species": "Marasmius oreades",
        "location": "Fruitdale, Wheat Ridge, CO 80033, USA",
        "num_identification_agreements": 1
      },
      "geometry": {
        "type": "Point",
        "coordinates": [
          -105.1295152778,
          39.7742545
        ]
      }
    }
  ]
}