{
  "type": "FeatureCollection",
  "features": [
    {
      "type": "Feature",
      "properties": {
        "uuid": "4d9f7707-8829-46ad-98ba-3f471ee8658c",
        "inat_id": 229113889,
        "timestamp": "2024-07-13T14:53:15-06:00",
        "date": "2024-07-13",
        "olc": "85FPXPVP+",
        "elevation": 1668.0,
        "tavg": null,
        "tmin": 19.0,
        "tmax": 37.0,
        "precipitation": 0.0,
        "windspeed": 5.2,
        "winddirection": null,
        "presure": 1022.3,
        "species": "Marasmius oreades",
        "location": "Boulder",
        "num_identification_agreements": 1
      },
      "geometry": {
        "type": "Point",
        "coordinates": [
          -105.2645568848,
          39.9941711426
        ]
      }
    },
    {
      "type": "Feature",
      "properties": {
        "uuid": "199e087e-3b26-4459-bd21-ea28a3beb184",
        "inat_id": 229113121,
        "timestamp": "2024-07-13T14:49:44-06:00",
        "date": "2024-07-13",
        "olc": "85FPXPVP+",
        "elevation": 1671.0,
        "tavg": null,
        "tmin": 19.0,
        "tmax": 37.0,
        "precipitation": 0.0,
        "windspeed": 5.2,
        "winddirection": null,
        "presure": 1022.3,
        "species": "Marasmius oreades",
        "location": "Boulder",
        "num_identification_agreements": 1
      },
      "geometry": {
        "type": "Point",
        "coordinates": [
          -105.2645568848,
          39.9935150146
        ]
      }
    },
    {
      "type": "Feature",
      "properties": {
        "uuid": "105726a5-166a-4e19-8ece-12ffd95ab766",
        "inat_id": 229113055,
        "timestamp": "2024-07-13T14:49:31-06:00",
        "date": "2024-07-13",
        "olc": "85FPXPVP+",
        "elevation": 1671.0,
        "tavg": null,
        "tmin": 19.0,
        "tmax": 37.0,
        "precipitation": 0.0,
        "windspeed": 5.2,
        "winddirection": null,
        "presure": 1022.3,
        "species": "Marasmius oreades",
        "location": "Boulder",
        "num_identification_agreements": 2
      },
      "geometry": {
        "type": "Point",
        "coordinates": [
          -105.2645568848,
          39.9934997559
        ]
      }
    },
    {
      "type": "Feature",
      "properties": {
        "uuid": "10752539-a3d5-4f71-8998-4ce22e0b6009",
        "inat_id": 228729305,
        "timestamp": "2024-07-11T17:46:13-06:00",
        "date": "2024-07-11",
        "olc": "85FPXPVP+",
        "elevation": 1668.0,
        "tavg": null,
        "tmin": 16.0,
        "tmax": 36.0,
        "precipitation": 0.0,
        "windspeed": 4.1,
        "winddirection": null,
        "presure": 1021.2,
        "species": "Marasmius oreades",
        "location": "Boulder",
        "num_identification_agreements": 2
      },
      "geometry": {
        "type": "Point",
        "coordinates": [
          -105.2645339966,
          39.9935913086
        ]
      }
    },
    {
      "type": "Feature",
      "properties": {
        "uuid": "9d9ac8c6-878d-4443-9139-e23ef0014b5c",
        "inat_id": 228729282,
        "timestamp": "2024-07-11T17:46:00-06:00",
        "date": "2024-07-11",
        "olc": "85FPXPVP+",
        "elevation": 1668.0,
        "tavg": null,
        "tmin": 16.0,
        "tmax": 36.0,
        "precipitation": 0.0,
        "windspeed": 4.1,
        "winddirection": null,
        "presure": 1021.2,
        "species": "Marasmius oreades",
        "location": "Boulder",
        "num_identification_agreements": 2
      },
      "geometry": {
        "type": "Point",
        "coordinates": [
          -105.2645721436,
          39.9942321777
        ]
      }
    },
    {
      "type": "Feature",
      "properties": {
        "uuid": "05794a8d-ea92-45ee-b28e-1d5320f3bd91",
        "inat_id": 228338072,
        "timestamp": "2024-07-09T17:36:43-06:00",
        "date": "2024-07-09",
        "olc": "85FPXPVP+",
        "elevation": 1668.0,
        "tavg": null,
        "tmin": 14.0,
        "tmax": 30.0,
        "precipitation": 0.4,
        "windspeed": 5.7,
        "winddirection": null,
        "presure": 1021.9,
        "species": "Marasmius oreades",
        "location": "Boulder",
        "num_identification_agreements": 1
      },
      "geometry": {
        "type": "Point",
        "coordinates": [
          -105.2645721436,
          39.9948425293
        ]
      }
    },
    {
      "type": "Feature",
      "properties": {
        "uuid": "f6538359-cd29-4795-8194-55ad8634e094",
        "inat_id": 184333621,
        "timestamp": "2023-09-21T18:00:14-06:00",
        "date": "2023-09-21",
        "olc": "85FPXPVP+",
        "elevation": 1668.0,
        "tavg": null,
        "tmin": 11.0,
        "tmax": 26.0,
        "precipitation": 0.0,
        "windspeed": 5.6,
        "winddirection": null,
        "presure": 1015.4,
        "species": "Marasmius oreades",
        "location": "Boulder",
        "num_identification_agreements": 2
      },
      "geometry": {
        "type": "Point",
        "coordinates": [
          -105.2647476196,
          39.9939575195
        ]
      }
    }
  ]
}