{
  "type": "FeatureCollection",
  "features": [
    {
      "type": "Feature",
      "properties": {
        "uuid": "e487ba0c-8da8-4489-8556-5ace3a8ea34e",
        "inat_id": 288267870,
        "timestamp": "2025-06-09T11:58:11-06:00",
        "date": "2025-06-09",
        "olc": "85FPXVC4+",
        "elevation": 1648.0,
        "tavg": null,
        "tmin": 11.0,
        "tmax": 26.0,
        "precipitation": 0.0,
        "windspeed": 8.8,
        "winddirection": null,
        "presure": 1021.5,
        "species": "Marasmius oreades",
        "location": "Boulder County, US-CO, US",
        "num_identification_agreements": 2
      },
      "geometry": {
        "type": "Point",
        "coordinates": [
          -105.14403464,
          39.97007672
        ]
      }
    }
  ]
}