{
  "type": "FeatureCollection",
  "features": [
    {
      "type": "Feature",
      "properties": {
        "uuid": "47ec36b8-686d-4c63-b4d0-d7c0dcb96a6f",
        "inat_id": 364841463,
        "timestamp": "2026-05-24T15:37:46-06:00",
        "date": "2026-05-24",
        "olc": "85FPJX77+",
        "elevation": 1632.0,
        "tavg": null,
        "tmin": 10.0,
        "tmax": 24.4,
        "precipitation": 0.2,
        "windspeed": 7.1,
        "winddirection": null,
        "presure": null,
        "species": "Marasmius oreades",
        "location": "S Lowell Way, Littleton, CO, US",
        "num_identification_agreements": 1
      },
      "geometry": {
        "type": "Point",
        "coordinates": [
          -105.0351778333,
          39.6126216667
        ]
      }
    }
  ]
}