{
  "type": "FeatureCollection",
  "features": [
    {
      "type": "Feature",
      "properties": {
        "uuid": "1f7dc995-d32f-4164-95a9-06f9c7849541",
        "inat_id": 79570352,
        "timestamp": "2021-05-19T10:48:29-06:00",
        "date": "2021-05-19",
        "olc": "85FPFWW5+",
        "elevation": 1678.0,
        "tavg": null,
        "tmin": 7.2,
        "tmax": 21.1,
        "precipitation": 0.0,
        "windspeed": 12.0,
        "winddirection": null,
        "presure": 1009.2,
        "species": "Marasmius oreades",
        "location": "Chatfield State Park, Littleton, CO, US",
        "num_identification_agreements": 1
      },
      "geometry": {
        "type": "Point",
        "coordinates": [
          -105.0902111667,
          39.4953283333
        ]
      }
    },
    {
      "type": "Feature",
      "properties": {
        "uuid": "e2f859f1-9ce8-414f-87b6-6d7d6518e75f",
        "inat_id": 79551998,
        "timestamp": "2021-05-20T10:13:56-06:00",
        "date": "2021-05-20",
        "olc": "85FPFWW5+",
        "elevation": 1678.0,
        "tavg": null,
        "tmin": 10.6,
        "tmax": 25.6,
        "precipitation": 0.0,
        "windspeed": 21.6,
        "winddirection": null,
        "presure": 1003.2,
        "species": "Marasmius oreades",
        "location": "ROXBOROUGH, CO 80125, USA",
        "num_identification_agreements": 1
      },
      "geometry": {
        "type": "Point",
        "coordinates": [
          -105.0902614743,
          39.4953563812
        ]
      }
    }
  ]
}