{
  "type": "FeatureCollection",
  "features": [
    {
      "type": "Feature",
      "properties": {
        "uuid": "bfb57dfc-7c22-47af-b734-9e40942d6843",
        "inat_id": 162388185,
        "timestamp": "2023-05-18T14:23:50-06:00",
        "date": "2023-05-18",
        "olc": "85FPGXQR+",
        "elevation": 1724.0,
        "tavg": null,
        "tmin": 8.9,
        "tmax": 17.2,
        "precipitation": null,
        "windspeed": 12.6,
        "winddirection": null,
        "presure": 1015.7,
        "species": "Marasmius oreades",
        "location": "Westridge, Highlands Ranch, CO, US",
        "num_identification_agreements": 1
      },
      "geometry": {
        "type": "Point",
        "coordinates": [
          -105.0092,
          39.5383533333
        ]
      }
    }
  ]
}