{
  "type": "FeatureCollection",
  "features": [
    {
      "type": "Feature",
      "properties": {
        "uuid": "8e306d93-c4e4-4d56-8f13-f09d862b7fc8",
        "inat_id": 167597452,
        "timestamp": "2023-06-13T09:40:29-06:00",
        "date": "2023-06-13",
        "olc": "85FQM4J8+",
        "elevation": 1675.0,
        "tavg": null,
        "tmin": 9.6,
        "tmax": 17.3,
        "precipitation": 7.2,
        "windspeed": 11.5,
        "winddirection": null,
        "presure": 1012.2,
        "species": "Marasmius oreades",
        "location": "Welch Park, Denver, CO, US",
        "num_identification_agreements": 1
      },
      "geometry": {
        "type": "Point",
        "coordinates": [
          -104.8837583333,
          39.6811966667
        ]
      }
    }
  ]
}