{
  "type": "FeatureCollection",
  "features": [
    {
      "type": "Feature",
      "properties": {
        "uuid": "f61a2742-6c77-4b9b-8563-9ecbbcc03d66",
        "inat_id": 288183545,
        "timestamp": "2025-06-06T19:22:20-06:00",
        "date": "2025-06-06",
        "olc": "85FQP3R3+",
        "elevation": 1616.0,
        "tavg": null,
        "tmin": 10.6,
        "tmax": 18.5,
        "precipitation": 4.0,
        "windspeed": 11.6,
        "winddirection": null,
        "presure": 1015.1,
        "species": "Marasmius oreades",
        "location": "Madison St, Denver, CO, US",
        "num_identification_agreements": 1
      },
      "geometry": {
        "type": "Point",
        "coordinates": [
          -104.9464716667,
          39.7420833333
        ]
      }
    }
  ]
}