{
  "type": "FeatureCollection",
  "features": [
    {
      "type": "Feature",
      "properties": {
        "uuid": "64419311-6b9a-401f-ab9d-68933bb7ad12",
        "inat_id": 290850031,
        "timestamp": "2025-06-18T14:42:21-06:00",
        "date": "2025-06-18",
        "olc": "85FQR49P+",
        "elevation": 1594.0,
        "tavg": null,
        "tmin": 13.1,
        "tmax": 27.6,
        "precipitation": 0.0,
        "windspeed": 11.7,
        "winddirection": null,
        "presure": 1013.2,
        "species": "Marasmius oreades",
        "location": "Lake Mary Loop Trail, Denver, CO, US",
        "num_identification_agreements": 2
      },
      "geometry": {
        "type": "Point",
        "coordinates": [
          -104.8632824941,
          39.8199601146
        ]
      }
    }
  ]
}