{
  "type": "FeatureCollection",
  "features": [
    {
      "type": "Feature",
      "properties": {
        "uuid": "1f0b81ed-39ad-4de2-8f56-e075fcaa39d0",
        "inat_id": 166807062,
        "timestamp": "2023-06-11T08:24:45-06:00",
        "date": "2023-06-11",
        "olc": "85FQP3JG+",
        "elevation": 1636.0,
        "tavg": null,
        "tmin": 11.4,
        "tmax": 20.8,
        "precipitation": 10.7,
        "windspeed": 15.1,
        "winddirection": null,
        "presure": 1013.5,
        "species": "Marasmius oreades",
        "location": "Palmer Elementary School, Denver, CO, US",
        "num_identification_agreements": 1
      },
      "geometry": {
        "type": "Point",
        "coordinates": [
          -104.924705,
          39.7312383333
        ]
      }
    }
  ]
}