{
  "type": "FeatureCollection",
  "features": [
    {
      "type": "Feature",
      "properties": {
        "uuid": "55e7fdfc-7ff1-4a58-841a-3e809f4f33c3",
        "inat_id": 226794613,
        "timestamp": "2024-07-02T12:34:29-06:00",
        "date": "2024-07-02",
        "olc": "85GJ3G2M+",
        "elevation": 2325.0,
        "tavg": null,
        "tmin": 10.0,
        "tmax": 25.6,
        "precipitation": null,
        "windspeed": 10.6,
        "winddirection": null,
        "presure": 1014.1,
        "species": "Marasmius oreades",
        "location": "Meeker, CO 81641, USA",
        "num_identification_agreements": 1
      },
      "geometry": {
        "type": "Point",
        "coordinates": [
          -107.4662904,
          40.0502230997
        ]
      }
    }
  ]
}