{
  "type": "FeatureCollection",
  "features": [
    {
      "type": "Feature",
      "properties": {
        "uuid": "339c9bf3-2e49-4d01-b316-9e1665b646c5",
        "inat_id": 50806803,
        "timestamp": "2020-06-24T12:15:10-06:00",
        "date": "2020-06-24",
        "olc": "85GP4VQM+",
        "elevation": 1524.0,
        "tavg": null,
        "tmin": 13.5,
        "tmax": 35.0,
        "precipitation": null,
        "windspeed": 6.8,
        "winddirection": null,
        "presure": null,
        "species": "Marasmius oreades",
        "location": "Missouri Ave, Longmont, CO, US",
        "num_identification_agreements": 1
      },
      "geometry": {
        "type": "Point",
        "coordinates": [
          -105.11661667,
          40.13833883
        ]
      }
    }
  ]
}