{
  "type": "FeatureCollection",
  "features": [
    {
      "type": "Feature",
      "properties": {
        "uuid": "5c50e91a-9097-4d7f-b94e-7c68931fe6a5",
        "inat_id": 28258704,
        "timestamp": "2019-07-04T10:51:43-06:00",
        "date": "2019-07-04",
        "olc": "85GP6JCW+",
        "elevation": 1962.0,
        "tavg": null,
        "tmin": null,
        "tmax": null,
        "precipitation": null,
        "windspeed": 9.1,
        "winddirection": null,
        "presure": null,
        "species": "Marasmius oreades",
        "location": "4223 Longmont Dam Rd, Lyons, CO, US",
        "num_identification_agreements": 1
      },
      "geometry": {
        "type": "Point",
        "coordinates": [
          -105.3534166667,
          40.220295
        ]
      }
    }
  ]
}