{
  "type": "FeatureCollection",
  "features": [
    {
      "type": "Feature",
      "properties": {
        "uuid": "052e8600-601e-4257-b6e4-52fd409ae590",
        "inat_id": 279107147,
        "timestamp": "2025-05-06T16:54:23-06:00",
        "date": "2025-05-06",
        "olc": "85GP5V97+",
        "elevation": 1527.0,
        "tavg": null,
        "tmin": 7.9,
        "tmax": 12.0,
        "precipitation": 14.2,
        "windspeed": 8.4,
        "winddirection": null,
        "presure": 1019.6,
        "species": "Marasmius oreades",
        "location": "Longmont, Colorado, EE. UU.",
        "num_identification_agreements": 2
      },
      "geometry": {
        "type": "Point",
        "coordinates": [
          -105.13624781,
          40.16918211
        ]
      }
    }
  ]
}