{
  "type": "FeatureCollection",
  "features": [
    {
      "type": "Feature",
      "properties": {
        "uuid": "6e9ced43-37bf-41ae-a6d7-1c7347de563e",
        "inat_id": 286718220,
        "timestamp": "2025-06-03T08:07:54-06:00",
        "date": "2025-06-03",
        "olc": "85GPHXCF+",
        "elevation": 1502.0,
        "tavg": null,
        "tmin": 8.3,
        "tmax": 14.4,
        "precipitation": 8.1,
        "windspeed": 12.7,
        "winddirection": null,
        "presure": 1015.3,
        "species": "Marasmius oreades",
        "location": "Riverbend Ponds Natural Area",
        "num_identification_agreements": 1
      },
      "geometry": {
        "type": "Point",
        "coordinates": [
          -105.0269258022,
          40.571864986
        ]
      }
    }
  ]
}