{
  "type": "FeatureCollection",
  "features": [
    {
      "type": "Feature",
      "properties": {
        "uuid": "d24195e4-b8bd-4874-952e-c539485edca0",
        "inat_id": 183923349,
        "timestamp": "2023-09-16T15:57:15-06:00",
        "date": "2023-09-16",
        "olc": "85GP6PH6+",
        "elevation": 1691.0,
        "tavg": null,
        "tmin": 6.1,
        "tmax": 25.4,
        "precipitation": 0.0,
        "windspeed": 1.9,
        "winddirection": null,
        "presure": 1025.3,
        "species": "Marasmius oreades",
        "location": "Antelope Dr, Lyons, CO, US",
        "num_identification_agreements": 1
      },
      "geometry": {
        "type": "Point",
        "coordinates": [
          -105.29,
          40.2285916667
        ]
      }
    }
  ]
}