{
  "type": "FeatureCollection",
  "features": [
    {
      "type": "Feature",
      "properties": {
        "uuid": "7d332dec-85c5-4ceb-a892-07b3d5a2ebb2",
        "inat_id": 309333099,
        "timestamp": "2025-08-26T14:26:03-06:00",
        "date": "2025-08-26",
        "olc": "85GPJW5Q+",
        "elevation": 1518.0,
        "tavg": null,
        "tmin": 13.0,
        "tmax": 24.0,
        "precipitation": 2.3,
        "windspeed": 9.3,
        "winddirection": null,
        "presure": 1024.6,
        "species": "Marasmius oreades",
        "location": "Greenbriar, Fort Collins, CO 80524, USA",
        "num_identification_agreements": 1
      },
      "geometry": {
        "type": "Point",
        "coordinates": [
          -105.06229778,
          40.60848582
        ]
      }
    }
  ]
}