{
  "type": "FeatureCollection",
  "features": [
    {
      "type": "Feature",
      "properties": {
        "uuid": "8e1042c9-c669-4378-963c-a2566522c49a",
        "inat_id": 166116134,
        "timestamp": "2023-06-06T17:23:32-06:00",
        "date": "2023-06-06",
        "olc": "85GP9VWP+",
        "elevation": 1526.0,
        "tavg": null,
        "tmin": 10.0,
        "tmax": 23.9,
        "precipitation": 0.0,
        "windspeed": 8.3,
        "winddirection": null,
        "presure": 1014.1,
        "species": "Marasmius oreades",
        "location": "N Wilson Ave, Loveland, CO, US",
        "num_identification_agreements": 1
      },
      "geometry": {
        "type": "Point",
        "coordinates": [
          -105.1149666667,
          40.3952966667
        ]
      }
    }
  ]
}