{
  "type": "FeatureCollection",
  "features": [
    {
      "type": "Feature",
      "properties": {
        "uuid": "6f38359a-7a64-4b8d-84bd-d44e9b441fc4",
        "inat_id": 364360295,
        "timestamp": "2026-05-23T10:15:10-06:00",
        "date": "2026-05-23",
        "olc": "85GP2X5V+",
        "elevation": 1610.0,
        "tavg": null,
        "tmin": 4.1,
        "tmax": 24.6,
        "precipitation": 0.0,
        "windspeed": 2.4,
        "winddirection": null,
        "presure": null,
        "species": "Marasmius oreades",
        "location": "Colorado, US",
        "num_identification_agreements": 1
      },
      "geometry": {
        "type": "Point",
        "coordinates": [
          -105.0065815245,
          40.0095902937
        ]
      }
    }
  ]
}