{
  "type": "FeatureCollection",
  "features": [
    {
      "type": "Feature",
      "properties": {
        "uuid": "9ac39399-5b59-4832-8150-8711b36a1953",
        "inat_id": 310283626,
        "timestamp": "2025-08-30T13:18:33-06:00",
        "date": "2025-08-30",
        "olc": "85GP4R2Q+",
        "elevation": 1550.0,
        "tavg": null,
        "tmin": 15.0,
        "tmax": 26.0,
        "precipitation": 1.9,
        "windspeed": 8.3,
        "winddirection": null,
        "presure": 1024.0,
        "species": "Marasmius oreades",
        "location": "Niwot, CO 80503, USA",
        "num_identification_agreements": 1
      },
      "geometry": {
        "type": "Point",
        "coordinates": [
          -105.1620111111,
          40.1021
        ]
      }
    }
  ]
}