{
  "type": "FeatureCollection",
  "features": [
    {
      "type": "Feature",
      "properties": {
        "uuid": "a11091c8-fe07-4218-8757-5df8b7a41083",
        "inat_id": 394443057,
        "timestamp": "2026-08-25T10:56:13-06:00",
        "date": "2026-08-25",
        "olc": "85GQC74R+",
        "elevation": 1457.0,
        "tavg": null,
        "tmin": null,
        "tmax": null,
        "precipitation": null,
        "windspeed": null,
        "winddirection": null,
        "presure": null,
        "species": "Marasmius oreades",
        "location": "18th Ave, Greeley, CO, US",
        "num_identification_agreements": 1
      },
      "geometry": {
        "type": "Point",
        "coordinates": [
          -104.7082448924,
          40.4069853326
        ]
      }
    }
  ]
}