{
  "type": "FeatureCollection",
  "features": [
    {
      "type": "Feature",
      "properties": {
        "uuid": "f6b7fb70-fc94-4ca4-9677-2e364bc3760b",
        "inat_id": 81217055,
        "timestamp": "2021-06-01T13:51:18-06:00",
        "date": "2021-06-01",
        "olc": "85HQ45VF+",
        "elevation": 1866.0,
        "tavg": null,
        "tmin": 6.1,
        "tmax": 20.0,
        "precipitation": 0.0,
        "windspeed": 14.4,
        "winddirection": null,
        "presure": 1018.2,
        "species": "Marasmius oreades",
        "location": "W 30th St, Cheyenne, WY, US",
        "num_identification_agreements": 1
      },
      "geometry": {
        "type": "Point",
        "coordinates": [
          -104.8264539662,
          41.1439415243
        ]
      }
    }
  ]
}