{
  "type": "FeatureCollection",
  "features": [
    {
      "type": "Feature",
      "properties": {
        "uuid": "4e997155-c6dc-4dd8-984f-13ead3466c0b",
        "inat_id": 393264430,
        "timestamp": "2026-08-21T12:53:00-06:00",
        "date": "2026-08-21",
        "olc": "85HQ54MJ+",
        "elevation": 1906.0,
        "tavg": null,
        "tmin": 13.8,
        "tmax": 25.2,
        "precipitation": null,
        "windspeed": 14.1,
        "winddirection": null,
        "presure": 1016.9,
        "species": "Marasmius oreades",
        "location": "United States",
        "num_identification_agreements": 1
      },
      "geometry": {
        "type": "Point",
        "coordinates": [
          -104.8693467227,
          41.1837539722
        ]
      }
    }
  ]
}