{
  "type": "FeatureCollection",
  "features": [
    {
      "type": "Feature",
      "properties": {
        "uuid": "ce979258-8896-4e47-a8e9-d86b3b10c8ab",
        "inat_id": 126900107,
        "timestamp": "2022-07-18T19:41:26-06:00",
        "date": "2022-07-18",
        "olc": "85HQ46PF+",
        "elevation": 1842.0,
        "tavg": null,
        "tmin": 17.8,
        "tmax": 37.2,
        "precipitation": 0.0,
        "windspeed": 22.7,
        "winddirection": null,
        "presure": 1009.2,
        "species": "Marasmius oreades",
        "location": "Cheyenne, WY, USA",
        "num_identification_agreements": 1
      },
      "geometry": {
        "type": "Point",
        "coordinates": [
          -104.77604175,
          41.13607808
        ]
      }
    }
  ]
}