{
  "type": "FeatureCollection",
  "features": [
    {
      "type": "Feature",
      "properties": {
        "uuid": "e6446bd0-2c71-4661-81ae-2e19ab24a3cf",
        "inat_id": 56799097,
        "timestamp": "2020-08-18T00:49:12+00:00",
        "date": "2020-08-18",
        "olc": "85JMRPJ4+",
        "elevation": 1607.0,
        "tavg": null,
        "tmin": 11.1,
        "tmax": 36.1,
        "precipitation": 0.0,
        "windspeed": 12.2,
        "winddirection": null,
        "presure": 1016.0,
        "species": "Marasmius oreades",
        "location": "Casper",
        "num_identification_agreements": 1
      },
      "geometry": {
        "type": "Point",
        "coordinates": [
          -106.2939538,
          42.8310578
        ]
      }
    }
  ]
}