{
  "type": "FeatureCollection",
  "features": [
    {
      "type": "Feature",
      "properties": {
        "uuid": "d8d1ce80-b142-4228-a29c-539427614ce1",
        "inat_id": 349872864,
        "timestamp": "2025-10-11",
        "date": "2025-10-11",
        "olc": "85JRPX6Q+",
        "elevation": 1170.0,
        "tavg": null,
        "tmin": 13.0,
        "tmax": 23.0,
        "precipitation": 0.0,
        "windspeed": 16.3,
        "winddirection": null,
        "presure": 1007.2,
        "species": "Marasmius oreades",
        "location": "Dawes County, NE, USA",
        "num_identification_agreements": 1
      },
      "geometry": {
        "type": "Point",
        "coordinates": [
          -103.0104587201,
          42.7108629908
        ]
      }
    },
    {
      "type": "Feature",
      "properties": {
        "uuid": "4d9ec202-637e-4b48-bcd8-163a45a3409c",
        "inat_id": 196462344,
        "timestamp": "2023-08-08",
        "date": "2023-08-08",
        "olc": "85JRPX6Q+",
        "elevation": 1170.0,
        "tavg": null,
        "tmin": 12.2,
        "tmax": 25.0,
        "precipitation": null,
        "windspeed": 9.0,
        "winddirection": null,
        "presure": 1014.7,
        "species": "Marasmius oreades",
        "location": "Dawes County, NE, USA",
        "num_identification_agreements": 1
      },
      "geometry": {
        "type": "Point",
        "coordinates": [
          -103.0105149065,
          42.710919826
        ]
      }
    },
    {
      "type": "Feature",
      "properties": {
        "uuid": "a898d3cd-146c-448b-ba66-96f2696d31db",
        "inat_id": 193311710,
        "timestamp": "2023-06-13",
        "date": "2023-06-13",
        "olc": "85JRPX6Q+",
        "elevation": 1170.0,
        "tavg": null,
        "tmin": 9.4,
        "tmax": 25.0,
        "precipitation": 0.0,
        "windspeed": 4.9,
        "winddirection": null,
        "presure": 1011.9,
        "species": "Marasmius oreades",
        "location": "Dawes County, NE, USA",
        "num_identification_agreements": 1
      },
      "geometry": {
        "type": "Point",
        "coordinates": [
          -103.0104773129,
          42.710891864
        ]
      }
    }
  ]
}