{"type": "FeatureCollection", "features": [{"type": "Feature", "geometry": {"type": "Point", "coordinates": [-105.1956716667, 40.0404695]}, "properties": {"species": "Morchella americana", "date": "2014-04-30", "location": "Boulder, CO, US", "elevation": 1570.0, "land_cover_label": "Grassland", "ndvi": null, "soil_moisture": 0.2268007902447852, "solar_exposure": null, "wind_exposure": null, "water_retention": null, "slope": null, "aspect": null, "num_identification_agreements": 3, "cluster": 3, "tavg": null, "tmin": 2.0, "tmax": 11.0, "prcp_d0": 3.1082754, "prcp_d1": 1.495447, "prcp_d2": 13.815871, "prcp_d3": 1.8593904, "prcp_d4": 19.184803, "prcp_d5": 0.0, "prcp_d6": 1.9930055, "tmax_d0": 11.9, "tmax_d1": 11.3, "tmax_d2": 10.8, "tmax_d3": 19.2, "tmax_d4": 22.3, "tmax_d5": 22.0, "tmax_d6": 17.7, "tmin_d0": 2.4, "tmin_d1": 2.2, "tmin_d2": 1.0, "tmin_d3": 6.3, "tmin_d4": 4.4, "tmin_d5": 2.8, "tmin_d6": -0.1, "day_of_year": 120, "uuid": "e596a35e-72cc-4dbe-9b2f-59e84ad1ba6e", "inat_id": 178170632}}, {"type": "Feature", "geometry": {"type": "Point", "coordinates": [-105.9879241085, 38.3809732355]}, "properties": {"species": "Morchella snyderi", "date": "2014-05-23", "location": "Colorado, US", "elevation": 2868.0, "land_cover_label": "Tree cover", "ndvi": null, "soil_moisture": null, "solar_exposure": null, "wind_exposure": null, "water_retention": null, "slope": null, "aspect": null, "num_identification_agreements": 2, "cluster": 0, "tavg": null, "tmin": null, "tmax": null, "prcp_d0": 4.472846, "prcp_d1": 0.0, "prcp_d2": 0.0, "prcp_d3": 0.0, "prcp_d4": 0.0, "prcp_d5": 0.0, "prcp_d6": 0.0, "tmax_d0": 13.6, "tmax_d1": 15.7, "tmax_d2": 15.2, "tmax_d3": 16.3, "tmax_d4": 16.6, "tmax_d5": 17.1, "tmax_d6": 14.1, "tmin_d0": 0.5, "tmin_d1": 0.6, "tmin_d2": 4.3, "tmin_d3": -0.4, "tmin_d4": -2.3, "tmin_d5": -1.5, "tmin_d6": -5.1, "day_of_year": 143, "uuid": "b7a3eb01-454f-49be-947f-52092fbb07c4", "inat_id": 195046414}}, {"type": "Feature", "geometry": {"type": "Point", "coordinates": [-106.8591916667, 38.8224816667]}, "properties": {"species": "Morchella snyderi", "date": "2016-05-20", "location": "Gunnison County, CO, USA", "elevation": 2688.0, "land_cover_label": "Tree cover", "ndvi": null, "soil_moisture": null, "solar_exposure": null, "wind_exposure": null, "water_retention": null, "slope": null, "aspect": null, "num_identification_agreements": 1, "cluster": 0, "tavg": null, "tmin": 3.0, "tmax": 20.0, "prcp_d0": 3.761322, "prcp_d1": 3.761322, "prcp_d2": 0.0, "prcp_d3": 3.761322, "prcp_d4": 3.761322, "prcp_d5": 0.0, "prcp_d6": 0.0, "tmax_d0": 13.6, "tmax_d1": 10.5, "tmax_d2": 9.7, "tmax_d3": 8.1, "tmax_d4": 9.6, "tmax_d5": 13.8, "tmax_d6": 13.9, "tmin_d0": 1.4, "tmin_d1": -2.2, "tmin_d2": -1.5, "tmin_d3": -1.9, "tmin_d4": 0.5, "tmin_d5": 0.2, "tmin_d6": 1.4, "day_of_year": 141, "uuid": "5350d6fc-2ab5-4d8e-a12f-430b4b0b92dc", "inat_id": 374532939}}, {"type": "Feature", "geometry": {"type": "Point", "coordinates": [-105.2123059781, 37.6085340039]}, "properties": {"species": "Morchella tomentosa", "date": "2019-09-14", "location": "Blanca, CO, US", "elevation": 2780.0, "land_cover_label": "Grassland", "ndvi": null, "soil_moisture": null, "solar_exposure": null, "wind_exposure": null, "water_retention": null, "slope": null, "aspect": null, "num_identification_agreements": 1, "cluster": 0, "tavg": null, "tmin": null, "tmax": null, "prcp_d0": 0.0, "prcp_d1": 0.0, "prcp_d2": 0.0, "prcp_d3": 0.0, "prcp_d4": 0.0, "prcp_d5": 0.0, "prcp_d6": 6.1867814, "tmax_d0": 21.7, "tmax_d1": 20.9, "tmax_d2": 17.9, "tmax_d3": 18.8, "tmax_d4": 19.6, "tmax_d5": 20.3, "tmax_d6": 18.3, "tmin_d0": 9.7, "tmin_d1": 5.1, "tmin_d2": 5.1, "tmin_d3": 9.3, "tmin_d4": 9.6, "tmin_d5": 9.1, "tmin_d6": 9.9, "day_of_year": 257, "uuid": "bb9d486f-6529-439e-8154-f183b0d25f1a", "inat_id": 324294569}}, {"type": "Feature", "geometry": {"type": "Point", "coordinates": [-103.4670333333, 43.8876133333]}, "properties": {"species": "Morchella angusticeps", "date": "2020-05-21", "location": "Black Hills National Forest, Keystone, SD, US", "elevation": 1579.0, "land_cover_label": "Tree cover", "ndvi": null, "soil_moisture": null, "solar_exposure": null, "wind_exposure": null, "water_retention": null, "slope": null, "aspect": null, "num_identification_agreements": 1, "cluster": 3, "tavg": null, "tmin": 5.0, "tmax": 18.3, "prcp_d0": 8.724225, "prcp_d1": 0.0, "prcp_d2": 0.0, "prcp_d3": 0.0, "prcp_d4": 0.0, "prcp_d5": 0.0, "prcp_d6": 0.0, "tmax_d0": 20.5, "tmax_d1": 22.0, "tmax_d2": 28.1, "tmax_d3": 20.2, "tmax_d4": 15.6, "tmax_d5": 9.6, "tmax_d6": 13.3, "tmin_d0": 9.3, "tmin_d1": 11.3, "tmin_d2": 11.6, "tmin_d3": 6.4, "tmin_d4": -0.2, "tmin_d5": 4.0, "tmin_d6": 4.7, "day_of_year": 142, "uuid": "f2241647-d35b-49b5-917c-7743c962f149", "inat_id": 169663833}}, {"type": "Feature", "geometry": {"type": "Point", "coordinates": [-105.4555451299, 40.4946488515]}, "properties": {"species": "Morchella tomentosa", "date": "2022-07-02", "location": "Larimer County, US-CO, US", "elevation": 2512.0, "land_cover_label": "Tree cover", "ndvi": null, "soil_moisture": null, "solar_exposure": null, "wind_exposure": null, "water_retention": null, "slope": null, "aspect": null, "num_identification_agreements": 1, "cluster": 0, "tavg": null, "tmin": 13.9, "tmax": 31.7, "prcp_d0": 0.0, "prcp_d1": 0.0, "prcp_d2": 10.743456, "prcp_d3": 0.0, "prcp_d4": 0.0, "prcp_d5": 0.0, "prcp_d6": 0.0, "tmax_d0": 21.3, "tmax_d1": 21.1, "tmax_d2": 19.9, "tmax_d3": 23.6, "tmax_d4": 24.7, "tmax_d5": 21.2, "tmax_d6": 14.6, "tmin_d0": 7.6, "tmin_d1": 7.0, "tmin_d2": 10.8, "tmin_d3": 12.3, "tmin_d4": 7.2, "tmin_d5": 5.7, "tmin_d6": 5.7, "day_of_year": 183, "uuid": "2dc9a8d8-1f1e-4c9b-a522-1def72053244", "inat_id": 283321419}}, {"type": "Feature", "geometry": {"type": "Point", "coordinates": [-105.5718002616, 39.5026327181]}, "properties": {"species": "Morchella snyderi", "date": "2022-07-08", "location": "Mount Evans Wilderness, Bailey, CO, US", "elevation": 2991.0, "land_cover_label": "Tree cover", "ndvi": null, "soil_moisture": null, "solar_exposure": null, "wind_exposure": null, "water_retention": null, "slope": null, "aspect": null, "num_identification_agreements": 1, "cluster": 2, "tavg": null, "tmin": 2.1, "tmax": 16.6, "prcp_d0": 0.0, "prcp_d1": 0.0, "prcp_d2": 0.0, "prcp_d3": 0.0, "prcp_d4": 0.0, "prcp_d5": 17.258682, "prcp_d6": 0.0, "tmax_d0": 21.1, "tmax_d1": 19.6, "tmax_d2": 16.9, "tmax_d3": 18.6, "tmax_d4": 19.8, "tmax_d5": 19.7, "tmax_d6": 17.8, "tmin_d0": 6.6, "tmin_d1": 5.1, "tmin_d2": 7.0, "tmin_d3": 7.9, "tmin_d4": 5.8, "tmin_d5": 6.7, "tmin_d6": 3.3, "day_of_year": 189, "uuid": "1b4649fc-75d8-4e68-83dc-f525854ca5be", "inat_id": 215815584}}, {"type": "Feature", "geometry": {"type": "Point", "coordinates": [-105.2347017825, 40.2107472778]}, "properties": {"species": "Morchella punctipes", "date": "2023-05-16", "location": "Longmont, CO 80503, USA", "elevation": 1599.0, "land_cover_label": "Bare / sparse vegetation", "ndvi": null, "soil_moisture": null, "solar_exposure": null, "wind_exposure": null, "water_retention": null, "slope": null, "aspect": null, "num_identification_agreements": 1, "cluster": 2, "tavg": null, "tmin": 7.1, "tmax": 26.7, "prcp_d0": 0.0, "prcp_d1": 0.0, "prcp_d2": 0.0, "prcp_d3": 0.0, "prcp_d4": 30.686867, "prcp_d5": 30.686867, "prcp_d6": 12.183474, "tmax_d0": 22.7, "tmax_d1": 16.0, "tmax_d2": 16.0, "tmax_d3": 16.2, "tmax_d4": 16.6, "tmax_d5": 14.2, "tmax_d6": 21.9, "tmin_d0": 5.1, "tmin_d1": 8.6, "tmin_d2": 8.8, "tmin_d3": 6.6, "tmin_d4": 8.4, "tmin_d5": 8.1, "tmin_d6": 8.3, "day_of_year": 136, "uuid": "71b06170-285b-4102-8f49-6aadc92de92e", "inat_id": 280960313}}, {"type": "Feature", "geometry": {"type": "Point", "coordinates": [-107.4541977911, 38.8272654061]}, "properties": {"species": "Morchella snyderi", "date": "2023-05-26", "location": "Colorado, US", "elevation": 2447.0, "land_cover_label": "Tree cover", "ndvi": null, "soil_moisture": null, "solar_exposure": null, "wind_exposure": null, "water_retention": null, "slope": null, "aspect": null, "num_identification_agreements": 1, "cluster": 0, "tavg": null, "tmin": null, "tmax": null, "prcp_d0": 0.0, "prcp_d1": 0.0, "prcp_d2": 0.0, "prcp_d3": 0.0, "prcp_d4": 10.224251, "prcp_d5": 0.0, "prcp_d6": 0.0, "tmax_d0": 19.0, "tmax_d1": 20.7, "tmax_d2": 18.4, "tmax_d3": 18.0, "tmax_d4": 15.7, "tmax_d5": 13.9, "tmax_d6": 11.9, "tmin_d0": 2.2, "tmin_d1": -0.9, "tmin_d2": 2.0, "tmin_d3": -0.2, "tmin_d4": 1.0, "tmin_d5": -0.4, "tmin_d6": 0.5, "day_of_year": 146, "uuid": "5522c00d-f732-4ba1-9e01-1dea059d6e4e", "inat_id": 178321164}}, {"type": "Feature", "geometry": {"type": "Point", "coordinates": [-106.2400156619, 41.5677303061]}, "properties": {"species": "Morchella snyderi", "date": "2023-05-26", "location": "Carbon County, WY, USA", "elevation": 2481.0, "land_cover_label": "Tree cover", "ndvi": null, "soil_moisture": null, "solar_exposure": null, "wind_exposure": null, "water_retention": null, "slope": null, "aspect": null, "num_identification_agreements": 1, "cluster": 0, "tavg": null, "tmin": 5.7, "tmax": 20.0, "prcp_d0": 5.2703114, "prcp_d1": 0.0, "prcp_d2": 6.231643, "prcp_d3": 0.0, "prcp_d4": 0.0, "prcp_d5": 0.0, "prcp_d6": 0.0, "tmax_d0": 18.1, "tmax_d1": 18.8, "tmax_d2": 15.8, "tmax_d3": 16.6, "tmax_d4": 17.7, "tmax_d5": 16.0, "tmax_d6": 15.3, "tmin_d0": 2.9, "tmin_d1": 4.0, "tmin_d2": 3.4, "tmin_d3": 6.6, "tmin_d4": 3.2, "tmin_d5": 3.3, "tmin_d6": 1.2, "day_of_year": 146, "uuid": "e4eb205a-53cd-4a6d-a9f0-b6a448a5fec1", "inat_id": 188313459}}, {"type": "Feature", "geometry": {"type": "Point", "coordinates": [-107.2860716667, 40.0325916667]}, "properties": {"species": "Verpa bohemica", "date": "2023-06-21", "location": "White River National Forest, Gypsum, CO, US", "elevation": 2643.0, "land_cover_label": "Grassland", "ndvi": null, "soil_moisture": null, "solar_exposure": null, "wind_exposure": null, "water_retention": null, "slope": null, "aspect": null, "num_identification_agreements": 1, "cluster": 2, "tavg": null, "tmin": null, "tmax": null, "prcp_d0": 0.0, "prcp_d1": 0.0, "prcp_d2": 0.0, "prcp_d3": 0.0, "prcp_d4": 0.0, "prcp_d5": 16.242933, "prcp_d6": 11.880482, "tmax_d0": 20.5, "tmax_d1": 19.1, "tmax_d2": 19.7, "tmax_d3": 17.0, "tmax_d4": 12.9, "tmax_d5": 12.4, "tmax_d6": 13.1, "tmin_d0": 7.7, "tmin_d1": 8.6, "tmin_d2": 8.2, "tmin_d3": 4.8, "tmin_d4": 3.0, "tmin_d5": 0.2, "tmin_d6": 3.4, "day_of_year": 172, "uuid": "4398c0ca-7954-48d9-88b0-5083246d46fd", "inat_id": 171743210}}, {"type": "Feature", "geometry": {"type": "Point", "coordinates": [-105.0836416667, 40.5701616667]}, "properties": {"species": "Morchella rufobrunnea", "date": "2023-09-19", "location": "Center Ave, Fort Collins, CO, US", "elevation": 1535.0, "land_cover_label": "Built-up", "ndvi": null, "soil_moisture": null, "solar_exposure": null, "wind_exposure": null, "water_retention": null, "slope": null, "aspect": null, "num_identification_agreements": 1, "cluster": 2, "tavg": null, "tmin": 12.8, "tmax": 25.0, "prcp_d0": 2.0778363, "prcp_d1": 0.0, "prcp_d2": 0.0, "prcp_d3": 0.0, "prcp_d4": 0.0, "prcp_d5": 18.548965, "prcp_d6": 0.0, "tmax_d0": 26.6, "tmax_d1": 27.3, "tmax_d2": 25.9, "tmax_d3": 22.9, "tmax_d4": 17.8, "tmax_d5": 22.4, "tmax_d6": 24.4, "tmin_d0": 13.4, "tmin_d1": 12.0, "tmin_d2": 8.7, "tmin_d3": 7.0, "tmin_d4": 11.5, "tmin_d5": 10.7, "tmin_d6": 9.5, "day_of_year": 262, "uuid": "c8bec9b4-8604-441a-acb3-623ed12b09f8", "inat_id": 385783419}}, {"type": "Feature", "geometry": {"type": "Point", "coordinates": [-104.9386133333, 39.85322]}, "properties": {"species": "Morchella americana", "date": "2024-04-22", "location": "S Platte River Trail, Thornton, CO, US", "elevation": 1548.0, "land_cover_label": "Grassland", "ndvi": null, "soil_moisture": 0.3425013244223185, "solar_exposure": null, "wind_exposure": null, "water_retention": null, "slope": null, "aspect": null, "num_identification_agreements": 2, "cluster": 2, "tavg": null, "tmin": 7.7, "tmax": 22.9, "prcp_d0": 0.0, "prcp_d1": 0.0, "prcp_d2": 0.0, "prcp_d3": 0.0, "prcp_d4": 0.0, "prcp_d5": 12.306253, "prcp_d6": 0.0, "tmax_d0": 24.0, "tmax_d1": 18.0, "tmax_d2": 6.2, "tmax_d3": 7.9, "tmax_d4": 21.3, "tmax_d5": 21.0, "tmax_d6": 18.5, "tmin_d0": 4.2, "tmin_d1": -2.3, "tmin_d2": -0.2, "tmin_d3": -0.2, "tmin_d4": 1.1, "tmin_d5": 5.8, "tmin_d6": 5.5, "day_of_year": 113, "uuid": "24157608-2e69-4e7b-8592-b681584d8a6f", "inat_id": 209193457}}, {"type": "Feature", "geometry": {"type": "Point", "coordinates": [-101.632465, 41.211015]}, "properties": {"species": "Morchella americana", "date": "2024-04-23", "location": "Keith County, NE, USA", "elevation": 948.0, "land_cover_label": "Built-up", "ndvi": null, "soil_moisture": null, "solar_exposure": null, "wind_exposure": null, "water_retention": null, "slope": null, "aspect": null, "num_identification_agreements": 1, "cluster": 0, "tavg": null, "tmin": 8.0, "tmax": 19.9, "prcp_d0": 0.0, "prcp_d1": 0.0, "prcp_d2": 0.0, "prcp_d3": 0.0, "prcp_d4": 0.0, "prcp_d5": 0.0, "prcp_d6": 0.0, "tmax_d0": 18.4, "tmax_d1": 19.3, "tmax_d2": 13.7, "tmax_d3": 7.7, "tmax_d4": 9.4, "tmax_d5": 19.7, "tmax_d6": 20.1, "tmin_d0": 6.4, "tmin_d1": 6.3, "tmin_d2": -2.1, "tmin_d3": -2.2, "tmin_d4": 0.3, "tmin_d5": 2.8, "tmin_d6": 5.5, "day_of_year": 114, "uuid": "2a6dff00-7827-4435-b495-9de50f1b1201", "inat_id": 209004699}}, {"type": "Feature", "geometry": {"type": "Point", "coordinates": [-104.619805, 40.401405]}, "properties": {"species": "Morchella americana", "date": "2024-04-23", "location": "Greeley, CO, US", "elevation": 1410.0, "land_cover_label": "Tree cover", "ndvi": null, "soil_moisture": null, "solar_exposure": null, "wind_exposure": null, "water_retention": null, "slope": null, "aspect": null, "num_identification_agreements": 2, "cluster": 0, "tavg": null, "tmin": 5.6, "tmax": 17.2, "prcp_d0": 0.0, "prcp_d1": 0.0, "prcp_d2": 0.0, "prcp_d3": 0.0, "prcp_d4": 0.0, "prcp_d5": 0.0, "prcp_d6": 4.7435045, "tmax_d0": 22.7, "tmax_d1": 24.5, "tmax_d2": 17.7, "tmax_d3": 6.4, "tmax_d4": 7.5, "tmax_d5": 18.4, "tmax_d6": 22.3, "tmin_d0": 3.8, "tmin_d1": 1.5, "tmin_d2": -3.5, "tmin_d3": 0.5, "tmin_d4": 3.0, "tmin_d5": 2.0, "tmin_d6": 6.6, "day_of_year": 114, "uuid": "47d515d1-4c75-4120-99f6-e849b9b276d6", "inat_id": 209025810}}, {"type": "Feature", "geometry": {"type": "Point", "coordinates": [-105.0916770101, 39.5473858122]}, "properties": {"species": "Morchella americana", "date": "2024-04-26", "location": "Littleton, CO 80128, USA", "elevation": 1672.0, "land_cover_label": "Tree cover", "ndvi": null, "soil_moisture": 0.2844772746287934, "solar_exposure": null, "wind_exposure": null, "water_retention": null, "slope": null, "aspect": null, "num_identification_agreements": 3, "cluster": 3, "tavg": null, "tmin": 7.2, "tmax": 17.8, "prcp_d0": 14.376536, "prcp_d1": 0.0, "prcp_d2": 0.0, "prcp_d3": 0.0, "prcp_d4": 0.0, "prcp_d5": 0.0, "prcp_d6": 3.9324305, "tmax_d0": 19.2, "tmax_d1": 23.1, "tmax_d2": 24.1, "tmax_d3": 21.5, "tmax_d4": 23.1, "tmax_d5": 17.8, "tmax_d6": 3.9, "tmin_d0": 6.2, "tmin_d1": 3.7, "tmin_d2": 2.2, "tmin_d3": 4.8, "tmin_d4": 2.9, "tmin_d5": -4.8, "tmin_d6": -0.6, "day_of_year": 117, "uuid": "c7633115-a64b-44c5-8b5f-eb68963f772e", "inat_id": 209796340}}, {"type": "Feature", "geometry": {"type": "Point", "coordinates": [-105.087902749, 39.4839407095]}, "properties": {"species": "Morchella americana", "date": "2024-04-26", "location": "Colorado, US", "elevation": 1710.0, "land_cover_label": "Grassland", "ndvi": null, "soil_moisture": 0.2783967475716054, "solar_exposure": null, "wind_exposure": null, "water_retention": null, "slope": null, "aspect": null, "num_identification_agreements": 2, "cluster": 3, "tavg": null, "tmin": 7.2, "tmax": 17.8, "prcp_d0": 12.344968, "prcp_d1": 0.0, "prcp_d2": 0.0, "prcp_d3": 0.0, "prcp_d4": 0.0, "prcp_d5": 0.0, "prcp_d6": 3.1114779, "tmax_d0": 19.5, "tmax_d1": 23.2, "tmax_d2": 24.2, "tmax_d3": 21.2, "tmax_d4": 22.8, "tmax_d5": 17.7, "tmax_d6": 3.9, "tmin_d0": 6.0, "tmin_d1": 5.3, "tmin_d2": 2.6, "tmin_d3": 4.4, "tmin_d4": 4.2, "tmin_d5": -5.2, "tmin_d6": -0.6, "day_of_year": 117, "uuid": "a38eda84-4ebb-43b4-8826-fa817d7a7ee8", "inat_id": 209843532}}, {"type": "Feature", "geometry": {"type": "Point", "coordinates": [-105.026504577, 39.442186145]}, "properties": {"species": "Morchella americana", "date": "2024-04-26", "location": "Colorado, US", "elevation": 1836.0, "land_cover_label": "Grassland", "ndvi": null, "soil_moisture": 0.2770311842534728, "solar_exposure": null, "wind_exposure": null, "water_retention": null, "slope": null, "aspect": null, "num_identification_agreements": 4, "cluster": 3, "tavg": null, "tmin": 7.2, "tmax": 17.8, "prcp_d0": 9.939694, "prcp_d1": 0.0, "prcp_d2": 0.0, "prcp_d3": 0.0, "prcp_d4": 0.0, "prcp_d5": 0.0, "prcp_d6": 2.7883353, "tmax_d0": 18.6, "tmax_d1": 22.3, "tmax_d2": 23.3, "tmax_d3": 20.3, "tmax_d4": 22.0, "tmax_d5": 16.8, "tmax_d6": 3.1, "tmin_d0": 5.1, "tmin_d1": 4.4, "tmin_d2": 1.7, "tmin_d3": 3.6, "tmin_d4": 3.4, "tmin_d5": -6.0, "tmin_d6": -1.4, "day_of_year": 117, "uuid": "e3099079-148c-4d95-9e3e-e1f892cce5d4", "inat_id": 209852040}}, {"type": "Feature", "geometry": {"type": "Point", "coordinates": [-105.0578374677, 39.5710009136]}, "properties": {"species": "Morchella americana", "date": "2024-04-26", "location": "Colorado, US", "elevation": 1664.0, "land_cover_label": "Built-up", "ndvi": null, "soil_moisture": 0.279745259202231, "solar_exposure": null, "wind_exposure": null, "water_retention": null, "slope": null, "aspect": null, "num_identification_agreements": 3, "cluster": 3, "tavg": null, "tmin": 7.2, "tmax": 17.8, "prcp_d0": 11.471637, "prcp_d1": 0.0, "prcp_d2": 0.0, "prcp_d3": 0.0, "prcp_d4": 0.0, "prcp_d5": 0.0, "prcp_d6": 3.392599, "tmax_d0": 18.0, "tmax_d1": 23.0, "tmax_d2": 24.3, "tmax_d3": 22.1, "tmax_d4": 23.8, "tmax_d5": 18.1, "tmax_d6": 5.1, "tmin_d0": 6.4, "tmin_d1": 3.1, "tmin_d2": 3.1, "tmin_d3": 4.2, "tmin_d4": 4.3, "tmin_d5": -2.8, "tmin_d6": -0.7, "day_of_year": 117, "uuid": "4bd1a3c3-1bbe-40cf-898c-350a4058d21e", "inat_id": 209856093}}, {"type": "Feature", "geometry": {"type": "Point", "coordinates": [-105.0895916667, 39.5464283333]}, "properties": {"species": "Morchella americana", "date": "2024-04-26", "location": "Chatfield State Park, Littleton, CO, US", "elevation": 1667.0, "land_cover_label": "Grassland", "ndvi": null, "soil_moisture": 0.2839991482659715, "solar_exposure": null, "wind_exposure": null, "water_retention": null, "slope": null, "aspect": null, "num_identification_agreements": 2, "cluster": 3, "tavg": null, "tmin": 7.2, "tmax": 17.8, "prcp_d0": 14.376536, "prcp_d1": 0.0, "prcp_d2": 0.0, "prcp_d3": 0.0, "prcp_d4": 0.0, "prcp_d5": 0.0, "prcp_d6": 3.9324305, "tmax_d0": 19.3, "tmax_d1": 23.1, "tmax_d2": 24.2, "tmax_d3": 21.6, "tmax_d4": 23.2, "tmax_d5": 17.9, "tmax_d6": 3.9, "tmin_d0": 6.2, "tmin_d1": 3.7, "tmin_d2": 2.2, "tmin_d3": 4.9, "tmin_d4": 3.0, "tmin_d5": -4.8, "tmin_d6": -0.5, "day_of_year": 117, "uuid": "f3e8ce24-1aeb-4e20-aee5-93af498a3ac6", "inat_id": 210322526}}, {"type": "Feature", "geometry": {"type": "Point", "coordinates": [-106.6449966667, 35.8287500025]}, "properties": {"species": "Morchella americana", "date": "2024-04-28", "location": "Santa Fe National Forest, Jemez Springs, NM, US", "elevation": 2068.0, "land_cover_label": "Built-up", "ndvi": null, "soil_moisture": null, "solar_exposure": null, "wind_exposure": null, "water_retention": null, "slope": null, "aspect": null, "num_identification_agreements": 1, "cluster": 0, "tavg": null, "tmin": 2.1, "tmax": 15.3, "prcp_d0": 5.81191, "prcp_d1": 0.0, "prcp_d2": 0.0, "prcp_d3": 4.231439, "prcp_d4": 0.0, "prcp_d5": 0.0, "prcp_d6": 0.0, "tmax_d0": 13.6, "tmax_d1": 15.1, "tmax_d2": 16.3, "tmax_d3": 20.4, "tmax_d4": 21.8, "tmax_d5": 23.7, "tmax_d6": 20.3, "tmin_d0": 0.7, "tmin_d1": 1.9, "tmin_d2": 2.2, "tmin_d3": 5.8, "tmin_d4": 3.4, "tmin_d5": 5.7, "tmin_d6": 4.0, "day_of_year": 119, "uuid": "80038d96-f863-4526-acde-cce4447af5ab", "inat_id": 211315856}}, {"type": "Feature", "geometry": {"type": "Point", "coordinates": [-105.0896083333, 39.5464166667]}, "properties": {"species": "Morchella americana", "date": "2024-04-29", "location": "Chatfield State Park, Littleton, CO, US", "elevation": 1667.0, "land_cover_label": "Grassland", "ndvi": null, "soil_moisture": null, "solar_exposure": null, "wind_exposure": null, "water_retention": null, "slope": null, "aspect": null, "num_identification_agreements": 2, "cluster": 0, "tavg": null, "tmin": 2.8, "tmax": 18.9, "prcp_d0": 0.0, "prcp_d1": 0.0, "prcp_d2": 43.12961, "prcp_d3": 14.376536, "prcp_d4": 0.0, "prcp_d5": 0.0, "prcp_d6": 0.0, "tmax_d0": 19.9, "tmax_d1": 14.6, "tmax_d2": 11.6, "tmax_d3": 19.3, "tmax_d4": 23.1, "tmax_d5": 24.2, "tmax_d6": 21.6, "tmin_d0": 1.5, "tmin_d1": -0.4, "tmin_d2": 2.0, "tmin_d3": 6.2, "tmin_d4": 3.7, "tmin_d5": 2.2, "tmin_d6": 4.9, "day_of_year": 120, "uuid": "0f45a2ae-5fdd-47da-b3e1-b68569f62914", "inat_id": 212260007}}, {"type": "Feature", "geometry": {"type": "Point", "coordinates": [-104.8418173751, 40.5665690708]}, "properties": {"species": "Morchella americana", "date": "2024-05-02", "location": "Colorado, US", "elevation": 1532.0, "land_cover_label": "Cropland", "ndvi": null, "soil_moisture": null, "solar_exposure": null, "wind_exposure": null, "water_retention": null, "slope": null, "aspect": null, "num_identification_agreements": 3, "cluster": 2, "tavg": null, "tmin": 2.8, "tmax": 16.1, "prcp_d0": 0.0, "prcp_d1": 0.0, "prcp_d2": 0.0, "prcp_d3": 0.0, "prcp_d4": 0.0, "prcp_d5": 15.430604, "prcp_d6": 5.1435347, "tmax_d0": 15.7, "tmax_d1": 20.1, "tmax_d2": 20.9, "tmax_d3": 19.6, "tmax_d4": 16.6, "tmax_d5": 15.0, "tmax_d6": 18.9, "tmin_d0": 3.5, "tmin_d1": 4.2, "tmin_d2": 5.0, "tmin_d3": 1.8, "tmin_d4": 1.0, "tmin_d5": 6.0, "tmin_d6": 7.4, "day_of_year": 123, "uuid": "510e0fc5-cbac-46f1-95ba-75fe36e5b31e", "inat_id": 213078010}}, {"type": "Feature", "geometry": {"type": "Point", "coordinates": [-105.342987842, 39.8815722849]}, "properties": {"species": "Morchella americana", "date": "2024-05-04", "location": "Colorado, US", "elevation": 2492.0, "land_cover_label": "Tree cover", "ndvi": null, "soil_moisture": null, "solar_exposure": null, "wind_exposure": null, "water_retention": null, "slope": null, "aspect": null, "num_identification_agreements": 1, "cluster": 2, "tavg": null, "tmin": 2.0, "tmax": 17.0, "prcp_d0": 0.0, "prcp_d1": 0.0, "prcp_d2": 0.0, "prcp_d3": 0.0, "prcp_d4": 0.0, "prcp_d5": 9.575682, "prcp_d6": 0.0, "tmax_d0": 9.5, "tmax_d1": 14.6, "tmax_d2": 10.5, "tmax_d3": 13.2, "tmax_d4": 13.8, "tmax_d5": 10.1, "tmax_d6": 6.5, "tmin_d0": -2.6, "tmin_d1": -4.0, "tmin_d2": -4.0, "tmin_d3": -2.7, "tmin_d4": -2.5, "tmin_d5": -3.0, "tmin_d6": -6.0, "day_of_year": 125, "uuid": "b67c62a2-e998-438f-8793-0f29a7d91795", "inat_id": 236991438}}, {"type": "Feature", "geometry": {"type": "Point", "coordinates": [-105.0156103613, 38.5338749414]}, "properties": {"species": "Morchella americana", "date": "2024-05-04", "location": "Colorado, US", "elevation": 1824.0, "land_cover_label": "Tree cover", "ndvi": null, "soil_moisture": null, "solar_exposure": null, "wind_exposure": null, "water_retention": null, "slope": null, "aspect": null, "num_identification_agreements": 1, "cluster": 0, "tavg": null, "tmin": 3.3, "tmax": 17.2, "prcp_d0": 0.0, "prcp_d1": 0.0, "prcp_d2": 0.0, "prcp_d3": 0.0, "prcp_d4": 0.0, "prcp_d5": 0.0, "prcp_d6": 0.0, "tmax_d0": 21.7, "tmax_d1": 23.5, "tmax_d2": 19.0, "tmax_d3": 21.2, "tmax_d4": 22.4, "tmax_d5": 19.4, "tmax_d6": 12.5, "tmin_d0": 1.9, "tmin_d1": 2.9, "tmin_d2": 4.8, "tmin_d3": 4.9, "tmin_d4": 6.4, "tmin_d5": 3.5, "tmin_d6": 0.8, "day_of_year": 125, "uuid": "984422f8-3d1d-450d-814e-f70c2e52d3b8", "inat_id": 213858869}}, {"type": "Feature", "geometry": {"type": "Point", "coordinates": [-102.2407038997, 43.2544234458]}, "properties": {"species": "Morchella americana", "date": "2024-05-04", "location": "Oglala Lakota County, US-SD, US", "elevation": 1042.0, "land_cover_label": "Grassland", "ndvi": null, "soil_moisture": null, "solar_exposure": null, "wind_exposure": null, "water_retention": null, "slope": null, "aspect": null, "num_identification_agreements": 3, "cluster": 0, "tavg": null, "tmin": -5.0, "tmax": 16.7, "prcp_d0": 0.0, "prcp_d1": 0.0, "prcp_d2": 0.0, "prcp_d3": 0.0, "prcp_d4": 6.2270737, "prcp_d5": 0.0, "prcp_d6": 6.2270737, "tmax_d0": 13.6, "tmax_d1": 13.2, "tmax_d2": 13.9, "tmax_d3": 12.2, "tmax_d4": 17.1, "tmax_d5": 17.6, "tmax_d6": 9.1, "tmin_d0": -1.5, "tmin_d1": 2.4, "tmin_d2": 3.5, "tmin_d3": 2.2, "tmin_d4": 9.5, "tmin_d5": -0.2, "tmin_d6": 1.6, "day_of_year": 125, "uuid": "29fd24cf-edae-4c2a-aa90-797df5ff1103", "inat_id": 215181390}}, {"type": "Feature", "geometry": {"type": "Point", "coordinates": [-105.1381672128, 38.556664709]}, "properties": {"species": "Morchella brunnea", "date": "2024-05-04", "location": "Colorado, US", "elevation": 2533.0, "land_cover_label": "Tree cover", "ndvi": null, "soil_moisture": null, "solar_exposure": null, "wind_exposure": null, "water_retention": null, "slope": null, "aspect": null, "num_identification_agreements": 1, "cluster": 0, "tavg": null, "tmin": 3.3, "tmax": 17.2, "prcp_d0": 0.0, "prcp_d1": 0.0, "prcp_d2": 0.0, "prcp_d3": 0.0, "prcp_d4": 0.0, "prcp_d5": 0.0, "prcp_d6": 0.0, "tmax_d0": 14.0, "tmax_d1": 15.9, "tmax_d2": 12.5, "tmax_d3": 13.8, "tmax_d4": 15.2, "tmax_d5": 12.8, "tmax_d6": 5.5, "tmin_d0": -3.7, "tmin_d1": -1.8, "tmin_d2": -0.8, "tmin_d3": 0.0, "tmin_d4": 1.2, "tmin_d5": -3.1, "tmin_d6": -6.3, "day_of_year": 125, "uuid": "38159c12-d494-4310-9f8e-1edfa0eac719", "inat_id": 213709425}}, {"type": "Feature", "geometry": {"type": "Point", "coordinates": [-105.091025, 39.4899033333]}, "properties": {"species": "Morchella americana", "date": "2024-05-05", "location": "Littleton, CO, US", "elevation": 1678.0, "land_cover_label": "Tree cover", "ndvi": null, "soil_moisture": null, "solar_exposure": null, "wind_exposure": null, "water_retention": null, "slope": null, "aspect": null, "num_identification_agreements": 4, "cluster": 0, "tavg": null, "tmin": 6.1, "tmax": 22.8, "prcp_d0": 1.860637, "prcp_d1": 0.0, "prcp_d2": 1.860637, "prcp_d3": 0.0, "prcp_d4": 0.0, "prcp_d5": 0.0, "prcp_d6": 0.0, "tmax_d0": 24.1, "tmax_d1": 17.4, "tmax_d2": 22.7, "tmax_d3": 16.3, "tmax_d4": 22.0, "tmax_d5": 22.3, "tmax_d6": 19.8, "tmin_d0": 4.4, "tmin_d1": 2.1, "tmin_d2": 2.3, "tmin_d3": 3.6, "tmin_d4": 2.0, "tmin_d5": 2.4, "tmin_d6": 1.4, "day_of_year": 126, "uuid": "d8ccd18d-a3dd-4612-b337-6ecb28e7334a", "inat_id": 214384935}}, {"type": "Feature", "geometry": {"type": "Point", "coordinates": [-104.9442533333, 40.4747916667]}, "properties": {"species": "Morchella americana", "date": "2024-05-05", "location": "Frank Swa, Windsor, CO, US", "elevation": 1462.0, "land_cover_label": "Grassland", "ndvi": null, "soil_moisture": null, "solar_exposure": null, "wind_exposure": null, "water_retention": null, "slope": null, "aspect": null, "num_identification_agreements": 2, "cluster": 0, "tavg": null, "tmin": 1.7, "tmax": 23.9, "prcp_d0": 3.128395, "prcp_d1": 0.0, "prcp_d2": 0.0, "prcp_d3": 0.0, "prcp_d4": 0.0, "prcp_d5": 0.0, "prcp_d6": 0.0, "tmax_d0": 23.9, "tmax_d1": 17.6, "tmax_d2": 19.4, "tmax_d3": 17.2, "tmax_d4": 19.8, "tmax_d5": 20.9, "tmax_d6": 19.9, "tmin_d0": 4.1, "tmin_d1": 1.4, "tmin_d2": 2.4, "tmin_d3": 2.2, "tmin_d4": 4.4, "tmin_d5": 4.5, "tmin_d6": 0.3, "day_of_year": 126, "uuid": "bb410052-45cb-4052-a51c-10ac59a3c4ee", "inat_id": 222119634}}, {"type": "Feature", "geometry": {"type": "Point", "coordinates": [-105.3903881143, 39.8679824646]}, "properties": {"species": "Morchella americana", "date": "2024-05-05", "location": "Colorado, US", "elevation": 2693.0, "land_cover_label": "Tree cover", "ndvi": null, "soil_moisture": null, "solar_exposure": null, "wind_exposure": null, "water_retention": null, "slope": null, "aspect": null, "num_identification_agreements": 2, "cluster": 0, "tavg": null, "tmin": 5.0, "tmax": 21.0, "prcp_d0": 5.256202, "prcp_d1": 0.0, "prcp_d2": 0.0, "prcp_d3": 0.0, "prcp_d4": 0.0, "prcp_d5": 0.0, "prcp_d6": 13.441891, "tmax_d0": 11.4, "tmax_d1": 5.0, "tmax_d2": 10.5, "tmax_d3": 6.8, "tmax_d4": 10.3, "tmax_d5": 8.7, "tmax_d6": 7.5, "tmin_d0": -4.0, "tmin_d1": -6.3, "tmin_d2": -7.5, "tmin_d3": -8.8, "tmin_d4": -5.4, "tmin_d5": -3.5, "tmin_d6": -4.0, "day_of_year": 126, "uuid": "b3769d68-ffb9-4cd2-b546-2e6d6806e1eb", "inat_id": 213888204}}, {"type": "Feature", "geometry": {"type": "Point", "coordinates": [-104.94168, 40.4718966667]}, "properties": {"species": "Morchella punctipes", "date": "2024-05-05", "location": "Windsor, CO, US", "elevation": 1460.0, "land_cover_label": "Tree cover", "ndvi": null, "soil_moisture": null, "solar_exposure": null, "wind_exposure": null, "water_retention": null, "slope": null, "aspect": null, "num_identification_agreements": 1, "cluster": 0, "tavg": null, "tmin": 1.7, "tmax": 23.9, "prcp_d0": 3.128395, "prcp_d1": 0.0, "prcp_d2": 0.0, "prcp_d3": 0.0, "prcp_d4": 0.0, "prcp_d5": 0.0, "prcp_d6": 0.0, "tmax_d0": 23.9, "tmax_d1": 17.6, "tmax_d2": 19.4, "tmax_d3": 17.2, "tmax_d4": 19.8, "tmax_d5": 20.9, "tmax_d6": 19.9, "tmin_d0": 4.1, "tmin_d1": 1.4, "tmin_d2": 2.4, "tmin_d3": 2.2, "tmin_d4": 4.4, "tmin_d5": 4.5, "tmin_d6": 0.3, "day_of_year": 126, "uuid": "e84d0bd2-78cf-460c-bc10-d58267ab6f14", "inat_id": 222111940}}, {"type": "Feature", "geometry": {"type": "Point", "coordinates": [-105.0697945, 39.6594916667]}, "properties": {"species": "Morchella americana", "date": "2024-05-07", "location": "Bear Valley Park, Denver, CO, US", "elevation": 1640.0, "land_cover_label": "Tree cover", "ndvi": null, "soil_moisture": 0.3099962815330765, "solar_exposure": null, "wind_exposure": null, "water_retention": null, "slope": null, "aspect": null, "num_identification_agreements": 5, "cluster": 0, "tavg": null, "tmin": 3.3, "tmax": 12.8, "prcp_d0": 0.0, "prcp_d1": 0.0, "prcp_d2": 2.814912, "prcp_d3": 0.0, "prcp_d4": 0.0, "prcp_d5": 0.0, "prcp_d6": 0.0, "tmax_d0": 16.1, "tmax_d1": 24.4, "tmax_d2": 25.0, "tmax_d3": 18.4, "tmax_d4": 23.2, "tmax_d5": 16.1, "tmax_d6": 21.7, "tmin_d0": 3.4, "tmin_d1": 8.7, "tmin_d2": 3.7, "tmin_d3": 1.1, "tmin_d4": 3.8, "tmin_d5": 2.9, "tmin_d6": 3.5, "day_of_year": 128, "uuid": "7ae6949a-4453-4a51-8ce0-65cb3dfeb3bb", "inat_id": 214323237}}, {"type": "Feature", "geometry": {"type": "Point", "coordinates": [-105.392333695, 39.8111711203]}, "properties": {"species": "Morchella americana", "date": "2024-05-11", "location": "Colorado, US", "elevation": 2667.0, "land_cover_label": "Tree cover", "ndvi": null, "soil_moisture": 0.3825851227273295, "solar_exposure": null, "wind_exposure": null, "water_retention": null, "slope": null, "aspect": null, "num_identification_agreements": 3, "cluster": 0, "tavg": null, "tmin": 5.0, "tmax": 17.0, "prcp_d0": 0.0, "prcp_d1": 0.0, "prcp_d2": 0.0, "prcp_d3": 0.0, "prcp_d4": 0.0, "prcp_d5": 0.0, "prcp_d6": 5.9101396, "tmax_d0": 10.2, "tmax_d1": 3.5, "tmax_d2": 3.1, "tmax_d3": 2.7, "tmax_d4": 5.4, "tmax_d5": 13.6, "tmax_d6": 14.8, "tmin_d0": -6.3, "tmin_d1": -1.6, "tmin_d2": -4.7, "tmin_d3": -5.7, "tmin_d4": -2.4, "tmin_d5": -1.8, "tmin_d6": -3.5, "day_of_year": 132, "uuid": "0114ea8d-1172-4a52-900c-3cb68f3f2c1d", "inat_id": 215967367}}, {"type": "Feature", "geometry": {"type": "Point", "coordinates": [-105.3618407278, 39.8520569888]}, "properties": {"species": "Morchella americana", "date": "2024-05-11", "location": "Colorado, US", "elevation": 2380.0, "land_cover_label": "Tree cover", "ndvi": null, "soil_moisture": 0.3785740463178835, "solar_exposure": null, "wind_exposure": null, "water_retention": null, "slope": null, "aspect": null, "num_identification_agreements": 3, "cluster": 0, "tavg": null, "tmin": 5.0, "tmax": 17.0, "prcp_d0": 0.0, "prcp_d1": 0.0, "prcp_d2": 0.0, "prcp_d3": 0.0, "prcp_d4": 0.0, "prcp_d5": 0.0, "prcp_d6": 5.256202, "tmax_d0": 11.3, "tmax_d1": 4.6, "tmax_d2": 4.2, "tmax_d3": 3.8, "tmax_d4": 6.5, "tmax_d5": 14.7, "tmax_d6": 15.9, "tmin_d0": -5.2, "tmin_d1": -0.4, "tmin_d2": -3.6, "tmin_d3": -4.5, "tmin_d4": -1.2, "tmin_d5": -0.6, "tmin_d6": -2.4, "day_of_year": 132, "uuid": "cec15c75-78c0-45a5-a1a0-112447bb37cb", "inat_id": 215966616}}, {"type": "Feature", "geometry": {"type": "Point", "coordinates": [-105.1340550693, 39.695712984]}, "properties": {"species": "Morchella populiphila", "date": "2024-05-12", "location": "Colorado, US", "elevation": 1786.0, "land_cover_label": "Tree cover", "ndvi": null, "soil_moisture": null, "solar_exposure": null, "wind_exposure": null, "water_retention": null, "slope": null, "aspect": null, "num_identification_agreements": 1, "cluster": 3, "tavg": null, "tmin": 8.0, "tmax": 16.0, "prcp_d0": 15.269516, "prcp_d1": 5.0898385, "prcp_d2": 0.0, "prcp_d3": 0.0, "prcp_d4": 0.0, "prcp_d5": 0.0, "prcp_d6": 0.0, "tmax_d0": 16.9, "tmax_d1": 17.9, "tmax_d2": 13.0, "tmax_d3": 11.3, "tmax_d4": 12.9, "tmax_d5": 14.9, "tmax_d6": 22.9, "tmin_d0": 6.4, "tmin_d1": -0.2, "tmin_d2": 4.8, "tmin_d3": 2.9, "tmin_d4": -0.8, "tmin_d5": 2.7, "tmin_d6": 7.8, "day_of_year": 133, "uuid": "5cb67ec2-e36c-49d2-a011-cf50c0094de8", "inat_id": 236971631}}, {"type": "Feature", "geometry": {"type": "Point", "coordinates": [-105.0201575578, 39.6876805759]}, "properties": {"species": "Morchella populiphila", "date": "2024-05-12", "location": "Colorado, US", "elevation": 1627.0, "land_cover_label": "Bare / sparse vegetation", "ndvi": null, "soil_moisture": null, "solar_exposure": null, "wind_exposure": null, "water_retention": null, "slope": null, "aspect": null, "num_identification_agreements": 2, "cluster": 3, "tavg": null, "tmin": 8.1, "tmax": 16.3, "prcp_d0": 19.9499, "prcp_d1": 0.0, "prcp_d2": 0.0, "prcp_d3": 0.0, "prcp_d4": 0.0, "prcp_d5": 0.0, "prcp_d6": 0.0, "tmax_d0": 17.2, "tmax_d1": 19.4, "tmax_d2": 13.9, "tmax_d3": 13.0, "tmax_d4": 14.3, "tmax_d5": 16.3, "tmax_d6": 24.6, "tmin_d0": 7.1, "tmin_d1": 1.3, "tmin_d2": 5.9, "tmin_d3": 3.3, "tmin_d4": -0.1, "tmin_d5": 3.6, "tmin_d6": 8.9, "day_of_year": 133, "uuid": "9c162422-b14e-4054-99ec-0a25140201e3", "inat_id": 236973005}}, {"type": "Feature", "geometry": {"type": "Point", "coordinates": [-105.0192608997, 40.1350576917]}, "properties": {"species": "Morchella americana", "date": "2024-05-13", "location": "Colorado, US", "elevation": 1495.0, "land_cover_label": "Grassland", "ndvi": null, "soil_moisture": null, "solar_exposure": null, "wind_exposure": null, "water_retention": null, "slope": null, "aspect": null, "num_identification_agreements": 2, "cluster": 0, "tavg": null, "tmin": 6.6, "tmax": 25.5, "prcp_d0": 0.0, "prcp_d1": 6.933089, "prcp_d2": 0.0, "prcp_d3": 0.0, "prcp_d4": 0.0, "prcp_d5": 0.0, "prcp_d6": 3.6262095, "tmax_d0": 21.5, "tmax_d1": 18.5, "tmax_d2": 19.0, "tmax_d3": 14.4, "tmax_d4": 13.8, "tmax_d5": 14.6, "tmax_d6": 15.3, "tmin_d0": 4.7, "tmin_d1": 8.3, "tmin_d2": 2.2, "tmin_d3": 5.5, "tmin_d4": 2.9, "tmin_d5": 3.0, "tmin_d6": 5.6, "day_of_year": 134, "uuid": "392d1fb6-7d3c-41e5-a316-d8b66c3d9cfa", "inat_id": 215626148}}, {"type": "Feature", "geometry": {"type": "Point", "coordinates": [-105.8446168098, 35.7489303335]}, "properties": {"species": "Morchella snyderi", "date": "2024-05-19", "location": "Santa Fe County, NM, USA", "elevation": 2730.0, "land_cover_label": "Tree cover", "ndvi": null, "soil_moisture": null, "solar_exposure": null, "wind_exposure": null, "water_retention": null, "slope": null, "aspect": null, "num_identification_agreements": 2, "cluster": 0, "tavg": null, "tmin": 11.1, "tmax": 27.8, "prcp_d0": 0.08156159, "prcp_d1": 5.024001e-07, "prcp_d2": 0.034615584, "prcp_d3": 8.219007, "prcp_d4": 0.0, "prcp_d5": 0.0, "prcp_d6": 0.0, "tmax_d0": 16.3, "tmax_d1": 18.3, "tmax_d2": 15.9, "tmax_d3": 11.4, "tmax_d4": 14.4, "tmax_d5": 16.2, "tmax_d6": 14.6, "tmin_d0": 6.8, "tmin_d1": 4.5, "tmin_d2": 2.2, "tmin_d3": 2.1, "tmin_d4": 5.3, "tmin_d5": 3.4, "tmin_d6": 0.3, "day_of_year": 140, "uuid": "a529ba82-b110-4123-b4b4-532a460508e2", "inat_id": 218742980}}, {"type": "Feature", "geometry": {"type": "Point", "coordinates": [-103.6082687378, 43.7614440918]}, "properties": {"species": "Morchella americana", "date": "2024-05-19", "location": "Custer", "elevation": 1628.0, "land_cover_label": "Grassland", "ndvi": null, "soil_moisture": null, "solar_exposure": null, "wind_exposure": null, "water_retention": null, "slope": null, "aspect": null, "num_identification_agreements": 2, "cluster": 2, "tavg": null, "tmin": 5.0, "tmax": 20.6, "prcp_d0": 0.44922373, "prcp_d1": 0.09091486, "prcp_d2": 0.29221368, "prcp_d3": 2.3820016, "prcp_d4": 0.0, "prcp_d5": 28.177368, "prcp_d6": 0.0, "tmax_d0": 21.2, "tmax_d1": 19.2, "tmax_d2": 22.8, "tmax_d3": 18.7, "tmax_d4": 15.3, "tmax_d5": 16.2, "tmax_d6": 19.7, "tmin_d0": 6.7, "tmin_d1": 4.9, "tmin_d2": 9.6, "tmin_d3": 4.1, "tmin_d4": 6.2, "tmin_d5": 9.5, "tmin_d6": 6.1, "day_of_year": 140, "uuid": "5ca60bbf-41ed-4357-8d16-8c9666cb5c86", "inat_id": 216866785}}, {"type": "Feature", "geometry": {"type": "Point", "coordinates": [-105.2552667968, 38.6601615713]}, "properties": {"species": "Morchella snyderi", "date": "2024-05-19", "location": "Colorado, US", "elevation": 2347.0, "land_cover_label": "Tree cover", "ndvi": null, "soil_moisture": null, "solar_exposure": null, "wind_exposure": null, "water_retention": null, "slope": null, "aspect": null, "num_identification_agreements": 3, "cluster": 0, "tavg": null, "tmin": 9.8, "tmax": 28.9, "prcp_d0": 0.19704847, "prcp_d1": 0.49729073, "prcp_d2": 0.22359626, "prcp_d3": 6.6122246, "prcp_d4": 0.0, "prcp_d5": 0.0, "prcp_d6": 0.0, "tmax_d0": 21.2, "tmax_d1": 21.4, "tmax_d2": 20.3, "tmax_d3": 14.4, "tmax_d4": 16.7, "tmax_d5": 19.5, "tmax_d6": 17.4, "tmin_d0": 2.2, "tmin_d1": 3.5, "tmin_d2": 0.7, "tmin_d3": 3.0, "tmin_d4": 0.5, "tmin_d5": 0.5, "tmin_d6": -0.2, "day_of_year": 140, "uuid": "dc26b712-7efb-4ba0-b908-7ab2258bba90", "inat_id": 218312083}}, {"type": "Feature", "geometry": {"type": "Point", "coordinates": [-105.0971852417, 38.0038517346]}, "properties": {"species": "Morchella snyderi", "date": "2024-05-26", "location": "Colorado, US", "elevation": 3372.0, "land_cover_label": "Tree cover", "ndvi": null, "soil_moisture": null, "solar_exposure": null, "wind_exposure": null, "water_retention": null, "slope": null, "aspect": null, "num_identification_agreements": 2, "cluster": 0, "tavg": null, "tmin": 9.8, "tmax": 24.7, "prcp_d0": 0.0, "prcp_d1": 0.0, "prcp_d2": 0.0, "prcp_d3": 0.0, "prcp_d4": 0.0, "prcp_d5": 0.0, "prcp_d6": 2.2772201e-05, "tmax_d0": 7.9, "tmax_d1": 6.8, "tmax_d2": 7.5, "tmax_d3": 9.0, "tmax_d4": 6.9, "tmax_d5": 8.0, "tmax_d6": 10.7, "tmin_d0": -3.0, "tmin_d1": -1.0, "tmin_d2": -2.8, "tmin_d3": -0.9, "tmin_d4": -8.6, "tmin_d5": -7.7, "tmin_d6": -2.6, "day_of_year": 147, "uuid": "6adbcaf3-ce7f-4409-aa68-2ce22b46a105", "inat_id": 218492116}}, {"type": "Feature", "geometry": {"type": "Point", "coordinates": [-107.3630618047, 40.9843615937]}, "properties": {"species": "Verpa bohemica", "date": "2024-05-28", "location": "Slater, CO, US", "elevation": 2128.0, "land_cover_label": "Grassland", "ndvi": null, "soil_moisture": null, "solar_exposure": null, "wind_exposure": null, "water_retention": null, "slope": null, "aspect": null, "num_identification_agreements": 1, "cluster": 0, "tavg": null, "tmin": 4.2, "tmax": 24.0, "prcp_d0": 0.0, "prcp_d1": 0.0, "prcp_d2": 0.0, "prcp_d3": 0.0, "prcp_d4": 0.0, "prcp_d5": 0.0, "prcp_d6": 0.0, "tmax_d0": 21.2, "tmax_d1": 18.4, "tmax_d2": 15.1, "tmax_d3": 14.0, "tmax_d4": 14.5, "tmax_d5": 13.7, "tmax_d6": 14.0, "tmin_d0": 2.1, "tmin_d1": -0.8, "tmin_d2": 1.5, "tmin_d3": 2.4, "tmin_d4": -5.3, "tmin_d5": 2.5, "tmin_d6": -4.4, "day_of_year": 149, "uuid": "bd4ea4aa-39c8-43ec-8443-c1943393894e", "inat_id": 218918298}}, {"type": "Feature", "geometry": {"type": "Point", "coordinates": [-104.99749053, 37.96638146]}, "properties": {"species": "Morchella snyderi", "date": "2024-05-30", "location": "Beulah, CO 81023, USA", "elevation": 2417.0, "land_cover_label": "Tree cover", "ndvi": null, "soil_moisture": null, "solar_exposure": null, "wind_exposure": null, "water_retention": null, "slope": null, "aspect": null, "num_identification_agreements": 1, "cluster": 0, "tavg": null, "tmin": 12.3, "tmax": 27.1, "prcp_d0": 0.0, "prcp_d1": 3.2626069, "prcp_d2": 0.0, "prcp_d3": 0.0, "prcp_d4": 0.0, "prcp_d5": 0.0, "prcp_d6": 0.0, "tmax_d0": 21.0, "tmax_d1": 22.2, "tmax_d2": 19.5, "tmax_d3": 19.3, "tmax_d4": 18.2, "tmax_d5": 16.7, "tmax_d6": 16.6, "tmin_d0": 11.7, "tmin_d1": 8.9, "tmin_d2": 7.9, "tmin_d3": 7.4, "tmin_d4": 3.6, "tmin_d5": 7.7, "tmin_d6": 4.9, "day_of_year": 151, "uuid": "b8ba204f-08e3-4618-ae70-38d2d9caa3fe", "inat_id": 219334726}}, {"type": "Feature", "geometry": {"type": "Point", "coordinates": [-106.6781473, 39.502203]}, "properties": {"species": "Morchella snyderi", "date": "2024-05-30", "location": "Yeoman Park Campground, Basalt, CO 81621, USA", "elevation": 2763.0, "land_cover_label": "Tree cover", "ndvi": null, "soil_moisture": null, "solar_exposure": null, "wind_exposure": null, "water_retention": null, "slope": null, "aspect": null, "num_identification_agreements": 1, "cluster": 0, "tavg": null, "tmin": 4.4, "tmax": 24.4, "prcp_d0": 0.0, "prcp_d1": 0.0, "prcp_d2": 0.0, "prcp_d3": 0.0, "prcp_d4": 11.653097, "prcp_d5": 0.0, "prcp_d6": 0.0, "tmax_d0": 13.5, "tmax_d1": 15.2, "tmax_d2": 11.9, "tmax_d3": 11.3, "tmax_d4": 8.5, "tmax_d5": 9.2, "tmax_d6": 8.2, "tmin_d0": 1.0, "tmin_d1": -0.0, "tmin_d2": 0.9, "tmin_d3": -0.6, "tmin_d4": -1.8, "tmin_d5": -0.8, "tmin_d6": -6.9, "day_of_year": 151, "uuid": "a66963f1-0d8a-4cec-82c9-82d99c4287b9", "inat_id": 219447943}}, {"type": "Feature", "geometry": {"type": "Point", "coordinates": [-105.50843, 39.98053]}, "properties": {"species": "Morchella brunnea", "date": "2024-06-02", "location": "County Road 126, Nederland, CO, US", "elevation": 2546.0, "land_cover_label": "Tree cover", "ndvi": null, "soil_moisture": null, "solar_exposure": null, "wind_exposure": null, "water_retention": null, "slope": null, "aspect": null, "num_identification_agreements": 2, "cluster": 0, "tavg": null, "tmin": 12.0, "tmax": 30.0, "prcp_d0": 1.3614162, "prcp_d1": 0.0, "prcp_d2": 0.0, "prcp_d3": 0.0, "prcp_d4": 0.0, "prcp_d5": 0.0, "prcp_d6": 0.0, "tmax_d0": 20.7, "tmax_d1": 19.7, "tmax_d2": 17.4, "tmax_d3": 17.7, "tmax_d4": 20.3, "tmax_d5": 17.0, "tmax_d6": 16.3, "tmin_d0": 4.9, "tmin_d1": 4.5, "tmin_d2": 2.8, "tmin_d3": 5.5, "tmin_d4": 3.7, "tmin_d5": 1.8, "tmin_d6": 0.9, "day_of_year": 154, "uuid": "1dcc5ac1-6f9d-47fd-802d-9fe9314e0382", "inat_id": 236983770}}, {"type": "Feature", "geometry": {"type": "Point", "coordinates": [-105.4297736619, 36.1649071477]}, "properties": {"species": "Verpa bohemica", "date": "2024-06-08", "location": "New Mexico, US", "elevation": 3198.0, "land_cover_label": "Tree cover", "ndvi": null, "soil_moisture": null, "solar_exposure": null, "wind_exposure": null, "water_retention": null, "slope": null, "aspect": null, "num_identification_agreements": 4, "cluster": 0, "tavg": null, "tmin": 4.1, "tmax": 27.5, "prcp_d0": 0.0, "prcp_d1": 0.0, "prcp_d2": 0.0, "prcp_d3": 0.0, "prcp_d4": 0.0, "prcp_d5": 0.0, "prcp_d6": 0.0, "tmax_d0": 21.6, "tmax_d1": 20.7, "tmax_d2": 22.0, "tmax_d3": 20.8, "tmax_d4": 18.3, "tmax_d5": 18.3, "tmax_d6": 16.7, "tmin_d0": 8.6, "tmin_d1": 6.4, "tmin_d2": 8.8, "tmin_d3": 3.6, "tmin_d4": 5.8, "tmin_d5": 5.0, "tmin_d6": 3.4, "day_of_year": 160, "uuid": "279ab95c-f130-42ec-b41b-d20d58f1e5df", "inat_id": 221437621}}, {"type": "Feature", "geometry": {"type": "Point", "coordinates": [-105.5314570087, 36.0197737997]}, "properties": {"species": "Morchella importuna", "date": "2024-06-08", "location": "New Mexico, US", "elevation": 3584.0, "land_cover_label": "Tree cover", "ndvi": null, "soil_moisture": null, "solar_exposure": null, "wind_exposure": null, "water_retention": null, "slope": null, "aspect": null, "num_identification_agreements": 4, "cluster": 0, "tavg": null, "tmin": 4.1, "tmax": 27.5, "prcp_d0": 0.0, "prcp_d1": 0.0, "prcp_d2": 0.0, "prcp_d3": 0.0, "prcp_d4": 0.0, "prcp_d5": 0.0, "prcp_d6": 0.0, "tmax_d0": 13.3, "tmax_d1": 15.2, "tmax_d2": 13.9, "tmax_d3": 13.6, "tmax_d4": 13.1, "tmax_d5": 10.9, "tmax_d6": 10.7, "tmin_d0": 2.2, "tmin_d1": 1.2, "tmin_d2": 1.9, "tmin_d3": 0.9, "tmin_d4": 1.7, "tmin_d5": -1.9, "tmin_d6": 0.3, "day_of_year": 160, "uuid": "18f646d6-c58c-4dca-bf9d-b4e97f6c51fc", "inat_id": 221463406}}, {"type": "Feature", "geometry": {"type": "Point", "coordinates": [-106.1620397754, 38.5025348205]}, "properties": {"species": "Morchella norvegiensis", "date": "2024-06-15", "location": "Colorado, US", "elevation": 2885.0, "land_cover_label": "Grassland", "ndvi": null, "soil_moisture": null, "solar_exposure": null, "wind_exposure": null, "water_retention": null, "slope": null, "aspect": null, "num_identification_agreements": 2, "cluster": 0, "tavg": null, "tmin": 8.9, "tmax": 28.4, "prcp_d0": 0.5687755, "prcp_d1": 0.85303456, "prcp_d2": 0.004820376, "prcp_d3": 0.022514233, "prcp_d4": 2.4970436, "prcp_d5": 3.4020858, "prcp_d6": 0.0, "tmax_d0": 22.1, "tmax_d1": 22.1, "tmax_d2": 25.4, "tmax_d3": 24.5, "tmax_d4": 22.5, "tmax_d5": 18.8, "tmax_d6": 23.2, "tmin_d0": 2.1, "tmin_d1": 6.2, "tmin_d2": 4.3, "tmin_d3": 3.2, "tmin_d4": 2.9, "tmin_d5": 5.1, "tmin_d6": 7.5, "day_of_year": 167, "uuid": "b9b77a13-3277-4efe-a1cd-9ad8902fce29", "inat_id": 222934259}}, {"type": "Feature", "geometry": {"type": "Point", "coordinates": [-105.5499649974, 40.1808780913]}, "properties": {"species": "Morchella snyderi", "date": "2024-06-15", "location": "Ward, CO, US", "elevation": 2987.0, "land_cover_label": "Tree cover", "ndvi": null, "soil_moisture": null, "solar_exposure": null, "wind_exposure": null, "water_retention": null, "slope": null, "aspect": null, "num_identification_agreements": 1, "cluster": 0, "tavg": null, "tmin": 13.0, "tmax": 33.0, "prcp_d0": 2.1975567, "prcp_d1": 0.735958, "prcp_d2": 0.026455292, "prcp_d3": 0.0017804779, "prcp_d4": 0.2052218, "prcp_d5": 2.8629255, "prcp_d6": 0.0, "tmax_d0": 18.3, "tmax_d1": 17.8, "tmax_d2": 21.3, "tmax_d3": 19.6, "tmax_d4": 18.5, "tmax_d5": 18.1, "tmax_d6": 14.5, "tmin_d0": 6.9, "tmin_d1": 8.5, "tmin_d2": 8.2, "tmin_d3": 6.2, "tmin_d4": 5.6, "tmin_d5": 6.1, "tmin_d6": 6.3, "day_of_year": 167, "uuid": "a744c3c5-59a2-49b4-a501-9bc8b4463708", "inat_id": 236984407}}, {"type": "Feature", "geometry": {"type": "Point", "coordinates": [-105.5445817472, 40.1856773374]}, "properties": {"species": "Morchella snyderi", "date": "2024-06-15", "location": "Ward, CO, US", "elevation": 2819.0, "land_cover_label": "Tree cover", "ndvi": null, "soil_moisture": null, "solar_exposure": null, "wind_exposure": null, "water_retention": null, "slope": null, "aspect": null, "num_identification_agreements": 1, "cluster": 0, "tavg": null, "tmin": 13.0, "tmax": 33.0, "prcp_d0": 2.1975567, "prcp_d1": 0.735958, "prcp_d2": 0.026455292, "prcp_d3": 0.0017804779, "prcp_d4": 0.2052218, "prcp_d5": 2.8629255, "prcp_d6": 0.0, "tmax_d0": 19.5, "tmax_d1": 19.1, "tmax_d2": 22.6, "tmax_d3": 20.9, "tmax_d4": 19.7, "tmax_d5": 19.3, "tmax_d6": 15.7, "tmin_d0": 8.1, "tmin_d1": 9.8, "tmin_d2": 9.4, "tmin_d3": 7.4, "tmin_d4": 6.9, "tmin_d5": 7.3, "tmin_d6": 7.5, "day_of_year": 167, "uuid": "8172e1c7-7c73-40dd-bae4-9c3f070ab639", "inat_id": 236984107}}, {"type": "Feature", "geometry": {"type": "Point", "coordinates": [-107.3327001193, 37.2667893693]}, "properties": {"species": "Morchella eximia", "date": "2024-06-23", "location": "Colorado, US", "elevation": 2425.0, "land_cover_label": "Tree cover", "ndvi": null, "soil_moisture": null, "solar_exposure": null, "wind_exposure": null, "water_retention": null, "slope": null, "aspect": null, "num_identification_agreements": 3, "cluster": 0, "tavg": null, "tmin": 11.0, "tmax": 28.0, "prcp_d0": 0.0, "prcp_d1": 12.408538, "prcp_d2": 6.204269, "prcp_d3": 0.0, "prcp_d4": 0.0, "prcp_d5": 0.0, "prcp_d6": 0.0, "tmax_d0": 25.2, "tmax_d1": 21.9, "tmax_d2": 22.1, "tmax_d3": 24.4, "tmax_d4": 25.5, "tmax_d5": 24.3, "tmax_d6": 26.2, "tmin_d0": 8.6, "tmin_d1": 10.8, "tmin_d2": 10.8, "tmin_d3": 9.4, "tmin_d4": 7.2, "tmin_d5": 9.3, "tmin_d6": 4.8, "day_of_year": 175, "uuid": "a5b5f198-b251-4757-a8b8-d24a2575c01a", "inat_id": 236984697}}, {"type": "Feature", "geometry": {"type": "Point", "coordinates": [-106.7493583333, 37.3739133333]}, "properties": {"species": "Morchella tomentosa", "date": "2024-06-28", "location": "San Juan National Forest - Headquarters, Pagosa Springs, CO, US", "elevation": 2775.0, "land_cover_label": "Tree cover", "ndvi": null, "soil_moisture": null, "solar_exposure": null, "wind_exposure": null, "water_retention": null, "slope": null, "aspect": null, "num_identification_agreements": 2, "cluster": 0, "tavg": null, "tmin": 3.0, "tmax": 13.0, "prcp_d0": 0.0, "prcp_d1": 0.0, "prcp_d2": 0.0, "prcp_d3": 0.0, "prcp_d4": 14.348342, "prcp_d5": 0.0, "prcp_d6": 0.0, "tmax_d0": 20.9, "tmax_d1": 20.8, "tmax_d2": 23.0, "tmax_d3": 25.1, "tmax_d4": 23.8, "tmax_d5": 22.3, "tmax_d6": 19.7, "tmin_d0": 7.3, "tmin_d1": 9.0, "tmin_d2": 8.8, "tmin_d3": 6.0, "tmin_d4": 7.6, "tmin_d5": 6.8, "tmin_d6": 7.7, "day_of_year": 180, "uuid": "e5b3d238-eb46-48f2-892f-770f481a0c48", "inat_id": 236846286}}, {"type": "Feature", "geometry": {"type": "Point", "coordinates": [-105.1245911025, 40.1200090921]}, "properties": {"species": "Morchella americana", "date": "2025-04-27", "location": "Colorado, US", "elevation": 1532.0, "land_cover_label": "Cropland", "ndvi": null, "soil_moisture": null, "solar_exposure": null, "wind_exposure": null, "water_retention": null, "slope": null, "aspect": null, "num_identification_agreements": 2, "cluster": 0, "tavg": null, "tmin": 4.8, "tmax": 27.2, "prcp_d0": 0.0, "prcp_d1": 0.0, "prcp_d2": 0.0, "prcp_d3": 1.1550063, "prcp_d4": 0.0, "prcp_d5": 0.0, "prcp_d6": 0.0, "tmax_d0": 25.3, "tmax_d1": 20.1, "tmax_d2": 13.4, "tmax_d3": 18.0, "tmax_d4": 19.3, "tmax_d5": 20.1, "tmax_d6": 20.3, "tmin_d0": 2.7, "tmin_d1": 4.4, "tmin_d2": 5.1, "tmin_d3": 7.0, "tmin_d4": 3.1, "tmin_d5": 0.2, "tmin_d6": -1.2, "day_of_year": 117, "uuid": "00168f00-88a9-44f4-b205-fd48a2136e93", "inat_id": 275171787}}, {"type": "Feature", "geometry": {"type": "Point", "coordinates": [-105.0662072628, 40.2050022419]}, "properties": {"species": "Morchella americana", "date": "2025-05-01", "location": "Colorado, US", "elevation": 1538.0, "land_cover_label": "Cropland", "ndvi": null, "soil_moisture": null, "solar_exposure": null, "wind_exposure": null, "water_retention": null, "slope": null, "aspect": null, "num_identification_agreements": 3, "cluster": 0, "tavg": null, "tmin": 6.6, "tmax": 18.2, "prcp_d0": 3.6272428, "prcp_d1": 0.0, "prcp_d2": 0.0, "prcp_d3": 4.160722, "prcp_d4": 0.0, "prcp_d5": 0.0, "prcp_d6": 0.0, "tmax_d0": 15.5, "tmax_d1": 20.0, "tmax_d2": 18.5, "tmax_d3": 23.6, "tmax_d4": 26.8, "tmax_d5": 20.1, "tmax_d6": 12.9, "tmin_d0": 5.0, "tmin_d1": 2.7, "tmin_d2": 2.7, "tmin_d3": 5.1, "tmin_d4": 3.7, "tmin_d5": 5.7, "tmin_d6": 5.5, "day_of_year": 121, "uuid": "e73b187b-da53-48a4-892b-626be9965fbe", "inat_id": 325528653}}, {"type": "Feature", "geometry": {"type": "Point", "coordinates": [-106.0978255958, 38.4574090277]}, "properties": {"species": "Morchella snyderi", "date": "2025-05-03", "location": "Colorado, US", "elevation": 2589.0, "land_cover_label": "Tree cover", "ndvi": null, "soil_moisture": null, "solar_exposure": null, "wind_exposure": null, "water_retention": null, "slope": null, "aspect": null, "num_identification_agreements": 2, "cluster": 0, "tavg": null, "tmin": 1.6, "tmax": 21.6, "prcp_d0": 0.0, "prcp_d1": 0.0, "prcp_d2": 0.0, "prcp_d3": 2.530126, "prcp_d4": 0.0, "prcp_d5": 0.0, "prcp_d6": 0.0, "tmax_d0": 17.1, "tmax_d1": 14.1, "tmax_d2": 13.4, "tmax_d3": 12.4, "tmax_d4": 11.0, "tmax_d5": 11.8, "tmax_d6": 15.9, "tmin_d0": -2.5, "tmin_d1": -2.0, "tmin_d2": -0.8, "tmin_d3": -3.6, "tmin_d4": -3.3, "tmin_d5": -5.3, "tmin_d6": 0.5, "day_of_year": 123, "uuid": "89fb1053-84e3-498e-8872-4b3b5fea72c1", "inat_id": 285982662}}, {"type": "Feature", "geometry": {"type": "Point", "coordinates": [-105.0751931001, 39.9698971224]}, "properties": {"species": "Morchella americana", "date": "2025-05-05", "location": "Colorado, US", "elevation": 1588.0, "land_cover_label": "Grassland", "ndvi": null, "soil_moisture": null, "solar_exposure": null, "wind_exposure": null, "water_retention": null, "slope": null, "aspect": null, "num_identification_agreements": 2, "cluster": 0, "tavg": null, "tmin": 6.5, "tmax": 21.5, "prcp_d0": 0.0, "prcp_d1": 0.0, "prcp_d2": 0.0, "prcp_d3": 0.0, "prcp_d4": 0.0, "prcp_d5": 0.0, "prcp_d6": 0.0, "tmax_d0": 22.1, "tmax_d1": 24.5, "tmax_d2": 23.1, "tmax_d3": 17.0, "tmax_d4": 15.6, "tmax_d5": 20.3, "tmax_d6": 17.6, "tmin_d0": 8.1, "tmin_d1": 4.6, "tmin_d2": 0.7, "tmin_d3": 1.8, "tmin_d4": 5.6, "tmin_d5": 2.5, "tmin_d6": 2.4, "day_of_year": 125, "uuid": "57f4218c-c223-4b4a-aed9-3c333be76cb0", "inat_id": 283547569}}, {"type": "Feature", "geometry": {"type": "Point", "coordinates": [-106.3021043488, 35.6783132119]}, "properties": {"species": "Morchella americana", "date": "2025-05-05", "location": "New Mexico, US", "elevation": 1722.0, "land_cover_label": "Grassland", "ndvi": null, "soil_moisture": null, "solar_exposure": null, "wind_exposure": null, "water_retention": null, "slope": null, "aspect": null, "num_identification_agreements": 2, "cluster": 3, "tavg": null, "tmin": 6.1, "tmax": 13.9, "prcp_d0": 12.964812, "prcp_d1": 4.321604, "prcp_d2": 0.0, "prcp_d3": 0.0, "prcp_d4": 0.0, "prcp_d5": 5.028233, "prcp_d6": 0.0, "tmax_d0": 14.9, "tmax_d1": 20.3, "tmax_d2": 22.0, "tmax_d3": 20.9, "tmax_d4": 23.0, "tmax_d5": 21.7, "tmax_d6": 20.3, "tmin_d0": 5.9, "tmin_d1": 9.2, "tmin_d2": 5.9, "tmin_d3": 7.2, "tmin_d4": 5.5, "tmin_d5": 4.6, "tmin_d6": 6.4, "day_of_year": 125, "uuid": "69b800b4-aeee-40db-8db7-de969307da47", "inat_id": 279121841}}, {"type": "Feature", "geometry": {"type": "Point", "coordinates": [-105.0546111667, 38.0006361117]}, "properties": {"species": "Morchella snyderi", "date": "2025-05-09", "location": "Pike and San Isabel National Forests, Rye, CO, US", "elevation": 2766.0, "land_cover_label": "Tree cover", "ndvi": null, "soil_moisture": null, "solar_exposure": null, "wind_exposure": null, "water_retention": null, "slope": null, "aspect": null, "num_identification_agreements": 1, "cluster": 0, "tavg": null, "tmin": 4.0, "tmax": 19.0, "prcp_d0": 0.3752161, "prcp_d1": 1.5985924, "prcp_d2": 4.0840287, "prcp_d3": 25.300217, "prcp_d4": 5.14599, "prcp_d5": 5.14599, "prcp_d6": 0.0, "tmax_d0": 10.6, "tmax_d1": 8.2, "tmax_d2": 5.0, "tmax_d3": 2.7, "tmax_d4": 8.2, "tmax_d5": 12.3, "tmax_d6": 13.2, "tmin_d0": -0.5, "tmin_d1": -3.3, "tmin_d2": -2.9, "tmin_d3": -1.8, "tmin_d4": 0.1, "tmin_d5": 2.9, "tmin_d6": -1.9, "day_of_year": 129, "uuid": "af16aae2-b35c-4112-8b92-fa099ad826f6", "inat_id": 279955842}}, {"type": "Feature", "geometry": {"type": "Point", "coordinates": [-105.0849088732, 39.4664316681]}, "properties": {"species": "Morchella americana", "date": "2025-05-10", "location": "Colorado, US", "elevation": 1809.0, "land_cover_label": "Built-up", "ndvi": null, "soil_moisture": null, "solar_exposure": null, "wind_exposure": null, "water_retention": null, "slope": null, "aspect": null, "num_identification_agreements": 3, "cluster": 2, "tavg": null, "tmin": 6.7, "tmax": 23.9, "prcp_d0": 0.020634785, "prcp_d1": 0.109085746, "prcp_d2": 0.6497416, "prcp_d3": 10.4374895, "prcp_d4": 15.245885, "prcp_d5": 13.506754, "prcp_d6": 0.0, "tmax_d0": 23.3, "tmax_d1": 20.3, "tmax_d2": 17.7, "tmax_d3": 11.0, "tmax_d4": 12.8, "tmax_d5": 19.5, "tmax_d6": 22.9, "tmin_d0": 3.8, "tmin_d1": 2.5, "tmin_d2": -0.3, "tmin_d3": 3.3, "tmin_d4": 3.8, "tmin_d5": 7.6, "tmin_d6": 4.2, "day_of_year": 130, "uuid": "05a1cbdd-3a83-40d0-bcca-06d89d556050", "inat_id": 286630077}}, {"type": "Feature", "geometry": {"type": "Point", "coordinates": [-104.8055616598, 38.67236131]}, "properties": {"species": "Morchella snyderi", "date": "2025-05-12", "location": "Colorado, US", "elevation": 1803.0, "land_cover_label": "Grassland", "ndvi": null, "soil_moisture": null, "solar_exposure": null, "wind_exposure": null, "water_retention": null, "slope": null, "aspect": null, "num_identification_agreements": 2, "cluster": 2, "tavg": null, "tmin": 9.2, "tmax": 28.0, "prcp_d0": 0.0, "prcp_d1": 0.0, "prcp_d2": 0.0, "prcp_d3": 0.18603481, "prcp_d4": 1.6509053, "prcp_d5": 8.219786, "prcp_d6": 29.870094, "tmax_d0": 27.2, "tmax_d1": 23.7, "tmax_d2": 21.3, "tmax_d3": 20.2, "tmax_d4": 17.0, "tmax_d5": 12.8, "tmax_d6": 9.7, "tmin_d0": 10.6, "tmin_d1": 6.5, "tmin_d2": 7.1, "tmin_d3": 6.3, "tmin_d4": 2.8, "tmin_d5": 3.0, "tmin_d6": 2.4, "day_of_year": 132, "uuid": "b8c64745-10fc-4c6e-9071-fa2a27155247", "inat_id": 280765677}}, {"type": "Feature", "geometry": {"type": "Point", "coordinates": [-105.015797057, 39.9931410092]}, "properties": {"species": "Morchella americana", "date": "2025-05-17", "location": "Colorado, US", "elevation": 1613.0, "land_cover_label": "Built-up", "ndvi": null, "soil_moisture": null, "solar_exposure": null, "wind_exposure": null, "water_retention": null, "slope": null, "aspect": null, "num_identification_agreements": 1, "cluster": 0, "tavg": null, "tmin": 8.6, "tmax": 21.0, "prcp_d0": 0.35516948, "prcp_d1": 0.011010328, "prcp_d2": 0.0, "prcp_d3": 10.61585, "prcp_d4": 0.0, "prcp_d5": 0.0, "prcp_d6": 0.0, "tmax_d0": 22.4, "tmax_d1": 21.6, "tmax_d2": 20.3, "tmax_d3": 30.7, "tmax_d4": 31.2, "tmax_d5": 30.1, "tmax_d6": 28.7, "tmin_d0": 6.5, "tmin_d1": 6.1, "tmin_d2": 7.7, "tmin_d3": 9.4, "tmin_d4": 9.8, "tmin_d5": 8.1, "tmin_d6": 7.4, "day_of_year": 137, "uuid": "2e9615f0-bd18-41b3-b3a4-8e6fe6d7b095", "inat_id": 284599585}}, {"type": "Feature", "geometry": {"type": "Point", "coordinates": [-106.0551780391, 38.4667212029]}, "properties": {"species": "Morchella snyderi", "date": "2025-05-22", "location": "Colorado, US", "elevation": 2986.0, "land_cover_label": "Tree cover", "ndvi": null, "soil_moisture": null, "solar_exposure": null, "wind_exposure": null, "water_retention": null, "slope": null, "aspect": null, "num_identification_agreements": 3, "cluster": 0, "tavg": null, "tmin": 2.0, "tmax": 24.1, "prcp_d0": 0.0, "prcp_d1": 0.0, "prcp_d2": 0.00992175, "prcp_d3": 2.0386486, "prcp_d4": 0.18583997, "prcp_d5": 0.049136687, "prcp_d6": 0.059680518, "tmax_d0": 16.3, "tmax_d1": 13.6, "tmax_d2": 10.0, "tmax_d3": 6.6, "tmax_d4": 12.2, "tmax_d5": 12.9, "tmax_d6": 9.8, "tmin_d0": -0.4, "tmin_d1": -2.9, "tmin_d2": -7.0, "tmin_d3": -1.4, "tmin_d4": 0.0, "tmin_d5": -2.1, "tmin_d6": -4.8, "day_of_year": 142, "uuid": "71e04e60-c933-4934-be0e-33ae8132a5ec", "inat_id": 285980459}}, {"type": "Feature", "geometry": {"type": "Point", "coordinates": [-106.0114293226, 38.4645412444]}, "properties": {"species": "Morchella kaibabensis", "date": "2025-05-23", "location": "Colorado, US", "elevation": 3294.0, "land_cover_label": "Tree cover", "ndvi": null, "soil_moisture": null, "solar_exposure": null, "wind_exposure": null, "water_retention": null, "slope": null, "aspect": null, "num_identification_agreements": 4, "cluster": 0, "tavg": null, "tmin": 6.0, "tmax": 25.8, "prcp_d0": 0.0, "prcp_d1": 0.0, "prcp_d2": 0.0, "prcp_d3": 0.005613571, "prcp_d4": 1.4640559, "prcp_d5": 0.107567, "prcp_d6": 0.02818651, "tmax_d0": 16.1, "tmax_d1": 14.9, "tmax_d2": 12.2, "tmax_d3": 8.7, "tmax_d4": 5.2, "tmax_d5": 10.8, "tmax_d6": 11.6, "tmin_d0": -1.5, "tmin_d1": -1.7, "tmin_d2": -4.2, "tmin_d3": -8.4, "tmin_d4": -2.7, "tmin_d5": -1.3, "tmin_d6": -3.4, "day_of_year": 143, "uuid": "a954e199-0325-4390-a8c1-034fbf52e7c1", "inat_id": 285979826}}, {"type": "Feature", "geometry": {"type": "Point", "coordinates": [-103.6694946289, 41.8709068298]}, "properties": {"species": "Morchella americana", "date": "2025-05-26", "location": "Scottsbluff", "elevation": 1186.0, "land_cover_label": "Built-up", "ndvi": null, "soil_moisture": null, "solar_exposure": null, "wind_exposure": null, "water_retention": null, "slope": null, "aspect": null, "num_identification_agreements": 1, "cluster": 0, "tavg": null, "tmin": 10.6, "tmax": 14.4, "prcp_d0": 6.232232, "prcp_d1": 0.0, "prcp_d2": 22.305637, "prcp_d3": 11.152819, "prcp_d4": 0.0, "prcp_d5": 0.0, "prcp_d6": 0.20845278, "tmax_d0": 16.5, "tmax_d1": 13.0, "tmax_d2": 22.6, "tmax_d3": 24.7, "tmax_d4": 20.8, "tmax_d5": 18.0, "tmax_d6": 18.5, "tmin_d0": 9.7, "tmin_d1": 10.0, "tmin_d2": 12.1, "tmin_d3": 9.7, "tmin_d4": 4.5, "tmin_d5": 4.5, "tmin_d6": 5.6, "day_of_year": 146, "uuid": "2f10b773-6d99-4e2d-a902-a624b3030bd5", "inat_id": 284274256}}, {"type": "Feature", "geometry": {"type": "Point", "coordinates": [-105.0837601596, 38.2212277458]}, "properties": {"species": "Morchella snyderi", "date": "2025-05-27", "location": "Colorado, US", "elevation": 1912.0, "land_cover_label": "Grassland", "ndvi": null, "soil_moisture": null, "solar_exposure": null, "wind_exposure": null, "water_retention": null, "slope": null, "aspect": null, "num_identification_agreements": 1, "cluster": 0, "tavg": null, "tmin": 7.0, "tmax": 23.0, "prcp_d0": 3.9559379, "prcp_d1": 3.9559379, "prcp_d2": 0.0, "prcp_d3": 0.0, "prcp_d4": 0.0, "prcp_d5": 0.0, "prcp_d6": 0.0, "tmax_d0": 20.7, "tmax_d1": 15.2, "tmax_d2": 19.8, "tmax_d3": 26.3, "tmax_d4": 27.4, "tmax_d5": 24.1, "tmax_d6": 24.8, "tmin_d0": 5.5, "tmin_d1": 9.0, "tmin_d2": 10.7, "tmin_d3": 12.5, "tmin_d4": 9.0, "tmin_d5": 7.4, "tmin_d6": 5.8, "day_of_year": 147, "uuid": "86c793ab-7294-441a-becb-ae958acfae6b", "inat_id": 284655258}}, {"type": "Feature", "geometry": {"type": "Point", "coordinates": [-105.4764517566, 39.9619162365]}, "properties": {"species": "Morchella brunnea", "date": "2025-05-29", "location": "Nederland, CO, US", "elevation": 2559.0, "land_cover_label": "Tree cover", "ndvi": null, "soil_moisture": null, "solar_exposure": null, "wind_exposure": null, "water_retention": null, "slope": null, "aspect": null, "num_identification_agreements": 1, "cluster": 0, "tavg": null, "tmin": 9.0, "tmax": 19.0, "prcp_d0": 0.0, "prcp_d1": 6.6182075, "prcp_d2": 0.0, "prcp_d3": 13.236415, "prcp_d4": 6.1005335, "prcp_d5": 0.0, "prcp_d6": 0.0, "tmax_d0": 10.7, "tmax_d1": 14.8, "tmax_d2": 16.5, "tmax_d3": 9.7, "tmax_d4": 10.7, "tmax_d5": 16.4, "tmax_d6": 19.4, "tmin_d0": 2.5, "tmin_d1": 2.1, "tmin_d2": 0.3, "tmin_d3": -1.3, "tmin_d4": 4.9, "tmin_d5": 3.7, "tmin_d6": 1.0, "day_of_year": 149, "uuid": "9fea2962-f751-42b9-a004-90c2c0414596", "inat_id": 286620095}}, {"type": "Feature", "geometry": {"type": "Point", "coordinates": [-105.838435929, 35.6230184148]}, "properties": {"species": "Morchella snyderi", "date": "2025-05-30", "location": "New Mexico, US", "elevation": 2399.0, "land_cover_label": "Tree cover", "ndvi": null, "soil_moisture": null, "solar_exposure": null, "wind_exposure": null, "water_retention": null, "slope": null, "aspect": null, "num_identification_agreements": 2, "cluster": 0, "tavg": null, "tmin": 10.6, "tmax": 29.4, "prcp_d0": 0.0, "prcp_d1": 0.0, "prcp_d2": 0.0, "prcp_d3": 0.0, "prcp_d4": 7.506088, "prcp_d5": 1.6198889, "prcp_d6": 0.0, "tmax_d0": 24.8, "tmax_d1": 24.0, "tmax_d2": 22.7, "tmax_d3": 20.2, "tmax_d4": 17.1, "tmax_d5": 22.4, "tmax_d6": 24.9, "tmin_d0": 9.3, "tmin_d1": 8.2, "tmin_d2": 6.8, "tmin_d3": 4.7, "tmin_d4": 8.0, "tmin_d5": 6.1, "tmin_d6": 11.0, "day_of_year": 150, "uuid": "a22f967e-be1c-43ed-8e24-0f3b70cf9569", "inat_id": 285530514}}, {"type": "Feature", "geometry": {"type": "Point", "coordinates": [-105.0444610867, 37.9463147251]}, "properties": {"species": "Morchella snyderi", "date": "2025-05-31", "location": "Colorado, US", "elevation": 3217.0, "land_cover_label": "Tree cover", "ndvi": null, "soil_moisture": null, "solar_exposure": null, "wind_exposure": null, "water_retention": null, "slope": null, "aspect": null, "num_identification_agreements": 1, "cluster": 0, "tavg": null, "tmin": 10.0, "tmax": 29.0, "prcp_d0": 3.0047462, "prcp_d1": 0.0, "prcp_d2": 6.0094924, "prcp_d3": 3.0047462, "prcp_d4": 3.0047462, "prcp_d5": 3.0047462, "prcp_d6": 0.0, "tmax_d0": 18.8, "tmax_d1": 16.4, "tmax_d2": 10.2, "tmax_d3": 14.5, "tmax_d4": 12.1, "tmax_d5": 8.6, "tmax_d6": 13.7, "tmin_d0": 5.8, "tmin_d1": 1.7, "tmin_d2": 2.5, "tmin_d3": 0.4, "tmin_d4": -0.8, "tmin_d5": 1.6, "tmin_d6": 3.4, "day_of_year": 151, "uuid": "458f0a46-aea2-4ba6-9aa1-a2054b3e87ef", "inat_id": 286624274}}, {"type": "Feature", "geometry": {"type": "Point", "coordinates": [-105.0462416667, 37.9980166667]}, "properties": {"species": "Morchella sextelata", "date": "2025-05-31", "location": "Pike and San Isabel National Forests, Rye, CO, US", "elevation": 2737.0, "land_cover_label": "Tree cover", "ndvi": null, "soil_moisture": null, "solar_exposure": null, "wind_exposure": null, "water_retention": null, "slope": null, "aspect": null, "num_identification_agreements": 1, "cluster": 0, "tavg": null, "tmin": 10.0, "tmax": 29.0, "prcp_d0": 3.2733738, "prcp_d1": 0.0, "prcp_d2": 6.5467477, "prcp_d3": 3.2733738, "prcp_d4": 3.2733738, "prcp_d5": 3.2733738, "prcp_d6": 0.0, "tmax_d0": 18.9, "tmax_d1": 18.9, "tmax_d2": 10.4, "tmax_d3": 17.6, "tmax_d4": 15.1, "tmax_d5": 11.5, "tmax_d6": 14.2, "tmin_d0": 8.7, "tmin_d1": 4.0, "tmin_d2": 4.6, "tmin_d3": 3.7, "tmin_d4": 1.9, "tmin_d5": 4.2, "tmin_d6": 5.4, "day_of_year": 151, "uuid": "4dd8bd28-ccd4-4b14-bf65-c6794a51088c", "inat_id": 286628064}}, {"type": "Feature", "geometry": {"type": "Point", "coordinates": [-105.9661911238, 35.6106117498]}, "properties": {"species": "Morchella snyderi", "date": "2025-06-01", "location": "New Mexico, US", "elevation": 2074.0, "land_cover_label": "Grassland", "ndvi": null, "soil_moisture": null, "solar_exposure": null, "wind_exposure": null, "water_retention": null, "slope": null, "aspect": null, "num_identification_agreements": 1, "cluster": 0, "tavg": null, "tmin": 13.9, "tmax": 31.7, "prcp_d0": 0.0, "prcp_d1": 0.0, "prcp_d2": 0.0, "prcp_d3": 0.0, "prcp_d4": 0.0, "prcp_d5": 0.0, "prcp_d6": 6.0250473, "tmax_d0": 29.3, "tmax_d1": 27.9, "tmax_d2": 26.8, "tmax_d3": 26.4, "tmax_d4": 25.4, "tmax_d5": 23.1, "tmax_d6": 19.2, "tmin_d0": 14.0, "tmin_d1": 14.9, "tmin_d2": 11.7, "tmin_d3": 12.1, "tmin_d4": 11.6, "tmin_d5": 7.1, "tmin_d6": 10.5, "day_of_year": 152, "uuid": "2fa8e61d-254a-4c7c-9b1e-8ed1ad4b5572", "inat_id": 290230286}}, {"type": "Feature", "geometry": {"type": "Point", "coordinates": [-106.2480300142, 39.0261410229]}, "properties": {"species": "Morchella snyderi", "date": "2025-06-08", "location": "Colorado, US", "elevation": 2754.0, "land_cover_label": "Grassland", "ndvi": null, "soil_moisture": null, "solar_exposure": null, "wind_exposure": null, "water_retention": null, "slope": null, "aspect": null, "num_identification_agreements": 1, "cluster": 2, "tavg": null, "tmin": 0.6, "tmax": 19.4, "prcp_d0": 0.0, "prcp_d1": 0.0, "prcp_d2": 0.0, "prcp_d3": 0.0, "prcp_d4": 0.0, "prcp_d5": 20.448397, "prcp_d6": 0.0, "tmax_d0": 20.4, "tmax_d1": 18.6, "tmax_d2": 16.0, "tmax_d3": 16.1, "tmax_d4": 15.4, "tmax_d5": 16.7, "tmax_d6": 19.5, "tmin_d0": 3.0, "tmin_d1": 1.7, "tmin_d2": 2.8, "tmin_d3": 1.6, "tmin_d4": 2.8, "tmin_d5": 4.1, "tmin_d6": 4.5, "day_of_year": 159, "uuid": "7b6242e1-c0f7-43d6-982a-ccfd66783158", "inat_id": 288467553}}, {"type": "Feature", "geometry": {"type": "Point", "coordinates": [-106.2021184692, 39.1782852101]}, "properties": {"species": "Morchella tomentosa", "date": "2025-06-08", "location": "Colorado, US", "elevation": 3600.0, "land_cover_label": "Moss and lichen", "ndvi": null, "soil_moisture": null, "solar_exposure": null, "wind_exposure": null, "water_retention": null, "slope": null, "aspect": null, "num_identification_agreements": 1, "cluster": 2, "tavg": null, "tmin": 0.6, "tmax": 19.4, "prcp_d0": 0.0, "prcp_d1": 0.0, "prcp_d2": 0.0, "prcp_d3": 0.0, "prcp_d4": 0.0, "prcp_d5": 17.836166, "prcp_d6": 0.0, "tmax_d0": 13.6, "tmax_d1": 11.6, "tmax_d2": 9.8, "tmax_d3": 9.7, "tmax_d4": 9.1, "tmax_d5": 9.1, "tmax_d6": 13.3, "tmin_d0": -2.7, "tmin_d1": -4.0, "tmin_d2": -1.6, "tmin_d3": -3.0, "tmin_d4": -2.6, "tmin_d5": -0.5, "tmin_d6": 0.1, "day_of_year": 159, "uuid": "fd2fc037-60c7-440b-97ec-44b168560c55", "inat_id": 288370616}}, {"type": "Feature", "geometry": {"type": "Point", "coordinates": [-106.1260833333, 39.6325033333]}, "properties": {"species": "Morchella snyderi", "date": "2025-06-08", "location": "Gore Range Trail, Silverthorne, CO, US", "elevation": 2928.0, "land_cover_label": "Tree cover", "ndvi": null, "soil_moisture": null, "solar_exposure": null, "wind_exposure": null, "water_retention": null, "slope": null, "aspect": null, "num_identification_agreements": 1, "cluster": 0, "tavg": null, "tmin": 7.0, "tmax": 13.0, "prcp_d0": 0.0, "prcp_d1": 0.0, "prcp_d2": 0.0, "prcp_d3": 0.0, "prcp_d4": 0.0, "prcp_d5": 0.0, "prcp_d6": 6.386538, "tmax_d0": 17.6, "tmax_d1": 16.3, "tmax_d2": 14.2, "tmax_d3": 14.3, "tmax_d4": 14.3, "tmax_d5": 14.5, "tmax_d6": 17.5, "tmin_d0": -1.4, "tmin_d1": -1.7, "tmin_d2": -1.0, "tmin_d3": -1.1, "tmin_d4": -0.7, "tmin_d5": 2.9, "tmin_d6": -0.6, "day_of_year": 159, "uuid": "8d066094-f633-4682-8ce1-9df4120cd92d", "inat_id": 288039015}}, {"type": "Feature", "geometry": {"type": "Point", "coordinates": [-106.9850783333, 38.9602866667]}, "properties": {"species": "Morchella americana", "date": "2025-06-11", "location": "Grand Mesa Uncompahgre and Gunnison National Forests, Crested Butte, CO, US", "elevation": 2945.0, "land_cover_label": "Tree cover", "ndvi": null, "soil_moisture": null, "solar_exposure": null, "wind_exposure": null, "water_retention": null, "slope": null, "aspect": null, "num_identification_agreements": 1, "cluster": 0, "tavg": null, "tmin": 7.8, "tmax": 24.4, "prcp_d0": 2.738094, "prcp_d1": 0.0, "prcp_d2": 0.0, "prcp_d3": 0.0, "prcp_d4": 0.0, "prcp_d5": 0.0, "prcp_d6": 9.775432, "tmax_d0": 18.9, "tmax_d1": 18.8, "tmax_d2": 18.0, "tmax_d3": 16.5, "tmax_d4": 15.1, "tmax_d5": 12.6, "tmax_d6": 12.5, "tmin_d0": 3.7, "tmin_d1": 2.8, "tmin_d2": 1.9, "tmin_d3": 3.1, "tmin_d4": 1.2, "tmin_d5": 1.6, "tmin_d6": 1.1, "day_of_year": 162, "uuid": "91a8a895-008b-4eaa-bb62-8e64649180ff", "inat_id": 288826538}}, {"type": "Feature", "geometry": {"type": "Point", "coordinates": [-106.3318580389, 39.0729406882]}, "properties": {"species": "Morchella tomentosa", "date": "2025-06-16", "location": "Lake County, CO, USA", "elevation": 2904.0, "land_cover_label": "Tree cover", "ndvi": null, "soil_moisture": null, "solar_exposure": null, "wind_exposure": null, "water_retention": null, "slope": null, "aspect": null, "num_identification_agreements": 1, "cluster": 0, "tavg": null, "tmin": 1.7, "tmax": 23.3, "prcp_d0": 0.0, "prcp_d1": 0.0, "prcp_d2": 0.0063649598, "prcp_d3": 0.40438628, "prcp_d4": 1.7744968, "prcp_d5": 1.2925998, "prcp_d6": 0.0, "tmax_d0": 22.8, "tmax_d1": 22.6, "tmax_d2": 22.0, "tmax_d3": 20.8, "tmax_d4": 19.0, "tmax_d5": 20.1, "tmax_d6": 20.6, "tmin_d0": 2.8, "tmin_d1": 4.4, "tmin_d2": 2.0, "tmin_d3": 2.2, "tmin_d4": 2.9, "tmin_d5": 3.1, "tmin_d6": 1.7, "day_of_year": 167, "uuid": "89f9e923-2f1f-4167-a583-637c3dd85c81", "inat_id": 292239844}}, {"type": "Feature", "geometry": {"type": "Point", "coordinates": [-104.8758480793, 39.7621431903]}, "properties": {"species": "Morchella rufobrunnea", "date": "2025-06-20", "location": "Denver County, US, CO", "elevation": 1611.0, "land_cover_label": "Bare / sparse vegetation", "ndvi": null, "soil_moisture": null, "solar_exposure": null, "wind_exposure": null, "water_retention": null, "slope": null, "aspect": null, "num_identification_agreements": 2, "cluster": 0, "tavg": null, "tmin": 18.8, "tmax": 35.6, "prcp_d0": 0.0, "prcp_d1": 0.0, "prcp_d2": 0.0, "prcp_d3": 5.9763293, "prcp_d4": 0.0, "prcp_d5": 4.3959117e-06, "prcp_d6": 0.008217893, "tmax_d0": 36.9, "tmax_d1": 33.2, "tmax_d2": 26.1, "tmax_d3": 31.1, "tmax_d4": 32.1, "tmax_d5": 34.6, "tmax_d6": 33.5, "tmin_d0": 17.6, "tmin_d1": 13.4, "tmin_d2": 11.5, "tmin_d3": 15.1, "tmin_d4": 14.9, "tmin_d5": 15.1, "tmin_d6": 14.4, "day_of_year": 171, "uuid": "89584930-e6e2-4cb2-8efc-a5735758439b", "inat_id": 291359470}}, {"type": "Feature", "geometry": {"type": "Point", "coordinates": [-105.7854040199, 35.8043039789]}, "properties": {"species": "Morchella snyderi", "date": "2025-07-04", "location": "Santa Fe County, US-NM, US", "elevation": 3307.0, "land_cover_label": "Tree cover", "ndvi": null, "soil_moisture": null, "solar_exposure": null, "wind_exposure": null, "water_retention": null, "slope": null, "aspect": null, "num_identification_agreements": 2, "cluster": 0, "tavg": null, "tmin": 13.3, "tmax": 31.1, "prcp_d0": 0.19201761, "prcp_d1": 6.57759, "prcp_d2": 1.7829398, "prcp_d3": 0.2393392, "prcp_d4": 0.0, "prcp_d5": 0.0, "prcp_d6": 0.0, "tmax_d0": 17.1, "tmax_d1": 16.4, "tmax_d2": 17.5, "tmax_d3": 15.4, "tmax_d4": 17.8, "tmax_d5": 18.9, "tmax_d6": 18.5, "tmin_d0": 6.0, "tmin_d1": 5.0, "tmin_d2": 4.1, "tmin_d3": 2.8, "tmin_d4": 5.6, "tmin_d5": 7.3, "tmin_d6": 6.4, "day_of_year": 185, "uuid": "c56995a2-d54f-45b2-a558-a53933820e5c", "inat_id": 314177380}}, {"type": "Feature", "geometry": {"type": "Point", "coordinates": [-105.8449338122, 35.677541497]}, "properties": {"species": "Morchella norvegiensis", "date": "2025-07-10", "location": "New Mexico, US", "elevation": 2632.0, "land_cover_label": "Tree cover", "ndvi": null, "soil_moisture": null, "solar_exposure": null, "wind_exposure": null, "water_retention": null, "slope": null, "aspect": null, "num_identification_agreements": 1, "cluster": 0, "tavg": null, "tmin": 19.4, "tmax": 37.2, "prcp_d0": 0.0, "prcp_d1": 0.0, "prcp_d2": 0.0, "prcp_d3": 0.0, "prcp_d4": 0.0, "prcp_d5": 0.034509644, "prcp_d6": 0.31225008, "tmax_d0": 26.3, "tmax_d1": 25.6, "tmax_d2": 24.8, "tmax_d3": 23.8, "tmax_d4": 23.8, "tmax_d5": 24.9, "tmax_d6": 22.3, "tmin_d0": 12.5, "tmin_d1": 12.3, "tmin_d2": 10.1, "tmin_d3": 11.8, "tmin_d4": 10.8, "tmin_d5": 14.0, "tmin_d6": 11.3, "day_of_year": 191, "uuid": "3f709a2b-0325-405a-a1b4-1fcf05db130e", "inat_id": 297137618}}, {"type": "Feature", "geometry": {"type": "Point", "coordinates": [-105.9870778117, 35.8302485931]}, "properties": {"species": "Morchella norvegiensis", "date": "2025-07-15", "location": "New Mexico, US", "elevation": 1899.0, "land_cover_label": "Grassland", "ndvi": null, "soil_moisture": null, "solar_exposure": null, "wind_exposure": null, "water_retention": null, "slope": null, "aspect": null, "num_identification_agreements": 1, "cluster": 0, "tavg": null, "tmin": 14.4, "tmax": 32.8, "prcp_d0": 1.4215902, "prcp_d1": 1.4215902, "prcp_d2": 4.264771, "prcp_d3": 1.4215902, "prcp_d4": 0.0, "prcp_d5": 0.0, "prcp_d6": 0.0, "tmax_d0": 32.6, "tmax_d1": 31.1, "tmax_d2": 31.5, "tmax_d3": 33.2, "tmax_d4": 34.0, "tmax_d5": 35.7, "tmax_d6": 32.7, "tmin_d0": 15.5, "tmin_d1": 14.4, "tmin_d2": 15.8, "tmin_d3": 16.8, "tmin_d4": 17.0, "tmin_d5": 18.9, "tmin_d6": 17.2, "day_of_year": 196, "uuid": "4ce0bacb-1570-42a1-9c9c-d25c2f19d6e1", "inat_id": 298745445}}, {"type": "Feature", "geometry": {"type": "Point", "coordinates": [-107.2135972222, 40.5132555556]}, "properties": {"species": "Verpa bohemica", "date": "2026-04-12", "location": "Hayden, CO 81639, USA", "elevation": 1945.0, "land_cover_label": "Tree cover", "ndvi": null, "soil_moisture": null, "solar_exposure": null, "wind_exposure": null, "water_retention": null, "slope": null, "aspect": null, "num_identification_agreements": 1, "cluster": 0, "tavg": null, "tmin": -0.6, "tmax": 17.8, "prcp_d0": 0.0, "prcp_d1": 1.3088775, "prcp_d2": 0.0, "prcp_d3": 0.0, "prcp_d4": 0.0, "prcp_d5": 0.0, "prcp_d6": 0.0, "tmax_d0": 16.7, "tmax_d1": 18.7, "tmax_d2": 20.2, "tmax_d3": 16.7, "tmax_d4": 16.4, "tmax_d5": 16.8, "tmax_d6": 16.3, "tmin_d0": 0.7, "tmin_d1": 3.2, "tmin_d2": 2.2, "tmin_d3": 0.7, "tmin_d4": 0.0, "tmin_d5": -0.6, "tmin_d6": -3.6, "day_of_year": 102, "uuid": "3fce1196-15b5-4e4e-ac52-9bff82104b36", "inat_id": 349376797}}, {"type": "Feature", "geometry": {"type": "Point", "coordinates": [-105.8238182162, 35.6375999156]}, "properties": {"species": "Morchella snyderi", "date": "2026-04-14", "location": "New Mexico, US", "elevation": 2585.0, "land_cover_label": "Tree cover", "ndvi": null, "soil_moisture": null, "solar_exposure": null, "wind_exposure": null, "water_retention": null, "slope": null, "aspect": null, "num_identification_agreements": 1, "cluster": 0, "tavg": null, "tmin": 6.1, "tmax": 16.1, "prcp_d0": 0.0, "prcp_d1": 0.0, "prcp_d2": 0.0, "prcp_d3": 8.331438, "prcp_d4": 0.0, "prcp_d5": 0.0, "prcp_d6": 0.0, "tmax_d0": 9.0, "tmax_d1": 12.5, "tmax_d2": 13.2, "tmax_d3": 14.0, "tmax_d4": 16.7, "tmax_d5": 16.8, "tmax_d6": 15.1, "tmin_d0": 1.6, "tmin_d1": 1.3, "tmin_d2": 0.3, "tmin_d3": 0.7, "tmin_d4": 1.4, "tmin_d5": -0.7, "tmin_d6": -0.6, "day_of_year": 104, "uuid": "54309875-45e1-42f8-ac20-be9db163aa80", "inat_id": 373966279}}, {"type": "Feature", "geometry": {"type": "Point", "coordinates": [-105.9712494567, 35.6164035504]}, "properties": {"species": "Morchella snyderi", "date": "2026-04-16", "location": "New Mexico, US", "elevation": 2058.0, "land_cover_label": "Built-up", "ndvi": null, "soil_moisture": null, "solar_exposure": null, "wind_exposure": null, "water_retention": null, "slope": null, "aspect": null, "num_identification_agreements": 1, "cluster": 0, "tavg": null, "tmin": 1.7, "tmax": 20.6, "prcp_d0": 0.0, "prcp_d1": 0.0, "prcp_d2": 0.0, "prcp_d3": 0.0, "prcp_d4": 1.9981885, "prcp_d5": 3.996377, "prcp_d6": 0.0, "tmax_d0": 18.4, "tmax_d1": 15.4, "tmax_d2": 14.5, "tmax_d3": 17.9, "tmax_d4": 18.7, "tmax_d5": 19.1, "tmax_d6": 22.0, "tmin_d0": 4.1, "tmin_d1": 2.6, "tmin_d2": 5.7, "tmin_d3": 6.5, "tmin_d4": 5.8, "tmin_d5": 6.1, "tmin_d6": 8.2, "day_of_year": 106, "uuid": "f58e9b1b-2b98-4344-96ad-6b2ee42226e8", "inat_id": 373967637}}, {"type": "Feature", "geometry": {"type": "Point", "coordinates": [-108.6175626, 38.9585381]}, "properties": {"species": "Morchella americana", "date": "2026-04-27", "location": "Mesa County, CO, USA", "elevation": 2099.0, "land_cover_label": "Shrubland", "ndvi": null, "soil_moisture": null, "solar_exposure": null, "wind_exposure": null, "water_retention": null, "slope": null, "aspect": null, "num_identification_agreements": 1, "cluster": 0, "tavg": null, "tmin": 6.7, "tmax": 17.8, "prcp_d0": 0.0, "prcp_d1": 0.0, "prcp_d2": 4.400773, "prcp_d3": 0.0, "prcp_d4": 0.0, "prcp_d5": 0.0, "prcp_d6": 0.0, "tmax_d0": 12.0, "tmax_d1": 15.4, "tmax_d2": 17.4, "tmax_d3": 18.1, "tmax_d4": 16.4, "tmax_d5": 22.1, "tmax_d6": 22.4, "tmin_d0": -0.9, "tmin_d1": 3.9, "tmin_d2": 6.8, "tmin_d3": 0.3, "tmin_d4": 2.7, "tmin_d5": 7.2, "tmin_d6": 5.4, "day_of_year": 117, "uuid": "385ebc42-9359-4f22-aad4-ea0a0691c200", "inat_id": 352096167}}, {"type": "Feature", "geometry": {"type": "Point", "coordinates": [-105.8572083333, 35.7441]}, "properties": {"species": "Morchella snyderi", "date": "2026-04-27", "location": "Chamisa Trail, Santa Fe, NM, US", "elevation": 2527.0, "land_cover_label": "Tree cover", "ndvi": null, "soil_moisture": null, "solar_exposure": null, "wind_exposure": null, "water_retention": null, "slope": null, "aspect": null, "num_identification_agreements": 3, "cluster": 0, "tavg": null, "tmin": 5.1, "tmax": 18.9, "prcp_d0": 0.0, "prcp_d1": 0.0, "prcp_d2": 0.0, "prcp_d3": 0.0, "prcp_d4": 0.0, "prcp_d5": 0.0, "prcp_d6": 0.0, "tmax_d0": 13.1, "tmax_d1": 16.0, "tmax_d2": 16.5, "tmax_d3": 14.8, "tmax_d4": 17.2, "tmax_d5": 18.8, "tmax_d6": 19.3, "tmin_d0": 1.4, "tmin_d1": 5.2, "tmin_d2": 5.8, "tmin_d3": 3.2, "tmin_d4": 3.7, "tmin_d5": 7.7, "tmin_d6": 6.4, "day_of_year": 117, "uuid": "abd8e5cc-25cd-4c1d-a510-116ca9967201", "inat_id": 357807135}}, {"type": "Feature", "geometry": {"type": "Point", "coordinates": [-107.21598, 40.1608]}, "properties": {"species": "Verpa bohemica", "date": "2026-05-07", "location": "Meeker, CO, US", "elevation": 2551.0, "land_cover_label": "Tree cover", "ndvi": null, "soil_moisture": null, "solar_exposure": null, "wind_exposure": null, "water_retention": null, "slope": null, "aspect": null, "num_identification_agreements": 1, "cluster": 0, "tavg": null, "tmin": -1.7, "tmax": 17.2, "prcp_d0": 0.0, "prcp_d1": 5.1060467, "prcp_d2": 4.29948, "prcp_d3": 1.2538106, "prcp_d4": 0.01874557, "prcp_d5": 0.039006963, "prcp_d6": 0.34498623, "tmax_d0": 11.6, "tmax_d1": 3.9, "tmax_d2": 6.5, "tmax_d3": 13.8, "tmax_d4": 15.0, "tmax_d5": 13.0, "tmax_d6": 9.2, "tmin_d0": -5.0, "tmin_d1": -3.6, "tmin_d2": 0.0, "tmin_d3": 0.3, "tmin_d4": -1.9, "tmin_d5": -5.5, "tmin_d6": -4.9, "day_of_year": 127, "uuid": "ae28ee5e-d3ef-4a0f-9ccd-298e8c318d78", "inat_id": 360050504}}, {"type": "Feature", "geometry": {"type": "Point", "coordinates": [-106.10369756, 38.5702696725]}, "properties": {"species": "Morchella snyderi", "date": "2026-05-08", "location": "Colorado, US", "elevation": 2334.0, "land_cover_label": "Tree cover", "ndvi": null, "soil_moisture": null, "solar_exposure": null, "wind_exposure": null, "water_retention": null, "slope": null, "aspect": null, "num_identification_agreements": 1, "cluster": 0, "tavg": null, "tmin": 2.5, "tmax": 22.9, "prcp_d0": 0.0, "prcp_d1": 0.0, "prcp_d2": 3.9461555, "prcp_d3": 1.9717104, "prcp_d4": 3.2107022, "prcp_d5": 0.6226704, "prcp_d6": 1.0265311, "tmax_d0": 20.3, "tmax_d1": 17.0, "tmax_d2": 6.9, "tmax_d3": 14.6, "tmax_d4": 17.4, "tmax_d5": 17.4, "tmax_d6": 15.3, "tmin_d0": -1.4, "tmin_d1": -5.5, "tmin_d2": -2.0, "tmin_d3": 0.2, "tmin_d4": -0.6, "tmin_d5": -3.1, "tmin_d6": -4.8, "day_of_year": 128, "uuid": "31e45d67-ebfe-444e-a19b-21abdef6f28c", "inat_id": 363068808}}, {"type": "Feature", "geometry": {"type": "Point", "coordinates": [-105.46495, 40.683745]}, "properties": {"species": "Morchella americana", "date": "2026-05-15", "location": "Poudre Canyon Rd, Bellvue, CO, US", "elevation": 2040.0, "land_cover_label": "Tree cover", "ndvi": null, "soil_moisture": null, "solar_exposure": null, "wind_exposure": null, "water_retention": null, "slope": null, "aspect": null, "num_identification_agreements": 2, "cluster": 0, "tavg": null, "tmin": 11.1, "tmax": 29.4, "prcp_d0": 0.0, "prcp_d1": 7.030427, "prcp_d2": 0.0, "prcp_d3": 0.0, "prcp_d4": 0.0, "prcp_d5": 0.0, "prcp_d6": 0.0, "tmax_d0": 23.4, "tmax_d1": 23.6, "tmax_d2": 24.5, "tmax_d3": 23.3, "tmax_d4": 25.3, "tmax_d5": 16.2, "tmax_d6": 20.1, "tmin_d0": 4.1, "tmin_d1": 9.3, "tmin_d2": 3.8, "tmin_d3": 4.6, "tmin_d4": 2.4, "tmin_d5": 0.5, "tmin_d6": 4.7, "day_of_year": 135, "uuid": "99dca661-e391-479a-8b97-dbdd11eb9163", "inat_id": 362720854}}, {"type": "Feature", "geometry": {"type": "Point", "coordinates": [-107.53050686, 39.9164216713]}, "properties": {"species": "Verpa bohemica", "date": "2026-05-22", "location": "Garfield County, US-CO, US", "elevation": 2619.0, "land_cover_label": "Tree cover", "ndvi": null, "soil_moisture": null, "solar_exposure": null, "wind_exposure": null, "water_retention": null, "slope": null, "aspect": null, "num_identification_agreements": 1, "cluster": 0, "tavg": null, "tmin": -1.7, "tmax": 16.1, "prcp_d0": 0.0, "prcp_d1": 0.0, "prcp_d2": 0.0, "prcp_d3": 0.0, "prcp_d4": 6.925559, "prcp_d5": 6.925559, "prcp_d6": 0.0, "tmax_d0": 9.3, "tmax_d1": 11.2, "tmax_d2": 8.7, "tmax_d3": 6.0, "tmax_d4": 4.9, "tmax_d5": 13.7, "tmax_d6": 16.7, "tmin_d0": -5.2, "tmin_d1": -3.2, "tmin_d2": -3.9, "tmin_d3": -5.5, "tmin_d4": -1.6, "tmin_d5": -0.2, "tmin_d6": 0.9, "day_of_year": 142, "uuid": "af411751-0c14-4c08-979e-0c6b7988f7f1", "inat_id": 364101975}}, {"type": "Feature", "geometry": {"type": "Point", "coordinates": [-107.6734105724, 39.8780520392]}, "properties": {"species": "Verpa bohemica", "date": "2026-05-22", "location": "Garfield County, US-CO, US", "elevation": 2523.0, "land_cover_label": "Tree cover", "ndvi": null, "soil_moisture": null, "solar_exposure": null, "wind_exposure": null, "water_retention": null, "slope": null, "aspect": null, "num_identification_agreements": 1, "cluster": 0, "tavg": null, "tmin": -1.7, "tmax": 16.1, "prcp_d0": 0.0, "prcp_d1": 0.0, "prcp_d2": 0.0, "prcp_d3": 0.0, "prcp_d4": 5.0034456, "prcp_d5": 7.5051684, "prcp_d6": 0.0, "tmax_d0": 10.3, "tmax_d1": 13.0, "tmax_d2": 10.1, "tmax_d3": 7.7, "tmax_d4": 6.7, "tmax_d5": 14.1, "tmax_d6": 18.5, "tmin_d0": -3.4, "tmin_d1": -1.5, "tmin_d2": -1.9, "tmin_d3": -4.4, "tmin_d4": -0.8, "tmin_d5": 0.4, "tmin_d6": 2.4, "day_of_year": 142, "uuid": "1551400e-fa9b-4a7c-a111-6ee262866a8b", "inat_id": 364102021}}, {"type": "Feature", "geometry": {"type": "Point", "coordinates": [-107.5893328234, 39.9679189684]}, "properties": {"species": "Verpa bohemica", "date": "2026-05-22", "location": "Garfield County, US-CO, US", "elevation": 2337.0, "land_cover_label": "Grassland", "ndvi": null, "soil_moisture": null, "solar_exposure": null, "wind_exposure": null, "water_retention": null, "slope": null, "aspect": null, "num_identification_agreements": 1, "cluster": 2, "tavg": null, "tmin": -1.7, "tmax": 16.1, "prcp_d0": 0.0, "prcp_d1": 0.0, "prcp_d2": 0.0, "prcp_d3": 0.0, "prcp_d4": 3.264995, "prcp_d5": 9.794986, "prcp_d6": 0.0, "tmax_d0": 11.6, "tmax_d1": 12.9, "tmax_d2": 11.5, "tmax_d3": 8.8, "tmax_d4": 7.4, "tmax_d5": 14.8, "tmax_d6": 19.6, "tmin_d0": -2.9, "tmin_d1": -2.1, "tmin_d2": -2.3, "tmin_d3": -3.7, "tmin_d4": 1.0, "tmin_d5": 2.5, "tmin_d6": 2.6, "day_of_year": 142, "uuid": "93fbc8f8-73eb-4c3e-a716-eebe49a5093e", "inat_id": 364102603}}, {"type": "Feature", "geometry": {"type": "Point", "coordinates": [-105.5285112932, 40.626725961]}, "properties": {"species": "Morchella snyderi", "date": "2026-05-24", "location": "Bellvue, CO 80512, USA", "elevation": 2422.0, "land_cover_label": "Grassland", "ndvi": null, "soil_moisture": null, "solar_exposure": null, "wind_exposure": null, "water_retention": null, "slope": null, "aspect": null, "num_identification_agreements": 1, "cluster": 0, "tavg": null, "tmin": 7.8, "tmax": 28.3, "prcp_d0": 0.0, "prcp_d1": 0.0, "prcp_d2": 0.0, "prcp_d3": 9.135388, "prcp_d4": 0.0, "prcp_d5": 0.0, "prcp_d6": 38.298897, "tmax_d0": 20.3, "tmax_d1": 15.9, "tmax_d2": 13.0, "tmax_d3": 12.9, "tmax_d4": 7.1, "tmax_d5": 1.8, "tmax_d6": 3.9, "tmin_d0": 1.5, "tmin_d1": -3.1, "tmin_d2": 0.5, "tmin_d3": -4.5, "tmin_d4": -2.6, "tmin_d5": -3.2, "tmin_d6": -0.4, "day_of_year": 144, "uuid": "0a62623b-faff-497e-86eb-7a1c9d091843", "inat_id": 368647799}}, {"type": "Feature", "geometry": {"type": "Point", "coordinates": [-106.4366533333, 39.5409383333]}, "properties": {"species": "Morchella snyderi", "date": "2026-05-25", "location": "Cross Creek Trail, Eagle, CO, US", "elevation": 2687.0, "land_cover_label": "Tree cover", "ndvi": null, "soil_moisture": null, "solar_exposure": null, "wind_exposure": null, "water_retention": null, "slope": null, "aspect": null, "num_identification_agreements": 1, "cluster": 0, "tavg": null, "tmin": -3.3, "tmax": 12.0, "prcp_d0": 3.4190886, "prcp_d1": 0.0, "prcp_d2": 0.0, "prcp_d3": 0.0, "prcp_d4": 0.0, "prcp_d5": 0.0, "prcp_d6": 0.0, "tmax_d0": 18.9, "tmax_d1": 16.9, "tmax_d2": 13.3, "tmax_d3": 12.3, "tmax_d4": 12.0, "tmax_d5": 9.8, "tmax_d6": 10.2, "tmin_d0": 0.6, "tmin_d1": -1.6, "tmin_d2": -3.4, "tmin_d3": -0.2, "tmin_d4": -2.5, "tmin_d5": -1.5, "tmin_d6": -2.5, "day_of_year": 145, "uuid": "8d07cf11-b75e-4c3e-9631-33b025fd235d", "inat_id": 366214802}}, {"type": "Feature", "geometry": {"type": "Point", "coordinates": [-105.423775, 40.915805]}, "properties": {"species": "Morchella americana", "date": "2026-05-26", "location": "Larimer County, US-CO, US", "elevation": 2066.0, "land_cover_label": "Tree cover", "ndvi": null, "soil_moisture": null, "solar_exposure": null, "wind_exposure": null, "water_retention": null, "slope": null, "aspect": null, "num_identification_agreements": 1, "cluster": 0, "tavg": null, "tmin": 8.1, "tmax": 17.1, "prcp_d0": 0.9639179, "prcp_d1": 0.0, "prcp_d2": 0.0, "prcp_d3": 0.0, "prcp_d4": 0.0, "prcp_d5": 6.9852514, "prcp_d6": 0.0, "tmax_d0": 19.7, "tmax_d1": 22.1, "tmax_d2": 23.5, "tmax_d3": 19.7, "tmax_d4": 14.1, "tmax_d5": 12.3, "tmax_d6": 10.6, "tmin_d0": 8.8, "tmin_d1": 5.3, "tmin_d2": 6.5, "tmin_d3": -1.0, "tmin_d4": 1.5, "tmin_d5": -1.0, "tmin_d6": 1.8, "day_of_year": 146, "uuid": "1953d6ae-8405-4b9f-8c40-e63fe216d4cd", "inat_id": 390981692}}, {"type": "Feature", "geometry": {"type": "Point", "coordinates": [-107.310490163, 39.1394102346]}, "properties": {"species": "Verpa bohemica", "date": "2026-05-28", "location": "Grand Mesa Uncompahgre and Gunnison National Forests, Somerset, CO, US", "elevation": 2743.0, "land_cover_label": "Tree cover", "ndvi": null, "soil_moisture": null, "solar_exposure": null, "wind_exposure": null, "water_retention": null, "slope": null, "aspect": null, "num_identification_agreements": 1, "cluster": 0, "tavg": null, "tmin": 5.0, "tmax": 18.0, "prcp_d0": 0.3633869, "prcp_d1": 1.3304735, "prcp_d2": 1.7629791, "prcp_d3": 2.2453637, "prcp_d4": 0.0, "prcp_d5": 0.0, "prcp_d6": 0.0, "tmax_d0": 19.8, "tmax_d1": 17.3, "tmax_d2": 14.1, "tmax_d3": 16.9, "tmax_d4": 16.8, "tmax_d5": 12.9, "tmax_d6": 11.7, "tmin_d0": 4.2, "tmin_d1": 3.7, "tmin_d2": 3.2, "tmin_d3": 3.3, "tmin_d4": 4.4, "tmin_d5": 0.5, "tmin_d6": -3.7, "day_of_year": 148, "uuid": "3e1bee35-2dff-40df-b2ea-d36b9e558db8", "inat_id": 366145096}}, {"type": "Feature", "geometry": {"type": "Point", "coordinates": [-107.2852745129, 39.1224982543]}, "properties": {"species": "Verpa bohemica", "date": "2026-05-28", "location": "Gunnison County, US-CO, US", "elevation": 2704.0, "land_cover_label": "Tree cover", "ndvi": null, "soil_moisture": null, "solar_exposure": null, "wind_exposure": null, "water_retention": null, "slope": null, "aspect": null, "num_identification_agreements": 1, "cluster": 0, "tavg": null, "tmin": 5.0, "tmax": 18.0, "prcp_d0": 0.39975423, "prcp_d1": 1.4764565, "prcp_d2": 1.9196938, "prcp_d3": 2.4344954, "prcp_d4": 0.0, "prcp_d5": 0.0, "prcp_d6": 0.0, "tmax_d0": 19.8, "tmax_d1": 17.3, "tmax_d2": 14.1, "tmax_d3": 16.9, "tmax_d4": 16.8, "tmax_d5": 12.9, "tmax_d6": 11.7, "tmin_d0": 4.2, "tmin_d1": 3.7, "tmin_d2": 3.2, "tmin_d3": 3.3, "tmin_d4": 4.4, "tmin_d5": 0.5, "tmin_d6": -3.7, "day_of_year": 148, "uuid": "92fbe50b-43c8-4c2d-9f4c-e07abc1e43e5", "inat_id": 366136938}}, {"type": "Feature", "geometry": {"type": "Point", "coordinates": [-107.6059333333, 40.1463778333]}, "properties": {"species": "Morchella americana", "date": "2026-06-04", "location": "White River National Forest, Meeker, CO, US", "elevation": 2436.0, "land_cover_label": "Tree cover", "ndvi": null, "soil_moisture": null, "solar_exposure": null, "wind_exposure": null, "water_retention": null, "slope": null, "aspect": null, "num_identification_agreements": 1, "cluster": 0, "tavg": null, "tmin": 6.1, "tmax": 30.0, "prcp_d0": 0.0, "prcp_d1": 0.0, "prcp_d2": 4.3103037, "prcp_d3": 0.0, "prcp_d4": 0.5085041, "prcp_d5": 0.5513132, "prcp_d6": 0.15169035, "tmax_d0": 24.0, "tmax_d1": 21.4, "tmax_d2": 20.4, "tmax_d3": 20.2, "tmax_d4": 15.4, "tmax_d5": 17.8, "tmax_d6": 20.4, "tmin_d0": 5.3, "tmin_d1": 4.3, "tmin_d2": 3.3, "tmin_d3": 1.5, "tmin_d4": 0.2, "tmin_d5": 2.5, "tmin_d6": 8.0, "day_of_year": 155, "uuid": "f95e5922-e6fb-4060-92b1-31b5041524b9", "inat_id": 368481227}}, {"type": "Feature", "geometry": {"type": "Point", "coordinates": [-105.9115148752, 35.7044101572]}, "properties": {"species": "Morchella norvegiensis", "date": "2026-06-08", "location": "New Mexico, US", "elevation": 2251.0, "land_cover_label": "Tree cover", "ndvi": null, "soil_moisture": null, "solar_exposure": null, "wind_exposure": null, "water_retention": null, "slope": null, "aspect": null, "num_identification_agreements": 1, "cluster": 0, "tavg": null, "tmin": 10.6, "tmax": 31.7, "prcp_d0": 0.0, "prcp_d1": 0.0, "prcp_d2": 0.0, "prcp_d3": 4.8050246, "prcp_d4": 0.4521627, "prcp_d5": 1.9169153, "prcp_d6": 0.96482605, "tmax_d0": 28.4, "tmax_d1": 27.8, "tmax_d2": 27.1, "tmax_d3": 27.1, "tmax_d4": 24.9, "tmax_d5": 24.2, "tmax_d6": 26.1, "tmin_d0": 14.4, "tmin_d1": 13.6, "tmin_d2": 11.4, "tmin_d3": 13.2, "tmin_d4": 9.2, "tmin_d5": 10.4, "tmin_d6": 16.1, "day_of_year": 159, "uuid": "df1df67f-7790-444b-9e02-d26ebc9fbea9", "inat_id": 373986231}}, {"type": "Feature", "geometry": {"type": "Point", "coordinates": [-106.2281277778, 39.5488138889]}, "properties": {"species": "Morchella snyderi", "date": "2026-07-11", "location": "Vail, CO 81657, USA", "elevation": 3304.0, "land_cover_label": "Tree cover", "ndvi": null, "soil_moisture": null, "solar_exposure": null, "wind_exposure": null, "water_retention": null, "slope": null, "aspect": null, "num_identification_agreements": 1, "cluster": 0, "tavg": null, "tmin": 8.0, "tmax": 18.0, "prcp_d0": 0.0, "prcp_d1": 0.0, "prcp_d2": 7.1995354, "prcp_d3": 0.0, "prcp_d4": 6.983666, "prcp_d5": 0.0, "prcp_d6": 0.0, "tmax_d0": 23.1, "tmax_d1": 20.0, "tmax_d2": 19.1, "tmax_d3": 20.6, "tmax_d4": 21.1, "tmax_d5": 22.5, "tmax_d6": 20.3, "tmin_d0": 3.3, "tmin_d1": 1.6, "tmin_d2": 5.3, "tmin_d3": 4.1, "tmin_d4": 4.0, "tmin_d5": 4.7, "tmin_d6": 1.9, "day_of_year": 192, "uuid": "c0cd537c-83f2-422a-a223-b823cdce851a", "inat_id": 380483935}}, {"type": "Feature", "geometry": {"type": "Point", "coordinates": [-105.3906580715, 40.1154681919]}, "properties": {"species": "Morchella brunnea", "date": "2026-07-17", "location": "Mesa St, Jamestown, CO, US", "elevation": 2140.0, "land_cover_label": "Tree cover", "ndvi": null, "soil_moisture": null, "solar_exposure": null, "wind_exposure": null, "water_retention": null, "slope": null, "aspect": null, "num_identification_agreements": 1, "cluster": 0, "tavg": null, "tmin": 18.0, "tmax": 35.0, "prcp_d0": 0.0, "prcp_d1": 0.0, "prcp_d2": 0.0, "prcp_d3": 0.0, "prcp_d4": 0.0, "prcp_d5": 0.0, "prcp_d6": 0.0, "tmax_d0": 28.2, "tmax_d1": 28.5, "tmax_d2": 29.6, "tmax_d3": 30.5, "tmax_d4": 31.2, "tmax_d5": 30.4, "tmax_d6": 29.8, "tmin_d0": 12.7, "tmin_d1": 13.7, "tmin_d2": 15.1, "tmin_d3": 16.2, "tmin_d4": 14.6, "tmin_d5": 14.5, "tmin_d6": 10.8, "day_of_year": 198, "uuid": "fc7bf64d-60fa-43d7-9518-61712dd6f76c", "inat_id": 382571675}}, {"type": "Feature", "geometry": {"type": "Point", "coordinates": [-105.7097248558, 39.6344087754]}, "properties": {"species": "Morchella snyderi", "date": "2026-07-31", "location": "Guanella Pass Rd, Idaho Springs, CO, US", "elevation": 3176.0, "land_cover_label": "Tree cover", "ndvi": null, "soil_moisture": null, "solar_exposure": null, "wind_exposure": null, "water_retention": null, "slope": null, "aspect": null, "num_identification_agreements": 1, "cluster": 1, "tavg": null, "tmin": 6.0, "tmax": 16.0, "prcp_d0": 0.0, "prcp_d1": 0.0, "prcp_d2": 0.0, "prcp_d3": 47.187355, "prcp_d4": 47.187355, "prcp_d5": 0.0, "prcp_d6": 0.0, "tmax_d0": 22.7, "tmax_d1": 21.9, "tmax_d2": 22.0, "tmax_d3": 22.6, "tmax_d4": 22.2, "tmax_d5": 24.8, "tmax_d6": 25.3, "tmin_d0": 7.0, "tmin_d1": 7.9, "tmin_d2": 8.1, "tmin_d3": 7.4, "tmin_d4": 12.2, "tmin_d5": 12.4, "tmin_d6": 9.7, "day_of_year": 212, "uuid": "660cd9df-e67b-4e06-9f15-3ba07488f460", "inat_id": 387031723}}]}