{
  "type": "FeatureCollection",
  "features": [
    {
      "type": "Feature",
      "properties": {
        "uuid": "df035bce-78c4-4eed-8c81-000f9bcd5a91",
        "inat_id": 191153302,
        "timestamp": "2023-11-15T15:11:58-08:00",
        "date": "2023-11-15",
        "olc": "84QV3G00+",
        "elevation": 202.0,
        "tavg": null,
        "tmin": 6.1,
        "tmax": 11.7,
        "precipitation": null,
        "windspeed": 4.7,
        "winddirection": null,
        "presure": 1013.7,
        "species": "Lepiota sp. 'helveola-PNW16'",
        "genus": "Lepiota",
        "location": "S Dickey Prairie Rd, Molalla, OR, US",
        "num_identification_agreements": 2
      },
      "geometry": {
        "type": "Point",
        "coordinates": [
          -122.4849945912,
          45.0772367035
        ]
      }
    }
  ]
}