{
  "type": "FeatureCollection",
  "features": [
    {
      "type": "Feature",
      "properties": {
        "uuid": "0456e43c-e3f3-41ba-8b21-ef57ab6fa026",
        "inat_id": 232762344,
        "timestamp": "2024-07-25T11:20:00-06:00",
        "date": "2024-07-25",
        "olc": "857PQ5WW+",
        "elevation": 3124.0,
        "tavg": null,
        "tmin": 13.9,
        "tmax": 31.7,
        "precipitation": 0.0,
        "windspeed": 13.5,
        "winddirection": null,
        "presure": 1017.5,
        "species": "Clavariadelphus truncatus",
        "location": "Sangre de Christo Mountains, NM, USA",
        "num_identification_agreements": 1
      },
      "geometry": {
        "type": "Point",
        "coordinates": [
          -105.8048835347,
          35.7952577552
        ]
      }
    }
  ]
}