{
  "type": "FeatureCollection",
  "features": [
    {
      "type": "Feature",
      "properties": {
        "uuid": "a7d1851b-d93a-4b71-a44b-e63c2a8955d2",
        "inat_id": 310042114,
        "timestamp": "2025-08-28T11:37:50-06:00",
        "date": "2025-08-28",
        "olc": "857PQ6V4+",
        "elevation": 3365.0,
        "tavg": null,
        "tmin": 13.0,
        "tmax": 28.0,
        "precipitation": 0.0,
        "windspeed": 10.2,
        "winddirection": null,
        "presure": 1025.8,
        "species": "Clavariadelphus truncatus",
        "location": "Santa Fe National Forest, Tererro, NM, US",
        "num_identification_agreements": 1
      },
      "geometry": {
        "type": "Point",
        "coordinates": [
          -105.7930544557,
          35.7943070565
        ]
      }
    }
  ]
}