{
  "type": "FeatureCollection",
  "features": [
    {
      "type": "Feature",
      "properties": {
        "uuid": "44e2e6d3-9a25-4e79-aa0d-7396ef04e17f",
        "inat_id": 132584188,
        "timestamp": "2022-08-27T11:37:27-06:00",
        "date": "2022-08-27",
        "olc": "858P9PF7+",
        "elevation": 2609.0,
        "tavg": null,
        "tmin": 7.4,
        "tmax": 21.3,
        "precipitation": 0.6,
        "windspeed": 11.5,
        "winddirection": null,
        "presure": 1024.7,
        "species": "Clavariadelphus truncatus",
        "location": "Colfax County, US-NM, US",
        "num_identification_agreements": 1
      },
      "geometry": {
        "type": "Point",
        "coordinates": [
          -105.2868270874,
          36.3733215332
        ]
      }
    }
  ]
}