{
  "type": "FeatureCollection",
  "features": [
    {
      "type": "Feature",
      "properties": {
        "uuid": "62e8be9c-4e75-495c-8618-0333b7595979",
        "inat_id": 3550355,
        "timestamp": "2014-08-18",
        "date": "2014-08-18",
        "olc": "859HVWMV+",
        "elevation": 2900.0,
        "tavg": null,
        "tmin": null,
        "tmax": null,
        "precipitation": null,
        "windspeed": 7.5,
        "winddirection": null,
        "presure": null,
        "species": "Clavariadelphus truncatus",
        "location": "Woods Lake, San Juan Co., Colorado, USA",
        "num_identification_agreements": 3
      },
      "geometry": {
        "type": "Point",
        "coordinates": [
          -108.0575,
          37.8831
        ]
      }
    }
  ]
}