{
  "type": "FeatureCollection",
  "features": [
    {
      "type": "Feature",
      "properties": {
        "uuid": "736d12e3-cb0a-4ac0-8248-3c4a68c2d3f7",
        "inat_id": 134822539,
        "timestamp": "2022-08-19T10:20:00-06:00",
        "date": "2022-08-19",
        "olc": "859JQ3X6+",
        "elevation": 3100.0,
        "tavg": null,
        "tmin": 10.0,
        "tmax": 17.0,
        "precipitation": 7.5,
        "windspeed": 3.4,
        "winddirection": null,
        "presure": 1030.0,
        "species": "Clavariadelphus truncatus",
        "location": "Dolores County, CO, USA",
        "num_identification_agreements": 3
      },
      "geometry": {
        "type": "Point",
        "coordinates": [
          -107.9383742,
          37.7998155791
        ]
      }
    },
    {
      "type": "Feature",
      "properties": {
        "uuid": "bf2f416d-3b8d-4a52-970b-1409104c0c2c",
        "inat_id": 134391302,
        "timestamp": "2022-08-18T14:59:00-06:00",
        "date": "2022-08-18",
        "olc": "859JQ3X6+",
        "elevation": 3093.0,
        "tavg": null,
        "tmin": 9.0,
        "tmax": 23.0,
        "precipitation": 0.6,
        "windspeed": 6.6,
        "winddirection": null,
        "presure": 1032.2,
        "species": "Clavariadelphus truncatus",
        "location": "Dolores County, CO, USA",
        "num_identification_agreements": 1
      },
      "geometry": {
        "type": "Point",
        "coordinates": [
          -107.9396797997,
          37.7996751
        ]
      }
    }
  ]
}