{
  "type": "FeatureCollection",
  "features": [
    {
      "type": "Feature",
      "properties": {
        "uuid": "7525b25d-0685-47cb-8342-cf678ba7ef72",
        "inat_id": 235671004,
        "timestamp": "2024-08-13T12:36:30-06:00",
        "date": "2024-08-13",
        "olc": "859JP456+",
        "elevation": 3490.0,
        "tavg": null,
        "tmin": 10.0,
        "tmax": 18.0,
        "precipitation": 15.2,
        "windspeed": 7.5,
        "winddirection": null,
        "presure": 1031.3,
        "species": "Clavariadelphus truncatus",
        "location": "Colorado, US",
        "num_identification_agreements": 1
      },
      "geometry": {
        "type": "Point",
        "coordinates": [
          -107.889152955,
          37.7097847737
        ]
      }
    }
  ]
}