{
  "type": "FeatureCollection",
  "features": [
    {
      "type": "Feature",
      "properties": {
        "uuid": "c5d11502-471a-42d6-92c3-21beebac5de2",
        "inat_id": 131938562,
        "timestamp": "2022-08-21T11:51:11-06:00",
        "date": "2022-08-21",
        "olc": "859JV3H8+",
        "elevation": 2996.0,
        "tavg": null,
        "tmin": 9.0,
        "tmax": 17.0,
        "precipitation": 1.7,
        "windspeed": 4.5,
        "winddirection": null,
        "presure": 1031.4,
        "species": "Clavariadelphus truncatus",
        "location": "Colorado, US",
        "num_identification_agreements": 1
      },
      "geometry": {
        "type": "Point",
        "coordinates": [
          -107.9349669423,
          37.8799916172
        ]
      }
    }
  ]
}