{
  "type": "FeatureCollection",
  "features": [
    {
      "type": "Feature",
      "properties": {
        "uuid": "c70643bc-bc53-4487-a43a-eb6b1e7d2498",
        "inat_id": 236582620,
        "timestamp": "2024-08-17T12:02:35-06:00",
        "date": "2024-08-17",
        "olc": "859JV4JV+",
        "elevation": 3344.0,
        "tavg": null,
        "tmin": 12.0,
        "tmax": 23.0,
        "precipitation": 4.9,
        "windspeed": 9.4,
        "winddirection": null,
        "presure": 1034.5,
        "species": "Clavariadelphus truncatus",
        "location": "Grand Mesa Uncompahgre and Gunnison National Forests, Ophir, CO, US",
        "num_identification_agreements": 1
      },
      "geometry": {
        "type": "Point",
        "coordinates": [
          -107.8560333333,
          37.88093
        ]
      }
    },
    {
      "type": "Feature",
      "properties": {
        "uuid": "63da76ed-ed21-43e4-a2dd-9e5c0d3d4487",
        "inat_id": 236580738,
        "timestamp": "2024-08-17T11:58:05-06:00",
        "date": "2024-08-17",
        "olc": "859JV4JV+",
        "elevation": 3347.0,
        "tavg": null,
        "tmin": 12.0,
        "tmax": 23.0,
        "precipitation": 4.9,
        "windspeed": 9.4,
        "winddirection": null,
        "presure": 1034.5,
        "species": "Clavariadelphus truncatus",
        "location": "Grand Mesa Uncompahgre and Gunnison National Forests, Ophir, CO, US",
        "num_identification_agreements": 2
      },
      "geometry": {
        "type": "Point",
        "coordinates": [
          -107.8556283333,
          37.8814716667
        ]
      }
    },
    {
      "type": "Feature",
      "properties": {
        "uuid": "1e2ea73d-ddab-4224-918f-ae933144d7a9",
        "inat_id": 236401678,
        "timestamp": "2024-08-17T12:03:38-06:00",
        "date": "2024-08-17",
        "olc": "859JV4JV+",
        "elevation": 3344.0,
        "tavg": null,
        "tmin": 12.0,
        "tmax": 23.0,
        "precipitation": 4.9,
        "windspeed": 9.4,
        "winddirection": null,
        "presure": 1034.5,
        "species": "Clavariadelphus truncatus",
        "location": "Grand Mesa Uncompahgre and Gunnison National Forests, Ophir, CO, US",
        "num_identification_agreements": 1
      },
      "geometry": {
        "type": "Point",
        "coordinates": [
          -107.8559633333,
          37.88092
        ]
      }
    }
  ]
}