{
  "type": "FeatureCollection",
  "features": [
    {
      "type": "Feature",
      "properties": {
        "uuid": "79d6d2c9-635c-466b-aabd-4d0f6ba2c61b",
        "inat_id": 309406501,
        "timestamp": "2022-08-15T11:27:03-06:00",
        "date": "2022-08-15",
        "olc": "859JR45F+",
        "elevation": 3140.0,
        "tavg": null,
        "tmin": 10.0,
        "tmax": 19.0,
        "precipitation": 17.4,
        "windspeed": 3.9,
        "winddirection": null,
        "presure": 1030.4,
        "species": "Clavariadelphus truncatus",
        "location": "Grand Mesa Uncompahgre and Gunnison National Forests, Ophir, CO, US",
        "num_identification_agreements": 1
      },
      "geometry": {
        "type": "Point",
        "coordinates": [
          -107.8769533333,
          37.8093833333
        ]
      }
    }
  ]
}