{
  "type": "FeatureCollection",
  "features": [
    {
      "type": "Feature",
      "properties": {
        "uuid": "a55cd19a-e36d-4cfa-acb1-8e044760e0c6",
        "inat_id": 267207860,
        "timestamp": "2024-08-27T13:00:56-06:00",
        "date": "2024-08-27",
        "olc": "85CJ5CG5+",
        "elevation": 2836.0,
        "tavg": null,
        "tmin": 2.8,
        "tmax": 21.0,
        "precipitation": null,
        "windspeed": 9.1,
        "winddirection": null,
        "presure": null,
        "species": "Clavariadelphus truncatus",
        "location": "Grand Mesa Uncompahgre and Gunnison National Forests, Ridgway, CO, US",
        "num_identification_agreements": 1
      },
      "geometry": {
        "type": "Point",
        "coordinates": [
          -107.5919033333,
          38.1764866667
        ]
      }
    }
  ]
}