{
  "type": "FeatureCollection",
  "features": [
    {
      "type": "Feature",
      "properties": {
        "uuid": "3a0e83a0-6ea2-4957-a2a6-69e9079d95df",
        "inat_id": 393124155,
        "timestamp": "2026-08-20",
        "date": "2026-08-20",
        "olc": "85FP2X95+",
        "elevation": 2628.0,
        "tavg": null,
        "tmin": 12.1,
        "tmax": 29.7,
        "precipitation": 0.0,
        "windspeed": 11.0,
        "winddirection": null,
        "presure": 1017.6,
        "species": "Clavariadelphus truncatus",
        "location": "2400 Rampart Range Rd, Woodland Park, CO 80863, USA",
        "num_identification_agreements": 1
      },
      "geometry": {
        "type": "Point",
        "coordinates": [
          -105.0419599,
          39.0180485
        ]
      }
    }
  ]
}