{
  "type": "FeatureCollection",
  "features": [
    {
      "type": "Feature",
      "properties": {
        "uuid": "898e97dc-1083-4486-9a2b-60fe8d6b6a68",
        "inat_id": 181493282,
        "timestamp": "2023-09-02T16:16:06-06:00",
        "date": "2023-09-02",
        "olc": "85FQ3245+",
        "elevation": 2802.0,
        "tavg": null,
        "tmin": 14.9,
        "tmax": 32.0,
        "precipitation": 0.0,
        "windspeed": 10.5,
        "winddirection": null,
        "presure": 1013.4,
        "species": "Clavariadelphus truncatus",
        "location": "Colorado Springs, CO 80921, USA",
        "num_identification_agreements": 2
      },
      "geometry": {
        "type": "Point",
        "coordinates": [
          -104.9920072997,
          39.0553335
        ]
      }
    }
  ]
}