{
  "type": "FeatureCollection",
  "features": [
    {
      "type": "Feature",
      "properties": {
        "uuid": "341f0ba0-4976-43fe-85d8-05f3350de78b",
        "inat_id": 283314100,
        "timestamp": "2022-08-11T19:29:09-06:00",
        "date": "2022-08-11",
        "olc": "85GP3G35+",
        "elevation": 2626.0,
        "tavg": null,
        "tmin": 17.0,
        "tmax": 35.0,
        "precipitation": 0.0,
        "windspeed": 3.2,
        "winddirection": null,
        "presure": 1023.0,
        "species": "Clavariadelphus truncatus",
        "location": "Colorado, US",
        "num_identification_agreements": 1
      },
      "geometry": {
        "type": "Point",
        "coordinates": [
          -105.4923509198,
          40.0542287903
        ]
      }
    }
  ]
}