{
  "type": "FeatureCollection",
  "features": [
    {
      "type": "Feature",
      "properties": {
        "uuid": "d1cb3a72-0c43-44a7-9bb5-eb0b1b4ac6f0",
        "inat_id": 132889497,
        "timestamp": "2022-08-29T12:33:54-06:00",
        "date": "2022-08-29",
        "olc": "85GP2CVG+",
        "elevation": 3303.0,
        "tavg": null,
        "tmin": 15.0,
        "tmax": 30.0,
        "precipitation": 0.0,
        "windspeed": 4.4,
        "winddirection": null,
        "presure": 1021.5,
        "species": "Clavariadelphus truncatus",
        "location": "Boulder County, US-CO, US",
        "num_identification_agreements": 3
      },
      "geometry": {
        "type": "Point",
        "coordinates": [
          -105.573019,
          40.043787
        ]
      }
    }
  ]
}