{
  "type": "FeatureCollection",
  "features": [
    {
      "type": "Feature",
      "properties": {
        "uuid": "61e70192-bf39-42ef-a452-0696c13031c8",
        "inat_id": 242804592,
        "timestamp": "2024-09-18T11:39:45-06:00",
        "date": "2024-09-18",
        "olc": "85FPC67X+",
        "elevation": 3063.0,
        "tavg": null,
        "tmin": -2.7,
        "tmax": 9.0,
        "precipitation": 0.0,
        "windspeed": 18.8,
        "winddirection": null,
        "presure": 1013.2,
        "species": "Fomitopsis sp. 'serialis-MI01'",
        "location": "Park County, US-CO, US",
        "num_identification_agreements": 2
      },
      "geometry": {
        "type": "Point",
        "coordinates": [
          -105.7514148082,
          39.4142735992
        ]
      }
    }
  ]
}