{
  "type": "FeatureCollection",
  "features": [
    {
      "type": "Feature",
      "properties": {
        "uuid": "c8eb5764-104c-4810-8773-e80107e329b7",
        "inat_id": 183806653,
        "timestamp": "2023-09-17T14:09:02-06:00",
        "date": "2023-09-17",
        "olc": "85FP4X9V+",
        "elevation": 2821.0,
        "tavg": null,
        "tmin": 4.5,
        "tmax": 24.6,
        "precipitation": 0.0,
        "windspeed": 13.6,
        "winddirection": null,
        "presure": 1018.7,
        "species": "Hygrophorus sp. 'subalpinus-PNW03'",
        "location": "Colorado, US",
        "num_identification_agreements": 2
      },
      "geometry": {
        "type": "Point",
        "coordinates": [
          -105.0054865326,
          39.1180137482
        ]
      }
    }
  ]
}