{
  "type": "FeatureCollection",
  "features": [
    {
      "type": "Feature",
      "properties": {
        "uuid": "4f4fc4f0-b3a4-4f68-97b9-626385acc899",
        "inat_id": 235957040,
        "timestamp": "2024-08-07T10:08:00-06:00",
        "date": "2024-08-07",
        "olc": "857PQ6X2+",
        "elevation": 3238.0,
        "tavg": null,
        "tmin": 17.2,
        "tmax": 34.4,
        "precipitation": 0.0,
        "windspeed": 16.8,
        "winddirection": null,
        "presure": 1012.0,
        "species": "Hygrocybe conica",
        "location": "Santa Fe County, NM, USA",
        "num_identification_agreements": 1
      },
      "geometry": {
        "type": "Point",
        "coordinates": [
          -105.7999194444,
          35.7976138889
        ]
      }
    }
  ]
}