{
  "type": "FeatureCollection",
  "features": [
    {
      "type": "Feature",
      "properties": {
        "uuid": "e777d4fe-d56e-48fd-b79a-c4c312ea0c7f",
        "inat_id": 87671296,
        "timestamp": "2021-07-18T12:17:03-06:00",
        "date": "2021-07-18",
        "olc": "858PPGX3+",
        "elevation": 2786.0,
        "tavg": null,
        "tmin": 13.9,
        "tmax": 27.2,
        "precipitation": 0.0,
        "windspeed": 12.6,
        "winddirection": null,
        "presure": 1023.1,
        "species": "Hygrocybe conica",
        "location": "Cabresto Lake",
        "num_identification_agreements": 1
      },
      "geometry": {
        "type": "Point",
        "coordinates": [
          -105.496885702,
          36.7485852842
        ]
      }
    }
  ]
}