{
  "type": "FeatureCollection",
  "features": [
    {
      "type": "Feature",
      "properties": {
        "uuid": "a6b4ed86-b131-43b2-84fc-b4f8aa950b81",
        "inat_id": 130432228,
        "timestamp": "2022-08-11T13:09:42-06:00",
        "date": "2022-08-11",
        "olc": "858PHFM8+",
        "elevation": 2869.0,
        "tavg": null,
        "tmin": 10.0,
        "tmax": 28.9,
        "precipitation": 0.0,
        "windspeed": 8.6,
        "winddirection": null,
        "presure": 1024.1,
        "species": "Hygrocybe conica",
        "location": "Valdez, NM 87580, USA",
        "num_identification_agreements": 1
      },
      "geometry": {
        "type": "Point",
        "coordinates": [
          -105.5335444444,
          36.5840861111
        ]
      }
    }
  ]
}