{
  "type": "FeatureCollection",
  "features": [
    {
      "type": "Feature",
      "properties": {
        "uuid": "2fdaf4c0-a0fb-4e2b-b26e-0b49ed57cd82",
        "inat_id": 89724792,
        "timestamp": "2021-07-23T10:10:26+00:00",
        "date": "2021-07-23",
        "olc": "85CMPR59+",
        "elevation": 2734.0,
        "tavg": null,
        "tmin": 12.5,
        "tmax": 27.8,
        "precipitation": 3.4,
        "windspeed": 12.5,
        "winddirection": null,
        "presure": 1029.1,
        "species": "Hygrocybe conica",
        "location": "Pike and San Isabel National Forests, Nathrop, CO, US",
        "num_identification_agreements": 1
      },
      "geometry": {
        "type": "Point",
        "coordinates": [
          -106.182245,
          38.7091166667
        ]
      }
    }
  ]
}