{
  "type": "FeatureCollection",
  "features": [
    {
      "type": "Feature",
      "properties": {
        "uuid": "40eaf6ad-bb89-4a98-9663-cd997dba537b",
        "inat_id": 89021861,
        "timestamp": "2021-07-25T15:11:00-06:00",
        "date": "2021-07-25",
        "olc": "85CPVR5J+",
        "elevation": 2840.0,
        "tavg": null,
        "tmin": 12.1,
        "tmax": 28.0,
        "precipitation": 2.5,
        "windspeed": 12.6,
        "winddirection": null,
        "presure": 1016.7,
        "species": "Hygrocybe conica",
        "location": "Teller County, CO, USA",
        "num_identification_agreements": 1
      },
      "geometry": {
        "type": "Point",
        "coordinates": [
          -105.1696939177,
          38.8588122956
        ]
      }
    }
  ]
}