{
  "type": "FeatureCollection",
  "features": [
    {
      "type": "Feature",
      "properties": {
        "uuid": "7ad013a5-f59f-4a3c-9829-8acbd2c6903f",
        "inat_id": 7303477,
        "timestamp": "2017-07-31T14:39:11-06:00",
        "date": "2017-07-31",
        "olc": "85CP3W3P+",
        "elevation": 2586.0,
        "tavg": null,
        "tmin": null,
        "tmax": null,
        "precipitation": null,
        "windspeed": null,
        "winddirection": null,
        "presure": null,
        "species": "Hygrocybe conica",
        "location": "San Isabel National Forest, Wetmore, CO, US",
        "num_identification_agreements": 1
      },
      "geometry": {
        "type": "Point",
        "coordinates": [
          -105.0648805,
          38.0545721667
        ]
      }
    }
  ]
}