{
  "type": "FeatureCollection",
  "features": [
    {
      "type": "Feature",
      "properties": {
        "uuid": "020a47d0-8a1a-40c3-be96-17b691530bb6",
        "inat_id": 89562877,
        "timestamp": "2021-08-01T16:48:44-06:00",
        "date": "2021-08-01",
        "olc": "85CQR5MH+",
        "elevation": 1839.0,
        "tavg": null,
        "tmin": 15.0,
        "tmax": 22.8,
        "precipitation": 0.0,
        "windspeed": 13.7,
        "winddirection": null,
        "presure": 1024.5,
        "species": "Hygrocybe conica",
        "location": "Colorado Springs",
        "num_identification_agreements": 1
      },
      "geometry": {
        "type": "Point",
        "coordinates": [
          -104.821363315,
          38.833633841
        ]
      }
    }
  ]
}