{
  "type": "FeatureCollection",
  "features": [
    {
      "type": "Feature",
      "properties": {
        "uuid": "f474cdd3-c998-4050-8a7c-ba7e59d7fb54",
        "inat_id": 17650068,
        "timestamp": "2018-10-08T18:22:34-06:00",
        "date": "2018-10-08",
        "olc": "85FH3CCW+",
        "elevation": 1408.0,
        "tavg": null,
        "tmin": 6.7,
        "tmax": 11.1,
        "precipitation": 6.6,
        "windspeed": 6.1,
        "winddirection": null,
        "presure": 1007.9,
        "species": "Hygrocybe conica",
        "location": "1042 Grand Ave, Grand Junction, CO, US",
        "num_identification_agreements": 1
      },
      "geometry": {
        "type": "Point",
        "coordinates": [
          -108.554956941,
          39.0708032158
        ]
      }
    }
  ]
}