{
  "type": "FeatureCollection",
  "features": [
    {
      "type": "Feature",
      "properties": {
        "uuid": "7631414e-1b6a-4cf5-9a10-0fbe30513712",
        "inat_id": 176864813,
        "timestamp": "2023-08-05T10:29:14-06:00",
        "date": "2023-08-05",
        "olc": "85GPCF4V+",
        "elevation": 2617.0,
        "tavg": null,
        "tmin": 14.9,
        "tmax": 29.6,
        "precipitation": 1.6,
        "windspeed": 6.9,
        "winddirection": null,
        "presure": 1023.2,
        "species": "Hygrocybe conica",
        "location": "Rocky Mountain National Park, Estes Park, CO, US",
        "num_identification_agreements": 1
      },
      "geometry": {
        "type": "Point",
        "coordinates": [
          -105.5061633333,
          40.4074883333
        ]
      }
    }
  ]
}