{
  "type": "FeatureCollection",
  "features": [
    {
      "type": "Feature",
      "properties": {
        "uuid": "00f2af65-0e5b-457f-97a7-edc0c1c90a4d",
        "inat_id": 211032467,
        "timestamp": "2023-07-15T14:42:18-06:00",
        "date": "2023-07-15",
        "olc": "85PQCHV7+",
        "elevation": 1885.0,
        "tavg": null,
        "tmin": 13.0,
        "tmax": 25.0,
        "precipitation": 0.0,
        "windspeed": 10.9,
        "winddirection": null,
        "presure": 1021.4,
        "species": "Hygrocybe conica",
        "location": "Black Hills National Forest, Sundance, WY, US",
        "num_identification_agreements": 1
      },
      "geometry": {
        "type": "Point",
        "coordinates": [
          -104.4353633333,
          44.4431333333
        ]
      }
    }
  ]
}