{
  "type": "FeatureCollection",
  "features": [
    {
      "type": "Feature",
      "properties": {
        "uuid": "0b55c8db-3e77-4357-beb5-e845d9fbbb0b",
        "inat_id": 287340013,
        "timestamp": "2025-06-06T10:33:00-06:00",
        "date": "2025-06-06",
        "olc": "85PR3H3W+",
        "elevation": 1259.0,
        "tavg": null,
        "tmin": 7.0,
        "tmax": 20.0,
        "precipitation": 0.0,
        "windspeed": 10.6,
        "winddirection": null,
        "presure": 1015.8,
        "species": "Hygrocybe conica",
        "location": "Rapid City",
        "num_identification_agreements": 1
      },
      "geometry": {
        "type": "Point",
        "coordinates": [
          -103.402671814,
          44.0534896851
        ]
      }
    }
  ]
}