{
  "type": "FeatureCollection",
  "features": [
    {
      "type": "Feature",
      "properties": {
        "uuid": "e4316a36-37da-4327-9662-9ac7bca2f6a7",
        "inat_id": 177086450,
        "timestamp": "2023-07-08T10:45:54-06:00",
        "date": "2023-07-08",
        "olc": "85PR4738+",
        "elevation": 1797.0,
        "tavg": null,
        "tmin": 10.3,
        "tmax": 20.9,
        "precipitation": 2.8,
        "windspeed": 10.1,
        "winddirection": null,
        "presure": 1015.0,
        "species": "Hygrocybe conica",
        "location": "Black Hills National Forest, Hill City, SD, US",
        "num_identification_agreements": 1
      },
      "geometry": {
        "type": "Point",
        "coordinates": [
          -103.7333,
          44.1036305
        ]
      }
    }
  ]
}