{
  "type": "FeatureCollection",
  "features": [
    {
      "type": "Feature",
      "properties": {
        "uuid": "d2eb560e-12a5-4f62-8b80-b26fc2a78f60",
        "inat_id": 317160646,
        "timestamp": "2025-09-27T14:42:46-06:00",
        "date": "2025-09-27",
        "olc": "857MRFCM+",
        "elevation": 2638.0,
        "tavg": null,
        "tmin": 12.0,
        "tmax": 17.0,
        "precipitation": 0.5,
        "windspeed": 9.2,
        "winddirection": null,
        "presure": 1024.2,
        "species": "Hypomyces lactifluorum",
        "location": "Jemez Springs, NM, US",
        "num_identification_agreements": 2
      },
      "geometry": {
        "type": "Point",
        "coordinates": [
          -106.5155258706,
          35.8207782563
        ]
      }
    }
  ]
}