{
  "type": "FeatureCollection",
  "features": [
    {
      "type": "Feature",
      "properties": {
        "uuid": "b8cc355d-0a6b-48d8-9759-04667b84f74d",
        "inat_id": 233327146,
        "timestamp": "2024-07-29T16:10:01-06:00",
        "date": "2024-07-29",
        "olc": "857MX9MP+",
        "elevation": 2728.0,
        "tavg": null,
        "tmin": 19.3,
        "tmax": 29.0,
        "precipitation": null,
        "windspeed": 7.5,
        "winddirection": null,
        "presure": 1024.6,
        "species": "Hypomyces lactifluorum",
        "location": "Valles Caldera National Preserve, Jemez Springs, NM, US",
        "num_identification_agreements": 2
      },
      "geometry": {
        "type": "Point",
        "coordinates": [
          -106.6136113619,
          35.9846289648
        ]
      }
    }
  ]
}