{
  "type": "FeatureCollection",
  "features": [
    {
      "type": "Feature",
      "properties": {
        "uuid": "39a187b0-123f-4732-af2a-da2b7a4fa37e",
        "inat_id": 388864415,
        "timestamp": "2026-08-06T10:46:00-06:00",
        "date": "2026-08-06",
        "olc": "857PQ8GV+",
        "elevation": 2435.0,
        "tavg": null,
        "tmin": 18.4,
        "tmax": 34.1,
        "precipitation": 0.5,
        "windspeed": 14.5,
        "winddirection": null,
        "presure": 1014.5,
        "species": "Hypomyces lactifluorum",
        "location": "San Miguel County, NM, USA",
        "num_identification_agreements": 1
      },
      "geometry": {
        "type": "Point",
        "coordinates": [
          -105.6571887428,
          35.7772568405
        ]
      }
    }
  ]
}