{
  "type": "FeatureCollection",
  "features": [
    {
      "type": "Feature",
      "properties": {
        "uuid": "3aa462e4-1ee9-4305-a8b5-cee6770271cc",
        "inat_id": 310907216,
        "timestamp": "2025-09-01T14:41:25-06:00",
        "date": "2025-09-01",
        "olc": "857PQ79P+",
        "elevation": 2612.0,
        "tavg": null,
        "tmin": 12.0,
        "tmax": 27.0,
        "precipitation": 0.0,
        "windspeed": 12.5,
        "winddirection": null,
        "presure": 1029.0,
        "species": "Hypomyces lactifluorum",
        "location": "Tererro, NM, US",
        "num_identification_agreements": 3
      },
      "geometry": {
        "type": "Point",
        "coordinates": [
          -105.71315,
          35.7697916667
        ]
      }
    }
  ]
}