{
  "type": "FeatureCollection",
  "features": [
    {
      "type": "Feature",
      "properties": {
        "uuid": "e99f1b60-077f-4841-8669-918f08f83dc1",
        "inat_id": 303634051,
        "timestamp": "2025-08-02T20:57:13-06:00",
        "date": "2025-08-02",
        "olc": "857PQ575+",
        "elevation": 2591.0,
        "tavg": null,
        "tmin": 15.0,
        "tmax": 31.7,
        "precipitation": 0.0,
        "windspeed": 16.2,
        "winddirection": null,
        "presure": 1019.1,
        "species": "Hypomyces lactifluorum",
        "location": "Santa Fe, NM 87506, USA",
        "num_identification_agreements": 2
      },
      "geometry": {
        "type": "Point",
        "coordinates": [
          -105.8411207423,
          35.7632832847
        ]
      }
    }
  ]
}