{
  "type": "FeatureCollection",
  "features": [
    {
      "type": "Feature",
      "properties": {
        "uuid": "82f5e1f4-6528-49e9-8500-b8ffa0341550",
        "inat_id": 91200699,
        "timestamp": "2021-08-14T18:49:50-06:00",
        "date": "2021-08-14",
        "olc": "857PQ5X9+",
        "elevation": 2827.0,
        "tavg": null,
        "tmin": 13.9,
        "tmax": 26.7,
        "precipitation": 0.0,
        "windspeed": 18.8,
        "winddirection": null,
        "presure": 1020.0,
        "species": "Hypomyces lactifluorum",
        "location": "Santa Fe National Forest, Santa Fe, NM, US",
        "num_identification_agreements": 1
      },
      "geometry": {
        "type": "Point",
        "coordinates": [
          -105.8314974416,
          35.7984209275
        ]
      }
    }
  ]
}