{
  "type": "FeatureCollection",
  "features": [
    {
      "type": "Feature",
      "properties": {
        "uuid": "e9b596b0-6a90-485d-8b3d-82bba9f588d2",
        "inat_id": 304327095,
        "timestamp": "2025-07-25T15:10:00-06:00",
        "date": "2025-07-25",
        "olc": "857PWC8G+",
        "elevation": 3152.0,
        "tavg": null,
        "tmin": 11.1,
        "tmax": 27.8,
        "precipitation": 0.2,
        "windspeed": 13.9,
        "winddirection": null,
        "presure": 1016.4,
        "species": "Hypomyces lactifluorum",
        "location": "New Mexico, US",
        "num_identification_agreements": 1
      },
      "geometry": {
        "type": "Point",
        "coordinates": [
          -105.5729673446,
          35.9162201402
        ]
      }
    }
  ]
}