{
  "type": "FeatureCollection",
  "features": [
    {
      "type": "Feature",
      "properties": {
        "uuid": "6e2537a0-4a7e-42c0-91e8-24e0d4f2d93b",
        "inat_id": 4179179,
        "timestamp": "2016-09-22T22:06:57-06:00",
        "date": "2016-09-22",
        "olc": "858M8GJJ+",
        "elevation": 1973.0,
        "tavg": null,
        "tmin": null,
        "tmax": null,
        "precipitation": null,
        "windspeed": null,
        "winddirection": null,
        "presure": null,
        "species": "Hypomyces lactifluorum",
        "location": "Rio Arriba County, US-NM, US",
        "num_identification_agreements": 2
      },
      "geometry": {
        "type": "Point",
        "coordinates": [
          -106.46987775,
          36.33092548
        ]
      }
    }
  ]
}