{
  "type": "FeatureCollection",
  "features": [
    {
      "type": "Feature",
      "properties": {
        "uuid": "c3244ba3-28a6-40f3-af46-7acefc0574c1",
        "inat_id": 99603235,
        "timestamp": "2010-08-30T10:55:00-06:00",
        "date": "2010-08-30",
        "olc": "859MC4QG+",
        "elevation": 2626.0,
        "tavg": null,
        "tmin": null,
        "tmax": null,
        "precipitation": null,
        "windspeed": null,
        "winddirection": null,
        "presure": null,
        "species": "Hypomyces lactifluorum",
        "location": "Mineral County, CO, USA",
        "num_identification_agreements": 2
      },
      "geometry": {
        "type": "Point",
        "coordinates": [
          -106.8749293709,
          37.4378133398
        ]
      }
    }
  ]
}