{
  "type": "FeatureCollection",
  "features": [
    {
      "type": "Feature",
      "properties": {
        "uuid": "4f9967ee-86b1-47b0-8284-616ff796f266",
        "inat_id": 31275076,
        "timestamp": "2019-08-18T15:25:19-06:00",
        "date": "2019-08-18",
        "olc": "859M66RC+",
        "elevation": 2621.0,
        "tavg": null,
        "tmin": null,
        "tmax": null,
        "precipitation": null,
        "windspeed": null,
        "winddirection": null,
        "presure": null,
        "species": "Hypomyces lactifluorum",
        "location": "Archuleta County, US-CO, US",
        "num_identification_agreements": 2
      },
      "geometry": {
        "type": "Point",
        "coordinates": [
          -106.778289685,
          37.2406827193
        ]
      }
    }
  ]
}