{
  "type": "FeatureCollection",
  "features": [
    {
      "type": "Feature",
      "properties": {
        "uuid": "83e06ade-c756-42a1-9763-7e6b77e064d6",
        "inat_id": 231739145,
        "timestamp": "2024-07-25T19:23:37-06:00",
        "date": "2024-07-25",
        "olc": "859MC3XR+",
        "elevation": 2418.0,
        "tavg": null,
        "tmin": 8.0,
        "tmax": 17.0,
        "precipitation": 2.7,
        "windspeed": 9.6,
        "winddirection": null,
        "presure": 1045.2,
        "species": "Hypomyces lactifluorum",
        "location": "San Juan National Forest - Headquarters, Creede, CO, US",
        "num_identification_agreements": 2
      },
      "geometry": {
        "type": "Point",
        "coordinates": [
          -106.9077,
          37.4479216667
        ]
      }
    }
  ]
}