{
  "type": "FeatureCollection",
  "features": [
    {
      "type": "Feature",
      "properties": {
        "uuid": "64e1bce3-dcbd-43c9-8bb0-154a38850232",
        "inat_id": 316330154,
        "timestamp": "2025-09-24T10:46:31-06:00",
        "date": "2025-09-24",
        "olc": "85CPXPR9+",
        "elevation": 2700.0,
        "tavg": null,
        "tmin": 1.0,
        "tmax": 10.0,
        "precipitation": 0.4,
        "windspeed": 4.0,
        "winddirection": null,
        "presure": 1026.9,
        "species": "Hypomyces lactifluorum",
        "location": "Teller County, US-CO, US",
        "num_identification_agreements": 1
      },
      "geometry": {
        "type": "Point",
        "coordinates": [
          -105.2824664678,
          38.9911107522
        ]
      }
    }
  ]
}