{
  "type": "FeatureCollection",
  "features": [
    {
      "type": "Feature",
      "properties": {
        "uuid": "a971078c-1bde-493e-92d2-9434f526459e",
        "inat_id": 128986828,
        "timestamp": "2022-08-01T08:56:42-06:00",
        "date": "2022-08-01",
        "olc": "85CPWQH5+",
        "elevation": 2719.0,
        "tavg": null,
        "tmin": 6.8,
        "tmax": 19.8,
        "precipitation": 0.0,
        "windspeed": 6.5,
        "winddirection": null,
        "presure": 1019.2,
        "species": "Hypomyces lactifluorum",
        "location": "Florissant, CO 80816, USA",
        "num_identification_agreements": 1
      },
      "geometry": {
        "type": "Point",
        "coordinates": [
          -105.2423983812,
          38.9282984707
        ]
      }
    }
  ]
}