{
  "type": "FeatureCollection",
  "features": [
    {
      "type": "Feature",
      "properties": {
        "uuid": "b51822ab-cc1f-4613-9111-880fa201bc39",
        "inat_id": 89978783,
        "timestamp": "2021-08-04T14:09:43-06:00",
        "date": "2021-08-04",
        "olc": "85CQQ4JC+",
        "elevation": 2091.0,
        "tavg": null,
        "tmin": 15.6,
        "tmax": 27.3,
        "precipitation": null,
        "windspeed": 10.1,
        "winddirection": null,
        "presure": 1019.3,
        "species": "Hypomyces lactifluorum",
        "location": "Pike and San Isabel National Forests, Colorado Springs, CO, US",
        "num_identification_agreements": 2
      },
      "geometry": {
        "type": "Point",
        "coordinates": [
          -104.8799160684,
          38.78081323
        ]
      }
    }
  ]
}