{
  "type": "FeatureCollection",
  "features": [
    {
      "type": "Feature",
      "properties": {
        "uuid": "6e93cb22-8892-4547-8f1d-8e2e9a6d8365",
        "inat_id": 172781531,
        "timestamp": "2023-07-13T10:10:53-06:00",
        "date": "2023-07-13",
        "olc": "85CQQ534+",
        "elevation": 2061.0,
        "tavg": null,
        "tmin": 19.0,
        "tmax": 29.0,
        "precipitation": 1.6,
        "windspeed": 11.6,
        "winddirection": null,
        "presure": 1022.5,
        "species": "Hypomyces lactifluorum",
        "location": "Colorado Springs, CO 80906, USA",
        "num_identification_agreements": 2
      },
      "geometry": {
        "type": "Point",
        "coordinates": [
          -104.8431953,
          38.7526591
        ]
      }
    }
  ]
}