{
  "type": "FeatureCollection",
  "features": [
    {
      "type": "Feature",
      "properties": {
        "uuid": "9b6794ee-44c9-4983-baee-35864cd0c2b7",
        "inat_id": 131820945,
        "timestamp": "2022-08-21T17:33:00-06:00",
        "date": "2022-08-21",
        "olc": "85CQW4JQ+",
        "elevation": 2061.0,
        "tavg": null,
        "tmin": 9.0,
        "tmax": 22.8,
        "precipitation": 0.0,
        "windspeed": 12.5,
        "winddirection": null,
        "presure": 1019.0,
        "species": "Hypomyces lactifluorum",
        "location": "Bristlecone Dr, Colorado Springs, CO, US",
        "num_identification_agreements": 3
      },
      "geometry": {
        "type": "Point",
        "coordinates": [
          -104.8621833333,
          38.9313466667
        ]
      }
    }
  ]
}