{
  "type": "FeatureCollection",
  "features": [
    {
      "type": "Feature",
      "properties": {
        "uuid": "11884e29-af83-4a8d-bca9-56ef47b66c11",
        "inat_id": 310329596,
        "timestamp": "2025-08-30T10:59:15-06:00",
        "date": "2025-08-30",
        "olc": "85CQP3HW+",
        "elevation": 2711.0,
        "tavg": null,
        "tmin": 11.3,
        "tmax": 19.3,
        "precipitation": 2.1,
        "windspeed": 11.1,
        "winddirection": null,
        "presure": 1019.1,
        "species": "Hypomyces lactifluorum",
        "location": "Rock Creek, Colorado Springs, CO, USA",
        "num_identification_agreements": 2
      },
      "geometry": {
        "type": "Point",
        "coordinates": [
          -104.9047484994,
          38.7283207299
        ]
      }
    }
  ]
}