{
  "type": "FeatureCollection",
  "features": [
    {
      "type": "Feature",
      "properties": {
        "uuid": "928398ed-6085-45f9-bc73-839fab653cc5",
        "inat_id": 129823340,
        "timestamp": "2022-08-07T06:08:11-06:00",
        "date": "2022-08-07",
        "olc": "85FP8JVF+",
        "elevation": 2455.0,
        "tavg": null,
        "tmin": 7.7,
        "tmax": 20.4,
        "precipitation": 1.3,
        "windspeed": 7.1,
        "winddirection": null,
        "presure": 1020.5,
        "species": "Hypomyces lactifluorum",
        "location": "Pike and San Isabel National Forests, Sedalia, CO, US",
        "num_identification_agreements": 1
      },
      "geometry": {
        "type": "Point",
        "coordinates": [
          -105.3767783333,
          39.3448716667
        ]
      }
    }
  ]
}