{
  "type": "FeatureCollection",
  "features": [
    {
      "type": "Feature",
      "properties": {
        "uuid": "48ed065c-27a6-471e-9d08-dada7f00a96e",
        "inat_id": 132887387,
        "timestamp": "2022-08-22T11:04:47-06:00",
        "date": "2022-08-22",
        "olc": "85FP3X7G+",
        "elevation": 2863.0,
        "tavg": null,
        "tmin": 10.2,
        "tmax": 24.0,
        "precipitation": 3.5,
        "windspeed": 11.0,
        "winddirection": null,
        "presure": 1020.2,
        "species": "Hypomyces lactifluorum",
        "location": "Pike and San Isabel National Forests, Woodland Park, CO, US",
        "num_identification_agreements": 3
      },
      "geometry": {
        "type": "Point",
        "coordinates": [
          -105.0226221667,
          39.0636471667
        ]
      }
    }
  ]
}