{
  "type": "FeatureCollection",
  "features": [
    {
      "type": "Feature",
      "properties": {
        "uuid": "e3cd2534-7bb5-4c7e-8385-b45c69481277",
        "inat_id": 129264825,
        "timestamp": "2022-08-02T17:11:27-06:00",
        "date": "2022-08-02",
        "olc": "85FP7M7V+",
        "elevation": 2509.0,
        "tavg": null,
        "tmin": 6.7,
        "tmax": 21.6,
        "precipitation": 0.4,
        "windspeed": 10.6,
        "winddirection": null,
        "presure": 1015.6,
        "species": "Hypomyces lactifluorum",
        "location": "Colorado, US",
        "num_identification_agreements": 2
      },
      "geometry": {
        "type": "Point",
        "coordinates": [
          -105.3074304693,
          39.2645421522
        ]
      }
    }
  ]
}