{
  "type": "FeatureCollection",
  "features": [
    {
      "type": "Feature",
      "properties": {
        "uuid": "70c44029-d44a-40bc-892b-701effa85b20",
        "inat_id": 312319120,
        "timestamp": "2025-09-06T15:10:17-06:00",
        "date": "2025-09-06",
        "olc": "85FP5JJ6+",
        "elevation": 2527.0,
        "tavg": null,
        "tmin": -0.3,
        "tmax": 15.6,
        "precipitation": 0.7,
        "windspeed": 10.0,
        "winddirection": null,
        "presure": 1018.9,
        "species": "Hypomyces lactifluorum",
        "location": "Goose Creek Trail, Sedalia, CO, US",
        "num_identification_agreements": 3
      },
      "geometry": {
        "type": "Point",
        "coordinates": [
          -105.3880083333,
          39.1814283333
        ]
      }
    }
  ]
}