{
  "type": "FeatureCollection",
  "features": [
    {
      "type": "Feature",
      "properties": {
        "uuid": "2c5fc50d-e8e9-4bac-9e7c-584fcb3f456c",
        "inat_id": 240458213,
        "timestamp": "2024-09-07T17:29:32-06:00",
        "date": "2024-09-07",
        "olc": "85FP2XJQ+",
        "elevation": 2832.0,
        "tavg": null,
        "tmin": 8.4,
        "tmax": 26.9,
        "precipitation": 0.0,
        "windspeed": 11.8,
        "winddirection": null,
        "presure": 1018.6,
        "species": "Hypomyces lactifluorum",
        "location": "Colorado, US",
        "num_identification_agreements": 3
      },
      "geometry": {
        "type": "Point",
        "coordinates": [
          -105.0103001932,
          39.0316453119
        ]
      }
    }
  ]
}