{
  "type": "FeatureCollection",
  "features": [
    {
      "type": "Feature",
      "properties": {
        "uuid": "f80d3f08-9ccc-46e1-abcd-ed3773d29e73",
        "inat_id": 183682461,
        "timestamp": "2023-09-17T09:49:26-06:00",
        "date": "2023-09-17",
        "olc": "85FP5V92+",
        "elevation": 2345.0,
        "tavg": null,
        "tmin": -1.8,
        "tmax": 14.1,
        "precipitation": 0.0,
        "windspeed": 10.0,
        "winddirection": null,
        "presure": 1021.0,
        "species": "Hypomyces lactifluorum",
        "location": "Colorado, US",
        "num_identification_agreements": 2
      },
      "geometry": {
        "type": "Point",
        "coordinates": [
          -105.1478494433,
          39.1685013249
        ]
      }
    }
  ]
}