{
  "type": "FeatureCollection",
  "features": [
    {
      "type": "Feature",
      "properties": {
        "uuid": "e3f76298-3f39-467e-bc33-3bb1f10d3578",
        "inat_id": 298445051,
        "timestamp": "2022-08-01T13:56:11-06:00",
        "date": "2022-08-01",
        "olc": "85FQ43C4+",
        "elevation": 2407.0,
        "tavg": null,
        "tmin": 11.7,
        "tmax": 30.4,
        "precipitation": null,
        "windspeed": 12.7,
        "winddirection": null,
        "presure": 1015.8,
        "species": "Hypomyces lactifluorum",
        "location": "Pike and San Isabel National Forests, Woodland Park, CO, US",
        "num_identification_agreements": 3
      },
      "geometry": {
        "type": "Point",
        "coordinates": [
          -104.943175,
          39.1220028333
        ]
      }
    }
  ]
}