{
  "type": "FeatureCollection",
  "features": [
    {
      "type": "Feature",
      "properties": {
        "uuid": "efffea73-ff61-4770-bd37-e34ab8babe8c",
        "inat_id": 239743173,
        "timestamp": "2024-09-02T11:30:00-06:00",
        "date": "2024-09-02",
        "olc": "85FQ53JC+",
        "elevation": 2198.0,
        "tavg": null,
        "tmin": 11.0,
        "tmax": 26.0,
        "precipitation": null,
        "windspeed": 23.4,
        "winddirection": null,
        "presure": null,
        "species": "Hypomyces lactifluorum",
        "location": "Colorado, US",
        "num_identification_agreements": 3
      },
      "geometry": {
        "type": "Point",
        "coordinates": [
          -104.9285050355,
          39.1818778223
        ]
      }
    }
  ]
}