{
  "type": "FeatureCollection",
  "features": [
    {
      "type": "Feature",
      "properties": {
        "uuid": "a65ec61f-28e2-4a7c-be1f-8414926bdd39",
        "inat_id": 7881500,
        "timestamp": "2017-09-11T10:28:00-06:00",
        "date": "2017-09-11",
        "olc": "85FQ65JF+",
        "elevation": 2164.0,
        "tavg": null,
        "tmin": 12.1,
        "tmax": 27.4,
        "precipitation": null,
        "windspeed": 10.1,
        "winddirection": null,
        "presure": 1019.5,
        "species": "Hypomyces lactifluorum",
        "location": "Douglas County, CO, USA",
        "num_identification_agreements": 3
      },
      "geometry": {
        "type": "Point",
        "coordinates": [
          -104.8251914978,
          39.2303915798
        ]
      }
    }
  ]
}