{
  "type": "FeatureCollection",
  "features": [
    {
      "type": "Feature",
      "properties": {
        "uuid": "b70975d8-9123-4b8f-a0b0-53d2ad8f9d9d",
        "inat_id": 325308682,
        "timestamp": "2025-09-21T16:30:00-06:00",
        "date": "2025-09-21",
        "olc": "85FQ43F5+",
        "elevation": 2415.0,
        "tavg": null,
        "tmin": 10.0,
        "tmax": 23.0,
        "precipitation": 0.5,
        "windspeed": 11.9,
        "winddirection": null,
        "presure": 1019.3,
        "species": "Hypomyces lactifluorum",
        "location": "Palmer Lake Trail, El Paso County, CO, USA",
        "num_identification_agreements": 3
      },
      "geometry": {
        "type": "Point",
        "coordinates": [
          -104.941372138,
          39.1234129265
        ]
      }
    }
  ]
}