{
  "type": "FeatureCollection",
  "features": [
    {
      "type": "Feature",
      "properties": {
        "uuid": "b4e2ad2c-dd44-404b-8690-80357ac7e550",
        "inat_id": 299410026,
        "timestamp": "2025-07-19T15:08:58-06:00",
        "date": "2025-07-19",
        "olc": "85FQ48WQ+",
        "elevation": 2222.0,
        "tavg": null,
        "tmin": 13.0,
        "tmax": 27.0,
        "precipitation": 3.2,
        "windspeed": 12.5,
        "winddirection": null,
        "presure": 1024.5,
        "species": "Hypomyces lactifluorum",
        "location": "Colorado, US",
        "num_identification_agreements": 3
      },
      "geometry": {
        "type": "Point",
        "coordinates": [
          -104.6615538687,
          39.145682584
        ]
      }
    }
  ]
}