{
  "type": "FeatureCollection",
  "features": [
    {
      "type": "Feature",
      "properties": {
        "uuid": "d9dc6dfb-199a-40c6-8d8f-b582d8b2882e",
        "inat_id": 178252577,
        "timestamp": "2023-08-07T09:17:53-06:00",
        "date": "2023-08-07",
        "olc": "85FQ55JX+",
        "elevation": 2186.0,
        "tavg": null,
        "tmin": 10.0,
        "tmax": 23.0,
        "precipitation": 1.1,
        "windspeed": 14.2,
        "winddirection": null,
        "presure": 1026.2,
        "species": "Hypomyces lactifluorum",
        "location": "Colorado, US",
        "num_identification_agreements": 1
      },
      "geometry": {
        "type": "Point",
        "coordinates": [
          -104.8007096397,
          39.1803392231
        ]
      }
    }
  ]
}