{
  "type": "FeatureCollection",
  "features": [
    {
      "type": "Feature",
      "properties": {
        "uuid": "28ab412c-9869-465f-b916-ae9a28f3699b",
        "inat_id": 54230821,
        "timestamp": "2020-06-29T10:05:34-04:00",
        "date": "2020-06-29",
        "olc": "85FQ47V2+",
        "elevation": 2186.0,
        "tavg": null,
        "tmin": 12.0,
        "tmax": 29.0,
        "precipitation": null,
        "windspeed": null,
        "winddirection": null,
        "presure": null,
        "species": "Hypomyces lactifluorum",
        "location": "Colorado, US",
        "num_identification_agreements": 2
      },
      "geometry": {
        "type": "Point",
        "coordinates": [
          -104.7487053342,
          39.1440411228
        ]
      }
    }
  ]
}