{
  "type": "FeatureCollection",
  "features": [
    {
      "type": "Feature",
      "properties": {
        "uuid": "93bbf908-98b5-4833-89e4-be45cf775a97",
        "inat_id": 298908288,
        "timestamp": "2025-07-17T09:37:55-06:00",
        "date": "2025-07-17",
        "olc": "85MRVC3W+",
        "elevation": 1964.0,
        "tavg": null,
        "tmin": 8.3,
        "tmax": 17.2,
        "precipitation": 1.6,
        "windspeed": 7.8,
        "winddirection": null,
        "presure": 1017.1,
        "species": "Hypomyces lactifluorum",
        "location": "Norbeck 3, Custer, SD, US",
        "num_identification_agreements": 3
      },
      "geometry": {
        "type": "Point",
        "coordinates": [
          -103.5540916667,
          43.8533783333
        ]
      }
    }
  ]
}