{
  "type": "FeatureCollection",
  "features": [
    {
      "type": "Feature",
      "properties": {
        "uuid": "977e403c-49c8-49a0-9861-6c8a471afbf9",
        "inat_id": 91875524,
        "timestamp": "2021-08-19T13:29:56-06:00",
        "date": "2021-08-19",
        "olc": "85MRXCH7+",
        "elevation": 1794.0,
        "tavg": null,
        "tmin": 11.7,
        "tmax": 18.3,
        "precipitation": null,
        "windspeed": 9.8,
        "winddirection": null,
        "presure": 1012.1,
        "species": "Hypomyces lactifluorum",
        "location": "Pennington County, US-SD, US",
        "num_identification_agreements": 3
      },
      "geometry": {
        "type": "Point",
        "coordinates": [
          -103.5865957216,
          43.9783561987
        ]
      }
    }
  ]
}