{
  "type": "FeatureCollection",
  "features": [
    {
      "type": "Feature",
      "properties": {
        "uuid": "3131e073-5676-4049-9f95-120201af1577",
        "inat_id": 78836409,
        "timestamp": "2020-07-21T15:49:24-05:00",
        "date": "2020-07-21",
        "olc": "85MRXHG4+",
        "elevation": 1391.0,
        "tavg": null,
        "tmin": 11.7,
        "tmax": 22.8,
        "precipitation": 0.0,
        "windspeed": 8.2,
        "winddirection": null,
        "presure": 1015.6,
        "species": "Hypomyces lactifluorum",
        "location": "Mount Rushmore UT, SD, USA",
        "num_identification_agreements": 2
      },
      "geometry": {
        "type": "Point",
        "coordinates": [
          -103.4442833333,
          43.9753944444
        ]
      }
    }
  ]
}