{
  "type": "FeatureCollection",
  "features": [
    {
      "type": "Feature",
      "properties": {
        "uuid": "18cdf27a-6e46-45d5-9b4b-3b2a88c4a932",
        "inat_id": 31050196,
        "timestamp": "2019-08-14T12:20:00-04:00",
        "date": "2019-08-14",
        "olc": "85MRWH2C+",
        "elevation": 1410.0,
        "tavg": null,
        "tmin": 10.0,
        "tmax": 20.0,
        "precipitation": 0.0,
        "windspeed": 7.0,
        "winddirection": null,
        "presure": 1020.3,
        "species": "Hypomyces lactifluorum",
        "location": "Keystone, SD 57751, USA",
        "num_identification_agreements": 2
      },
      "geometry": {
        "type": "Point",
        "coordinates": [
          -103.4295750508,
          43.9004911385
        ]
      }
    }
  ]
}