{
  "type": "FeatureCollection",
  "features": [
    {
      "type": "Feature",
      "properties": {
        "uuid": "7ae158a6-9c33-4832-8fe7-efe6d22c4eea",
        "inat_id": 303325380,
        "timestamp": "2025-07-18T15:28:15-06:00",
        "date": "2025-07-18",
        "olc": "85PR884C+",
        "elevation": 1611.0,
        "tavg": null,
        "tmin": 14.0,
        "tmax": 26.0,
        "precipitation": 0.0,
        "windspeed": 10.2,
        "winddirection": null,
        "presure": 1017.0,
        "species": "Hypomyces lactifluorum",
        "location": "US-385, Deadwood, SD, US",
        "num_identification_agreements": 2
      },
      "geometry": {
        "type": "Point",
        "coordinates": [
          -103.6792216667,
          44.3066583333
        ]
      }
    }
  ]
}