{
  "type": "FeatureCollection",
  "features": [
    {
      "type": "Feature",
      "properties": {
        "uuid": "bda3bd45-ca3f-460f-9baf-9872818c80d3",
        "inat_id": 301716279,
        "timestamp": "2025-07-27T14:44:38-06:00",
        "date": "2025-07-27",
        "olc": "85PR3FFX+",
        "elevation": 1422.0,
        "tavg": null,
        "tmin": 20.0,
        "tmax": 33.9,
        "precipitation": 0.2,
        "windspeed": 13.1,
        "winddirection": null,
        "presure": 1014.1,
        "species": "Hypomyces lactifluorum",
        "location": "Osprey Trail, Rapid City, SD, US",
        "num_identification_agreements": 3
      },
      "geometry": {
        "type": "Point",
        "coordinates": [
          -103.50007,
          44.072575
        ]
      }
    }
  ]
}