{
  "type": "FeatureCollection",
  "features": [
    {
      "type": "Feature",
      "properties": {
        "uuid": "33f3ac0f-41f9-4e87-a625-d5ba09324728",
        "inat_id": 307066990,
        "timestamp": "2025-08-17T10:06:10-06:00",
        "date": "2025-08-17",
        "olc": "85PR6CMG+",
        "elevation": 1572.0,
        "tavg": null,
        "tmin": 15.0,
        "tmax": 30.0,
        "precipitation": 0.0,
        "windspeed": 8.5,
        "winddirection": null,
        "presure": 1016.1,
        "species": "Hypomyces lactifluorum",
        "location": "Black Hills National Forest, Nemo, SD, US",
        "num_identification_agreements": 2
      },
      "geometry": {
        "type": "Point",
        "coordinates": [
          -103.5739798978,
          44.2325646146
        ]
      }
    }
  ]
}