{
  "type": "FeatureCollection",
  "features": [
    {
      "type": "Feature",
      "properties": {
        "uuid": "3d219f67-c6e4-491c-bdc4-15bf65728710",
        "inat_id": 340075438,
        "timestamp": "2024-07-22T15:52:43-06:00",
        "date": "2024-07-22",
        "olc": "85PR77FJ+",
        "elevation": 1725.0,
        "tavg": null,
        "tmin": 16.0,
        "tmax": 29.0,
        "precipitation": 0.0,
        "windspeed": 5.6,
        "winddirection": null,
        "presure": 1021.8,
        "species": "Hypomyces lactifluorum",
        "location": "Black Hills National Forest, Deadwood, SD, US",
        "num_identification_agreements": 3
      },
      "geometry": {
        "type": "Point",
        "coordinates": [
          -103.7185173268,
          44.2744141004
        ]
      }
    }
  ]
}