{
  "type": "FeatureCollection",
  "features": [
    {
      "type": "Feature",
      "properties": {
        "uuid": "4788c2dd-d90b-4fd8-a432-09c49ade1e7c",
        "inat_id": 132725111,
        "timestamp": "2022-08-28T14:57:29-06:00",
        "date": "2022-08-28",
        "olc": "859JQ3P8+",
        "elevation": 3182.0,
        "tavg": null,
        "tmin": 8.0,
        "tmax": 20.0,
        "precipitation": 2.6,
        "windspeed": 7.7,
        "winddirection": null,
        "presure": 1026.8,
        "species": "Armillaria ostoyae",
        "location": "Dolores County, US-CO, US",
        "num_identification_agreements": 2
      },
      "geometry": {
        "type": "Point",
        "coordinates": [
          -107.9341479299,
          37.7851771843
        ]
      }
    },
    {
      "type": "Feature",
      "properties": {
        "uuid": "a8573f23-f6f7-48e7-a3c1-eec996705443",
        "inat_id": 132724722,
        "timestamp": "2022-08-28T14:51:56-06:00",
        "date": "2022-08-28",
        "olc": "859JQ3P8+",
        "elevation": 3182.0,
        "tavg": null,
        "tmin": 8.0,
        "tmax": 20.0,
        "precipitation": 2.6,
        "windspeed": 7.7,
        "winddirection": null,
        "presure": 1026.8,
        "species": "Armillaria ostoyae",
        "location": "Dolores County, US-CO, US",
        "num_identification_agreements": 2
      },
      "geometry": {
        "type": "Point",
        "coordinates": [
          -107.934349347,
          37.7851767652
        ]
      }
    }
  ]
}