{
  "type": "FeatureCollection",
  "features": [
    {
      "type": "Feature",
      "properties": {
        "uuid": "3f5bdbcd-0f22-412c-a4e5-b00270b3613f",
        "inat_id": 31423867,
        "timestamp": "2019-08-24T12:24:43-06:00",
        "date": "2019-08-24",
        "olc": "859JW47G+",
        "elevation": 2992.0,
        "tavg": null,
        "tmin": 10.0,
        "tmax": 25.0,
        "precipitation": null,
        "windspeed": 9.8,
        "winddirection": null,
        "presure": null,
        "species": "Armillaria ostoyae",
        "location": "San Miguel County, US-CO, US",
        "num_identification_agreements": 2
      },
      "geometry": {
        "type": "Point",
        "coordinates": [
          -107.87487125,
          37.914098
        ]
      }
    }
  ]
}