{
  "type": "FeatureCollection",
  "features": [
    {
      "type": "Feature",
      "properties": {
        "uuid": "71b409c6-3a55-4944-a8eb-2e40345502df",
        "inat_id": 136628984,
        "timestamp": "2022-09-20T14:13:51-06:00",
        "date": "2022-09-20",
        "olc": "85FPHPX5+",
        "elevation": 2434.0,
        "tavg": null,
        "tmin": 18.0,
        "tmax": 32.0,
        "precipitation": 0.0,
        "windspeed": 12.8,
        "winddirection": null,
        "presure": 1020.8,
        "species": "Armillaria ostoyae",
        "location": "Evergreen",
        "num_identification_agreements": 1
      },
      "geometry": {
        "type": "Point",
        "coordinates": [
          -105.2916568145,
          39.5997436134
        ]
      }
    }
  ]
}