{
  "type": "FeatureCollection",
  "features": [
    {
      "type": "Feature",
      "properties": {
        "uuid": "a2b13400-7245-48ab-8024-06d99549007b",
        "inat_id": 138202951,
        "timestamp": "2022-10-09T14:30:40-06:00",
        "date": "2022-10-09",
        "olc": "85FPQPM6+",
        "elevation": 2209.0,
        "tavg": null,
        "tmin": 8.0,
        "tmax": 22.0,
        "precipitation": 0.0,
        "windspeed": 7.4,
        "winddirection": null,
        "presure": 1025.6,
        "species": "Armillaria ostoyae",
        "location": "Colorado, US",
        "num_identification_agreements": 2
      },
      "geometry": {
        "type": "Point",
        "coordinates": [
          -105.2886972813,
          39.7837630072
        ]
      }
    }
  ]
}