{
  "type": "FeatureCollection",
  "features": [
    {
      "type": "Feature",
      "properties": {
        "uuid": "a844488d-d086-481e-90c9-d83999cc2ddb",
        "inat_id": 135807348,
        "timestamp": "2022-09-20T11:03:53-06:00",
        "date": "2022-09-20",
        "olc": "85FPH2QH+",
        "elevation": 2889.0,
        "tavg": null,
        "tmin": 1.2,
        "tmax": 14.0,
        "precipitation": 1.0,
        "windspeed": 6.2,
        "winddirection": null,
        "presure": 1020.9,
        "species": "Armillaria ostoyae",
        "location": "White River National Forest, Dillon, CO, US",
        "num_identification_agreements": 2
      },
      "geometry": {
        "type": "Point",
        "coordinates": [
          -105.9722521312,
          39.5884600311
        ]
      }
    }
  ]
}