{
  "type": "FeatureCollection",
  "features": [
    {
      "type": "Feature",
      "properties": {
        "uuid": "38efd18c-634a-4105-adaf-49c2912f4fa3",
        "inat_id": 242602875,
        "timestamp": "2024-09-18T10:15:40-06:00",
        "date": "2024-09-18",
        "olc": "85GMJ9WH+",
        "elevation": 3008.0,
        "tavg": null,
        "tmin": 2.1,
        "tmax": 19.5,
        "precipitation": 0.0,
        "windspeed": 6.1,
        "winddirection": null,
        "presure": 1017.5,
        "species": "Armillaria ostoyae",
        "location": "Rainbow Lakes Trail, Walden, CO, US",
        "num_identification_agreements": 1
      },
      "geometry": {
        "type": "Point",
        "coordinates": [
          -106.621995,
          40.6465866667
        ]
      }
    }
  ]
}