{
  "type": "FeatureCollection",
  "features": [
    {
      "type": "Feature",
      "properties": {
        "uuid": "9b0d55f7-6cf5-40db-ab9d-4595eb85c382",
        "inat_id": 131613319,
        "timestamp": "2018-08-24",
        "date": "2018-08-24",
        "olc": "858PQJ6H+",
        "elevation": 3368.0,
        "tavg": null,
        "tmin": 2.3,
        "tmax": 23.9,
        "precipitation": null,
        "windspeed": 8.4,
        "winddirection": null,
        "presure": null,
        "species": "Hygrophorus purpurascens",
        "location": "Greenie Peak, Red River, New Mexico, USA",
        "num_identification_agreements": 1
      },
      "geometry": {
        "type": "Point",
        "coordinates": [
          -105.3712,
          36.7611
        ]
      }
    }
  ]
}