{
  "type": "FeatureCollection",
  "features": [
    {
      "type": "Feature",
      "properties": {
        "uuid": "ae501640-7b68-4a40-8a02-24fd0be3ce34",
        "inat_id": 303532654,
        "timestamp": "2025-08-02T13:32:27-06:00",
        "date": "2025-08-02",
        "olc": "859PXW69+",
        "elevation": 3210.0,
        "tavg": null,
        "tmin": 11.0,
        "tmax": 33.0,
        "precipitation": 0.0,
        "windspeed": 9.5,
        "winddirection": null,
        "presure": 1018.1,
        "species": "Hygrophorus purpurascens",
        "location": "Colorado, US",
        "num_identification_agreements": 1
      },
      "geometry": {
        "type": "Point",
        "coordinates": [
          -105.0807654744,
          37.9619713326
        ]
      }
    }
  ]
}