{
  "type": "FeatureCollection",
  "features": [
    {
      "type": "Feature",
      "properties": {
        "uuid": "39c5cc3d-c4d7-4944-84a6-d540d8ceccab",
        "inat_id": 235793542,
        "timestamp": "2024-07-16T20:24:39-06:00",
        "date": "2024-07-16",
        "olc": "859JR496+",
        "elevation": 3054.0,
        "tavg": null,
        "tmin": 12.0,
        "tmax": 26.0,
        "precipitation": 9.1,
        "windspeed": 9.4,
        "winddirection": null,
        "presure": 1032.5,
        "species": "Albatrellopsis flettii",
        "location": "San Miguel County, US-CO, US",
        "num_identification_agreements": 2
      },
      "geometry": {
        "type": "Point",
        "coordinates": [
          -107.888042517,
          37.8181199437
        ]
      }
    }
  ]
}