{
  "type": "FeatureCollection",
  "features": [
    {
      "type": "Feature",
      "properties": {
        "uuid": "5e115f2d-f536-47cd-a1b4-ce793172d266",
        "inat_id": 178114718,
        "timestamp": "2023-08-12T21:34:43-06:00",
        "date": "2023-08-12",
        "olc": "85GP2FJ7+",
        "elevation": 2902.0,
        "tavg": null,
        "tmin": 17.0,
        "tmax": 28.0,
        "precipitation": 0.0,
        "windspeed": 8.5,
        "winddirection": null,
        "presure": 1019.7,
        "species": "Albatrellopsis flettii",
        "location": "County Road 116, Ward, CO, US",
        "num_identification_agreements": 2
      },
      "geometry": {
        "type": "Point",
        "coordinates": [
          -105.5354499166,
          40.0320879836
        ]
      }
    }
  ]
}