{
  "type": "FeatureCollection",
  "features": [
    {
      "type": "Feature",
      "properties": {
        "uuid": "86186cf3-5f75-449a-bef1-80021903f101",
        "inat_id": 387325343,
        "timestamp": "2026-08-01T11:33:51-06:00",
        "date": "2026-08-01",
        "olc": "858P4FJC+",
        "elevation": 2596.0,
        "tavg": null,
        "tmin": 14.5,
        "tmax": 29.6,
        "precipitation": 2.4,
        "windspeed": 11.8,
        "winddirection": null,
        "presure": 1019.3,
        "species": "Pseudomarasmius pallidocephalus",
        "location": "Vadito, NM 87579, USA",
        "num_identification_agreements": 1
      },
      "geometry": {
        "type": "Point",
        "coordinates": [
          -105.5280013382,
          36.1324169071
        ]
      }
    },
    {
      "type": "Feature",
      "properties": {
        "uuid": "88edc290-c225-45ea-8d1b-9f2aa0a0a4b0",
        "inat_id": 387277835,
        "timestamp": "2026-08-01T09:16:20-06:00",
        "date": "2026-08-01",
        "olc": "858P4FJC+",
        "elevation": 2596.0,
        "tavg": null,
        "tmin": 14.5,
        "tmax": 29.6,
        "precipitation": 2.4,
        "windspeed": 11.8,
        "winddirection": null,
        "presure": 1019.3,
        "species": "Pseudomarasmius pallidocephalus",
        "location": "Vadito, NM 87579, USA",
        "num_identification_agreements": 1
      },
      "geometry": {
        "type": "Point",
        "coordinates": [
          -105.5285111111,
          36.1316305556
        ]
      }
    }
  ]
}