{
  "type": "FeatureCollection",
  "features": [
    {
      "type": "Feature",
      "properties": {
        "uuid": "f1bc0220-b826-4ec0-bb13-79ae4252a64d",
        "inat_id": 308839263,
        "timestamp": "2025-08-23T10:34:52-06:00",
        "date": "2025-08-23",
        "olc": "85FPJH64+",
        "elevation": 2485.0,
        "tavg": null,
        "tmin": 0.5,
        "tmax": 14.1,
        "precipitation": 3.4,
        "windspeed": 10.2,
        "winddirection": null,
        "presure": 1024.6,
        "species": "Pseudomarasmius pallidocephalus",
        "location": "Golden, CO 80439, USA",
        "num_identification_agreements": 1
      },
      "geometry": {
        "type": "Point",
        "coordinates": [
          -105.4438719997,
          39.6106144
        ]
      }
    }
  ]
}