{
  "type": "FeatureCollection",
  "features": [
    {
      "type": "Feature",
      "properties": {
        "uuid": "3c834c20-f0f8-42b8-a2f6-6d5c393b30d3",
        "inat_id": 288235788,
        "timestamp": "2025-06-08",
        "date": "2025-06-08",
        "olc": "85FQP2XX+",
        "elevation": 1610.0,
        "tavg": null,
        "tmin": 14.7,
        "tmax": 22.0,
        "precipitation": 0.3,
        "windspeed": 11.5,
        "winddirection": null,
        "presure": 1013.7,
        "species": "Xylaria polymorpha",
        "location": "City Park, Denver, CO, USA",
        "num_identification_agreements": 1
      },
      "geometry": {
        "type": "Point",
        "coordinates": [
          -104.9508519843,
          39.7495960907
        ]
      }
    }
  ]
}