{
  "type": "FeatureCollection",
  "features": [
    {
      "type": "Feature",
      "properties": {
        "uuid": "90c97d2f-e891-4dd8-9746-bb9962e7b6b5",
        "inat_id": 235426885,
        "timestamp": "2024-08-12T12:05:02-06:00",
        "date": "2024-08-12",
        "olc": "859MF7FH+",
        "elevation": 3110.0,
        "tavg": null,
        "tmin": 5.0,
        "tmax": 13.0,
        "precipitation": 4.0,
        "windspeed": 11.7,
        "winddirection": null,
        "presure": 1039.4,
        "species": "Collybia tuberosa",
        "location": "Mineral County, CO, USA",
        "num_identification_agreements": 1
      },
      "geometry": {
        "type": "Point",
        "coordinates": [
          -106.72162608,
          37.47265345
        ]
      }
    }
  ]
}