{
  "type": "FeatureCollection",
  "features": [
    {
      "type": "Feature",
      "properties": {
        "uuid": "a56c40d7-20cf-415b-8a4c-0103f1a06211",
        "inat_id": 60663619,
        "timestamp": "2008-08-19",
        "date": "2008-08-19",
        "olc": "857MRHMF+",
        "elevation": 2659.0,
        "tavg": null,
        "tmin": 12.0,
        "tmax": 24.0,
        "precipitation": null,
        "windspeed": 9.2,
        "winddirection": null,
        "presure": null,
        "species": "Auriscalpium vulgare",
        "location": "Jemez Mountains, Los Alamos, New Mexico, USA",
        "num_identification_agreements": 1
      },
      "geometry": {
        "type": "Point",
        "coordinates": [
          -106.426,
          35.83395
        ]
      }
    }
  ]
}