{
  "type": "FeatureCollection",
  "features": [
    {
      "type": "Feature",
      "properties": {
        "uuid": "074aedae-aa7d-4a05-b749-b6497ff6ef0e",
        "inat_id": 131213809,
        "timestamp": "2022-08-17T08:01:48-06:00",
        "date": "2022-08-17",
        "olc": "859JX55F+",
        "elevation": 2942.0,
        "tavg": null,
        "tmin": 11.0,
        "tmax": 18.0,
        "precipitation": 5.0,
        "windspeed": 4.6,
        "winddirection": null,
        "presure": 1033.1,
        "species": "Hypomyces chrysospermus",
        "location": "Grand Mesa Uncompahgre and Gunnison National Forests, Telluride, CO, US",
        "num_identification_agreements": 1
      },
      "geometry": {
        "type": "Point",
        "coordinates": [
          -107.8269328912,
          37.9587340595
        ]
      }
    }
  ]
}