{
  "type": "FeatureCollection",
  "features": [
    {
      "type": "Feature",
      "properties": {
        "uuid": "3c31429e-06b0-4d29-a7a3-ac91e111fe85",
        "inat_id": 235426506,
        "timestamp": "2024-08-11T17:30:00-06:00",
        "date": "2024-08-11",
        "olc": "857PQ6R3+",
        "elevation": 3271.0,
        "tavg": null,
        "tmin": 18.9,
        "tmax": 31.1,
        "precipitation": null,
        "windspeed": 15.6,
        "winddirection": null,
        "presure": 1014.4,
        "species": "Flammulina velutipes",
        "location": "Santa Fe County, NM, USA",
        "num_identification_agreements": 1
      },
      "geometry": {
        "type": "Point",
        "coordinates": [
          -105.7950680776,
          35.7913750192
        ]
      }
    }
  ]
}