{
  "type": "FeatureCollection",
  "features": [
    {
      "type": "Feature",
      "properties": {
        "uuid": "b2224fda-9f17-4320-be49-cbfa1896d60f",
        "inat_id": 130999929,
        "timestamp": "2022-08-15T12:29:19-06:00",
        "date": "2022-08-15",
        "olc": "85CPRV2X+",
        "elevation": 3259.0,
        "tavg": null,
        "tmin": 16.4,
        "tmax": 28.9,
        "precipitation": 3.2,
        "windspeed": 8.8,
        "winddirection": null,
        "presure": 1014.0,
        "species": "Flammulina velutipes",
        "location": "Colorado, US",
        "num_identification_agreements": 1
      },
      "geometry": {
        "type": "Point",
        "coordinates": [
          -105.1003460128,
          38.8019264779
        ]
      }
    }
  ]
}