{
  "type": "FeatureCollection",
  "features": [
    {
      "type": "Feature",
      "properties": {
        "uuid": "5970e378-5191-4a4a-90fd-0b619d6d8370",
        "inat_id": 137776001,
        "timestamp": "2022-10-06T12:35:02-06:00",
        "date": "2022-10-06",
        "olc": "85GPHWM7+",
        "elevation": 1531.0,
        "tavg": null,
        "tmin": 5.0,
        "tmax": 22.8,
        "precipitation": 0.0,
        "windspeed": 9.4,
        "winddirection": null,
        "presure": 1024.8,
        "species": "Flammulina velutipes",
        "location": "S Whitcomb St, Fort Collins, CO, US",
        "num_identification_agreements": 1
      },
      "geometry": {
        "type": "Point",
        "coordinates": [
          -105.0859705267,
          40.5833128235
        ]
      }
    }
  ]
}