{
  "type": "FeatureCollection",
  "features": [
    {
      "type": "Feature",
      "properties": {
        "uuid": "62d8067b-3d9d-4731-90ad-bd7fba8dff38",
        "inat_id": 232030877,
        "timestamp": "2024-07-23T13:09:25-06:00",
        "date": "2024-07-23",
        "olc": "857MW8CV+",
        "elevation": 2578.0,
        "tavg": null,
        "tmin": 12.8,
        "tmax": 26.1,
        "precipitation": null,
        "windspeed": 10.1,
        "winddirection": null,
        "presure": 1029.6,
        "species": "Hygrophorus speciosus",
        "location": "Sandoval County, US-NM, US",
        "num_identification_agreements": 2
      },
      "geometry": {
        "type": "Point",
        "coordinates": [
          -106.6566533746,
          35.9221399387
        ]
      }
    }
  ]
}