{
  "type": "FeatureCollection",
  "features": [
    {
      "type": "Feature",
      "properties": {
        "uuid": "1ae160fa-9968-4756-9f0a-b548626d8140",
        "inat_id": 174690872,
        "timestamp": "2023-06-12T09:08:00-06:00",
        "date": "2023-06-12",
        "olc": "85MRPHMP+",
        "elevation": 1463.0,
        "tavg": null,
        "tmin": 4.4,
        "tmax": 17.8,
        "precipitation": null,
        "windspeed": 11.2,
        "winddirection": null,
        "presure": 1015.6,
        "species": "Hygrophorus speciosus",
        "location": "South Dakota",
        "num_identification_agreements": 1
      },
      "geometry": {
        "type": "Point",
        "coordinates": [
          -103.4133335,
          43.7325177
        ]
      }
    }
  ]
}