{
  "type": "FeatureCollection",
  "features": [
    {
      "type": "Feature",
      "properties": {
        "uuid": "98c3ede7-3c9e-440a-bebd-9831901ace4d",
        "inat_id": 9570903,
        "timestamp": "1992-08-13",
        "date": "1992-08-13",
        "olc": "858P9PV8+",
        "elevation": 2562.0,
        "tavg": null,
        "tmin": null,
        "tmax": null,
        "precipitation": null,
        "windspeed": null,
        "winddirection": null,
        "presure": null,
        "species": "Floccularia fusca",
        "location": "Angel Fire, New Mexico, USA",
        "num_identification_agreements": 1
      },
      "geometry": {
        "type": "Point",
        "coordinates": [
          -105.283,
          36.3936
        ]
      }
    }
  ]
}