{
  "type": "FeatureCollection",
  "features": [
    {
      "type": "Feature",
      "properties": {
        "uuid": "11ab8d23-bbc0-4504-8ec0-2af5ae3c7bd8",
        "inat_id": 233344482,
        "timestamp": "2024-07-31T12:01:00-06:00",
        "date": "2024-07-31",
        "olc": "857PQ5WW+",
        "elevation": 3149.0,
        "tavg": null,
        "tmin": 15.0,
        "tmax": 36.7,
        "precipitation": 0.0,
        "windspeed": 11.1,
        "winddirection": null,
        "presure": 1009.7,
        "species": "Albatrellus ovinus",
        "location": "Santa Fe County, NM, USA",
        "num_identification_agreements": 3
      },
      "geometry": {
        "type": "Point",
        "coordinates": [
          -105.8039393971,
          35.7964151514
        ]
      }
    }
  ]
}