{
  "type": "FeatureCollection",
  "features": [
    {
      "type": "Feature",
      "properties": {
        "uuid": "1162ec61-c543-4b63-ac96-94c5d9862d9d",
        "inat_id": 307876953,
        "timestamp": "2025-08-20T13:19:48-06:00",
        "date": "2025-08-20",
        "olc": "857PQ5VV+",
        "elevation": 3112.0,
        "tavg": null,
        "tmin": 14.4,
        "tmax": 31.1,
        "precipitation": 0.0,
        "windspeed": 16.2,
        "winddirection": null,
        "presure": 1017.5,
        "species": "Albatrellus ovinus",
        "location": "Rio en Medio Trail, Tererro, NM, US",
        "num_identification_agreements": 1
      },
      "geometry": {
        "type": "Point",
        "coordinates": [
          -105.8067481937,
          35.794116287
        ]
      }
    }
  ]
}