{
  "type": "FeatureCollection",
  "features": [
    {
      "type": "Feature",
      "properties": {
        "uuid": "3ecbe664-9b31-4ab4-8bdc-29f68831f84d",
        "inat_id": 236549597,
        "timestamp": "2024-08-17T09:24:05-06:00",
        "date": "2024-08-17",
        "olc": "859JW5C9+",
        "elevation": 3296.0,
        "tavg": null,
        "tmin": 12.0,
        "tmax": 23.0,
        "precipitation": 4.9,
        "windspeed": 9.4,
        "winddirection": null,
        "presure": 1034.5,
        "species": "Albatrellus ovinus",
        "location": "Telluride Ski Resort, Telluride, CO, US",
        "num_identification_agreements": 1
      },
      "geometry": {
        "type": "Point",
        "coordinates": [
          -107.8324952257,
          37.9206545139
        ]
      }
    }
  ]
}