{
  "type": "FeatureCollection",
  "features": [
    {
      "type": "Feature",
      "properties": {
        "uuid": "086749b3-922d-481b-9c57-9d5c91c12e9f",
        "inat_id": 136869690,
        "timestamp": "2022-09-24T14:17:19-06:00",
        "date": "2022-09-24",
        "olc": "85FPMC35+",
        "elevation": 3296.0,
        "tavg": null,
        "tmin": -1.5,
        "tmax": 9.1,
        "precipitation": 0.0,
        "windspeed": 11.1,
        "winddirection": null,
        "presure": 1024.9,
        "species": "Albatrellus ovinus",
        "location": "Clear Creek County, US-CO, US",
        "num_identification_agreements": 1
      },
      "geometry": {
        "type": "Point",
        "coordinates": [
          -105.5900096521,
          39.6531718586
        ]
      }
    }
  ]
}