{
  "type": "FeatureCollection",
  "features": [
    {
      "type": "Feature",
      "properties": {
        "uuid": "a6125a61-72b1-4007-9068-49978c467c4d",
        "inat_id": 383203600,
        "timestamp": "2026-07-19T19:57:51-06:00",
        "date": "2026-07-19",
        "olc": "85FPV78W+",
        "elevation": 3351.0,
        "tavg": null,
        "tmin": 8.0,
        "tmax": 16.0,
        "precipitation": 0.1,
        "windspeed": 11.1,
        "winddirection": null,
        "presure": null,
        "species": "Albatrellus ovinus",
        "location": "Colorado, US",
        "num_identification_agreements": 1
      },
      "geometry": {
        "type": "Point",
        "coordinates": [
          -105.7029734044,
          39.8674597811
        ]
      }
    }
  ]
}