{
  "type": "FeatureCollection",
  "features": [
    {
      "type": "Feature",
      "properties": {
        "uuid": "3d00d3b1-d890-4790-bc4b-3085589bcb93",
        "inat_id": 239703187,
        "timestamp": "2024-09-03T11:05:00-06:00",
        "date": "2024-09-03",
        "olc": "85FPJ75J+",
        "elevation": 3343.0,
        "tavg": null,
        "tmin": 8.0,
        "tmax": 18.0,
        "precipitation": null,
        "windspeed": 10.2,
        "winddirection": null,
        "presure": null,
        "species": "Albatrellus ovinus",
        "location": "Clear Creek County, US-CO, US",
        "num_identification_agreements": 1
      },
      "geometry": {
        "type": "Point",
        "coordinates": [
          -105.719086,
          39.609279
        ]
      }
    }
  ]
}