{
  "type": "FeatureCollection",
  "features": [
    {
      "type": "Feature",
      "properties": {
        "uuid": "03bd99c0-d214-47a5-9b7b-f2ffde0b2e6a",
        "inat_id": 134004634,
        "timestamp": "2022-09-06T15:18:35-06:00",
        "date": "2022-09-06",
        "olc": "85FPXG26+",
        "elevation": 2664.0,
        "tavg": null,
        "tmin": 18.0,
        "tmax": 36.0,
        "precipitation": 0.0,
        "windspeed": 3.8,
        "winddirection": null,
        "presure": 1022.8,
        "species": "Albatrellus ovinus",
        "location": "Nederland, CO, US",
        "num_identification_agreements": 1
      },
      "geometry": {
        "type": "Point",
        "coordinates": [
          -105.4887,
          39.9524216667
        ]
      }
    }
  ]
}