{
  "type": "FeatureCollection",
  "features": [
    {
      "type": "Feature",
      "properties": {
        "uuid": "95ca2935-a3c6-46b9-923a-d85b6fcbe354",
        "inat_id": 175438670,
        "timestamp": "2023-07-28T14:46:02-06:00",
        "date": "2023-07-28",
        "olc": "85FPXG46+",
        "elevation": 2608.0,
        "tavg": null,
        "tmin": 17.0,
        "tmax": 34.0,
        "precipitation": 1.3,
        "windspeed": 6.9,
        "winddirection": null,
        "presure": 1023.7,
        "species": "Albatrellus ovinus",
        "location": "Reynolds Ranch Spur, Nederland, CO, US",
        "num_identification_agreements": 1
      },
      "geometry": {
        "type": "Point",
        "coordinates": [
          -105.48777,
          39.9557716667
        ]
      }
    }
  ]
}