{
  "type": "FeatureCollection",
  "features": [
    {
      "type": "Feature",
      "properties": {
        "uuid": "533962f0-264f-4070-b334-a07d47b015ce",
        "inat_id": 195779017,
        "timestamp": "2023-08-12",
        "date": "2023-08-12",
        "olc": "85GPWC5H+",
        "elevation": 2441.0,
        "tavg": null,
        "tmin": 12.5,
        "tmax": 24.5,
        "precipitation": 0.0,
        "windspeed": 15.1,
        "winddirection": null,
        "presure": 1015.1,
        "species": "Albatrellus ovinus",
        "location": "Livermore, CO 80536, USA",
        "num_identification_agreements": 2
      },
      "geometry": {
        "type": "Point",
        "coordinates": [
          -105.571228154,
          40.9099640642
        ]
      }
    }
  ]
}