{
  "type": "FeatureCollection",
  "features": [
    {
      "type": "Feature",
      "properties": {
        "uuid": "a4b04722-0cc5-4606-8788-df9aa173c477",
        "inat_id": 238098567,
        "timestamp": "2024-08-24T12:26:34-06:00",
        "date": "2024-08-24",
        "olc": "857PQ5XX+",
        "elevation": 3208.0,
        "tavg": null,
        "tmin": 16.7,
        "tmax": 30.0,
        "precipitation": null,
        "windspeed": 13.6,
        "winddirection": null,
        "presure": 1016.5,
        "species": "Hygrophorus olivaceoalbus",
        "location": "San Ildefonso Pueblo, NM 87506, USA",
        "num_identification_agreements": 1
      },
      "geometry": {
        "type": "Point",
        "coordinates": [
          -105.8004386723,
          35.7989527017
        ]
      }
    }
  ]
}