{
  "type": "FeatureCollection",
  "features": [
    {
      "type": "Feature",
      "properties": {
        "uuid": "37a5cf07-2664-4f5c-a011-1a015b3415d1",
        "inat_id": 239201911,
        "timestamp": "2024-08-29T11:36:00-06:00",
        "date": "2024-08-29",
        "olc": "857PR52X+",
        "elevation": 3266.0,
        "tavg": null,
        "tmin": 15.6,
        "tmax": 28.9,
        "precipitation": 0.0,
        "windspeed": 12.1,
        "winddirection": null,
        "presure": 1014.3,
        "species": "Hygrophorus olivaceoalbus",
        "location": "Santa Fe County, NM, USA",
        "num_identification_agreements": 1
      },
      "geometry": {
        "type": "Point",
        "coordinates": [
          -105.8004611111,
          35.800225
        ]
      }
    }
  ]
}