{
  "type": "FeatureCollection",
  "features": [
    {
      "type": "Feature",
      "properties": {
        "uuid": "f17664aa-c446-42a5-a8a3-e304a04f802f",
        "inat_id": 387377890,
        "timestamp": "2026-08-01T14:21:25-06:00",
        "date": "2026-08-01",
        "olc": "85GFH5VP+",
        "elevation": 3225.0,
        "tavg": null,
        "tmin": null,
        "tmax": null,
        "precipitation": null,
        "windspeed": null,
        "winddirection": null,
        "presure": null,
        "species": "Hygrophorus olivaceoalbus",
        "location": "Duchesne County, US-UT, US",
        "num_identification_agreements": 2
      },
      "geometry": {
        "type": "Point",
        "coordinates": [
          -110.8129983269,
          40.5939973283
        ]
      }
    }
  ]
}