{
  "type": "FeatureCollection",
  "features": [
    {
      "type": "Feature",
      "properties": {
        "uuid": "52a6cb65-ab30-4df9-9881-46983e82a7ad",
        "inat_id": 92582507,
        "timestamp": "2021-08-14T12:57:59-06:00",
        "date": "2021-08-14",
        "olc": "85FM6F33+",
        "elevation": 3329.0,
        "tavg": null,
        "tmin": 2.8,
        "tmax": 24.4,
        "precipitation": 1.3,
        "windspeed": 7.6,
        "winddirection": null,
        "presure": 1020.4,
        "species": "Scutiger ellisii",
        "location": "Colorado, US",
        "num_identification_agreements": 1
      },
      "geometry": {
        "type": "Point",
        "coordinates": [
          -106.5469693757,
          39.203564399
        ]
      }
    }
  ]
}