{
  "type": "FeatureCollection",
  "features": [
    {
      "type": "Feature",
      "properties": {
        "uuid": "71abeffb-f00b-4e04-9200-d988c0a72a76",
        "inat_id": 89872135,
        "timestamp": "2021-08-03T17:27:40-06:00",
        "date": "2021-08-03",
        "olc": "85FPR86H+",
        "elevation": 3113.0,
        "tavg": null,
        "tmin": 10.8,
        "tmax": 15.6,
        "precipitation": 12.9,
        "windspeed": 3.8,
        "winddirection": null,
        "presure": 1031.2,
        "species": "Scutiger ellisii",
        "location": "Arapaho & Roosevelt National Forests Pawnee National Grassland, Idaho Springs, CO, US",
        "num_identification_agreements": 1
      },
      "geometry": {
        "type": "Point",
        "coordinates": [
          -105.6707083333,
          39.8121383333
        ]
      }
    }
  ]
}