{
  "type": "FeatureCollection",
  "features": [
    {
      "type": "Feature",
      "properties": {
        "uuid": "2ed5be4b-1d93-41b3-8419-ace0ac64d0eb",
        "inat_id": 133989433,
        "timestamp": "2022-09-06T11:05:28-06:00",
        "date": "2022-09-06",
        "olc": "85FPV6FP+",
        "elevation": 2948.0,
        "tavg": null,
        "tmin": 5.4,
        "tmax": 17.8,
        "precipitation": 0.0,
        "windspeed": 5.8,
        "winddirection": null,
        "presure": 1023.9,
        "species": "Scutiger ellisii",
        "location": "Mary Jane Base Complex, Winter Park, CO 80482, USA",
        "num_identification_agreements": 1
      },
      "geometry": {
        "type": "Point",
        "coordinates": [
          -105.7629740997,
          39.8743544
        ]
      }
    }
  ]
}