{
  "type": "FeatureCollection",
  "features": [
    {
      "type": "Feature",
      "properties": {
        "uuid": "bffb0aa0-ae32-446d-b522-d58d76f73075",
        "inat_id": 57304627,
        "timestamp": "2018-08-12T18:34:21-06:00",
        "date": "2018-08-12",
        "olc": "85GPQ2C5+",
        "elevation": 2912.0,
        "tavg": null,
        "tmin": null,
        "tmax": null,
        "precipitation": null,
        "windspeed": null,
        "winddirection": null,
        "presure": null,
        "species": "Scutiger ellisii",
        "location": "Larimer County, US-CO, US",
        "num_identification_agreements": 1
      },
      "geometry": {
        "type": "Point",
        "coordinates": [
          -105.9915264458,
          40.7710653186
        ]
      }
    }
  ]
}