{
  "type": "FeatureCollection",
  "features": [
    {
      "type": "Feature",
      "properties": {
        "uuid": "632be574-ae2f-45ca-a4ae-8319b0e36b6e",
        "inat_id": 242005196,
        "timestamp": "2024-09-10T18:11:19-06:00",
        "date": "2024-09-10",
        "olc": "85HM356W+",
        "elevation": 2465.0,
        "tavg": null,
        "tmin": 6.0,
        "tmax": 25.0,
        "precipitation": 0.0,
        "windspeed": 13.3,
        "winddirection": null,
        "presure": 1023.5,
        "species": "Scutiger ellisii",
        "location": "Carbon County, WY, USA",
        "num_identification_agreements": 1
      },
      "geometry": {
        "type": "Point",
        "coordinates": [
          -106.803375,
          41.060718
        ]
      }
    }
  ]
}