{
  "type": "FeatureCollection",
  "features": [
    {
      "type": "Feature",
      "properties": {
        "uuid": "2c350e4e-de00-486d-b6fa-a0548fab275c",
        "inat_id": 134249755,
        "timestamp": "2022-09-08T19:35:16-06:00",
        "date": "2022-09-08",
        "olc": "85FPWCX6+",
        "elevation": 2757.0,
        "tavg": null,
        "tmin": 3.6,
        "tmax": 16.6,
        "precipitation": 2.9,
        "windspeed": 7.2,
        "winddirection": null,
        "presure": 1017.6,
        "species": "Armillaria mellea",
        "location": "Hessie Rd, Nederland, CO, US",
        "num_identification_agreements": 1
      },
      "geometry": {
        "type": "Point",
        "coordinates": [
          -105.5891686791,
          39.9493936023
        ]
      }
    }
  ]
}