{
  "type": "FeatureCollection",
  "features": [
    {
      "type": "Feature",
      "properties": {
        "uuid": "c78958e4-6e3f-4af7-af94-fac5af3e7e23",
        "inat_id": 316106273,
        "timestamp": "2025-09-02",
        "date": "2025-09-02",
        "olc": "857PQ7WM+",
        "elevation": 2822.0,
        "tavg": null,
        "tmin": 12.0,
        "tmax": 28.0,
        "precipitation": 0.4,
        "windspeed": 11.8,
        "winddirection": null,
        "presure": 1029.0,
        "species": "Catathelasma ventricosum",
        "location": "New Mexico, US",
        "num_identification_agreements": 1
      },
      "geometry": {
        "type": "Point",
        "coordinates": [
          -105.717159965,
          35.7964906753
        ]
      }
    }
  ]
}