{
  "type": "FeatureCollection",
  "features": [
    {
      "type": "Feature",
      "properties": {
        "uuid": "c3d163a6-8cec-422f-a34d-c0ab66cdce94",
        "inat_id": 236431611,
        "timestamp": "2024-08-17T11:20:55-06:00",
        "date": "2024-08-17",
        "olc": "859JV4MW+",
        "elevation": 3382.0,
        "tavg": null,
        "tmin": 12.0,
        "tmax": 23.0,
        "precipitation": 4.9,
        "windspeed": 9.4,
        "winddirection": null,
        "presure": 1034.5,
        "species": "Catathelasma ventricosum",
        "location": "Grand Mesa Uncompahgre and Gunnison National Forests, Ophir, CO, US",
        "num_identification_agreements": 1
      },
      "geometry": {
        "type": "Point",
        "coordinates": [
          -107.853195,
          37.883445
        ]
      }
    }
  ]
}