{
  "type": "FeatureCollection",
  "features": [
    {
      "type": "Feature",
      "properties": {
        "uuid": "684c9d5a-a8ab-4721-93ae-5230fbdada1f",
        "inat_id": 134987277,
        "timestamp": "2022-08-13T17:15:49-06:00",
        "date": "2022-08-13",
        "olc": "85CPPXJX+",
        "elevation": 2970.0,
        "tavg": null,
        "tmin": 16.3,
        "tmax": 31.3,
        "precipitation": 0.0,
        "windspeed": 6.9,
        "winddirection": null,
        "presure": 1015.2,
        "species": "Catathelasma ventricosum",
        "location": "Colorado Springs, CO 80906, USA",
        "num_identification_agreements": 2
      },
      "geometry": {
        "type": "Point",
        "coordinates": [
          -105.0003772974,
          38.7303281443
        ]
      }
    }
  ]
}