{
  "type": "FeatureCollection",
  "features": [
    {
      "type": "Feature",
      "properties": {
        "uuid": "8593e77a-11b4-4a2f-bc81-6c069426f17f",
        "inat_id": 248227035,
        "timestamp": "2024-08-02T11:23:46-06:00",
        "date": "2024-08-02",
        "olc": "85CP2R6Q+",
        "elevation": 3273.0,
        "tavg": null,
        "tmin": 20.2,
        "tmax": 36.1,
        "precipitation": 0.0,
        "windspeed": 13.0,
        "winddirection": null,
        "presure": 1018.1,
        "species": "Catathelasma ventricosum",
        "location": "Gardner, CO 81040, USA",
        "num_identification_agreements": 1
      },
      "geometry": {
        "type": "Point",
        "coordinates": [
          -105.1621611111,
          38.012375
        ]
      }
    }
  ]
}