{
  "type": "FeatureCollection",
  "features": [
    {
      "type": "Feature",
      "properties": {
        "uuid": "3274f4c3-e59e-4765-a8e5-44a38a7b7656",
        "inat_id": 181062078,
        "timestamp": "2023-08-30T23:14:33-06:00",
        "date": "2023-08-30",
        "olc": "85CPXWJ2+",
        "elevation": 2665.0,
        "tavg": null,
        "tmin": 9.1,
        "tmax": 29.2,
        "precipitation": 0.0,
        "windspeed": 13.9,
        "winddirection": null,
        "presure": 1014.7,
        "species": "Catathelasma ventricosum",
        "location": "Colorado, US",
        "num_identification_agreements": 2
      },
      "geometry": {
        "type": "Point",
        "coordinates": [
          -105.0984172282,
          38.9806027338
        ]
      }
    }
  ]
}