{
  "type": "FeatureCollection",
  "features": [
    {
      "type": "Feature",
      "properties": {
        "uuid": "3254f3cc-1a8c-4123-91bb-d32e695ffe4d",
        "inat_id": 224315658,
        "timestamp": "2024-06-21T10:37:12-06:00",
        "date": "2024-06-21",
        "olc": "85CJRRXJ+",
        "elevation": 2911.0,
        "tavg": null,
        "tmin": 11.7,
        "tmax": 20.0,
        "precipitation": null,
        "windspeed": 8.5,
        "winddirection": null,
        "presure": 1020.3,
        "species": "Hygrophorus subalpinus",
        "location": "Gunnison County, US-CO, US",
        "num_identification_agreements": 1
      },
      "geometry": {
        "type": "Point",
        "coordinates": [
          -107.1680428327,
          38.848640802
        ]
      }
    }
  ]
}