{
  "type": "FeatureCollection",
  "features": [
    {
      "type": "Feature",
      "properties": {
        "uuid": "1ec635b3-4127-4d22-8cac-e60fc5f7f0bc",
        "inat_id": 291959549,
        "timestamp": "2025-06-22T18:39:10-06:00",
        "date": "2025-06-22",
        "olc": "85CJXWVG+",
        "elevation": 3582.0,
        "tavg": null,
        "tmin": 7.2,
        "tmax": 23.9,
        "precipitation": 0.0,
        "windspeed": 11.8,
        "winddirection": null,
        "presure": 1004.7,
        "species": "Hygrophorus subalpinus",
        "location": "Gunnison County, US-CO, US",
        "num_identification_agreements": 1
      },
      "geometry": {
        "type": "Point",
        "coordinates": [
          -107.0731822611,
          38.994765517
        ]
      }
    }
  ]
}