{
  "type": "FeatureCollection",
  "features": [
    {
      "type": "Feature",
      "properties": {
        "uuid": "500da7c8-6e0a-4961-9769-c4f178aed3d3",
        "inat_id": 245149768,
        "timestamp": "2024-10-01T13:37:04-06:00",
        "date": "2024-10-01",
        "olc": "85FJ2252+",
        "elevation": 2984.0,
        "tavg": null,
        "tmin": 13.2,
        "tmax": 29.8,
        "precipitation": 0.0,
        "windspeed": 9.7,
        "winddirection": null,
        "presure": 1019.1,
        "species": "Hygrophorus subalpinus",
        "location": "Grand Mesa Uncompahgre and Gunnison National Forests, Cedaredge, CO, US",
        "num_identification_agreements": 1
      },
      "geometry": {
        "type": "Point",
        "coordinates": [
          -107.9986883333,
          39.00995
        ]
      }
    }
  ]
}