{
  "type": "FeatureCollection",
  "features": [
    {
      "type": "Feature",
      "properties": {
        "uuid": "ae0a1b68-1ffd-41d9-b399-a054e4e060af",
        "inat_id": 221756905,
        "timestamp": "2024-06-09T17:54:40-06:00",
        "date": "2024-06-09",
        "olc": "85FPX9F8+",
        "elevation": 3305.0,
        "tavg": null,
        "tmin": -2.3,
        "tmax": 10.2,
        "precipitation": 2.3,
        "windspeed": 8.8,
        "winddirection": null,
        "presure": 1017.9,
        "species": "Hygrophorus subalpinus",
        "location": "Colorado, US",
        "num_identification_agreements": 1
      },
      "geometry": {
        "type": "Point",
        "coordinates": [
          -105.6336512084,
          39.9730712314
        ]
      }
    }
  ]
}