{
  "type": "FeatureCollection",
  "features": [
    {
      "type": "Feature",
      "properties": {
        "uuid": "d0c47bdb-a965-4726-97ed-84de0d385e8e",
        "inat_id": 121420361,
        "timestamp": "2022-06-11T11:49:45-06:00",
        "date": "2022-06-11",
        "olc": "85GP476V+",
        "elevation": 2687.0,
        "tavg": null,
        "tmin": 5.8,
        "tmax": 28.2,
        "precipitation": 0.0,
        "windspeed": 7.9,
        "winddirection": null,
        "presure": 1024.5,
        "species": "Hygrophorus subalpinus",
        "location": "Granby, CO 80446, USA",
        "num_identification_agreements": 1
      },
      "geometry": {
        "type": "Point",
        "coordinates": [
          -105.7063166667,
          40.1102944444
        ]
      }
    }
  ]
}