{
  "type": "FeatureCollection",
  "features": [
    {
      "type": "Feature",
      "properties": {
        "uuid": "28921bea-d1d9-408f-a1c3-fe9805f2333e",
        "inat_id": 378562825,
        "timestamp": "2026-07-05T10:18:54-06:00",
        "date": "2026-07-05",
        "olc": "85HM6PF6+",
        "elevation": 2963.0,
        "tavg": null,
        "tmin": null,
        "tmax": null,
        "precipitation": null,
        "windspeed": null,
        "winddirection": null,
        "presure": null,
        "species": "Hygrophorus subalpinus",
        "location": "Wyoming, US",
        "num_identification_agreements": 1
      },
      "geometry": {
        "type": "Point",
        "coordinates": [
          -106.2877107747,
          41.2245587946
        ]
      }
    }
  ]
}