{
  "type": "FeatureCollection",
  "features": [
    {
      "type": "Feature",
      "properties": {
        "uuid": "12f53893-6e78-40d8-85cb-e02ff7996bec",
        "inat_id": 240490124,
        "timestamp": "2024-09-07T15:16:58-06:00",
        "date": "2024-09-07",
        "olc": "85FP4W98+",
        "elevation": 2411.0,
        "tavg": null,
        "tmin": 8.4,
        "tmax": 26.9,
        "precipitation": 0.0,
        "windspeed": 11.8,
        "winddirection": null,
        "presure": 1018.6,
        "species": "Boletopsis grisea",
        "location": "Colorado, US",
        "num_identification_agreements": 2
      },
      "geometry": {
        "type": "Point",
        "coordinates": [
          -105.0843671519,
          39.117822083
        ]
      }
    }
  ]
}