{
  "type": "FeatureCollection",
  "features": [
    {
      "type": "Feature",
      "properties": {
        "uuid": "95b97985-ada6-42b1-8302-40d074b2d6d7",
        "inat_id": 241350640,
        "timestamp": "2024-09-07T13:35:23-06:00",
        "date": "2024-09-07",
        "olc": "85FP5WRX+",
        "elevation": 2760.0,
        "tavg": null,
        "tmin": 8.4,
        "tmax": 26.9,
        "precipitation": 0.0,
        "windspeed": 11.8,
        "winddirection": null,
        "presure": 1018.6,
        "species": "Boletopsis grisea",
        "location": "Pike and San Isabel National Forests, Sedalia, CO, US",
        "num_identification_agreements": 1
      },
      "geometry": {
        "type": "Point",
        "coordinates": [
          -105.0511901501,
          39.1911306466
        ]
      }
    }
  ]
}