{
  "type": "FeatureCollection",
  "features": [
    {
      "type": "Feature",
      "properties": {
        "uuid": "fe346605-b4ba-4542-8e31-1fb246b7e69c",
        "inat_id": 256407672,
        "timestamp": "2023-08-16T12:49:00-06:00",
        "date": "2023-08-16",
        "olc": "859JQ23M+",
        "elevation": 3420.0,
        "tavg": null,
        "tmin": 12.0,
        "tmax": 26.0,
        "precipitation": 7.0,
        "windspeed": 6.9,
        "winddirection": null,
        "presure": 1034.9,
        "species": "Phaeotremella foliacea",
        "location": "Colorado, US",
        "num_identification_agreements": 1
      },
      "geometry": {
        "type": "Point",
        "coordinates": [
          -107.9662860188,
          37.754368216
        ]
      }
    }
  ]
}