{
  "type": "FeatureCollection",
  "features": [
    {
      "type": "Feature",
      "properties": {
        "uuid": "a8df0000-e2f4-493c-8ece-032ae400e327",
        "inat_id": 195721341,
        "timestamp": "2019-10-05T09:37:00-07:00",
        "date": "2019-10-05",
        "olc": "84QWWC00+",
        "elevation": 974.0,
        "tavg": null,
        "tmin": 8.3,
        "tmax": 20.0,
        "precipitation": 0.0,
        "windspeed": 10.3,
        "winddirection": null,
        "presure": 1026.6,
        "species": "Calonarius oliveopetasatus",
        "genus": "Calonarius",
        "location": "Washington, US",
        "num_identification_agreements": 2
      },
      "geometry": {
        "type": "Point",
        "coordinates": [
          -121.564615421,
          45.9493500359
        ]
      }
    }
  ]
}