{
  "type": "FeatureCollection",
  "features": [
    {
      "type": "Feature",
      "properties": {
        "uuid": "e8b52127-8c52-41b6-8b69-a2696763224e",
        "inat_id": 236673431,
        "timestamp": "2024-08-18T19:27:19-06:00",
        "date": "2024-08-18",
        "olc": "859MF6M3+",
        "elevation": 3328.0,
        "tavg": null,
        "tmin": 8.0,
        "tmax": 17.0,
        "precipitation": 1.4,
        "windspeed": 12.9,
        "winddirection": null,
        "presure": 1043.3,
        "species": "Hygrophorus fuscoalboides",
        "location": "Mineral County, US-CO, US",
        "num_identification_agreements": 3
      },
      "geometry": {
        "type": "Point",
        "coordinates": [
          -106.79623907,
          37.4842339
        ]
      }
    },
    {
      "type": "Feature",
      "properties": {
        "uuid": "286e49a9-411b-4604-b0a8-9523b6bdcbcb",
        "inat_id": 236651675,
        "timestamp": "2024-08-18T19:21:21-06:00",
        "date": "2024-08-18",
        "olc": "859MF6M3+",
        "elevation": 3328.0,
        "tavg": null,
        "tmin": 8.0,
        "tmax": 17.0,
        "precipitation": 1.4,
        "windspeed": 12.9,
        "winddirection": null,
        "presure": 1043.3,
        "species": "Hygrophorus fuscoalboides",
        "location": "Rio Grande National Forest, Creede, CO, US",
        "num_identification_agreements": 4
      },
      "geometry": {
        "type": "Point",
        "coordinates": [
          -106.7962333333,
          37.48423
        ]
      }
    }
  ]
}