{
  "type": "FeatureCollection",
  "features": [
    {
      "type": "Feature",
      "properties": {
        "uuid": "5aaf762a-6626-41c3-bf02-b23f83dd8542",
        "inat_id": 313965984,
        "timestamp": "2025-09-14T13:15:02-06:00",
        "date": "2025-09-14",
        "olc": "85CJVX6Q+",
        "elevation": 2949.0,
        "tavg": null,
        "tmin": 3.0,
        "tmax": 19.0,
        "precipitation": 0.0,
        "windspeed": 7.3,
        "winddirection": null,
        "presure": 1024.4,
        "species": "Hygrophorus fuscoalboides",
        "location": "Gunnison County, US-CO, US",
        "num_identification_agreements": 2
      },
      "geometry": {
        "type": "Point",
        "coordinates": [
          -107.0113913594,
          38.8603193537
        ]
      }
    }
  ]
}