{
  "type": "FeatureCollection",
  "features": [
    {
      "type": "Feature",
      "properties": {
        "uuid": "186e8202-e90b-47fa-9e56-b927b0065cbf",
        "inat_id": 309398946,
        "timestamp": "2025-08-26T11:59:10-06:00",
        "date": "2025-08-26",
        "olc": "85CQP2XR+",
        "elevation": 3082.0,
        "tavg": null,
        "tmin": 13.0,
        "tmax": 15.0,
        "precipitation": 3.2,
        "windspeed": 9.6,
        "winddirection": null,
        "presure": 1027.7,
        "species": "Hygrophorus fuscoalboides",
        "location": "Manitou Springs, CO 80829, USA",
        "num_identification_agreements": 1
      },
      "geometry": {
        "type": "Point",
        "coordinates": [
          -104.9593983997,
          38.7497088
        ]
      }
    }
  ]
}