{
  "type": "FeatureCollection",
  "features": [
    {
      "type": "Feature",
      "properties": {
        "uuid": "c77a567d-595d-4611-b07d-e808dcdcc99e",
        "inat_id": 308359115,
        "timestamp": "2025-08-22T11:29:39-06:00",
        "date": "2025-08-22",
        "olc": "85CQP3VQ+",
        "elevation": 2809.0,
        "tavg": null,
        "tmin": 16.0,
        "tmax": 28.0,
        "precipitation": 1.1,
        "windspeed": 18.0,
        "winddirection": null,
        "presure": 1027.6,
        "species": "Hygrophorus fuscoalboides",
        "location": "Colorado, US",
        "num_identification_agreements": 1
      },
      "geometry": {
        "type": "Point",
        "coordinates": [
          -104.9120712322,
          38.7426026111
        ]
      }
    }
  ]
}