{
  "type": "FeatureCollection",
  "features": [
    {
      "type": "Feature",
      "properties": {
        "uuid": "e4af844b-27c0-4f09-9051-1e1b72040411",
        "inat_id": 237047503,
        "timestamp": "2024-08-20T19:00:34-06:00",
        "date": "2024-08-20",
        "olc": "85FH2X8R+",
        "elevation": 3097.0,
        "tavg": null,
        "tmin": 16.5,
        "tmax": 34.3,
        "precipitation": 0.0,
        "windspeed": 10.5,
        "winddirection": null,
        "presure": 1016.9,
        "species": "Hygrophorus pustulatoides",
        "location": "Grand Mesa Uncompahgre and Gunnison National Forests, Cedaredge, CO, US",
        "num_identification_agreements": 2
      },
      "geometry": {
        "type": "Point",
        "coordinates": [
          -108.0085111023,
          39.0159230757
        ]
      }
    }
  ]
}