{
  "type": "FeatureCollection",
  "features": [
    {
      "type": "Feature",
      "properties": {
        "uuid": "163bc3f9-ff21-4b80-adb4-42b304c8c480",
        "inat_id": 287971054,
        "timestamp": "2025-05-17T10:42:46-06:00",
        "date": "2025-05-17",
        "olc": "857MX5XV+",
        "elevation": 2544.0,
        "tavg": null,
        "tmin": null,
        "tmax": null,
        "precipitation": null,
        "windspeed": null,
        "winddirection": null,
        "presure": null,
        "species": "Fomitopsis cajanderi",
        "location": "Rio Arriba County, US-NM, US",
        "num_identification_agreements": 1
      },
      "geometry": {
        "type": "Point",
        "coordinates": [
          -106.8065607548,
          35.9997529859
        ]
      }
    }
  ]
}