{
  "type": "FeatureCollection",
  "features": [
    {
      "type": "Feature",
      "properties": {
        "uuid": "c4be2ab1-e474-47a4-ae28-9d1687d9ab58",
        "inat_id": 243180657,
        "timestamp": "2024-09-21T12:48:40-06:00",
        "date": "2024-09-21",
        "olc": "857MVJV4+",
        "elevation": 2902.0,
        "tavg": null,
        "tmin": 10.8,
        "tmax": 21.2,
        "precipitation": 3.4,
        "windspeed": 15.0,
        "winddirection": null,
        "presure": 1019.3,
        "species": "Fomitopsis cajanderi",
        "location": "Pajarito Mountain, Los Alamos, NM, US",
        "num_identification_agreements": 1
      },
      "geometry": {
        "type": "Point",
        "coordinates": [
          -106.3945466667,
          35.8932116667
        ]
      }
    }
  ]
}