{
  "type": "FeatureCollection",
  "features": [
    {
      "type": "Feature",
      "properties": {
        "uuid": "72d74ae4-278c-46bb-a420-cd8963464418",
        "inat_id": 235446902,
        "timestamp": "2024-08-12T15:45:37-06:00",
        "date": "2024-08-12",
        "olc": "857MR9J5+",
        "elevation": 2085.0,
        "tavg": null,
        "tmin": 15.2,
        "tmax": 27.0,
        "precipitation": null,
        "windspeed": 8.3,
        "winddirection": null,
        "presure": 1026.6,
        "species": "Fomitopsis cajanderi",
        "location": "Jemez Springs, NM 87025, USA",
        "num_identification_agreements": 2
      },
      "geometry": {
        "type": "Point",
        "coordinates": [
          -106.6416888889,
          35.8308055556
        ]
      }
    }
  ]
}