{
  "type": "FeatureCollection",
  "features": [
    {
      "type": "Feature",
      "properties": {
        "uuid": "183fdde3-e361-4177-9ef7-f0180657322d",
        "inat_id": 310798449,
        "timestamp": "2025-08-30T18:42:00-06:00",
        "date": "2025-08-30",
        "olc": "85CQQ4J6+",
        "elevation": 2343.0,
        "tavg": null,
        "tmin": 11.3,
        "tmax": 19.3,
        "precipitation": 2.1,
        "windspeed": 11.1,
        "winddirection": null,
        "presure": 1019.1,
        "species": "Fomitopsis cajanderi",
        "location": "El Paso County, CO, USA",
        "num_identification_agreements": 1
      },
      "geometry": {
        "type": "Point",
        "coordinates": [
          -104.8881351542,
          38.7800526922
        ]
      }
    }
  ]
}