{
  "type": "FeatureCollection",
  "features": [
    {
      "type": "Feature",
      "properties": {
        "uuid": "0d94cb81-a805-4c6c-a01e-0fa6153d3c30",
        "inat_id": 363069575,
        "timestamp": "2026-05-10T11:42:53-06:00",
        "date": "2026-05-10",
        "olc": "85CQQ334+",
        "elevation": 3303.0,
        "tavg": null,
        "tmin": 6.0,
        "tmax": 14.6,
        "precipitation": 1.0,
        "windspeed": 7.6,
        "winddirection": null,
        "presure": null,
        "species": "Fomitopsis cajanderi",
        "location": "Colorado, US",
        "num_identification_agreements": 1
      },
      "geometry": {
        "type": "Point",
        "coordinates": [
          -104.9429077667,
          38.7536825137
        ]
      }
    }
  ]
}