{
  "type": "FeatureCollection",
  "features": [
    {
      "type": "Feature",
      "properties": {
        "uuid": "8a744202-f807-423a-9320-30311ce76b55",
        "inat_id": 298480922,
        "timestamp": "2025-07-15T12:59:50-06:00",
        "date": "2025-07-15",
        "olc": "85FPHJ88+",
        "elevation": 2575.0,
        "tavg": null,
        "tmin": 2.6,
        "tmax": 15.0,
        "precipitation": 0.7,
        "windspeed": 14.6,
        "winddirection": null,
        "presure": 1017.9,
        "species": "Fomitopsis cajanderi",
        "location": "Black Mountain Dr, Conifer, CO, US",
        "num_identification_agreements": 1
      },
      "geometry": {
        "type": "Point",
        "coordinates": [
          -105.3829283333,
          39.566095
        ]
      }
    }
  ]
}