{
  "type": "FeatureCollection",
  "features": [
    {
      "type": "Feature",
      "properties": {
        "uuid": "f9a22359-2f9b-4c68-89d0-eb26d5fba017",
        "inat_id": 257657914,
        "timestamp": "2025-01-06T12:07:22-07:00",
        "date": "2025-01-06",
        "olc": "857MQPJG+",
        "elevation": 1870.0,
        "tavg": null,
        "tmin": -4.3,
        "tmax": 0.9,
        "precipitation": 0.0,
        "windspeed": 5.9,
        "winddirection": null,
        "presure": 1021.1,
        "species": "Trichaptum abietinum",
        "location": "Bandelier National Monument, Pena Blanca, NM, US",
        "num_identification_agreements": 1
      },
      "geometry": {
        "type": "Point",
        "coordinates": [
          -106.273575,
          35.7804416667
        ]
      }
    }
  ]
}