{
  "type": "FeatureCollection",
  "features": [
    {
      "type": "Feature",
      "properties": {
        "uuid": "10367c30-4ff9-43d0-8856-80735bfde3dc",
        "inat_id": 179703772,
        "timestamp": "2023-08-18T12:41:48-06:00",
        "date": "2023-08-18",
        "olc": "859JV53F+",
        "elevation": 2981.0,
        "tavg": null,
        "tmin": 11.0,
        "tmax": 22.0,
        "precipitation": 3.3,
        "windspeed": 5.9,
        "winddirection": null,
        "presure": 1032.5,
        "species": "Trichaptum abietinum",
        "location": "Grand Mesa Uncompahgre and Gunnison National Forests, Ophir, CO, US",
        "num_identification_agreements": 1
      },
      "geometry": {
        "type": "Point",
        "coordinates": [
          -107.8255466667,
          37.854825
        ]
      }
    }
  ]
}