{
  "type": "FeatureCollection",
  "features": [
    {
      "type": "Feature",
      "properties": {
        "uuid": "ed178bc4-cacf-41be-b298-c42e4747c719",
        "inat_id": 179032461,
        "timestamp": "2023-08-18T10:39:14-06:00",
        "date": "2023-08-18",
        "olc": "859JW5JF+",
        "elevation": 3075.0,
        "tavg": null,
        "tmin": 11.0,
        "tmax": 22.0,
        "precipitation": 3.3,
        "windspeed": 5.9,
        "winddirection": null,
        "presure": 1032.5,
        "species": "Trichaptum abietinum",
        "location": "Telluride Ski Resort, Telluride, CO, US",
        "num_identification_agreements": 1
      },
      "geometry": {
        "type": "Point",
        "coordinates": [
          -107.8264783333,
          37.9311916667
        ]
      }
    }
  ]
}