{
  "type": "FeatureCollection",
  "features": [
    {
      "type": "Feature",
      "properties": {
        "uuid": "9c9f635f-369d-4d51-8752-b090aa63ec6e",
        "inat_id": 178945162,
        "timestamp": "2023-08-16T12:38:56-06:00",
        "date": "2023-08-16",
        "olc": "859JQ298+",
        "elevation": 2884.0,
        "tavg": null,
        "tmin": 12.0,
        "tmax": 26.0,
        "precipitation": 7.0,
        "windspeed": 6.9,
        "winddirection": null,
        "presure": 1034.9,
        "species": "Trichaptum abietinum",
        "location": "San Juan National Forest - Headquarters, Dolores, CO, US",
        "num_identification_agreements": 1
      },
      "geometry": {
        "type": "Point",
        "coordinates": [
          -107.9828033333,
          37.7687216667
        ]
      }
    }
  ]
}