{
  "type": "FeatureCollection",
  "features": [
    {
      "type": "Feature",
      "properties": {
        "uuid": "49573f41-3339-44b1-bf9b-6f324d24f9f3",
        "inat_id": 172435950,
        "timestamp": "2023-07-07T08:31:16-06:00",
        "date": "2023-07-07",
        "olc": "85CP3CHP+",
        "elevation": 2773.0,
        "tavg": null,
        "tmin": null,
        "tmax": null,
        "precipitation": null,
        "windspeed": null,
        "winddirection": null,
        "presure": null,
        "species": "Trichaptum abietinum",
        "location": "Pike and San Isabel National Forests, Westcliffe, CO, US",
        "num_identification_agreements": 1
      },
      "geometry": {
        "type": "Point",
        "coordinates": [
          -105.5647538883,
          38.079754645
        ]
      }
    }
  ]
}