{
  "type": "FeatureCollection",
  "features": [
    {
      "type": "Feature",
      "properties": {
        "uuid": "26480015-36f1-49d2-9413-e5dc273ea353",
        "inat_id": 290186756,
        "timestamp": "2025-06-15T15:09:26-06:00",
        "date": "2025-06-15",
        "olc": "85FPGJ7M+",
        "elevation": 2731.0,
        "tavg": null,
        "tmin": 15.0,
        "tmax": 32.8,
        "precipitation": 0.0,
        "windspeed": 13.8,
        "winddirection": null,
        "presure": 1012.9,
        "species": "Trichaptum abietinum",
        "location": "S Elk Creek Rd, Pine, CO, US",
        "num_identification_agreements": 1
      },
      "geometry": {
        "type": "Point",
        "coordinates": [
          -105.3669153651,
          39.5133509668
        ]
      }
    },
    {
      "type": "Feature",
      "properties": {
        "uuid": "657198e2-22b9-4c14-8f9e-7d4283d77c57",
        "inat_id": 290186215,
        "timestamp": "2025-06-15T15:11:05-06:00",
        "date": "2025-06-15",
        "olc": "85FPGJ7M+",
        "elevation": 2731.0,
        "tavg": null,
        "tmin": 15.0,
        "tmax": 32.8,
        "precipitation": 0.0,
        "windspeed": 13.8,
        "winddirection": null,
        "presure": 1012.9,
        "species": "Trichaptum abietinum",
        "location": "Jefferson County, US-CO, US",
        "num_identification_agreements": 1
      },
      "geometry": {
        "type": "Point",
        "coordinates": [
          -105.3668088069,
          39.5136416329
        ]
      }
    }
  ]
}