{
  "type": "FeatureCollection",
  "features": [
    {
      "type": "Feature",
      "properties": {
        "uuid": "8db4ffcb-4d6e-4833-a63f-9da44248b38e",
        "inat_id": 299303711,
        "timestamp": "2025-07-19T12:56:57-06:00",
        "date": "2025-07-19",
        "olc": "85FPGP57+",
        "elevation": 2506.0,
        "tavg": null,
        "tmin": 16.7,
        "tmax": 32.8,
        "precipitation": 0.0,
        "windspeed": 11.5,
        "winddirection": null,
        "presure": 1012.6,
        "species": "Trichaptum abietinum",
        "location": "Conifer, CO, US",
        "num_identification_agreements": 1
      },
      "geometry": {
        "type": "Point",
        "coordinates": [
          -105.2863822092,
          39.5089281408
        ]
      }
    }
  ]
}