{
  "type": "FeatureCollection",
  "features": [
    {
      "type": "Feature",
      "properties": {
        "uuid": "a135f544-4785-4784-857a-efb16d9bd6d6",
        "inat_id": 320575862,
        "timestamp": "2025-10-12T11:24:55-06:00",
        "date": "2025-10-12",
        "olc": "85FPGC6H+",
        "elevation": 2858.0,
        "tavg": null,
        "tmin": -7.5,
        "tmax": 0.0,
        "precipitation": 2.7,
        "windspeed": 20.1,
        "winddirection": null,
        "presure": 1011.0,
        "species": "Trichaptum abietinum",
        "location": "Rosalle Trail, Bailey, CO, US",
        "num_identification_agreements": 1
      },
      "geometry": {
        "type": "Point",
        "coordinates": [
          -105.57048,
          39.5112033333
        ]
      }
    }
  ]
}