{
  "type": "FeatureCollection",
  "features": [
    {
      "type": "Feature",
      "properties": {
        "uuid": "ee9d3f77-ae83-4e16-991a-9abcca7ba569",
        "inat_id": 280084422,
        "timestamp": "2025-05-10T17:00:51-06:00",
        "date": "2025-05-10",
        "olc": "85FPGJ3M+",
        "elevation": 2668.0,
        "tavg": null,
        "tmin": 6.7,
        "tmax": 23.9,
        "precipitation": 0.0,
        "windspeed": 10.3,
        "winddirection": null,
        "presure": 1022.6,
        "species": "Trichaptum abietinum",
        "location": "Pine",
        "num_identification_agreements": 1
      },
      "geometry": {
        "type": "Point",
        "coordinates": [
          -105.3671875,
          39.5049934387
        ]
      }
    }
  ]
}