{
  "type": "FeatureCollection",
  "features": [
    {
      "type": "Feature",
      "properties": {
        "uuid": "341ff7fd-fb29-4b13-ba31-b7bbc04772d7",
        "inat_id": 222374898,
        "timestamp": "2024-06-12T10:58:00-06:00",
        "date": "2024-06-12",
        "olc": "85FPGJ5M+",
        "elevation": 2692.0,
        "tavg": null,
        "tmin": 16.1,
        "tmax": 33.3,
        "precipitation": 0.0,
        "windspeed": 12.0,
        "winddirection": null,
        "presure": 1011.1,
        "species": "Trichaptum abietinum",
        "location": "Pine Junction Area, CO, USA",
        "num_identification_agreements": 1
      },
      "geometry": {
        "type": "Point",
        "coordinates": [
          -105.36513,
          39.509407
        ]
      }
    }
  ]
}