{
  "type": "FeatureCollection",
  "features": [
    {
      "type": "Feature",
      "properties": {
        "uuid": "991e49f5-acb7-42c6-a62d-ee4d2798c552",
        "inat_id": 271871301,
        "timestamp": "2025-04-20T16:07:00-06:00",
        "date": "2025-04-20",
        "olc": "85GPPH4G+",
        "elevation": 2159.0,
        "tavg": null,
        "tmin": -2.2,
        "tmax": 16.7,
        "precipitation": 0.0,
        "windspeed": 10.5,
        "winddirection": null,
        "presure": 1014.3,
        "species": "Trichaptum abietinum",
        "location": "Larimer County, US-CO, US",
        "num_identification_agreements": 1
      },
      "geometry": {
        "type": "Point",
        "coordinates": [
          -105.4233037121,
          40.706883688
        ]
      }
    }
  ]
}