{
  "type": "FeatureCollection",
  "features": [
    {
      "type": "Feature",
      "properties": {
        "uuid": "978db0fa-f68b-4219-806c-e7ed25e9e9a0",
        "inat_id": 152041743,
        "timestamp": "2022-09-17",
        "date": "2022-09-17",
        "olc": "85GP2CWG+",
        "elevation": 3303.0,
        "tavg": null,
        "tmin": 12.0,
        "tmax": 26.0,
        "precipitation": 1.7,
        "windspeed": 7.1,
        "winddirection": null,
        "presure": 1015.2,
        "species": "Trichaptum abietinum",
        "location": "Niwot Ridge, CO, US",
        "num_identification_agreements": 2
      },
      "geometry": {
        "type": "Point",
        "coordinates": [
          -105.572701,
          40.045461
        ]
      }
    }
  ]
}