{
  "type": "FeatureCollection",
  "features": [
    {
      "type": "Feature",
      "properties": {
        "uuid": "c2f83bff-5a61-458c-a7a8-33b703a67e64",
        "inat_id": 310896874,
        "timestamp": "2025-09-01T15:55:30-06:00",
        "date": "2025-09-01",
        "olc": "857PR622+",
        "elevation": 3269.0,
        "tavg": null,
        "tmin": 12.0,
        "tmax": 27.0,
        "precipitation": 0.0,
        "windspeed": 12.5,
        "winddirection": null,
        "presure": 1029.0,
        "species": "Flammulina populicola",
        "location": "Santa Fe County, US-NM, US",
        "num_identification_agreements": 1
      },
      "geometry": {
        "type": "Point",
        "coordinates": [
          -105.79934613,
          35.80127786
        ]
      }
    }
  ]
}