{
  "type": "FeatureCollection",
  "features": [
    {
      "type": "Feature",
      "properties": {
        "uuid": "b0eb9567-ae27-468f-9644-d49cac705b00",
        "inat_id": 183785818,
        "timestamp": "2023-09-17T16:32:15-06:00",
        "date": "2023-09-17",
        "olc": "857PR8JP+",
        "elevation": 2573.0,
        "tavg": null,
        "tmin": 10.6,
        "tmax": 25.0,
        "precipitation": 3.1,
        "windspeed": 12.3,
        "winddirection": null,
        "presure": 1018.6,
        "species": "Flammulina populicola",
        "location": "Panchuela Trailhead, Cowles, New Mexico, USA",
        "num_identification_agreements": 2
      },
      "geometry": {
        "type": "Point",
        "coordinates": [
          -105.6648915634,
          35.8305611762
        ]
      }
    }
  ]
}