{
  "type": "FeatureCollection",
  "features": [
    {
      "type": "Feature",
      "properties": {
        "uuid": "ec517f67-5ed1-43e2-af2c-207167579cde",
        "inat_id": 304517558,
        "timestamp": "2025-08-06T16:48:17-06:00",
        "date": "2025-08-06",
        "olc": "857PQ5FR+",
        "elevation": 3008.0,
        "tavg": null,
        "tmin": 15.0,
        "tmax": 35.0,
        "precipitation": 0.0,
        "windspeed": 13.4,
        "winddirection": null,
        "presure": 1016.7,
        "species": "Flammulina populicola",
        "location": "Santa Fe County, US-NM, US",
        "num_identification_agreements": 1
      },
      "geometry": {
        "type": "Point",
        "coordinates": [
          -105.80797097,
          35.77276753
        ]
      }
    }
  ]
}