{
  "type": "FeatureCollection",
  "features": [
    {
      "type": "Feature",
      "properties": {
        "uuid": "4a8968b2-fae2-4395-8b12-78990912b4b8",
        "inat_id": 318997630,
        "timestamp": "2025-10-05T14:16:04-06:00",
        "date": "2025-10-05",
        "olc": "857PQ6X2+",
        "elevation": 3208.0,
        "tavg": null,
        "tmin": 6.0,
        "tmax": 22.0,
        "precipitation": 0.0,
        "windspeed": 8.8,
        "winddirection": null,
        "presure": 1016.5,
        "species": "Flammulina populicola",
        "location": "Santa Fe County, US-NM, US",
        "num_identification_agreements": 1
      },
      "geometry": {
        "type": "Point",
        "coordinates": [
          -105.7999557857,
          35.7981136484
        ]
      }
    }
  ]
}