{
  "type": "FeatureCollection",
  "features": [
    {
      "type": "Feature",
      "properties": {
        "uuid": "67c7ae34-9b6b-4688-9805-f9cceee6a214",
        "inat_id": 231926882,
        "timestamp": "2024-07-26T10:04:52-06:00",
        "date": "2024-07-26",
        "olc": "858P3F5R+",
        "elevation": 3205.0,
        "tavg": null,
        "tmin": 6.1,
        "tmax": 23.8,
        "precipitation": 5.7,
        "windspeed": 4.3,
        "winddirection": null,
        "presure": 1029.6,
        "species": "Flammulina populicola",
        "location": "Carson National Forest, Vadito, NM, US",
        "num_identification_agreements": 1
      },
      "geometry": {
        "type": "Point",
        "coordinates": [
          -105.5077533333,
          36.0576861667
        ]
      }
    }
  ]
}