{
  "type": "FeatureCollection",
  "features": [
    {
      "type": "Feature",
      "properties": {
        "uuid": "4d8b89d0-1cc1-45eb-8ed9-3e5c45853d71",
        "inat_id": 386985098,
        "timestamp": "2026-07-31T09:54:05-06:00",
        "date": "2026-07-31",
        "olc": "858P28VH+",
        "elevation": 2776.0,
        "tavg": null,
        "tmin": 16.8,
        "tmax": 31.6,
        "precipitation": 0.8,
        "windspeed": 15.0,
        "winddirection": null,
        "presure": 1017.9,
        "species": "Flammulina populicola",
        "location": "Trampas Trail, Cordova, NM, US",
        "num_identification_agreements": 1
      },
      "geometry": {
        "type": "Point",
        "coordinates": [
          -105.6722466667,
          36.0437278333
        ]
      }
    }
  ]
}