{
  "type": "FeatureCollection",
  "features": [
    {
      "type": "Feature",
      "properties": {
        "uuid": "c8d1a544-7ef6-4ae5-a7c4-e0df6b6c992f",
        "inat_id": 182675655,
        "timestamp": "2023-08-31T13:42:41-06:00",
        "date": "2023-08-31",
        "olc": "858PHHW2+",
        "elevation": 2894.0,
        "tavg": null,
        "tmin": 2.3,
        "tmax": 26.7,
        "precipitation": 0.0,
        "windspeed": 4.2,
        "winddirection": null,
        "presure": 1027.8,
        "species": "Flammulina populicola",
        "location": "Carson National Forest, Taos, NM, US",
        "num_identification_agreements": 1
      },
      "geometry": {
        "type": "Point",
        "coordinates": [
          -105.448495,
          36.5971666667
        ]
      }
    }
  ]
}