{
  "type": "FeatureCollection",
  "features": [
    {
      "type": "Feature",
      "properties": {
        "uuid": "ab70fa58-2e89-4691-8247-0571934c01a2",
        "inat_id": 228930160,
        "timestamp": "2024-07-11T11:10:00-06:00",
        "date": "2024-07-11",
        "olc": "859JW5QV+",
        "elevation": 2708.0,
        "tavg": null,
        "tmin": 12.0,
        "tmax": 26.0,
        "precipitation": 0.0,
        "windspeed": 6.1,
        "winddirection": null,
        "presure": 1033.6,
        "species": "Flammulina populicola",
        "location": "Grand Mesa Uncompahgre and Gunnison National Forests, Telluride, CO, US",
        "num_identification_agreements": 1
      },
      "geometry": {
        "type": "Point",
        "coordinates": [
          -107.8069929284,
          37.9388685359
        ]
      }
    }
  ]
}