{
  "type": "FeatureCollection",
  "features": [
    {
      "type": "Feature",
      "properties": {
        "uuid": "ae703128-4ea3-4066-a6fa-e0c068b17b77",
        "inat_id": 235783112,
        "timestamp": "2024-08-14T10:35:16-06:00",
        "date": "2024-08-14",
        "olc": "859JR4W9+",
        "elevation": 2886.0,
        "tavg": null,
        "tmin": 9.0,
        "tmax": 20.0,
        "precipitation": 0.1,
        "windspeed": 7.9,
        "winddirection": null,
        "presure": 1032.4,
        "species": "Flammulina populicola",
        "location": "Grand Mesa Uncompahgre and Gunnison National Forests, Ophir, CO, US",
        "num_identification_agreements": 1
      },
      "geometry": {
        "type": "Point",
        "coordinates": [
          -107.8814466667,
          37.8454083333
        ]
      }
    }
  ]
}