{
  "type": "FeatureCollection",
  "features": [
    {
      "type": "Feature",
      "properties": {
        "uuid": "b3c60912-c9cd-408c-a9ea-e84290e32578",
        "inat_id": 286625999,
        "timestamp": "2025-05-31T13:23:46-06:00",
        "date": "2025-05-31",
        "olc": "85CP2X2C+",
        "elevation": 2604.0,
        "tavg": null,
        "tmin": 10.0,
        "tmax": 29.0,
        "precipitation": 0.0,
        "windspeed": 7.8,
        "winddirection": null,
        "presure": 1015.8,
        "species": "Flammulina populicola",
        "location": "Pike and San Isabel National Forests, Rye, CO, US",
        "num_identification_agreements": 1
      },
      "geometry": {
        "type": "Point",
        "coordinates": [
          -105.0277333333,
          38.000355555
        ]
      }
    },
    {
      "type": "Feature",
      "properties": {
        "uuid": "1239b260-c8fe-4a95-893a-ddb8fd74fb17",
        "inat_id": 285854435,
        "timestamp": "2025-05-31T13:22:20-06:00",
        "date": "2025-05-31",
        "olc": "85CP2X2C+",
        "elevation": 2604.0,
        "tavg": null,
        "tmin": 10.0,
        "tmax": 29.0,
        "precipitation": 0.0,
        "windspeed": 7.8,
        "winddirection": null,
        "presure": 1015.8,
        "species": "Flammulina populicola",
        "location": "Pike and San Isabel National Forests, Rye, CO, US",
        "num_identification_agreements": 1
      },
      "geometry": {
        "type": "Point",
        "coordinates": [
          -105.0279166667,
          38.0004083333
        ]
      }
    }
  ]
}