{
  "type": "FeatureCollection",
  "features": [
    {
      "type": "Feature",
      "properties": {
        "uuid": "2171c71e-335d-4b7a-b894-bd9314cc48bb",
        "inat_id": 232340855,
        "timestamp": "2024-07-28T12:36:59-06:00",
        "date": "2024-07-28",
        "olc": "85CPVV5J+",
        "elevation": 3116.0,
        "tavg": null,
        "tmin": 17.0,
        "tmax": 31.0,
        "precipitation": 0.0,
        "windspeed": 15.5,
        "winddirection": null,
        "presure": 1019.6,
        "species": "Flammulina populicola",
        "location": "Divide, CO 80814, USA",
        "num_identification_agreements": 1
      },
      "geometry": {
        "type": "Point",
        "coordinates": [
          -105.1197388889,
          38.8578777778
        ]
      }
    }
  ]
}