{
  "type": "FeatureCollection",
  "features": [
    {
      "type": "Feature",
      "properties": {
        "uuid": "0840688e-884d-4308-bd4d-b1f9279ff870",
        "inat_id": 137656593,
        "timestamp": "2022-10-05T08:52:59-06:00",
        "date": "2022-10-05",
        "olc": "85FJCWQV+",
        "elevation": 2682.0,
        "tavg": null,
        "tmin": 1.7,
        "tmax": 20.0,
        "precipitation": 0.0,
        "windspeed": 4.4,
        "winddirection": null,
        "presure": 1017.2,
        "species": "Flammulina populicola",
        "location": "White River National Forest, Carbondale, CO, US",
        "num_identification_agreements": 1
      },
      "geometry": {
        "type": "Point",
        "coordinates": [
          -107.055825,
          39.4386366667
        ]
      }
    }
  ]
}