{
  "type": "FeatureCollection",
  "features": [
    {
      "type": "Feature",
      "properties": {
        "uuid": "27c50c17-5b2b-4434-a5a0-086580528ed6",
        "inat_id": 366230963,
        "timestamp": "2026-05-28T10:57:02-06:00",
        "date": "2026-05-28",
        "olc": "85FJ4P53+",
        "elevation": 2878.0,
        "tavg": null,
        "tmin": 5.0,
        "tmax": 18.0,
        "precipitation": 0.0,
        "windspeed": 11.9,
        "winddirection": null,
        "presure": null,
        "species": "Flammulina populicola",
        "location": "Gunnison County, US-CO, US",
        "num_identification_agreements": 2
      },
      "geometry": {
        "type": "Point",
        "coordinates": [
          -107.296845,
          39.10897
        ]
      }
    }
  ]
}