{
  "type": "FeatureCollection",
  "features": [
    {
      "type": "Feature",
      "properties": {
        "uuid": "6aff226b-85e8-4336-ac98-1d8b52660297",
        "inat_id": 235081567,
        "timestamp": "2024-08-10T10:53:00-06:00",
        "date": "2024-08-10",
        "olc": "85FJ49FF+",
        "elevation": 2816.0,
        "tavg": null,
        "tmin": 6.3,
        "tmax": 18.4,
        "precipitation": 5.1,
        "windspeed": 10.5,
        "winddirection": null,
        "presure": 1020.2,
        "species": "Flammulina populicola",
        "location": "Delta County, CO, USA",
        "num_identification_agreements": 2
      },
      "geometry": {
        "type": "Point",
        "coordinates": [
          -107.6256428255,
          39.1238922211
        ]
      }
    }
  ]
}