{
  "type": "FeatureCollection",
  "features": [
    {
      "type": "Feature",
      "properties": {
        "uuid": "9585b66a-1250-4d84-a395-1db3f60827d4",
        "inat_id": 231343218,
        "timestamp": "2024-07-23T17:15:43-06:00",
        "date": "2024-07-23",
        "olc": "85FJ3CQ4+",
        "elevation": 2851.0,
        "tavg": null,
        "tmin": 7.5,
        "tmax": 20.8,
        "precipitation": 0.0,
        "windspeed": 9.2,
        "winddirection": null,
        "presure": 1019.3,
        "species": "Flammulina populicola",
        "location": "Grand Mesa Uncompahgre and Gunnison National Forests, Paonia, CO, US",
        "num_identification_agreements": 1
      },
      "geometry": {
        "type": "Point",
        "coordinates": [
          -107.5932533333,
          39.0878305
        ]
      }
    }
  ]
}