{
  "type": "FeatureCollection",
  "features": [
    {
      "type": "Feature",
      "properties": {
        "uuid": "84bca160-ba46-4124-b56a-1b6d6b0e9df6",
        "inat_id": 305163373,
        "timestamp": "2025-08-09T21:28:05-06:00",
        "date": "2025-08-09",
        "olc": "85FP2XFV+",
        "elevation": 2833.0,
        "tavg": null,
        "tmin": 11.6,
        "tmax": 30.2,
        "precipitation": 3.2,
        "windspeed": 13.5,
        "winddirection": null,
        "presure": 1010.8,
        "species": "Flammulina populicola",
        "location": "Colorado Springs, CO 80921, USA",
        "num_identification_agreements": 2
      },
      "geometry": {
        "type": "Point",
        "coordinates": [
          -105.0057183333,
          39.0243266667
        ]
      }
    }
  ]
}