{
  "type": "FeatureCollection",
  "features": [
    {
      "type": "Feature",
      "properties": {
        "uuid": "2db8319b-9614-43a4-a32e-096bf6718106",
        "inat_id": 15375101,
        "timestamp": "2018-08-09T12:17:12-06:00",
        "date": "2018-08-09",
        "olc": "85FPMHG3+",
        "elevation": 2793.0,
        "tavg": null,
        "tmin": 14.0,
        "tmax": 31.0,
        "precipitation": null,
        "windspeed": 3.7,
        "winddirection": null,
        "presure": null,
        "species": "Flammulina populicola",
        "location": "80439, Evergreen, CO, US",
        "num_identification_agreements": 1
      },
      "geometry": {
        "type": "Point",
        "coordinates": [
          -105.447455,
          39.6764716667
        ]
      }
    }
  ]
}