{
  "type": "FeatureCollection",
  "features": [
    {
      "type": "Feature",
      "properties": {
        "uuid": "d517a0c4-6188-4b28-aa4e-484fd5454d2c",
        "inat_id": 91174798,
        "timestamp": "2021-08-14T14:06:08-06:00",
        "date": "2021-08-14",
        "olc": "85FPX3VC+",
        "elevation": 2677.0,
        "tavg": null,
        "tmin": 6.0,
        "tmax": 28.3,
        "precipitation": 0.0,
        "windspeed": 7.2,
        "winddirection": null,
        "presure": 1033.2,
        "species": "Flammulina populicola",
        "location": "Grand Lake, CO 80447, USA",
        "num_identification_agreements": 1
      },
      "geometry": {
        "type": "Point",
        "coordinates": [
          -105.9294148,
          39.992821
        ]
      }
    }
  ]
}