{
  "type": "FeatureCollection",
  "features": [
    {
      "type": "Feature",
      "properties": {
        "uuid": "74c769fa-141f-4e8f-95fb-7f2fbc8184ce",
        "inat_id": 91821263,
        "timestamp": "2021-08-04T11:32:28-06:00",
        "date": "2021-08-04",
        "olc": "85FPPCQR+",
        "elevation": 2631.0,
        "tavg": null,
        "tmin": 16.0,
        "tmax": 28.0,
        "precipitation": 0.0,
        "windspeed": 8.8,
        "winddirection": null,
        "presure": 1024.1,
        "species": "Flammulina populicola",
        "location": "Idaho Springs, CO 80452, USA",
        "num_identification_agreements": 2
      },
      "geometry": {
        "type": "Point",
        "coordinates": [
          -105.55906675,
          39.7379226667
        ]
      }
    }
  ]
}