{
  "type": "FeatureCollection",
  "features": [
    {
      "type": "Feature",
      "properties": {
        "uuid": "3e75b3a8-e733-42ad-a6ac-f0d3ca8ab803",
        "inat_id": 309575713,
        "timestamp": "2025-08-27T11:33:46-06:00",
        "date": "2025-08-27",
        "olc": "85FP6V46+",
        "elevation": 2281.0,
        "tavg": null,
        "tmin": 4.6,
        "tmax": 15.5,
        "precipitation": 6.0,
        "windspeed": 10.4,
        "winddirection": null,
        "presure": 1019.9,
        "species": "Flammulina populicola",
        "location": "Colorado, US",
        "num_identification_agreements": 1
      },
      "geometry": {
        "type": "Point",
        "coordinates": [
          -105.1375914078,
          39.2059631339
        ]
      }
    }
  ]
}