{
  "type": "FeatureCollection",
  "features": [
    {
      "type": "Feature",
      "properties": {
        "uuid": "5cd7646c-a56c-494a-85fc-20fb0f6f8f01",
        "inat_id": 220973229,
        "timestamp": "2023-08-27T12:12:51-06:00",
        "date": "2023-08-27",
        "olc": "85FPVH4R+",
        "elevation": 2675.0,
        "tavg": null,
        "tmin": 15.0,
        "tmax": 30.0,
        "precipitation": 3.1,
        "windspeed": 9.0,
        "winddirection": null,
        "presure": 1023.5,
        "species": "Flammulina populicola",
        "location": "Golden Gate Canyon State Park, Golden, CO, US",
        "num_identification_agreements": 1
      },
      "geometry": {
        "type": "Point",
        "coordinates": [
          -105.4097833333,
          39.8570116667
        ]
      }
    }
  ]
}