{
  "type": "FeatureCollection",
  "features": [
    {
      "type": "Feature",
      "properties": {
        "uuid": "e729bd8d-5aee-4d1e-a9c5-ae18b2906b91",
        "inat_id": 244427162,
        "timestamp": "2024-09-10T09:13:17-06:00",
        "date": "2024-09-10",
        "olc": "85GJ3M3H+",
        "elevation": 2610.0,
        "tavg": null,
        "tmin": 6.1,
        "tmax": 26.1,
        "precipitation": 0.0,
        "windspeed": 9.1,
        "winddirection": null,
        "presure": 1015.6,
        "species": "Flammulina populicola",
        "location": "Rio Blanco County, US-CO, US",
        "num_identification_agreements": 1
      },
      "geometry": {
        "type": "Point",
        "coordinates": [
          -107.3224289722,
          40.053113
        ]
      }
    }
  ]
}