{
  "type": "FeatureCollection",
  "features": [
    {
      "type": "Feature",
      "properties": {
        "uuid": "9ed702e3-3031-46e1-b9ef-0a0b3ebfce60",
        "inat_id": 169282813,
        "timestamp": "2023-06-13T08:14:00-06:00",
        "date": "2023-06-13",
        "olc": "85GPC9J6+",
        "elevation": 2919.0,
        "tavg": null,
        "tmin": 3.2,
        "tmax": 10.1,
        "precipitation": 1.9,
        "windspeed": 3.5,
        "winddirection": null,
        "presure": 1021.7,
        "species": "Flammulina populicola",
        "location": "Larimer County, CO, USA",
        "num_identification_agreements": 1
      },
      "geometry": {
        "type": "Point",
        "coordinates": [
          -105.6377795164,
          40.4315677082
        ]
      }
    }
  ]
}