{
  "type": "FeatureCollection",
  "features": [
    {
      "type": "Feature",
      "properties": {
        "uuid": "b871a702-a441-4d09-b143-d1928e083d09",
        "inat_id": 299739157,
        "timestamp": "2025-07-18T19:35:05-06:00",
        "date": "2025-07-18",
        "olc": "85GP4FJ7+",
        "elevation": 2708.0,
        "tavg": null,
        "tmin": 17.0,
        "tmax": 34.0,
        "precipitation": 0.3,
        "windspeed": 4.5,
        "winddirection": null,
        "presure": 1018.6,
        "species": "Flammulina populicola",
        "location": "Buchanan Pass Trail, Lyons, CO, US",
        "num_identification_agreements": 2
      },
      "geometry": {
        "type": "Point",
        "coordinates": [
          -105.5363616667,
          40.1315195
        ]
      }
    }
  ]
}