{
  "type": "FeatureCollection",
  "features": [
    {
      "type": "Feature",
      "properties": {
        "uuid": "0c131db0-448e-4398-b81a-9d801618593c",
        "inat_id": 178116703,
        "timestamp": "2023-08-12T21:47:20-06:00",
        "date": "2023-08-12",
        "olc": "85GP2FJ7+",
        "elevation": 2911.0,
        "tavg": null,
        "tmin": 17.0,
        "tmax": 28.0,
        "precipitation": 0.0,
        "windspeed": 8.5,
        "winddirection": null,
        "presure": 1019.7,
        "species": "Flammulina populicola",
        "location": "County Road 116, Ward, CO, US",
        "num_identification_agreements": 1
      },
      "geometry": {
        "type": "Point",
        "coordinates": [
          -105.5356,
          40.0321416667
        ]
      }
    }
  ]
}