{
  "type": "FeatureCollection",
  "features": [
    {
      "type": "Feature",
      "properties": {
        "uuid": "75db3ee7-4c64-48ed-a06d-6c83c3d0701b",
        "inat_id": 301358754,
        "timestamp": "2025-07-26T12:27:18-06:00",
        "date": "2025-07-26",
        "olc": "85GP2FGG+",
        "elevation": 2814.0,
        "tavg": null,
        "tmin": 16.0,
        "tmax": 32.0,
        "precipitation": 0.0,
        "windspeed": 5.4,
        "winddirection": null,
        "presure": 1017.8,
        "species": "Flammulina populicola",
        "location": "County Road 116, Nederland, CO, US",
        "num_identification_agreements": 1
      },
      "geometry": {
        "type": "Point",
        "coordinates": [
          -105.524475,
          40.0274055
        ]
      }
    }
  ]
}