{
  "type": "FeatureCollection",
  "features": [
    {
      "type": "Feature",
      "properties": {
        "uuid": "50011b67-7f97-4e15-900e-5de04ad9e829",
        "inat_id": 244426563,
        "timestamp": "2024-09-07T11:33:21-06:00",
        "date": "2024-09-07",
        "olc": "85HP5J7P+",
        "elevation": 2457.0,
        "tavg": null,
        "tmin": 11.0,
        "tmax": 23.1,
        "precipitation": 0.4,
        "windspeed": 13.2,
        "winddirection": null,
        "presure": 1019.9,
        "species": "Flammulina populicola",
        "location": "Albany County, US-WY, US",
        "num_identification_agreements": 1
      },
      "geometry": {
        "type": "Point",
        "coordinates": [
          -105.36342,
          41.163853
        ]
      }
    }
  ]
}