{
  "type": "FeatureCollection",
  "features": [
    {
      "type": "Feature",
      "properties": {
        "uuid": "c2805f29-db64-4d47-b2eb-c982972c8525",
        "inat_id": 304402758,
        "timestamp": "2025-08-06T16:59:50-06:00",
        "date": "2025-08-06",
        "olc": "85FQ42CF+",
        "elevation": 2593.0,
        "tavg": null,
        "tmin": 16.4,
        "tmax": 33.9,
        "precipitation": 0.0,
        "windspeed": 15.0,
        "winddirection": null,
        "presure": 1015.4,
        "species": "Hydnum sp. 'jussii-PNW04'",
        "location": "Colorado, US",
        "num_identification_agreements": 3
      },
      "geometry": {
        "type": "Point",
        "coordinates": [
          -104.976346011,
          39.1205230422
        ]
      }
    }
  ]
}