{
  "type": "FeatureCollection",
  "features": [
    {
      "type": "Feature",
      "properties": {
        "uuid": "b3eee057-4a76-49de-a179-09a002f088eb",
        "inat_id": 310896763,
        "timestamp": "2025-09-01T15:16:35-06:00",
        "date": "2025-09-01",
        "olc": "857PQ6X4+",
        "elevation": 3379.0,
        "tavg": null,
        "tmin": 12.0,
        "tmax": 27.0,
        "precipitation": 0.0,
        "windspeed": 12.5,
        "winddirection": null,
        "presure": 1029.0,
        "species": "Albatrellus subrubescens",
        "location": "Santa Fe County, US-NM, US",
        "num_identification_agreements": 1
      },
      "geometry": {
        "type": "Point",
        "coordinates": [
          -105.79403692,
          35.79908495
        ]
      }
    }
  ]
}