{
  "type": "FeatureCollection",
  "features": [
    {
      "type": "Feature",
      "properties": {
        "uuid": "c238fb99-c93c-4ac7-8e78-3ac4f196e3e6",
        "inat_id": 95072448,
        "timestamp": "2021-09-16T12:39:55-06:00",
        "date": "2021-09-16",
        "olc": "85FQP2JQ+",
        "elevation": 1646.0,
        "tavg": null,
        "tmin": 15.0,
        "tmax": 31.4,
        "precipitation": null,
        "windspeed": 12.0,
        "winddirection": null,
        "presure": 1006.2,
        "species": "Collybiopsis quercophila",
        "location": "Denver Botanic Gardens, Denver, CO, US",
        "num_identification_agreements": 1
      },
      "geometry": {
        "type": "Point",
        "coordinates": [
          -104.9621597976,
          39.7319997254
        ]
      }
    }
  ]
}