{
  "type": "FeatureCollection",
  "features": [
    {
      "type": "Feature",
      "properties": {
        "uuid": "06dad425-9dcb-4a08-ae5c-a7d243338447",
        "inat_id": 4315145,
        "timestamp": "2016-08-27T12:09:00-07:00",
        "date": "2016-08-27",
        "olc": "858P76QF+",
        "elevation": 1933.0,
        "tavg": null,
        "tmin": 6.0,
        "tmax": 23.0,
        "precipitation": null,
        "windspeed": 10.0,
        "winddirection": null,
        "presure": null,
        "species": "Coprinopsis uliginicola",
        "location": "Taos County, NM, USA",
        "num_identification_agreements": 2
      },
      "geometry": {
        "type": "Point",
        "coordinates": [
          -105.77669,
          36.2895
        ]
      }
    }
  ]
}