{
  "type": "FeatureCollection",
  "features": [
    {
      "type": "Feature",
      "properties": {
        "uuid": "a2d61cb1-e262-461d-b49b-7298869d9d0c",
        "inat_id": 132047122,
        "timestamp": "2022-08-22T11:19:09-06:00",
        "date": "2022-08-22",
        "olc": "85GP3C28+",
        "elevation": 3475.0,
        "tavg": null,
        "tmin": 8.5,
        "tmax": 22.6,
        "precipitation": 2.8,
        "windspeed": 3.5,
        "winddirection": null,
        "presure": 1030.2,
        "species": "Boletopsis sp. 'SRM-01'",
        "location": "Arapaho & Roosevelt National Forests Pawnee National Grassland, Ward, CO, US",
        "num_identification_agreements": 5
      },
      "geometry": {
        "type": "Point",
        "coordinates": [
          -105.5831666667,
          40.0520945
        ]
      }
    }
  ]
}