{
  "type": "FeatureCollection",
  "features": [
    {
      "type": "Feature",
      "properties": {
        "uuid": "00e83cb9-f60a-4b11-8265-5640a4fea13c",
        "inat_id": 181798561,
        "timestamp": "2023-09-03T12:06:37-06:00",
        "date": "2023-09-03",
        "olc": "85GP3CH5+",
        "elevation": 3309.0,
        "tavg": null,
        "tmin": 6.5,
        "tmax": 21.2,
        "precipitation": 8.6,
        "windspeed": 4.6,
        "winddirection": null,
        "presure": 1027.5,
        "species": "Scutiger pes-caprae",
        "location": "Colorado, US",
        "num_identification_agreements": 1
      },
      "geometry": {
        "type": "Point",
        "coordinates": [
          -105.5905253033,
          40.0799286394
        ]
      }
    }
  ]
}