{
  "type": "FeatureCollection",
  "features": [
    {
      "type": "Feature",
      "properties": {
        "uuid": "6a5ee807-cd2a-42cf-a66c-4ed28812c473",
        "inat_id": 132857422,
        "timestamp": "2022-08-19T00:33:00-06:00",
        "date": "2022-08-19",
        "olc": "857MWJ82+",
        "elevation": 2904.0,
        "tavg": null,
        "tmin": 13.8,
        "tmax": 22.7,
        "precipitation": 0.0,
        "windspeed": 8.7,
        "winddirection": null,
        "presure": 1025.2,
        "species": "Clavariadelphus ligula",
        "location": "Los Alamos County, NM, USA",
        "num_identification_agreements": 1
      },
      "geometry": {
        "type": "Point",
        "coordinates": [
          -106.3995361127,
          35.9157811872
        ]
      }
    }
  ]
}