{
  "type": "FeatureCollection",
  "features": [
    {
      "type": "Feature",
      "properties": {
        "uuid": "eb2a8a6b-f15f-418b-b186-c2f65147cf0e",
        "inat_id": 235108105,
        "timestamp": "2024-08-10T11:17:53-06:00",
        "date": "2024-08-10",
        "olc": "857MX9CG+",
        "elevation": 2710.0,
        "tavg": null,
        "tmin": 15.5,
        "tmax": 22.0,
        "precipitation": null,
        "windspeed": 6.4,
        "winddirection": null,
        "presure": 1029.9,
        "species": "Clavariadelphus ligula",
        "location": "Santa Fe National Forest, Jemez Springs, NM, US",
        "num_identification_agreements": 1
      },
      "geometry": {
        "type": "Point",
        "coordinates": [
          -106.6240166667,
          35.9700133333
        ]
      }
    }
  ]
}