{
  "type": "FeatureCollection",
  "features": [
    {
      "type": "Feature",
      "properties": {
        "uuid": "325de641-c517-4663-bc92-9927d62eda50",
        "inat_id": 132059064,
        "timestamp": "2022-08-18T08:00:36-06:00",
        "date": "2022-08-18",
        "olc": "858PHH59+",
        "elevation": 3397.0,
        "tavg": null,
        "tmin": 7.4,
        "tmax": 21.9,
        "precipitation": 5.6,
        "windspeed": 6.0,
        "winddirection": null,
        "presure": 1031.3,
        "species": "Clavariadelphus ligula",
        "location": "Carson National Forest, Taos, NM, US",
        "num_identification_agreements": 1
      },
      "geometry": {
        "type": "Point",
        "coordinates": [
          -105.4312616667,
          36.5597616667
        ]
      }
    }
  ]
}