{
  "type": "FeatureCollection",
  "features": [
    {
      "type": "Feature",
      "properties": {
        "uuid": "bb0920b1-7bc7-4510-9f06-e287ec71ab08",
        "inat_id": 133301423,
        "timestamp": "2022-08-18T10:59:40-06:00",
        "date": "2022-08-18",
        "olc": "859HQXFR+",
        "elevation": 3062.0,
        "tavg": null,
        "tmin": 9.0,
        "tmax": 23.0,
        "precipitation": 0.6,
        "windspeed": 6.6,
        "winddirection": null,
        "presure": 1032.2,
        "species": "Clavariadelphus ligula",
        "location": "San Juan National Forest - Headquarters, Dolores, CO, US",
        "num_identification_agreements": 2
      },
      "geometry": {
        "type": "Point",
        "coordinates": [
          -108.00754445,
          37.7733
        ]
      }
    }
  ]
}