{
  "type": "FeatureCollection",
  "features": [
    {
      "type": "Feature",
      "properties": {
        "uuid": "0cd3cf2b-8e17-405c-9f2a-57ade62399bf",
        "inat_id": 132716619,
        "timestamp": "2022-08-25T16:50:51-06:00",
        "date": "2022-08-25",
        "olc": "85CMXHM6+",
        "elevation": 3143.0,
        "tavg": null,
        "tmin": 1.7,
        "tmax": 18.3,
        "precipitation": null,
        "windspeed": 8.4,
        "winddirection": null,
        "presure": 1019.4,
        "species": "Clavariadelphus ligula",
        "location": "Pike and San Isabel National Forests, Buena Vista, CO, US",
        "num_identification_agreements": 1
      },
      "geometry": {
        "type": "Point",
        "coordinates": [
          -106.43857,
          38.982895
        ]
      }
    }
  ]
}