{
  "type": "FeatureCollection",
  "features": [
    {
      "type": "Feature",
      "properties": {
        "uuid": "86c14443-51b5-4dca-9e6b-f3b24eea9a65",
        "inat_id": 134096558,
        "timestamp": "2022-08-28",
        "date": "2022-08-28",
        "olc": "85FM7HMF+",
        "elevation": 3184.0,
        "tavg": null,
        "tmin": 2.8,
        "tmax": 17.8,
        "precipitation": null,
        "windspeed": 10.1,
        "winddirection": null,
        "presure": 1012.7,
        "species": "Clavariadelphus ligula",
        "location": "Colorado. Lake Co., San Isabel National Forest, CR 9, Turquoise Lake Rd, near Bear Creek.",
        "num_identification_agreements": 1
      },
      "geometry": {
        "type": "Point",
        "coordinates": [
          -106.4268,
          39.2848
        ]
      }
    }
  ]
}