{
  "type": "FeatureCollection",
  "features": [
    {
      "type": "Feature",
      "properties": {
        "uuid": "5e73ea66-f8b1-49ef-a708-1a2722ae8bd8",
        "inat_id": 134288176,
        "timestamp": "2022-08-24T11:31:50-06:00",
        "date": "2022-08-24",
        "olc": "85FMHVVW+",
        "elevation": 2825.0,
        "tavg": null,
        "tmin": 9.0,
        "tmax": 18.0,
        "precipitation": 0.6,
        "windspeed": 9.1,
        "winddirection": null,
        "presure": 1038.6,
        "species": "Clavariadelphus ligula",
        "location": "White River National Forest, Silverthorne, CO, US",
        "num_identification_agreements": 2
      },
      "geometry": {
        "type": "Point",
        "coordinates": [
          -106.1032180285,
          39.5933300729
        ]
      }
    }
  ]
}