{
  "type": "FeatureCollection",
  "features": [
    {
      "type": "Feature",
      "properties": {
        "uuid": "d6555935-a757-47ef-a84c-86e4669f6f2a",
        "inat_id": 132667257,
        "timestamp": "2022-08-27T11:33:22-06:00",
        "date": "2022-08-27",
        "olc": "85FP7HH4+",
        "elevation": 3013.0,
        "tavg": null,
        "tmin": 3.3,
        "tmax": 15.7,
        "precipitation": 0.1,
        "windspeed": 7.5,
        "winddirection": null,
        "presure": 1013.4,
        "species": "Clavariadelphus ligula",
        "location": "Pike and San Isabel National Forests, Jefferson, CO, US",
        "num_identification_agreements": 1
      },
      "geometry": {
        "type": "Point",
        "coordinates": [
          -105.4427633333,
          39.2779166667
        ]
      }
    }
  ]
}