{
  "type": "FeatureCollection",
  "features": [
    {
      "type": "Feature",
      "properties": {
        "uuid": "871b4c79-44ab-4e6d-9d81-22a3b77c2f79",
        "inat_id": 132895920,
        "timestamp": "2022-08-29T15:31:20-06:00",
        "date": "2022-08-29",
        "olc": "85FPMFC5+",
        "elevation": 3328.0,
        "tavg": null,
        "tmin": 3.0,
        "tmax": 13.6,
        "precipitation": 0.4,
        "windspeed": 7.3,
        "winddirection": null,
        "presure": 1021.5,
        "species": "Clavariadelphus ligula",
        "location": "Soda Creek Rd, Idaho Springs, CO, US",
        "num_identification_agreements": 1
      },
      "geometry": {
        "type": "Point",
        "coordinates": [
          -105.5418466667,
          39.67197
        ]
      }
    }
  ]
}