{
  "type": "FeatureCollection",
  "features": [
    {
      "type": "Feature",
      "properties": {
        "uuid": "8ac93f24-13b8-476a-b30b-d54912c2337e",
        "inat_id": 131920770,
        "timestamp": "2022-08-22T10:23:53-06:00",
        "date": "2022-08-22",
        "olc": "85FPJ75J+",
        "elevation": 3323.0,
        "tavg": null,
        "tmin": 1.2,
        "tmax": 11.2,
        "precipitation": 4.5,
        "windspeed": 6.4,
        "winddirection": null,
        "presure": 1023.5,
        "species": "Clavariadelphus ligula",
        "location": "Keystone, CO 80435, USA",
        "num_identification_agreements": 1
      },
      "geometry": {
        "type": "Point",
        "coordinates": [
          -105.718018,
          39.6091479722
        ]
      }
    },
    {
      "type": "Feature",
      "properties": {
        "uuid": "8f66f093-ca07-49d6-a86b-9c64770ba1ca",
        "inat_id": 89830063,
        "timestamp": "2021-08-03T10:30:08-06:00",
        "date": "2021-08-03",
        "olc": "85FPJ75J+",
        "elevation": 3323.0,
        "tavg": null,
        "tmin": 7.0,
        "tmax": 12.0,
        "precipitation": 10.9,
        "windspeed": 10.1,
        "winddirection": null,
        "presure": 1039.0,
        "species": "Clavariadelphus ligula",
        "location": "Clear Creek County, US-CO, US",
        "num_identification_agreements": 2
      },
      "geometry": {
        "type": "Point",
        "coordinates": [
          -105.71804156,
          39.6091179
        ]
      }
    }
  ]
}