{
  "type": "FeatureCollection",
  "features": [
    {
      "type": "Feature",
      "properties": {
        "uuid": "fb31618d-0e9d-4477-97d7-6226b4827e6a",
        "inat_id": 132865808,
        "timestamp": "2022-08-27T12:33:24-06:00",
        "date": "2022-08-27",
        "olc": "85FPV669+",
        "elevation": 3331.0,
        "tavg": null,
        "tmin": 1.5,
        "tmax": 11.9,
        "precipitation": 0.9,
        "windspeed": 11.3,
        "winddirection": null,
        "presure": 1017.2,
        "species": "Clavariadelphus ligula",
        "location": "Winter Park, CO, US",
        "num_identification_agreements": 1
      },
      "geometry": {
        "type": "Point",
        "coordinates": [
          -105.7820583333,
          39.8612216667
        ]
      }
    }
  ]
}