{
  "type": "FeatureCollection",
  "features": [
    {
      "type": "Feature",
      "properties": {
        "uuid": "404ac15b-5b70-4b92-ad9b-4e4ea404e770",
        "inat_id": 178091104,
        "timestamp": "2023-08-12T15:32:13-06:00",
        "date": "2023-08-12",
        "olc": "85FPQP8P+",
        "elevation": 2117.0,
        "tavg": null,
        "tmin": 19.0,
        "tmax": 30.0,
        "precipitation": 0.0,
        "windspeed": 11.2,
        "winddirection": null,
        "presure": 1021.0,
        "species": "Clavariadelphus ligula",
        "location": "Mount Galbraith Park, Golden, CO, US",
        "num_identification_agreements": 1
      },
      "geometry": {
        "type": "Point",
        "coordinates": [
          -105.26456016,
          39.7659554208
        ]
      }
    }
  ]
}