{
  "type": "FeatureCollection",
  "features": [
    {
      "type": "Feature",
      "properties": {
        "uuid": "c9024b10-b012-4e78-9aa6-8d8535c34eea",
        "inat_id": 181494106,
        "timestamp": "2023-09-02T17:15:43-06:00",
        "date": "2023-09-02",
        "olc": "85FQ3253+",
        "elevation": 2813.0,
        "tavg": null,
        "tmin": 14.9,
        "tmax": 32.0,
        "precipitation": 0.0,
        "windspeed": 10.5,
        "winddirection": null,
        "presure": 1013.4,
        "species": "Clavariadelphus ligula",
        "location": "Colorado Springs, CO 80921, USA",
        "num_identification_agreements": 1
      },
      "geometry": {
        "type": "Point",
        "coordinates": [
          -104.9969499722,
          39.058846
        ]
      }
    }
  ]
}