{
  "type": "FeatureCollection",
  "features": [
    {
      "type": "Feature",
      "properties": {
        "uuid": "885fecb9-16a4-4abc-b5da-766b8ef6074f",
        "inat_id": 132985950,
        "timestamp": "2022-08-23T14:05:04-06:00",
        "date": "2022-08-23",
        "olc": "857MRHXH+",
        "elevation": 2732.0,
        "tavg": null,
        "tmin": 13.1,
        "tmax": 21.7,
        "precipitation": 9.8,
        "windspeed": 9.3,
        "winddirection": null,
        "presure": 1026.2,
        "species": "Hygrophorus siccipes",
        "location": "Bandelier National Monument, Pena Blanca, NM, US",
        "num_identification_agreements": 1
      },
      "geometry": {
        "type": "Point",
        "coordinates": [
          -106.4220666667,
          35.8477366667
        ]
      }
    }
  ]
}