{
  "type": "FeatureCollection",
  "features": [
    {
      "type": "Feature",
      "properties": {
        "uuid": "75b34be3-e8db-4994-bab8-407a1e118c8a",
        "inat_id": 131957753,
        "timestamp": "2022-08-22",
        "date": "2022-08-22",
        "olc": "85CPXWVV+",
        "elevation": 2596.0,
        "tavg": null,
        "tmin": 10.2,
        "tmax": 24.0,
        "precipitation": 3.5,
        "windspeed": 11.0,
        "winddirection": null,
        "presure": 1020.2,
        "species": "Hygrophorus siccipes",
        "location": "Woodland Park",
        "num_identification_agreements": 5
      },
      "geometry": {
        "type": "Point",
        "coordinates": [
          -105.0569303334,
          38.9939835162
        ]
      }
    }
  ]
}