{
  "type": "FeatureCollection",
  "features": [
    {
      "type": "Feature",
      "properties": {
        "uuid": "a37e488d-a505-4f3a-b5c0-ca2327accb65",
        "inat_id": 172260641,
        "timestamp": "2023-07-04T15:16:50-06:00",
        "date": "2023-07-04",
        "olc": "85FPJJPQ+",
        "elevation": 2503.0,
        "tavg": null,
        "tmin": 12.0,
        "tmax": 27.0,
        "precipitation": 6.9,
        "windspeed": 13.6,
        "winddirection": null,
        "presure": 1019.8,
        "species": "Hygrophorus siccipes",
        "location": "Colorado, US",
        "num_identification_agreements": 1
      },
      "geometry": {
        "type": "Point",
        "coordinates": [
          -105.3624501632,
          39.6356127029
        ]
      }
    }
  ]
}