{
  "type": "FeatureCollection",
  "features": [
    {
      "type": "Feature",
      "properties": {
        "uuid": "ff131131-5379-4541-88b2-b888d49c323e",
        "inat_id": 170301892,
        "timestamp": "2023-06-30T11:02:46-06:00",
        "date": "2023-06-30",
        "olc": "85FPJQJ9+",
        "elevation": 2347.0,
        "tavg": null,
        "tmin": 12.0,
        "tmax": 20.0,
        "precipitation": 1.7,
        "windspeed": 11.8,
        "winddirection": null,
        "presure": 1022.5,
        "species": "Hygrophorus siccipes",
        "location": "Mount Falcon Park, Morrison, CO, US",
        "num_identification_agreements": 1
      },
      "geometry": {
        "type": "Point",
        "coordinates": [
          -105.2318416667,
          39.6313783333
        ]
      }
    }
  ]
}