{
  "type": "FeatureCollection",
  "features": [
    {
      "type": "Feature",
      "properties": {
        "uuid": "706249be-6099-4fd7-9b3d-c393a0455bbe",
        "inat_id": 324644961,
        "timestamp": "2025-08-20T11:42:00-06:00",
        "date": "2025-08-20",
        "olc": "858P4GM9+",
        "elevation": 2664.0,
        "tavg": null,
        "tmin": 2.3,
        "tmax": 24.6,
        "precipitation": 0.0,
        "windspeed": 3.8,
        "winddirection": null,
        "presure": 1035.0,
        "species": "Syzygospora mycetophila",
        "location": "Taos County, NM, USA",
        "num_identification_agreements": 1
      },
      "geometry": {
        "type": "Point",
        "coordinates": [
          -105.4815138889,
          36.1325388889
        ]
      }
    }
  ]
}