{
  "type": "FeatureCollection",
  "features": [
    {
      "type": "Feature",
      "properties": {
        "uuid": "9c26d4fc-18cd-4b71-a9f5-bfad509c4ff8",
        "inat_id": 367227239,
        "timestamp": "2026-05-31T12:20:09-06:00",
        "date": "2026-05-31",
        "olc": "85CJWVPF+",
        "elevation": 3386.0,
        "tavg": null,
        "tmin": 1.7,
        "tmax": 20.6,
        "precipitation": 2.3,
        "windspeed": 5.2,
        "winddirection": null,
        "presure": null,
        "species": "Hygrophorus marzuolus",
        "location": "Gunnison County, US-CO, US",
        "num_identification_agreements": 1
      },
      "geometry": {
        "type": "Point",
        "coordinates": [
          -107.1255281906,
          38.9352404137
        ]
      }
    }
  ]
}