{
  "type": "FeatureCollection",
  "features": [
    {
      "type": "Feature",
      "properties": {
        "uuid": "7d8c3b1f-cfee-468f-8cfd-45da454e5ebc",
        "inat_id": 122689916,
        "timestamp": "2022-06-17T13:11:00-06:00",
        "date": "2022-06-17",
        "olc": "85FJ324C+",
        "elevation": 3306.0,
        "tavg": null,
        "tmin": 18.5,
        "tmax": 37.5,
        "precipitation": 0.8,
        "windspeed": 16.9,
        "winddirection": null,
        "presure": 1016.2,
        "species": "Hygrophorus marzuolus",
        "location": "Delta, Colorado, United States",
        "num_identification_agreements": 2
      },
      "geometry": {
        "type": "Point",
        "coordinates": [
          -107.9792616667,
          39.0552733333
        ]
      }
    }
  ]
}