{
  "type": "FeatureCollection",
  "features": [
    {
      "type": "Feature",
      "properties": {
        "uuid": "e21f2ae9-1d06-469b-8e4a-5e88a2adba5e",
        "inat_id": 221756331,
        "timestamp": "2024-06-09T17:11:12-06:00",
        "date": "2024-06-09",
        "olc": "85FPV6JM+",
        "elevation": 2978.0,
        "tavg": null,
        "tmin": -2.3,
        "tmax": 10.2,
        "precipitation": 2.3,
        "windspeed": 8.8,
        "winddirection": null,
        "presure": 1017.9,
        "species": "Hygrophorus marzuolus",
        "location": "Colorado, US",
        "num_identification_agreements": 1
      },
      "geometry": {
        "type": "Point",
        "coordinates": [
          -105.766011908,
          39.8801658354
        ]
      }
    }
  ]
}