{
  "type": "FeatureCollection",
  "features": [
    {
      "type": "Feature",
      "properties": {
        "uuid": "13b48999-7538-4ad4-ac49-0d25ff73cfe0",
        "inat_id": 221756835,
        "timestamp": "2024-06-09T17:51:27-06:00",
        "date": "2024-06-09",
        "olc": "85FPV926+",
        "elevation": 3381.0,
        "tavg": null,
        "tmin": -2.3,
        "tmax": 10.2,
        "precipitation": 2.3,
        "windspeed": 8.8,
        "winddirection": null,
        "presure": 1017.9,
        "species": "Hygrophorus marzuolus",
        "location": "Colorado, US",
        "num_identification_agreements": 1
      },
      "geometry": {
        "type": "Point",
        "coordinates": [
          -105.6377283073,
          39.8500176129
        ]
      }
    }
  ]
}