{
  "type": "FeatureCollection",
  "features": [
    {
      "type": "Feature",
      "properties": {
        "uuid": "93b60c97-c218-4fd5-a5ac-08dce5e287c1",
        "inat_id": 294693401,
        "timestamp": "2025-07-01T13:01:00-06:00",
        "date": "2025-07-01",
        "olc": "857PQ5CR+",
        "elevation": 3006.0,
        "tavg": null,
        "tmin": 11.1,
        "tmax": 26.1,
        "precipitation": 4.0,
        "windspeed": 12.9,
        "winddirection": null,
        "presure": 1017.8,
        "species": "Tremella mesenterica",
        "location": "Santa Fe, New Mexico, United States",
        "num_identification_agreements": 4
      },
      "geometry": {
        "type": "Point",
        "coordinates": [
          -105.807625,
          35.77071389
        ]
      }
    }
  ]
}