{
  "type": "FeatureCollection",
  "features": [
    {
      "type": "Feature",
      "properties": {
        "uuid": "50fdda4c-a634-461d-abee-9792d5a1b80a",
        "inat_id": 238838603,
        "timestamp": "2024-07-02T16:17:37-06:00",
        "date": "2024-07-02",
        "olc": "859HGR6J+",
        "elevation": 3092.0,
        "tavg": null,
        "tmin": 14.3,
        "tmax": 31.0,
        "precipitation": 0.0,
        "windspeed": 11.7,
        "winddirection": null,
        "presure": 1018.5,
        "species": "Tremella mesenterica",
        "location": "San Juan National Forest - Headquarters, Dolores, CO, US",
        "num_identification_agreements": 1
      },
      "geometry": {
        "type": "Point",
        "coordinates": [
          -108.1686721154,
          37.5113421511
        ]
      }
    }
  ]
}