{
  "type": "FeatureCollection",
  "features": [
    {
      "type": "Feature",
      "properties": {
        "uuid": "046e6a81-39f7-418c-9813-8a5d136c93da",
        "inat_id": 177573226,
        "timestamp": "2023-08-09T10:20:50-06:00",
        "date": "2023-08-09",
        "olc": "85FPFQ85+",
        "elevation": 2260.0,
        "tavg": null,
        "tmin": 12.8,
        "tmax": 25.6,
        "precipitation": 0.8,
        "windspeed": 10.4,
        "winddirection": null,
        "presure": 1012.7,
        "species": "Tremella mesenterica",
        "location": "Jefferson County, US-CO, US",
        "num_identification_agreements": 1
      },
      "geometry": {
        "type": "Point",
        "coordinates": [
          -105.2420745,
          39.4657274997
        ]
      }
    }
  ]
}