{
  "type": "FeatureCollection",
  "features": [
    {
      "type": "Feature",
      "properties": {
        "uuid": "a752a15d-41df-4ab0-8d01-4013b7aecefc",
        "inat_id": 184864079,
        "timestamp": "2023-09-12T09:59:00-06:00",
        "date": "2023-09-12",
        "olc": "85MRVF34+",
        "elevation": 1999.0,
        "tavg": null,
        "tmin": 5.0,
        "tmax": 21.1,
        "precipitation": 0.0,
        "windspeed": 7.1,
        "winddirection": null,
        "presure": 1017.6,
        "species": "Tremella mesenterica",
        "location": "Custer County, SD, USA",
        "num_identification_agreements": 1
      },
      "geometry": {
        "type": "Point",
        "coordinates": [
          -103.5430666667,
          43.8531333333
        ]
      }
    }
  ]
}