{
  "type": "FeatureCollection",
  "features": [
    {
      "type": "Feature",
      "properties": {
        "uuid": "a0994645-dd61-4f77-a267-97c33bc9463a",
        "inat_id": 239234070,
        "timestamp": "2024-09-01T09:59:01-06:00",
        "date": "2024-09-01",
        "olc": "859JQ3RG+",
        "elevation": 3194.0,
        "tavg": null,
        "tmin": 11.0,
        "tmax": 22.0,
        "precipitation": null,
        "windspeed": 4.4,
        "winddirection": null,
        "presure": null,
        "species": "Hydnum repandum",
        "location": "Colorado, US",
        "num_identification_agreements": 2
      },
      "geometry": {
        "type": "Point",
        "coordinates": [
          -107.9236964284,
          37.7914634135
        ]
      }
    }
  ]
}