{
  "type": "FeatureCollection",
  "features": [
    {
      "type": "Feature",
      "properties": {
        "uuid": "7ef37c82-fb32-4dcd-8edc-f1c3a6490b9c",
        "inat_id": 237753566,
        "timestamp": "2024-08-24T12:02:11-06:00",
        "date": "2024-08-24",
        "olc": "85GFJ53R+",
        "elevation": 3158.0,
        "tavg": null,
        "tmin": null,
        "tmax": null,
        "precipitation": null,
        "windspeed": null,
        "winddirection": null,
        "presure": null,
        "species": "Hydnum repandum",
        "location": "Utah, US",
        "num_identification_agreements": 1
      },
      "geometry": {
        "type": "Point",
        "coordinates": [
          -110.8086118663,
          40.6030019124
        ]
      }
    }
  ]
}