{
  "type": "FeatureCollection",
  "features": [
    {
      "type": "Feature",
      "properties": {
        "uuid": "5d937ddd-0761-4ae5-aeb3-05569ba1084a",
        "inat_id": 311774333,
        "timestamp": "2025-09-04T12:58:00-06:00",
        "date": "2025-09-04",
        "olc": "857PR624+",
        "elevation": 3415.0,
        "tavg": null,
        "tmin": 11.0,
        "tmax": 28.0,
        "precipitation": 0.2,
        "windspeed": 15.3,
        "winddirection": null,
        "presure": 1022.3,
        "species": "Boletopsis leucomelaena",
        "location": "Santa Fe, New Mexico, United States",
        "num_identification_agreements": 1
      },
      "geometry": {
        "type": "Point",
        "coordinates": [
          -105.793725,
          35.80205556
        ]
      }
    }
  ]
}