{
  "type": "FeatureCollection",
  "features": [
    {
      "type": "Feature",
      "properties": {
        "uuid": "d333857d-649b-4817-b2b0-761207223a40",
        "inat_id": 54787859,
        "timestamp": "2020-07-29T10:59:16-06:00",
        "date": "2020-07-29",
        "olc": "85GP2PCM+",
        "elevation": 1623.0,
        "tavg": null,
        "tmin": null,
        "tmax": null,
        "precipitation": null,
        "windspeed": null,
        "winddirection": null,
        "presure": null,
        "species": "Laetiporus cincinnatus",
        "location": "Boulder County, US-CO, US",
        "num_identification_agreements": 1
      },
      "geometry": {
        "type": "Point",
        "coordinates": [
          -105.265414836,
          40.021140799
        ]
      }
    },
    {
      "type": "Feature",
      "properties": {
        "uuid": "3ee67669-ff51-4e1e-b2e1-0d22aba11365",
        "inat_id": 54749843,
        "timestamp": "2020-07-29T10:59:19-06:00",
        "date": "2020-07-29",
        "olc": "85GP2PCM+",
        "elevation": 1621.0,
        "tavg": null,
        "tmin": null,
        "tmax": null,
        "precipitation": null,
        "windspeed": null,
        "winddirection": null,
        "presure": null,
        "species": "Laetiporus cincinnatus",
        "location": "Pearl St, Boulder, CO, US",
        "num_identification_agreements": 2
      },
      "geometry": {
        "type": "Point",
        "coordinates": [
          -105.2651717608,
          40.0206736336
        ]
      }
    }
  ]
}