{
  "type": "FeatureCollection",
  "features": [
    {
      "type": "Feature",
      "properties": {
        "uuid": "bb1ddb34-fbcd-48dc-a301-9064bb15cb16",
        "inat_id": 93537195,
        "timestamp": "2021-09-03T20:04:30+00:00",
        "date": "2021-09-03",
        "olc": "85JXVFP2+",
        "elevation": 780.0,
        "tavg": null,
        "tmin": 18.3,
        "tmax": 26.7,
        "precipitation": 0.0,
        "windspeed": 13.7,
        "winddirection": null,
        "presure": 1015.8,
        "species": "Laetiporus cincinnatus",
        "location": "Valentine City Park, Valentine, NE, US",
        "num_identification_agreements": 2
      },
      "geometry": {
        "type": "Point",
        "coordinates": [
          -100.548279775,
          42.8854219571
        ]
      }
    }
  ]
}