{
  "type": "FeatureCollection",
  "features": [
    {
      "type": "Feature",
      "properties": {
        "uuid": "5f6b91df-aff1-4334-b22d-6c56ff7ef97b",
        "inat_id": 300537321,
        "timestamp": "2025-07-12T05:00:00-06:00",
        "date": "2025-07-12",
        "olc": "85MRQJ73+",
        "elevation": 1332.0,
        "tavg": null,
        "tmin": 3.9,
        "tmax": 23.3,
        "precipitation": 0.0,
        "windspeed": 10.7,
        "winddirection": null,
        "presure": 1018.2,
        "species": "Laetiporus cincinnatus",
        "location": "Custer County, SD, USA",
        "num_identification_agreements": 1
      },
      "geometry": {
        "type": "Point",
        "coordinates": [
          -103.3966065288,
          43.7648294985
        ]
      }
    }
  ]
}