{
  "type": "FeatureCollection",
  "features": [
    {
      "type": "Feature",
      "properties": {
        "uuid": "535ec815-c7fa-405d-96c5-99a2933c5e6b",
        "inat_id": 390989992,
        "timestamp": "2026-08-13T12:20:15-06:00",
        "date": "2026-08-13",
        "olc": "859JR4J9+",
        "elevation": 2982.0,
        "tavg": null,
        "tmin": 10.0,
        "tmax": 17.0,
        "precipitation": 1.8,
        "windspeed": 2.9,
        "winddirection": null,
        "presure": null,
        "species": "Fomitopsis rosea",
        "location": "Ophir, CO 81426, USA",
        "num_identification_agreements": 1
      },
      "geometry": {
        "type": "Point",
        "coordinates": [
          -107.8800578997,
          37.8323419997
        ]
      }
    }
  ]
}