{
  "type": "FeatureCollection",
  "features": [
    {
      "type": "Feature",
      "properties": {
        "uuid": "0c1ed541-deb6-4f13-868d-3c18bcffb3d9",
        "inat_id": 234542467,
        "timestamp": "2024-08-07T11:12:20-06:00",
        "date": "2024-08-07",
        "olc": "857MR87M+",
        "elevation": 2041.0,
        "tavg": null,
        "tmin": 18.1,
        "tmax": 31.4,
        "precipitation": null,
        "windspeed": 11.3,
        "winddirection": null,
        "presure": 1026.8,
        "species": "Turbinellus kauffmanii",
        "location": "Sandoval County, US-NM, US",
        "num_identification_agreements": 2
      },
      "geometry": {
        "type": "Point",
        "coordinates": [
          -106.6667528538,
          35.8143318371
        ]
      }
    }
  ]
}