{"type": "FeatureCollection", "features": [{"type": "Feature", "geometry": {"type": "Point", "coordinates": [-105.926666, 39.992904]}, "properties": {"species": "Agaricus pilosporus", "date": "2026-06-11", "location": "Grand County, US-CO, US", "elevation": 2666.0, "num_identification_agreements": 1, "tavg": null, "tmin": 5.0, "tmax": 20.7, "day_of_year": 162, "uuid": "80ad2f78-a74e-45ff-9132-01946fa415e5", "inat_id": 370667424}}, {"type": "Feature", "geometry": {"type": "Point", "coordinates": [-105.9086804381, 35.5842715784]}, "properties": {"species": "Agaricus pilosporus", "date": "2025-09-14", "location": "New Mexico, US", "elevation": 2184.0, "num_identification_agreements": 2, "tavg": null, "tmin": 7.0, "tmax": 24.0, "day_of_year": 257, "uuid": "cec8b0b5-cd0a-4830-8956-e9624d71d85b", "inat_id": 313967186}}, {"type": "Feature", "geometry": {"type": "Point", "coordinates": [-104.9889148458, 38.6115746005]}, "properties": {"species": "Agaricus pilosporus", "date": "2025-06-09", "location": "Colorado, US", "elevation": 2434.0, "num_identification_agreements": 3, "tavg": null, "tmin": 9.0, "tmax": 21.0, "day_of_year": 160, "uuid": "397fb26e-8c16-4c7b-85f7-2951d03c9a95", "inat_id": 288318043}}, {"type": "Feature", "geometry": {"type": "Point", "coordinates": [-104.8208345845, 38.8501974068]}, "properties": {"species": "Agaricus pilosporus", "date": "2024-06-17", "location": "Nevada/Uintah, Colorado Springs, CO 80903, USA", "elevation": 1854.0, "num_identification_agreements": 1, "tavg": null, "tmin": 13.9, "tmax": 34.4, "day_of_year": 169, "uuid": "9f79234d-a1dc-4d5e-9fb1-c2c37b6cc59a", "inat_id": 223471489}}, {"type": "Feature", "geometry": {"type": "Point", "coordinates": [-104.8219295964, 38.7110980669]}, "properties": {"species": "Agaricus pilosporus", "date": "2023-08-13", "location": "Rock Creek, Colorado Springs, CO, USA", "elevation": 1908.0, "num_identification_agreements": 4, "tavg": null, "tmin": 13.0, "tmax": 23.0, "day_of_year": 225, "uuid": "d7db206e-c799-4573-9511-3c4cfd9481a3", "inat_id": 178205132}}, {"type": "Feature", "geometry": {"type": "Point", "coordinates": [-105.7635, 39.89235]}, "properties": {"species": "Agaricus pilosporus", "date": "2010-08-14", "location": "YMCA Snow Mountain Ranch, Winter Park, Colorado, USA", "elevation": 2762.0, "num_identification_agreements": 2, "tavg": null, "tmin": 16.0, "tmax": 27.0, "day_of_year": 226, "uuid": "8f6c04cd-b106-4967-933e-62a58f204444", "inat_id": 60046222}}, {"type": "Feature", "geometry": {"type": "Point", "coordinates": [-105.7635, 39.89235]}, "properties": {"species": "Agaricus pilosporus", "date": "2010-08-12", "location": "YMCA Snow Mountain Ranch, Winter Park, Colorado, USA", "elevation": 2762.0, "num_identification_agreements": 2, "tavg": null, "tmin": 20.0, "tmax": 34.0, "day_of_year": 224, "uuid": "3a8af1c4-ca75-4489-b374-8f91fcfd820d", "inat_id": 60046220}}]}