{"type": "FeatureCollection", "features": [{"type": "Feature", "geometry": {"type": "Point", "coordinates": [-107.0728891131, 38.7549283801]}, "properties": {"species": "Agaricus kerriganii", "date": "2025-09-28", "location": "Gunnison County, US-CO, US", "elevation": 2771.0, "num_identification_agreements": 2, "tavg": null, "tmin": 8.0, "tmax": 18.0, "day_of_year": 271, "uuid": "fd8bd9a6-3b95-4d15-b0ce-613cde72d22b", "inat_id": 317426804}}, {"type": "Feature", "geometry": {"type": "Point", "coordinates": [-105.597707561, 40.1206490941]}, "properties": {"species": "Agaricus kerriganii", "date": "2025-09-25", "location": "Colorado, US", "elevation": 3173.0, "num_identification_agreements": 2, "tavg": null, "tmin": -1.0, "tmax": 21.0, "day_of_year": 268, "uuid": "6a021d9c-43c2-4e8c-b781-7945fc8032d3", "inat_id": 316863545}}, {"type": "Feature", "geometry": {"type": "Point", "coordinates": [-105.5270503636, 40.1904488104]}, "properties": {"species": "Agaricus kerriganii", "date": "2025-09-16", "location": "Colorado, US", "elevation": 2588.0, "num_identification_agreements": 2, "tavg": null, "tmin": 10.0, "tmax": 24.0, "day_of_year": 259, "uuid": "531acac6-e701-4785-a656-2810390eb5d5", "inat_id": 314694486}}, {"type": "Feature", "geometry": {"type": "Point", "coordinates": [-105.0417480278, 39.1127815]}, "properties": {"species": "Agaricus kerriganii", "date": "2025-09-13", "location": "Woodland Park, CO 80863, USA", "elevation": 2846.0, "num_identification_agreements": 3, "tavg": null, "tmin": 8.5, "tmax": 22.0, "day_of_year": 256, "uuid": "ebb9c807-e6ad-42e9-9be6-3499eaeb2568", "inat_id": 313947658}}, {"type": "Feature", "geometry": {"type": "Point", "coordinates": [-106.3959585, 35.8964422997]}, "properties": {"species": "Agaricus kerriganii", "date": "2025-09-13", "location": "Los Alamos County, NM, USA", "elevation": 2858.0, "num_identification_agreements": 2, "tavg": null, "tmin": 12.0, "tmax": 16.0, "day_of_year": 256, "uuid": "6b6e7166-470a-421b-9604-470f340de59b", "inat_id": 313676222}}, {"type": "Feature", "geometry": {"type": "Point", "coordinates": [-106.3859616997, 35.8909882997]}, "properties": {"species": "Agaricus kerriganii", "date": "2025-09-12", "location": "Los Alamos County, NM, USA", "elevation": 2884.0, "num_identification_agreements": 1, "tavg": null, "tmin": 13.0, "tmax": 25.0, "day_of_year": 255, "uuid": "5550a94c-4f25-40f4-8c15-458cf670595a", "inat_id": 313436781}}, {"type": "Feature", "geometry": {"type": "Point", "coordinates": [-104.8818785834, 39.0016723693]}, "properties": {"species": "Agaricus kerriganii", "date": "2025-08-07", "location": "Colorado, US", "elevation": 2155.0, "num_identification_agreements": 2, "tavg": null, "tmin": 14.5, "tmax": 34.0, "day_of_year": 219, "uuid": "43159f6e-d15f-4f57-8d20-83814b7d25b6", "inat_id": 304589586}}, {"type": "Feature", "geometry": {"type": "Point", "coordinates": [-105.1009529037, 39.0511486074]}, "properties": {"species": "Agaricus kerriganii", "date": "2024-08-25", "location": "Colorado, US", "elevation": 2451.0, "num_identification_agreements": 1, "tavg": null, "tmin": 18.7, "tmax": 30.7, "day_of_year": 238, "uuid": "eb20abb3-b922-4a24-909d-24961e6ae71e", "inat_id": 237932409}}, {"type": "Feature", "geometry": {"type": "Point", "coordinates": [-105.6716545957, 39.949641348]}, "properties": {"species": "Agaricus kerriganii", "date": "2024-08-22", "location": "Colorado, US", "elevation": 3362.0, "num_identification_agreements": 2, "tavg": null, "tmin": 3.6, "tmax": 11.4, "day_of_year": 235, "uuid": "528c563e-fd1d-43f2-9cd2-a4e1084b2d29", "inat_id": 237419937}}, {"type": "Feature", "geometry": {"type": "Point", "coordinates": [-104.937676079, 38.7826173967]}, "properties": {"species": "Agaricus kerriganii", "date": "2023-08-14", "location": "Colorado, US", "elevation": 2695.0, "num_identification_agreements": 3, "tavg": null, "tmin": 13.0, "tmax": 22.0, "day_of_year": 226, "uuid": "e2a2bfdf-275b-4bcf-bdc0-ff91519a327c", "inat_id": 180173051}}, {"type": "Feature", "geometry": {"type": "Point", "coordinates": [-104.9147718901, 38.7370904404]}, "properties": {"species": "Agaricus kerriganii", "date": "2023-08-14", "location": "El Paso County, US-CO, US", "elevation": 2794.0, "num_identification_agreements": 1, "tavg": null, "tmin": 13.0, "tmax": 22.0, "day_of_year": 226, "uuid": "4db7c403-10a6-4887-b54a-a28257fdbe68", "inat_id": 178768805}}]}