{"type": "FeatureCollection", "features": [{"type": "Feature", "geometry": {"type": "Point", "coordinates": [-107.8260751347, 37.9360392073]}, "properties": {"species": "Agaricus griseicephalus", "date": "2023-08-17", "location": "Colorado, US", "elevation": 2822.0, "land_cover_label": "Tree cover", "water_mask": false, "exclude_reason": "keep", "ndvi": null, "soil_moisture": null, "solar_exposure": null, "wind_exposure": null, "water_retention": null, "slope": null, "aspect": null, "num_identification_agreements": 5, "cluster": 3, "tavg": null, "tmin": 11.0, "tmax": 25.0, "prcp_d0": 0.0, "prcp_d1": 0.0, "prcp_d2": 10.9153470993042, "prcp_d3": 10.9153470993042, "prcp_d4": 0.0, "prcp_d5": 0.0, "prcp_d6": 0.0, "tmax_d0": 23.5, "tmax_d1": 22.5, "tmax_d2": 20.7, "tmax_d3": 19.9, "tmax_d4": 21.4, "tmax_d5": 19.1, "tmax_d6": 21.0, "tmin_d0": 7.0, "tmin_d1": 7.2, "tmin_d2": 7.0, "tmin_d3": 7.2, "tmin_d4": 6.3, "tmin_d5": 10.2, "tmin_d6": 5.9, "day_of_year": 229, "uuid": "46f3b647-e47c-4347-a564-f1a068dcb061", "inat_id": 180216392}}, {"type": "Feature", "geometry": {"type": "Point", "coordinates": [-105.0129458401, 38.7357639346]}, "properties": {"species": "Agaricus griseicephalus", "date": "2024-06-29", "location": "Teller County, US-CO, US", "elevation": 2944.0, "land_cover_label": "Tree cover", "water_mask": false, "exclude_reason": "keep", "ndvi": null, "soil_moisture": null, "solar_exposure": null, "wind_exposure": null, "water_retention": null, "slope": null, "aspect": null, "num_identification_agreements": 5, "cluster": 2, "tavg": null, "tmin": 15.0, "tmax": 25.0, "prcp_d0": 0.0, "prcp_d1": 0.0, "prcp_d2": 0.0, "prcp_d3": 0.0, "prcp_d4": 0.0, "prcp_d5": 0.0, "prcp_d6": 0.0, "tmax_d0": 18.5, "tmax_d1": 22.2, "tmax_d2": 22.4, "tmax_d3": 22.0, "tmax_d4": 23.0, "tmax_d5": 21.5, "tmax_d6": 20.8, "tmin_d0": 9.0, "tmin_d1": 10.2, "tmin_d2": 10.5, "tmin_d3": 13.1, "tmin_d4": 11.2, "tmin_d5": 12.6, "tmin_d6": 9.5, "day_of_year": 181, "uuid": "9c1437eb-7240-47f4-be4f-903ad685b584", "inat_id": 226012081}}, {"type": "Feature", "geometry": {"type": "Point", "coordinates": [-108.0612256286, 37.6329179015]}, "properties": {"species": "Agaricus griseicephalus", "date": "2024-08-17", "location": "Montezuma County, US-CO, US", "elevation": 2622.0, "land_cover_label": "Tree cover", "water_mask": false, "exclude_reason": "keep", "ndvi": null, "soil_moisture": null, "solar_exposure": null, "wind_exposure": null, "water_retention": null, "slope": null, "aspect": null, "num_identification_agreements": 4, "cluster": 2, "tavg": null, "tmin": 12.0, "tmax": 23.0, "prcp_d0": 0.0, "prcp_d1": 0.0, "prcp_d2": 0.0, "prcp_d3": 0.0, "prcp_d4": 0.0, "prcp_d5": 0.0, "prcp_d6": 0.0, "tmax_d0": 24.2, "tmax_d1": 23.5, "tmax_d2": 22.9, "tmax_d3": 20.9, "tmax_d4": 19.1, "tmax_d5": 22.4, "tmax_d6": 22.2, "tmin_d0": 10.2, "tmin_d1": 8.8, "tmin_d2": 5.9, "tmin_d3": 8.4, "tmin_d4": 10.2, "tmin_d5": 8.1, "tmin_d6": 10.3, "day_of_year": 230, "uuid": "a4ab41ba-76e9-4cc2-813b-7632c9da5a6d", "inat_id": 236342581}}, {"type": "Feature", "geometry": {"type": "Point", "coordinates": [-105.80589167, 35.79468611]}, "properties": {"species": "Agaricus griseicephalus", "date": "2025-07-15", "location": "Santa Fe, New Mexico, United States", "elevation": 3124.0, "land_cover_label": "Tree cover", "water_mask": false, "exclude_reason": "keep", "ndvi": null, "soil_moisture": null, "solar_exposure": null, "wind_exposure": null, "water_retention": null, "slope": null, "aspect": null, "num_identification_agreements": 2, "cluster": 2, "tavg": null, "tmin": 14.4, "tmax": 32.8, "prcp_d0": 2.830991744995117, "prcp_d1": 1.4154958724975586, "prcp_d2": 4.246487140655518, "prcp_d3": 1.4154958724975586, "prcp_d4": 0.0, "prcp_d5": 0.0, "prcp_d6": 0.0, "tmax_d0": 21.8, "tmax_d1": 21.4, "tmax_d2": 20.5, "tmax_d3": 21.6, "tmax_d4": 21.8, "tmax_d5": 23.2, "tmax_d6": 22.0, "tmin_d0": 7.8, "tmin_d1": 4.1, "tmin_d2": 7.1, "tmin_d3": 4.7, "tmin_d4": 10.5, "tmin_d5": 9.3, "tmin_d6": 8.1, "day_of_year": 196, "uuid": "50b70ece-e437-418d-b0ee-f5e750927b36", "inat_id": 298757405}}, {"type": "Feature", "geometry": {"type": "Point", "coordinates": [-105.5015807997, 39.406176]}, "properties": {"species": "Agaricus griseicephalus", "date": "2025-09-07", "location": "Bailey, CO 80421, USA", "elevation": 2440.0, "land_cover_label": "Tree cover", "water_mask": false, "exclude_reason": "keep", "ndvi": null, "soil_moisture": 0.3662753143262848, "solar_exposure": 0.809290885925293, "wind_exposure": 0.2598201930522918, "water_retention": 0.2562251389026642, "slope": 2.8259780406951904, "aspect": 351.7441101074219, "num_identification_agreements": 2, "cluster": 2, "tavg": null, "tmin": 1.8, "tmax": 15.6, "prcp_d0": 0.0, "prcp_d1": 0.0, "prcp_d2": 0.0, "prcp_d3": 0.0, "prcp_d4": 0.0, "prcp_d5": 0.0, "prcp_d6": 0.0, "tmax_d0": 21.7, "tmax_d1": 21.9, "tmax_d2": 21.0, "tmax_d3": 23.6, "tmax_d4": 22.9, "tmax_d5": 22.0, "tmax_d6": 20.8, "tmin_d0": 7.1, "tmin_d1": 3.4, "tmin_d2": 7.8, "tmin_d3": 6.8, "tmin_d4": 7.3, "tmin_d5": 5.5, "tmin_d6": 6.2, "day_of_year": 250, "uuid": "d4cf38a1-a37b-4eb4-81c1-43cfb5b4ed3f", "inat_id": 312301032}}, {"type": "Feature", "geometry": {"type": "Point", "coordinates": [-105.8114367995, 35.7676140063]}, "properties": {"species": "Agaricus griseicephalus", "date": "2025-09-23", "location": "Santa Fe County, NM, USA", "elevation": 2936.0, "land_cover_label": "Tree cover", "water_mask": false, "exclude_reason": "keep", "ndvi": null, "soil_moisture": null, "solar_exposure": null, "wind_exposure": null, "water_retention": null, "slope": null, "aspect": null, "num_identification_agreements": 2, "cluster": 2, "tavg": null, "tmin": 8.0, "tmax": 26.0, "prcp_d0": 0.0, "prcp_d1": 0.0, "prcp_d2": 0.0, "prcp_d3": 0.0, "prcp_d4": 0.0, "prcp_d5": 0.0, "prcp_d6": 0.0, "tmax_d0": 13.3, "tmax_d1": 16.4, "tmax_d2": 17.1, "tmax_d3": 16.1, "tmax_d4": 15.3, "tmax_d5": 16.1, "tmax_d6": 16.5, "tmin_d0": 3.7, "tmin_d1": 8.1, "tmin_d2": 7.1, "tmin_d3": 6.3, "tmin_d4": 4.8, "tmin_d5": 5.7, "tmin_d6": 5.5, "day_of_year": 266, "uuid": "4e68ca0a-0dea-445b-b2d7-367b98b82bb5", "inat_id": 316592787}}, {"type": "Feature", "geometry": {"type": "Point", "coordinates": [-103.4190719712, 43.8498784741]}, "properties": {"species": "Agaricus griseicephalus", "date": "2026-06-29", "location": "Pennington County, US-SD, US", "elevation": 1435.0, "land_cover_label": "Tree cover", "water_mask": false, "exclude_reason": "keep", "ndvi": null, "soil_moisture": null, "solar_exposure": null, "wind_exposure": null, "water_retention": null, "slope": null, "aspect": null, "num_identification_agreements": 1, "cluster": 2, "tavg": null, "tmin": 13.3, "tmax": 20.6, "prcp_d0": 0.0, "prcp_d1": 2.30867600440979, "prcp_d2": 2.30867600440979, "prcp_d3": 4.61735200881958, "prcp_d4": 9.918634414672852, "prcp_d5": 0.0, "prcp_d6": 9.918634414672852, "tmax_d0": 24.3, "tmax_d1": 26.7, "tmax_d2": 30.2, "tmax_d3": 25.1, "tmax_d4": 16.6, "tmax_d5": 16.9, "tmax_d6": 16.6, "tmin_d0": 12.0, "tmin_d1": 12.6, "tmin_d2": 15.8, "tmin_d3": 10.1, "tmin_d4": 8.8, "tmin_d5": 6.7, "tmin_d6": 10.0, "day_of_year": 180, "uuid": "6b32ae9b-8c3e-4a32-9034-e47a420e6326", "inat_id": 394332775}}, {"type": "Feature", "geometry": {"type": "Point", "coordinates": [-104.9806324926, 38.7494705833]}, "properties": {"species": "Agaricus griseicephalus", "date": "2026-08-08", "location": "Colorado, US", "elevation": 3462.0, "land_cover_label": "Tree cover", "water_mask": false, "exclude_reason": "keep", "ndvi": null, "soil_moisture": null, "solar_exposure": null, "wind_exposure": null, "water_retention": null, "slope": null, "aspect": null, "num_identification_agreements": 1, "cluster": null, "tavg": null, "tmin": 16.0, "tmax": 33.3, "prcp_d0": null, "prcp_d1": null, "prcp_d2": null, "prcp_d3": null, "prcp_d4": null, "prcp_d5": null, "prcp_d6": null, "tmax_d0": 21.9, "tmax_d1": 20.4, "tmax_d2": 21.4, "tmax_d3": 20.7, "tmax_d4": 18.0, "tmax_d5": 22.4, "tmax_d6": 22.1, "tmin_d0": 8.9, "tmin_d1": 8.5, "tmin_d2": 5.6, "tmin_d3": 5.5, "tmin_d4": 4.9, "tmin_d5": 10.4, "tmin_d6": 7.3, "day_of_year": 220, "uuid": "f2958f71-592d-4680-99be-22c95c51c67f", "inat_id": 389508563}}]}