{"type": "FeatureCollection", "features": [{"type": "Feature", "geometry": {"type": "Point", "coordinates": [-104.4835, 37.17985]}, "properties": {"species": "Agaricus hupohanae", "date": "2018-01-17", "location": "Trinidad, Las Animas Co., Colorado, USA", "elevation": 1840.0, "land_cover_label": "Grassland", "water_mask": false, "exclude_reason": "keep", "ndvi": null, "soil_moisture": null, "solar_exposure": null, "wind_exposure": null, "water_retention": null, "slope": null, "aspect": null, "num_identification_agreements": 2, "cluster": 2, "tavg": null, "tmin": null, "tmax": null, "prcp_d0": 0.0, "prcp_d1": 0.0, "prcp_d2": 0.0, "prcp_d3": 0.0, "prcp_d4": 0.0, "prcp_d5": 0.0, "prcp_d6": 2.618812084197998, "tmax_d0": 9.3, "tmax_d1": -0.3, "tmax_d2": 6.7, "tmax_d3": 10.9, "tmax_d4": 9.7, "tmax_d5": 10.8, "tmax_d6": 10.2, "tmin_d0": -6.7, "tmin_d1": -11.8, "tmin_d2": -6.4, "tmin_d3": -3.3, "tmin_d4": -4.3, "tmin_d5": -3.5, "tmin_d6": -4.2, "day_of_year": 17, "uuid": "0c3de169-5896-48c1-83a5-068332a84121", "inat_id": 9565967}}, {"type": "Feature", "geometry": {"type": "Point", "coordinates": [-106.3659126997, 35.8383369]}, "properties": {"species": "Agaricus hupohanae", "date": "2025-06-15", "location": "Los Alamos County, NM, USA", "elevation": 2342.0, "land_cover_label": "Tree cover", "water_mask": false, "exclude_reason": "keep", "ndvi": null, "soil_moisture": null, "solar_exposure": null, "wind_exposure": null, "water_retention": null, "slope": null, "aspect": null, "num_identification_agreements": 1, "cluster": 2, "tavg": null, "tmin": 18.7, "tmax": 32.5, "prcp_d0": 0.0, "prcp_d1": 0.0, "prcp_d2": 0.0329594835638999, "prcp_d3": 1.6051865816116333, "prcp_d4": 2.1071667671203613, "prcp_d5": 4.369451522827148, "prcp_d6": 4.369451522827148, "tmax_d0": 31.1, "tmax_d1": 29.4, "tmax_d2": 27.6, "tmax_d3": 23.8, "tmax_d4": 24.2, "tmax_d5": 21.4, "tmax_d6": 24.7, "tmin_d0": 12.5, "tmin_d1": 8.7, "tmin_d2": 10.6, "tmin_d3": 9.4, "tmin_d4": 9.1, "tmin_d5": 9.1, "tmin_d6": 10.6, "day_of_year": 166, "uuid": "77afbec4-ec38-4b94-837b-9b5de47b004d", "inat_id": 289975209}}]}