{"type": "FeatureCollection", "features": [{"type": "Feature", "geometry": {"type": "Point", "coordinates": [-106.3177892646, 39.1091299702]}, "properties": {"species": "Agaricus gemellatus", "date": "2022-09-03", "location": "Colorado, US", "elevation": 2858.0, "land_cover_label": "Tree cover", "water_mask": false, "exclude_reason": "keep", "ndvi": null, "soil_moisture": null, "solar_exposure": null, "wind_exposure": null, "water_retention": null, "slope": null, "aspect": null, "num_identification_agreements": 2, "cluster": 2, "tavg": null, "tmin": 3.9, "tmax": 23.9, "prcp_d0": 9.753673553466797, "prcp_d1": 0.0, "prcp_d2": 0.0, "prcp_d3": 0.0, "prcp_d4": 0.0, "prcp_d5": 0.0, "prcp_d6": 0.0, "tmax_d0": 22.2, "tmax_d1": 22.7, "tmax_d2": 21.9, "tmax_d3": 20.8, "tmax_d4": 22.2, "tmax_d5": 20.6, "tmax_d6": 17.6, "tmin_d0": 5.2, "tmin_d1": 7.1, "tmin_d2": 5.3, "tmin_d3": 7.0, "tmin_d4": 6.2, "tmin_d5": 3.7, "tmin_d6": 5.1, "day_of_year": 246, "uuid": "4cf9b0fa-8938-46a7-9c08-3a1945b9b1cc", "inat_id": 192004957}}, {"type": "Feature", "geometry": {"type": "Point", "coordinates": [-105.5497194825, 39.6017367959]}, "properties": {"species": "Agaricus gemellatus", "date": "2023-07-21", "location": "Colorado, US", "elevation": 2987.0, "land_cover_label": "Moss and lichen", "water_mask": false, "exclude_reason": "keep", "ndvi": null, "soil_moisture": 0.4206417823400859, "solar_exposure": 0.6346046924591064, "wind_exposure": 0.3647029101848602, "water_retention": 0.1158037558197975, "slope": 21.61069679260254, "aspect": 51.9329948425293, "num_identification_agreements": 3, "cluster": 1, "tavg": null, "tmin": 1.7, "tmax": 14.5, "prcp_d0": 7.800344944000244, "prcp_d1": 0.0, "prcp_d2": 6.156783103942871, "prcp_d3": 0.0, "prcp_d4": 0.0, "prcp_d5": 0.0, "prcp_d6": 0.0, "tmax_d0": 19.2, "tmax_d1": 20.9, "tmax_d2": 19.6, "tmax_d3": 23.0, "tmax_d4": 24.6, "tmax_d5": 23.3, "tmax_d6": 17.0, "tmin_d0": 5.0, "tmin_d1": 8.5, "tmin_d2": 10.0, "tmin_d3": 9.0, "tmin_d4": 7.0, "tmin_d5": 4.5, "tmin_d6": 6.8, "day_of_year": 202, "uuid": "c268107f-4ef5-4707-a9e4-e2644eba959e", "inat_id": 174311258}}, {"type": "Feature", "geometry": {"type": "Point", "coordinates": [-105.0112310516, 38.7378990751]}, "properties": {"species": "Agaricus gemellatus", "date": "2024-06-29", "location": "Teller County, US-CO, US", "elevation": 2952.0, "land_cover_label": "Tree cover", "water_mask": false, "exclude_reason": "keep", "ndvi": null, "soil_moisture": null, "solar_exposure": null, "wind_exposure": null, "water_retention": null, "slope": null, "aspect": null, "num_identification_agreements": 2, "cluster": 2, "tavg": null, "tmin": 15.0, "tmax": 25.0, "prcp_d0": 0.0, "prcp_d1": 0.0, "prcp_d2": 0.0, "prcp_d3": 0.0, "prcp_d4": 0.0, "prcp_d5": 0.0, "prcp_d6": 0.0, "tmax_d0": 18.5, "tmax_d1": 22.2, "tmax_d2": 22.4, "tmax_d3": 22.0, "tmax_d4": 23.0, "tmax_d5": 21.5, "tmax_d6": 20.8, "tmin_d0": 9.0, "tmin_d1": 10.2, "tmin_d2": 10.5, "tmin_d3": 13.1, "tmin_d4": 11.2, "tmin_d5": 12.6, "tmin_d6": 9.5, "day_of_year": 181, "uuid": "0215b40f-4a34-4234-8151-9b86324fdd26", "inat_id": 226013158}}, {"type": "Feature", "geometry": {"type": "Point", "coordinates": [-105.0210571289, 38.732772798]}, "properties": {"species": "Agaricus gemellatus", "date": "2024-06-29", "location": "Manitou Springs, CO 80829, USA", "elevation": 2876.0, "land_cover_label": "Tree cover", "water_mask": false, "exclude_reason": "keep", "ndvi": null, "soil_moisture": null, "solar_exposure": null, "wind_exposure": null, "water_retention": null, "slope": null, "aspect": null, "num_identification_agreements": 3, "cluster": 2, "tavg": null, "tmin": 15.0, "tmax": 25.0, "prcp_d0": 0.0, "prcp_d1": 0.0, "prcp_d2": 0.0, "prcp_d3": 0.0, "prcp_d4": 0.0, "prcp_d5": 0.0, "prcp_d6": 0.0, "tmax_d0": 19.3, "tmax_d1": 23.0, "tmax_d2": 23.2, "tmax_d3": 22.8, "tmax_d4": 23.8, "tmax_d5": 22.3, "tmax_d6": 21.6, "tmin_d0": 9.8, "tmin_d1": 11.0, "tmin_d2": 11.3, "tmin_d3": 13.9, "tmin_d4": 12.0, "tmin_d5": 13.4, "tmin_d6": 10.3, "day_of_year": 181, "uuid": "6f0cd39d-dc37-46eb-a1dd-7e6aedbafdf9", "inat_id": 226018490}}, {"type": "Feature", "geometry": {"type": "Point", "coordinates": [-107.1003262, 38.8497151]}, "properties": {"species": "Agaricus gemellatus", "date": "2024-07-07", "location": "Kebler Pass, Colorado 81230, USA", "elevation": 3052.0, "land_cover_label": "Bare / sparse vegetation", "water_mask": false, "exclude_reason": "keep", "ndvi": null, "soil_moisture": null, "solar_exposure": null, "wind_exposure": null, "water_retention": null, "slope": null, "aspect": null, "num_identification_agreements": 3, "cluster": 2, "tavg": null, "tmin": 2.8, "tmax": 26.1, "prcp_d0": 0.0, "prcp_d1": 0.0, "prcp_d2": 0.0, "prcp_d3": 0.0, "prcp_d4": 0.0, "prcp_d5": 0.0, "prcp_d6": 0.0, "tmax_d0": 18.9, "tmax_d1": 18.1, "tmax_d2": 17.4, "tmax_d3": 17.9, "tmax_d4": 18.8, "tmax_d5": 16.9, "tmax_d6": 17.0, "tmin_d0": 5.4, "tmin_d1": 0.6, "tmin_d2": 2.2, "tmin_d3": 5.2, "tmin_d4": 1.1, "tmin_d5": 6.0, "tmin_d6": 7.4, "day_of_year": 189, "uuid": "078f0866-b7f7-4dbc-aa3f-6f35f9261d95", "inat_id": 254056436}}, {"type": "Feature", "geometry": {"type": "Point", "coordinates": [-105.79596667, 35.80121111]}, "properties": {"species": "Agaricus gemellatus", "date": "2025-08-05", "location": "Santa Fe, New Mexico, United States", "elevation": 3319.0, "land_cover_label": "Tree cover", "water_mask": false, "exclude_reason": "keep", "ndvi": null, "soil_moisture": null, "solar_exposure": null, "wind_exposure": null, "water_retention": null, "slope": null, "aspect": null, "num_identification_agreements": 2, "cluster": 2, "tavg": null, "tmin": 12.8, "tmax": 35.0, "prcp_d0": 0.0, "prcp_d1": 0.0, "prcp_d2": 0.0, "prcp_d3": 0.0, "prcp_d4": 0.0, "prcp_d5": 8.035513877868652, "prcp_d6": 0.0, "tmax_d0": 20.7, "tmax_d1": 19.4, "tmax_d2": 18.9, "tmax_d3": 17.6, "tmax_d4": 16.8, "tmax_d5": 16.6, "tmax_d6": 16.5, "tmin_d0": 8.3, "tmin_d1": 4.1, "tmin_d2": 7.3, "tmin_d3": 7.4, "tmin_d4": 6.5, "tmin_d5": 3.0, "tmin_d6": 5.0, "day_of_year": 217, "uuid": "e8ba20e7-976e-41a9-983e-8b47d3a36ed0", "inat_id": 304281723}}, {"type": "Feature", "geometry": {"type": "Point", "coordinates": [-104.8151012578, 39.0742294985]}, "properties": {"species": "Agaricus gemellatus", "date": "2025-08-06", "location": "Colorado, US", "elevation": 2218.0, "land_cover_label": "Tree cover", "water_mask": false, "exclude_reason": "keep", "ndvi": null, "soil_moisture": 0.1865618283292231, "solar_exposure": 0.8000059723854065, "wind_exposure": 0.3319958448410034, "water_retention": 0.4230044782161712, "slope": 4.993588447570801, "aspect": 313.1047058105469, "num_identification_agreements": 2, "cluster": 2, "tavg": null, "tmin": 16.4, "tmax": 33.9, "prcp_d0": 0.0, "prcp_d1": 0.0, "prcp_d2": 0.0, "prcp_d3": 0.0, "prcp_d4": 0.0, "prcp_d5": 8.394444465637207, "prcp_d6": 0.0, "tmax_d0": 31.9, "tmax_d1": 32.1, "tmax_d2": 28.1, "tmax_d3": 26.0, "tmax_d4": 27.3, "tmax_d5": 27.5, "tmax_d6": 23.3, "tmin_d0": 13.0, "tmin_d1": 10.0, "tmin_d2": 11.6, "tmin_d3": 8.5, "tmin_d4": 9.5, "tmin_d5": 11.7, "tmin_d6": 11.1, "day_of_year": 218, "uuid": "1102d2a2-5bc4-444c-9d8b-d689674bbd29", "inat_id": 304402250}}, {"type": "Feature", "geometry": {"type": "Point", "coordinates": [-105.80528889, 35.79575]}, "properties": {"species": "Agaricus gemellatus", "date": "2025-09-24", "location": "Santa Fe, New Mexico, United States", "elevation": 3124.0, "land_cover_label": "Tree cover", "water_mask": false, "exclude_reason": "keep", "ndvi": null, "soil_moisture": null, "solar_exposure": null, "wind_exposure": null, "water_retention": null, "slope": null, "aspect": null, "num_identification_agreements": 2, "cluster": 2, "tavg": null, "tmin": 6.0, "tmax": 22.0, "prcp_d0": 0.0, "prcp_d1": 0.0, "prcp_d2": 0.0, "prcp_d3": 0.0, "prcp_d4": 0.0, "prcp_d5": 0.0, "prcp_d6": 0.0, "tmax_d0": 11.7, "tmax_d1": 11.8, "tmax_d2": 14.9, "tmax_d3": 15.6, "tmax_d4": 14.6, "tmax_d5": 13.8, "tmax_d6": 14.6, "tmin_d0": -0.7, "tmin_d1": 2.2, "tmin_d2": 6.6, "tmin_d3": 5.6, "tmin_d4": 4.8, "tmin_d5": 3.3, "tmin_d6": 4.2, "day_of_year": 267, "uuid": "db9d769a-0893-435e-b7e8-5303ae2aba1b", "inat_id": 316596077}}]}