{"type": "FeatureCollection", "features": [{"type": "Feature", "geometry": {"type": "Point", "coordinates": [-104.9121966586, 40.3368977515]}, "properties": {"species": "Agaricus malangelus", "date": "2026-08-12", "location": "Johnstown", "elevation": 1483.0, "num_identification_agreements": 1, "tavg": null, "tmin": 17.8, "tmax": 34.4, "day_of_year": 224, "uuid": "03894122-f574-429b-b16f-bab2cc082fa1", "inat_id": 391243744}}, {"type": "Feature", "geometry": {"type": "Point", "coordinates": [-105.1032333333, 40.5858416667]}, "properties": {"species": "Agaricus malangelus", "date": "2025-08-24", "location": "W Oak St, Fort Collins, CO, US", "elevation": 1540.0, "num_identification_agreements": 1, "tavg": null, "tmin": 14.4, "tmax": 23.3, "day_of_year": 236, "uuid": "8f3b8149-b634-4b20-8e15-1ddc05ec1506", "inat_id": 349163943}}, {"type": "Feature", "geometry": {"type": "Point", "coordinates": [-105.0416, 39.6181]}, "properties": {"species": "Agaricus malangelus", "date": "2025-10-10", "location": "Colorado. Arapahoe Co., Littleton, Bow Mar Residential neighborhood, E. of Bowles Lake", "elevation": 1671.0, "num_identification_agreements": 1, "tavg": null, "tmin": 12.0, "tmax": 19.4, "day_of_year": 283, "uuid": "84ae53e4-ad14-48b1-ae54-9e5202d1e6cd", "inat_id": 320246244}}, {"type": "Feature", "geometry": {"type": "Point", "coordinates": [-105.2864616667, 40.04805]}, "properties": {"species": "Agaricus malangelus", "date": "2025-10-07", "location": "Quince Ave, Boulder, CO, US", "elevation": 1692.0, "num_identification_agreements": 1, "tavg": null, "tmin": 8.0, "tmax": 13.0, "day_of_year": 280, "uuid": "f7e66e55-bbc9-4d08-9408-eca2b05fa2b9", "inat_id": 319461294}}, {"type": "Feature", "geometry": {"type": "Point", "coordinates": [-105.1141093299, 40.1777923006]}, "properties": {"species": "Agaricus malangelus", "date": "2025-09-28", "location": "Longmont, CO 80501, USA", "elevation": 1528.0, "num_identification_agreements": 1, "tavg": null, "tmin": 11.0, "tmax": 27.0, "day_of_year": 271, "uuid": "ca03a437-a1d2-430c-b801-93665069ba48", "inat_id": 317309482}}, {"type": "Feature", "geometry": {"type": "Point", "coordinates": [-105.0447044894, 39.8126977491]}, "properties": {"species": "Agaricus malangelus", "date": "2025-09-14", "location": "Westminster, CO 80003, USA", "elevation": 1621.0, "num_identification_agreements": 1, "tavg": null, "tmin": 12.0, "tmax": 23.0, "day_of_year": 257, "uuid": "19b06436-a1a3-491d-9beb-fd18238c579e", "inat_id": 313875694}}, {"type": "Feature", "geometry": {"type": "Point", "coordinates": [-104.8430194706, 38.9394972974]}, "properties": {"species": "Agaricus malangelus", "date": "2025-09-07", "location": "Briargate, Colorado Springs, CO, USA", "elevation": 2002.0, "num_identification_agreements": 1, "tavg": null, "tmin": 12.0, "tmax": 24.0, "day_of_year": 250, "uuid": "87fce817-da51-4c45-8767-26490350d761", "inat_id": 312282466}}, {"type": "Feature", "geometry": {"type": "Point", "coordinates": [-104.8271799333, 38.8622614015]}, "properties": {"species": "Agaricus malangelus", "date": "2025-09-07", "location": "Monument Valley Park Loop, Colorado Springs, CO, US", "elevation": 1859.0, "num_identification_agreements": 2, "tavg": null, "tmin": 13.0, "tmax": 24.0, "day_of_year": 250, "uuid": "18053665-30e0-429c-b424-fa507140f288", "inat_id": 312189190}}, {"type": "Feature", "geometry": {"type": "Point", "coordinates": [-105.91935833, 35.67970278]}, "properties": {"species": "Agaricus malangelus", "date": "2025-09-04", "location": "Santa Fe, New Mexico, United States", "elevation": 2171.0, "num_identification_agreements": 1, "tavg": null, "tmin": 11.0, "tmax": 28.0, "day_of_year": 247, "uuid": "fd7169fe-56ed-4fd8-9b80-28f99b68dc6e", "inat_id": 311710545}}, {"type": "Feature", "geometry": {"type": "Point", "coordinates": [-104.9232406389, 39.6473503056]}, "properties": {"species": "Agaricus malangelus", "date": "2025-09-04", "location": "Southmoor Park, Denver, CO, USA", "elevation": 1708.0, "num_identification_agreements": 2, "tavg": null, "tmin": 17.0, "tmax": 29.0, "day_of_year": 247, "uuid": "32c000f7-66f5-4b53-bccd-b6f3f0a31554", "inat_id": 311558839}}, {"type": "Feature", "geometry": {"type": "Point", "coordinates": [-104.8035388889, 38.8397194444]}, "properties": {"species": "Agaricus malangelus", "date": "2025-08-26", "location": "Middle Shooks Run, Colorado Springs, CO 80903, USA", "elevation": 1854.0, "num_identification_agreements": 1, "tavg": null, "tmin": 13.3, "tmax": 18.3, "day_of_year": 238, "uuid": "f31c5a5a-74a6-42b1-ae6c-f363a19d4d7f", "inat_id": 309392755}}, {"type": "Feature", "geometry": {"type": "Point", "coordinates": [-104.886983, 39.6635417997]}, "properties": {"species": "Agaricus malangelus", "date": "2025-08-25", "location": "Hampden, Denver, CO, USA", "elevation": 1679.0, "num_identification_agreements": 1, "tavg": null, "tmin": 14.4, "tmax": 21.0, "day_of_year": 237, "uuid": "e904abad-727d-4514-8b2f-92a033f4d92d", "inat_id": 309122929}}, {"type": "Feature", "geometry": {"type": "Point", "coordinates": [-104.8867539, 39.6628524997]}, "properties": {"species": "Agaricus malangelus", "date": "2025-08-25", "location": "Hampden, Denver, CO, USA", "elevation": 1679.0, "num_identification_agreements": 2, "tavg": null, "tmin": 14.4, "tmax": 21.0, "day_of_year": 237, "uuid": "ff76e356-735c-455f-8431-3532f40303cf", "inat_id": 309122566}}, {"type": "Feature", "geometry": {"type": "Point", "coordinates": [-104.8172315881, 38.8454244676]}, "properties": {"species": "Agaricus malangelus", "date": "2025-07-15", "location": "N Wahsatch Ave, Colorado Springs, CO, US", "elevation": 1849.0, "num_identification_agreements": 1, "tavg": null, "tmin": 13.3, "tmax": 33.9, "day_of_year": 196, "uuid": "58deed51-3e7e-41d1-935d-bfcf0209c1af", "inat_id": 305662093}}, {"type": "Feature", "geometry": {"type": "Point", "coordinates": [-105.1446366096, 39.9912549471]}, "properties": {"species": "Agaricus malangelus", "date": "2025-07-23", "location": "Dogwood Cir, Louisville, CO, US", "elevation": 1679.0, "num_identification_agreements": 2, "tavg": null, "tmin": 15.9, "tmax": 27.2, "day_of_year": 204, "uuid": "2414acb8-c655-42f8-9dd8-f8cd3dd969e0", "inat_id": 300570181}}, {"type": "Feature", "geometry": {"type": "Point", "coordinates": [-105.1373358753, 39.7463441273]}, "properties": {"species": "Agaricus malangelus", "date": "2024-10-07", "location": "Willow Ln, Lakewood, CO, US", "elevation": 1694.0, "num_identification_agreements": 2, "tavg": null, "tmin": 4.0, "tmax": 26.0, "day_of_year": 281, "uuid": "2f4bba05-bd5d-44d9-8379-54268fdc44ae", "inat_id": 256580388}}, {"type": "Feature", "geometry": {"type": "Point", "coordinates": [-105.1455083333, 39.9779083333]}, "properties": {"species": "Agaricus malangelus", "date": "2024-09-17", "location": "W Spruce St, Louisville, CO, US", "elevation": 1663.0, "num_identification_agreements": 2, "tavg": null, "tmin": 12.0, "tmax": 28.0, "day_of_year": 261, "uuid": "c68e1fa8-1bb7-4782-9a31-2af77b2958fd", "inat_id": 244632521}}, {"type": "Feature", "geometry": {"type": "Point", "coordinates": [-104.7870725045, 39.6431773912]}, "properties": {"species": "Agaricus malangelus", "date": "2024-09-24", "location": "S Richfield St, Aurora, CO, US", "elevation": 1735.0, "num_identification_agreements": 1, "tavg": null, "tmin": 9.7, "tmax": 24.1, "day_of_year": 268, "uuid": "f50ffd9d-0ef5-464f-a258-eae5abd1eec8", "inat_id": 243812626}}, {"type": "Feature", "geometry": {"type": "Point", "coordinates": [-104.9386315781, 39.7549138993]}, "properties": {"species": "Agaricus malangelus", "date": "2024-09-17", "location": "E 26th Ave, Denver, CO, US", "elevation": 1623.0, "num_identification_agreements": 1, "tavg": null, "tmin": 16.2, "tmax": 25.8, "day_of_year": 261, "uuid": "a8ba84f8-4d90-43fa-849d-4d242b6d2357", "inat_id": 242318929}}, {"type": "Feature", "geometry": {"type": "Point", "coordinates": [-104.8970333333, 39.7301166667]}, "properties": {"species": "Agaricus malangelus", "date": "2024-08-27", "location": "E Eighth Pl, Denver, CO, US", "elevation": 1638.0, "num_identification_agreements": 1, "tavg": null, "tmin": 16.7, "tmax": 28.1, "day_of_year": 240, "uuid": "ddcb9f04-68bf-43ef-b135-c57daf002128", "inat_id": 238314777}}, {"type": "Feature", "geometry": {"type": "Point", "coordinates": [-104.88039179, 38.82768275]}, "properties": {"species": "Agaricus malangelus", "date": "2024-08-21", "location": "Bear Creek Regional Park, Colorado Springs, CO 80906, USA", "elevation": 1948.0, "num_identification_agreements": 2, "tavg": null, "tmin": 15.5, "tmax": 29.0, "day_of_year": 234, "uuid": "caa51e3c-3644-4ee5-8430-7b9ac42e02b8", "inat_id": 237225665}}, {"type": "Feature", "geometry": {"type": "Point", "coordinates": [-104.9570472222, 39.7308055556]}, "properties": {"species": "Agaricus malangelus", "date": "2024-08-20", "location": "Congress Park, Denver, CO 80206, USA", "elevation": 1645.0, "num_identification_agreements": 2, "tavg": null, "tmin": 18.6, "tmax": 32.3, "day_of_year": 233, "uuid": "ee22bf85-49f8-4f39-b968-277b41daa8b1", "inat_id": 237223561}}, {"type": "Feature", "geometry": {"type": "Point", "coordinates": [-104.9669256111, 38.9004471335]}, "properties": {"species": "Agaricus malangelus", "date": "2024-08-21", "location": "Colorado, US", "elevation": 2315.0, "num_identification_agreements": 2, "tavg": null, "tmin": 13.0, "tmax": 30.6, "day_of_year": 234, "uuid": "b584b38b-e49e-4935-aacb-025603389af9", "inat_id": 237220633}}, {"type": "Feature", "geometry": {"type": "Point", "coordinates": [-105.0916805556, 39.0999694444]}, "properties": {"species": "Agaricus malangelus", "date": "2024-08-19", "location": "Woodland Park, CO 80863, USA", "elevation": 2369.0, "num_identification_agreements": 1, "tavg": null, "tmin": 13.2, "tmax": 30.4, "day_of_year": 232, "uuid": "91912538-40a6-4cba-9c35-abad2203d4c2", "inat_id": 237044604}}, {"type": "Feature", "geometry": {"type": "Point", "coordinates": [-104.9329288204, 38.7753694478]}, "properties": {"species": "Agaricus malangelus", "date": "2024-08-19", "location": "Colorado, US", "elevation": 3020.0, "num_identification_agreements": 1, "tavg": null, "tmin": 18.0, "tmax": 28.0, "day_of_year": 232, "uuid": "6bae8729-81b6-406a-ae48-22b218e5328b", "inat_id": 236931728}}, {"type": "Feature", "geometry": {"type": "Point", "coordinates": [-104.86521354, 38.79030708]}, "properties": {"species": "Agaricus malangelus", "date": "2024-08-19", "location": "2130 S Cheyenne Canyon Rd, Colorado Springs, CO 80906, USA", "elevation": 1924.0, "num_identification_agreements": 1, "tavg": null, "tmin": 18.0, "tmax": 28.0, "day_of_year": 232, "uuid": "3f266d75-f667-44f7-96b8-a395fd467d06", "inat_id": 236849739}}, {"type": "Feature", "geometry": {"type": "Point", "coordinates": [-107.9667646957, 37.9016035195]}, "properties": {"species": "Agaricus malangelus", "date": "2024-08-17", "location": "Colorado, US", "elevation": 2987.0, "num_identification_agreements": 1, "tavg": null, "tmin": 12.0, "tmax": 23.0, "day_of_year": 230, "uuid": "c79ef9fe-7d8f-467a-8750-b294d81aa713", "inat_id": 236423993}}, {"type": "Feature", "geometry": {"type": "Point", "coordinates": [-104.8598583333, 38.8657472222]}, "properties": {"species": "Agaricus malangelus", "date": "2024-08-10", "location": "Colorado Springs, CO 80904, USA", "elevation": 1945.0, "num_identification_agreements": 1, "tavg": null, "tmin": 12.8, "tmax": 23.7, "day_of_year": 223, "uuid": "a20f7b7d-cf6a-43c2-86d8-80943c660a26", "inat_id": 235432139}}, {"type": "Feature", "geometry": {"type": "Point", "coordinates": [-104.9591852725, 39.7201832647]}, "properties": {"species": "Agaricus malangelus", "date": "2024-08-09", "location": "Cherry Creek, Denver, CO, USA", "elevation": 1622.0, "num_identification_agreements": 1, "tavg": null, "tmin": 14.8, "tmax": 21.7, "day_of_year": 222, "uuid": "630b2036-62da-4544-88b0-2ff7909e8fad", "inat_id": 234747911}}, {"type": "Feature", "geometry": {"type": "Point", "coordinates": [-104.92958, 39.6954083333]}, "properties": {"species": "Agaricus malangelus", "date": "2024-07-02", "location": "E Kansas Dr, Denver, CO, US", "elevation": 1649.0, "num_identification_agreements": 2, "tavg": null, "tmin": 18.1, "tmax": 27.8, "day_of_year": 184, "uuid": "95f93fa6-9b37-4c65-a0cd-530008d82084", "inat_id": 228679249}}, {"type": "Feature", "geometry": {"type": "Point", "coordinates": [-104.7720981762, 38.8852155446]}, "properties": {"species": "Agaricus malangelus", "date": "2023-08-11", "location": "Colorado Springs, CO 80907, USA", "elevation": 1976.0, "num_identification_agreements": 2, "tavg": null, "tmin": 15.0, "tmax": 30.0, "day_of_year": 223, "uuid": "60720dd6-3e78-4790-ae0c-109b8a3632b6", "inat_id": 178126877}}, {"type": "Feature", "geometry": {"type": "Point", "coordinates": [-104.7680926323, 38.8789211951]}, "properties": {"species": "Agaricus malangelus", "date": "2023-08-12", "location": "Palmer Park", "elevation": 1993.0, "num_identification_agreements": 3, "tavg": null, "tmin": 15.0, "tmax": 26.7, "day_of_year": 224, "uuid": "b831ecf8-7a76-4067-9325-507b2fb3014d", "inat_id": 178081758}}, {"type": "Feature", "geometry": {"type": "Point", "coordinates": [-104.8545110598, 38.7068853524]}, "properties": {"species": "Agaricus malangelus", "date": "2022-08-22", "location": "Rock Creek, Colorado Springs, CO, USA", "elevation": 2126.0, "num_identification_agreements": 3, "tavg": null, "tmin": 14.0, "tmax": 22.0, "day_of_year": 234, "uuid": "aa677dac-863d-45a3-abfa-88f621b204a7", "inat_id": 131940870}}, {"type": "Feature", "geometry": {"type": "Point", "coordinates": [-104.8450378329, 38.7081139774]}, "properties": {"species": "Agaricus malangelus", "date": "2020-08-04", "location": "Rock Creek, Colorado Springs, CO, USA", "elevation": 1969.0, "num_identification_agreements": 4, "tavg": null, "tmin": 14.8, "tmax": 32.1, "day_of_year": 217, "uuid": "4c06956a-5549-4670-963b-b2472d8c358d", "inat_id": 131938036}}]}