{"type": "FeatureCollection", "features": [{"type": "Feature", "geometry": {"type": "Point", "coordinates": [-122.0343638889, 45.3857722222]}, "properties": {"species": "Agaricus deardorffensis", "date": "2019-10-04", "location": "Clackamas County, OR, USA", "elevation": 370.0, "land_cover_label": "Tree cover", "water_mask": false, "exclude_reason": "keep", "ndvi": null, "soil_moisture": null, "solar_exposure": null, "wind_exposure": null, "water_retention": null, "slope": null, "aspect": null, "num_identification_agreements": 1, "cluster": 0, "tavg": null, "tmin": 9.4, "tmax": 17.2, "prcp_d0": 0.0, "prcp_d1": 0.0, "prcp_d2": 0.0, "prcp_d3": 0.0, "prcp_d4": 0.0, "prcp_d5": 0.0, "prcp_d6": 0.0, "tmax_d0": 12.0, "tmax_d1": 13.4, "tmax_d2": 15.9, "tmax_d3": 15.1, "tmax_d4": 12.6, "tmax_d5": 9.3, "tmax_d6": 10.9, "tmin_d0": 6.3, "tmin_d1": 8.8, "tmin_d2": 2.9, "tmin_d3": 0.9, "tmin_d4": 4.2, "tmin_d5": 4.1, "tmin_d6": 5.9, "day_of_year": 277, "uuid": "75cbf73c-4aae-4411-8455-905ca187ee47", "inat_id": 34220716}}, {"type": "Feature", "geometry": {"type": "Point", "coordinates": [-122.4845883333, 45.0329861667]}, "properties": {"species": "Agaricus deardorffensis", "date": "2023-10-08", "location": "S Molalla Forest Rd, Molalla, OR, US", "elevation": 235.0, "land_cover_label": "Tree cover", "water_mask": false, "exclude_reason": "keep", "ndvi": null, "soil_moisture": null, "solar_exposure": null, "wind_exposure": null, "water_retention": null, "slope": null, "aspect": null, "num_identification_agreements": 2, "cluster": 0, "tavg": null, "tmin": 10.6, "tmax": 26.1, "prcp_d0": 0.0, "prcp_d1": 0.0, "prcp_d2": 0.0, "prcp_d3": 0.0, "prcp_d4": 0.0, "prcp_d5": 0.0, "prcp_d6": 0.0, "tmax_d0": 25.9, "tmax_d1": 27.8, "tmax_d2": 28.8, "tmax_d3": 26.0, "tmax_d4": 17.2, "tmax_d5": 16.5, "tmax_d6": 16.8, "tmin_d0": 13.6, "tmin_d1": 14.0, "tmin_d2": 19.8, "tmin_d3": 10.7, "tmin_d4": 11.1, "tmin_d5": 12.4, "tmin_d6": 9.8, "day_of_year": 281, "uuid": "0f42b9fc-3a42-41d8-b1f0-2f500ffd9759", "inat_id": 187405408}}, {"type": "Feature", "geometry": {"type": "Point", "coordinates": [-121.7082661, 45.6864835]}, "properties": {"species": "Agaricus deardorffensis", "date": "2024-10-23", "location": "Cascade Locks, OR 97014, USA", "elevation": 42.0, "land_cover_label": "Tree cover", "water_mask": false, "exclude_reason": "keep", "ndvi": null, "soil_moisture": null, "solar_exposure": null, "wind_exposure": null, "water_retention": null, "slope": null, "aspect": null, "num_identification_agreements": 1, "cluster": 1, "tavg": null, "tmin": 4.9, "tmax": 13.0, "prcp_d0": 0.0, "prcp_d1": 4.175331115722656, "prcp_d2": 35.578670501708984, "prcp_d3": 0.0, "prcp_d4": 8.417922019958496, "prcp_d5": 0.0, "prcp_d6": 20.52857208251953, "tmax_d0": 13.6, "tmax_d1": 14.7, "tmax_d2": 19.7, "tmax_d3": 21.8, "tmax_d4": 20.1, "tmax_d5": 13.4, "tmax_d6": 14.1, "tmin_d0": 7.1, "tmin_d1": 7.8, "tmin_d2": 11.2, "tmin_d3": 10.0, "tmin_d4": 10.9, "tmin_d5": 8.0, "tmin_d6": 8.4, "day_of_year": 297, "uuid": "7f2225f9-52ba-415e-ba7f-492325621c75", "inat_id": 248881241}}, {"type": "Feature", "geometry": {"type": "Point", "coordinates": [-122.0424700358, 45.0802355574]}, "properties": {"species": "Agaricus deardorffensis", "date": "2024-10-29", "location": "Mt. Hood National Forest, Estacada, OR, US", "elevation": 456.0, "land_cover_label": "Tree cover", "water_mask": false, "exclude_reason": "keep", "ndvi": null, "soil_moisture": null, "solar_exposure": null, "wind_exposure": null, "water_retention": null, "slope": null, "aspect": null, "num_identification_agreements": 1, "cluster": 0, "tavg": null, "tmin": null, "tmax": null, "prcp_d0": 0.0, "prcp_d1": 0.0, "prcp_d2": 0.0, "prcp_d3": 0.0, "prcp_d4": 0.0, "prcp_d5": 0.0, "prcp_d6": 0.0, "tmax_d0": 9.4, "tmax_d1": 9.5, "tmax_d2": 17.6, "tmax_d3": 19.6, "tmax_d4": 14.6, "tmax_d5": 13.8, "tmax_d6": 12.6, "tmin_d0": 5.5, "tmin_d1": 5.0, "tmin_d2": 9.0, "tmin_d3": 7.3, "tmin_d4": 2.3, "tmin_d5": 0.5, "tmin_d6": 2.8, "day_of_year": 303, "uuid": "01fe69eb-0f4f-48cb-af1a-4cceb8008ae3", "inat_id": 249697966}}, {"type": "Feature", "geometry": {"type": "Point", "coordinates": [-122.3162116359, 45.3313392597]}, "properties": {"species": "Agaricus deardorffensis", "date": "2024-10-31", "location": "Estacada, OR, US", "elevation": 145.0, "land_cover_label": "Tree cover", "water_mask": false, "exclude_reason": "keep", "ndvi": null, "soil_moisture": null, "solar_exposure": null, "wind_exposure": null, "water_retention": null, "slope": null, "aspect": null, "num_identification_agreements": 1, "cluster": 0, "tavg": null, "tmin": 6.7, "tmax": 10.6, "prcp_d0": 0.0, "prcp_d1": 0.0, "prcp_d2": 0.0, "prcp_d3": 0.0, "prcp_d4": 0.0, "prcp_d5": 0.0, "prcp_d6": 0.0, "tmax_d0": 9.6, "tmax_d1": 12.7, "tmax_d2": 11.6, "tmax_d3": 12.0, "tmax_d4": 16.6, "tmax_d5": 18.4, "tmax_d6": 21.2, "tmin_d0": 5.8, "tmin_d1": 4.5, "tmin_d2": 6.0, "tmin_d3": 7.2, "tmin_d4": 10.5, "tmin_d5": 12.9, "tmin_d6": 6.1, "day_of_year": 305, "uuid": "3486e29b-3aa0-4844-9cd2-781f427cd822", "inat_id": 249941537}}, {"type": "Feature", "geometry": {"type": "Point", "coordinates": [-122.2211916667, 45.5382333333]}, "properties": {"species": "Agaricus deardorffensis", "date": "2025-09-30", "location": "Columbia River Gorge National Scenic Area, Corbett, OR, US", "elevation": 81.0, "land_cover_label": "Tree cover", "water_mask": false, "exclude_reason": "keep", "ndvi": null, "soil_moisture": null, "solar_exposure": null, "wind_exposure": null, "water_retention": null, "slope": null, "aspect": null, "num_identification_agreements": 1, "cluster": 0, "tavg": null, "tmin": 10.0, "tmax": 22.0, "prcp_d0": 0.0, "prcp_d1": 27.32875061035156, "prcp_d2": 0.0, "prcp_d3": 0.0, "prcp_d4": 0.0, "prcp_d5": 0.0, "prcp_d6": 0.0, "tmax_d0": 21.7, "tmax_d1": 23.1, "tmax_d2": 23.7, "tmax_d3": 25.8, "tmax_d4": 20.5, "tmax_d5": 25.1, "tmax_d6": 26.3, "tmin_d0": 10.1, "tmin_d1": 13.9, "tmin_d2": 11.5, "tmin_d3": 10.1, "tmin_d4": 7.5, "tmin_d5": 10.7, "tmin_d6": 11.8, "day_of_year": 273, "uuid": "9559f9c1-ebef-49ba-b1fb-f50efe9dd39f", "inat_id": 317951582}}, {"type": "Feature", "geometry": {"type": "Point", "coordinates": [-122.5223915746, 45.2465417376]}, "properties": {"species": "Agaricus deardorffensis", "date": "2025-10-25", "location": "S Brockway Rd, Oregon City, OR, US", "elevation": 157.0, "land_cover_label": "Tree cover", "water_mask": false, "exclude_reason": "keep", "ndvi": null, "soil_moisture": null, "solar_exposure": null, "wind_exposure": null, "water_retention": null, "slope": null, "aspect": null, "num_identification_agreements": 1, "cluster": 1, "tavg": null, "tmin": 7.0, "tmax": 13.0, "prcp_d0": 0.0, "prcp_d1": 37.80050659179688, "prcp_d2": 18.90025329589844, "prcp_d3": 0.0, "prcp_d4": 0.0, "prcp_d5": 0.0, "prcp_d6": 0.0, "tmax_d0": null, "tmax_d1": null, "tmax_d2": null, "tmax_d3": null, "tmax_d4": null, "tmax_d5": null, "tmax_d6": null, "tmin_d0": null, "tmin_d1": null, "tmin_d2": null, "tmin_d3": null, "tmin_d4": null, "tmin_d5": null, "tmin_d6": null, "day_of_year": 298, "uuid": "b9286ce8-2fc4-40af-b078-addb4cc281a9", "inat_id": 323561248}}]}