{"type": "FeatureCollection", "features": [{"type": "Feature", "geometry": {"type": "Point", "coordinates": [-122.1189853179, 45.2533694916]}, "properties": {"species": "Agaricus subrutilescens", "date": "2023-10-08", "location": "Oregon, US", "elevation": 874.0, "land_cover_label": "Tree cover", "water_mask": false, "exclude_reason": "keep", "ndvi": null, "soil_moisture": null, "solar_exposure": null, "wind_exposure": null, "water_retention": null, "slope": null, "aspect": null, "num_identification_agreements": 1, "cluster": 2, "tavg": null, "tmin": 12.8, "tmax": 27.8, "prcp_d0": 0.0, "prcp_d1": 0.0, "prcp_d2": 0.0, "prcp_d3": 0.0, "prcp_d4": 0.0, "prcp_d5": 0.0, "prcp_d6": 0.0, "tmax_d0": 21.6, "tmax_d1": 24.0, "tmax_d2": 21.8, "tmax_d3": 23.8, "tmax_d4": 13.8, "tmax_d5": 10.9, "tmax_d6": 12.0, "tmin_d0": 8.7, "tmin_d1": 12.3, "tmin_d2": 14.7, "tmin_d3": 5.9, "tmin_d4": 7.4, "tmin_d5": 9.0, "tmin_d6": 2.9, "day_of_year": 281, "uuid": "e419b925-3e42-4ef0-ba0d-209e8dcb8302", "inat_id": 186868529}}, {"type": "Feature", "geometry": {"type": "Point", "coordinates": [-122.289305, 45.3244533333]}, "properties": {"species": "Agaricus subrutilescens", "date": "2023-10-11", "location": "Eagle Fern Park, Eagle Creek, OR, US", "elevation": 181.0, "land_cover_label": "Tree cover", "water_mask": false, "exclude_reason": "keep", "ndvi": null, "soil_moisture": null, "solar_exposure": null, "wind_exposure": null, "water_retention": null, "slope": null, "aspect": null, "num_identification_agreements": 2, "cluster": 2, "tavg": null, "tmin": 13.3, "tmax": 18.3, "prcp_d0": 0.0, "prcp_d1": 0.0, "prcp_d2": 20.40785026550293, "prcp_d3": 0.0, "prcp_d4": 0.0, "prcp_d5": 0.0, "prcp_d6": 0.0, "tmax_d0": 13.9, "tmax_d1": 16.1, "tmax_d2": 23.8, "tmax_d3": 26.1, "tmax_d4": 26.8, "tmax_d5": 27.3, "tmax_d6": 26.2, "tmin_d0": 9.4, "tmin_d1": 10.2, "tmin_d2": 12.7, "tmin_d3": 11.4, "tmin_d4": 16.0, "tmin_d5": 18.2, "tmin_d6": 8.1, "day_of_year": 284, "uuid": "9d29f3c8-0096-449a-bfb7-ecbfe39b6286", "inat_id": 187314892}}, {"type": "Feature", "geometry": {"type": "Point", "coordinates": [-122.1873866667, 45.20582]}, "properties": {"species": "Agaricus subrutilescens", "date": "2023-10-17", "location": "Mt. Hood National Forest, Estacada, OR, US", "elevation": 686.0, "land_cover_label": "Tree cover", "water_mask": false, "exclude_reason": "keep", "ndvi": null, "soil_moisture": null, "solar_exposure": null, "wind_exposure": null, "water_retention": null, "slope": null, "aspect": null, "num_identification_agreements": 1, "cluster": 1, "tavg": null, "tmin": 10.6, "tmax": 19.4, "prcp_d0": 0.0, "prcp_d1": 22.83246421813965, "prcp_d2": 0.0, "prcp_d3": 32.71305084228516, "prcp_d4": 0.0, "prcp_d5": 0.0, "prcp_d6": 0.0, "tmax_d0": 16.4, "tmax_d1": 17.5, "tmax_d2": 19.5, "tmax_d3": 14.8, "tmax_d4": 17.7, "tmax_d5": 15.8, "tmax_d6": 10.7, "tmin_d0": 6.4, "tmin_d1": 10.2, "tmin_d2": 8.5, "tmin_d3": 7.4, "tmin_d4": 8.1, "tmin_d5": 7.9, "tmin_d6": 6.4, "day_of_year": 290, "uuid": "cdbe1e3e-6b35-458f-93ae-74d67f3a424a", "inat_id": 187989191}}, {"type": "Feature", "geometry": {"type": "Point", "coordinates": [-122.0990445, 45.298605]}, "properties": {"species": "Agaricus subrutilescens", "date": "2023-10-28", "location": "Eagle Creek, Sandy, OR, US", "elevation": 534.0, "land_cover_label": "Tree cover", "water_mask": false, "exclude_reason": "keep", "ndvi": null, "soil_moisture": null, "solar_exposure": null, "wind_exposure": null, "water_retention": null, "slope": null, "aspect": null, "num_identification_agreements": 1, "cluster": 3, "tavg": null, "tmin": 3.9, "tmax": 12.2, "prcp_d0": 0.0, "prcp_d1": 0.0, "prcp_d2": 0.0, "prcp_d3": 26.023849487304688, "prcp_d4": 26.023849487304688, "prcp_d5": 0.0, "prcp_d6": 0.0, "tmax_d0": 10.5, "tmax_d1": 9.7, "tmax_d2": 6.9, "tmax_d3": 5.6, "tmax_d4": 8.7, "tmax_d5": 11.7, "tmax_d6": 14.6, "tmin_d0": -1.9, "tmin_d1": -2.6, "tmin_d2": 3.3, "tmin_d3": 3.1, "tmin_d4": 5.2, "tmin_d5": 8.1, "tmin_d6": 9.5, "day_of_year": 301, "uuid": "5e3d6072-9a38-4850-af49-173908e4aec5", "inat_id": 189321681}}, {"type": "Feature", "geometry": {"type": "Point", "coordinates": [-121.9392466667, 45.297795]}, "properties": {"species": "Agaricus subrutilescens", "date": "2024-10-20", "location": "Zigzag Ranger Station, Welches, OR, US", "elevation": 507.0, "land_cover_label": "Tree cover", "water_mask": false, "exclude_reason": "keep", "ndvi": null, "soil_moisture": null, "solar_exposure": null, "wind_exposure": null, "water_retention": null, "slope": null, "aspect": null, "num_identification_agreements": 2, "cluster": 2, "tavg": null, "tmin": 8.3, "tmax": 21.1, "prcp_d0": 0.0, "prcp_d1": 0.0, "prcp_d2": 0.0, "prcp_d3": 0.0, "prcp_d4": 0.0, "prcp_d5": 0.0, "prcp_d6": 0.0, "tmax_d0": 21.3, "tmax_d1": 20.4, "tmax_d2": 12.0, "tmax_d3": 9.7, "tmax_d4": 13.6, "tmax_d5": 17.9, "tmax_d6": 21.9, "tmin_d0": 10.3, "tmin_d1": 8.3, "tmin_d2": 3.7, "tmin_d3": 5.3, "tmin_d4": 9.5, "tmin_d5": 12.5, "tmin_d6": 10.9, "day_of_year": 294, "uuid": "943a56d9-0b1f-445c-aebb-683286661118", "inat_id": 248406264}}, {"type": "Feature", "geometry": {"type": "Point", "coordinates": [-122.058059, 45.0325279722]}, "properties": {"species": "Agaricus subrutilescens", "date": "2024-10-29", "location": "Estacada, OR 97023, USA", "elevation": 479.0, "land_cover_label": "Tree cover", "water_mask": false, "exclude_reason": "keep", "ndvi": null, "soil_moisture": null, "solar_exposure": null, "wind_exposure": null, "water_retention": null, "slope": null, "aspect": null, "num_identification_agreements": 1, "cluster": 2, "tavg": null, "tmin": null, "tmax": null, "prcp_d0": 0.0, "prcp_d1": 3.846168756484986, "prcp_d2": 7.908874034881592, "prcp_d3": 0.0, "prcp_d4": 0.0, "prcp_d5": 0.0, "prcp_d6": 0.0, "tmax_d0": 9.6, "tmax_d1": 9.6, "tmax_d2": 17.8, "tmax_d3": 19.8, "tmax_d4": 15.3, "tmax_d5": 13.9, "tmax_d6": 12.8, "tmin_d0": 5.8, "tmin_d1": 5.5, "tmin_d2": 9.1, "tmin_d3": 7.3, "tmin_d4": 1.1, "tmin_d5": 0.8, "tmin_d6": 3.5, "day_of_year": 303, "uuid": "a1c2ea79-57b1-4196-943a-a501d60b3317", "inat_id": 249711004}}, {"type": "Feature", "geometry": {"type": "Point", "coordinates": [-121.9923033333, 45.3499966667]}, "properties": {"species": "Agaricus subrutilescens", "date": "2024-12-02", "location": "Wildwood Recreation Site, Welches, OR, US", "elevation": 392.0, "land_cover_label": "Tree cover", "water_mask": false, "exclude_reason": "keep", "ndvi": null, "soil_moisture": null, "solar_exposure": null, "wind_exposure": null, "water_retention": null, "slope": null, "aspect": null, "num_identification_agreements": 1, "cluster": 2, "tavg": null, "tmin": 4.4, "tmax": 7.8, "prcp_d0": 0.0, "prcp_d1": 0.0, "prcp_d2": 0.0, "prcp_d3": 0.0, "prcp_d4": 0.0, "prcp_d5": 0.0, "prcp_d6": 0.0, "tmax_d0": 15.7, "tmax_d1": 14.7, "tmax_d2": 11.2, "tmax_d3": 7.3, "tmax_d4": 11.1, "tmax_d5": 6.3, "tmax_d6": 5.8, "tmin_d0": -0.9, "tmin_d1": -0.2, "tmin_d2": -3.5, "tmin_d3": -3.4, "tmin_d4": -5.1, "tmin_d5": 2.7, "tmin_d6": -3.4, "day_of_year": 337, "uuid": "86a6c25d-bec8-465a-b929-d7a2bb4578af", "inat_id": 254120824}}]}