{"type": "FeatureCollection", "features": [{"type": "Feature", "geometry": {"type": "Point", "coordinates": [-105.3515944444, 38.9159361111]}, "properties": {"species": "Agaricus moronii", "date": "2025-09-09", "location": "Florissant, CO 80816, USA", "elevation": 2656.0, "num_identification_agreements": 1, "tavg": null, "tmin": 2.9, "tmax": 16.1, "day_of_year": 252, "uuid": "6c2d5026-dbdb-4f63-82e2-88a0bd8dcb70", "inat_id": 312801963}}, {"type": "Feature", "geometry": {"type": "Point", "coordinates": [-105.1938136651, 39.1107477338]}, "properties": {"species": "Agaricus moronii", "date": "2024-09-04", "location": "Colorado, US", "elevation": 2506.0, "num_identification_agreements": 1, "tavg": null, "tmin": 4.6, "tmax": 18.2, "day_of_year": 248, "uuid": "03905530-83a8-4305-9b7a-4b6d80afd90e", "inat_id": 239891706}}, {"type": "Feature", "geometry": {"type": "Point", "coordinates": [-105.0163795297, 38.7404739591]}, "properties": {"species": "Agaricus moronii", "date": "2023-08-04", "location": "Teller County, CO, USA", "elevation": 3046.0, "num_identification_agreements": 1, "tavg": null, "tmin": 18.0, "tmax": 29.0, "day_of_year": 216, "uuid": "fc6b45a1-f14f-41fa-a114-bb1e90950f6e", "inat_id": 200423989}}]}