{"type": "FeatureCollection", "features": [{"type": "Feature", "geometry": {"type": "Point", "coordinates": [-105.83400833, 35.74725278]}, "properties": {"species": "Agaricus benesii", "date": "2025-09-29", "location": "Santa Fe, New Mexico, United States", "elevation": 2709.0, "num_identification_agreements": 3, "tavg": null, "tmin": 8.0, "tmax": 22.0, "day_of_year": 272, "uuid": "ea82d7f9-3b9c-43f9-9181-d135c6da7206", "inat_id": 317816034}}, {"type": "Feature", "geometry": {"type": "Point", "coordinates": [-104.9180364323, 38.67031209]}, "properties": {"species": "Agaricus benesii", "date": "2025-08-26", "location": "Colorado, US", "elevation": 2276.0, "num_identification_agreements": 1, "tavg": null, "tmin": 13.0, "tmax": 15.0, "day_of_year": 238, "uuid": "9978c75c-831f-43ba-8dc1-c20b006491cc", "inat_id": 309416070}}, {"type": "Feature", "geometry": {"type": "Point", "coordinates": [-106.9878231, 38.8697146]}, "properties": {"species": "Agaricus benesii", "date": "2024-08-07", "location": "Crested Butte, CO 81224, USA", "elevation": 2722.0, "num_identification_agreements": 2, "tavg": null, "tmin": 9.4, "tmax": 27.8, "day_of_year": 220, "uuid": "6e113c34-dff5-44bb-a4f3-4ea5b95794da", "inat_id": 290706613}}]}