{"type": "FeatureCollection", "features": [{"type": "Feature", "geometry": {"type": "Point", "coordinates": [-105.73990667, 36.46291667]}, "properties": {"species": "Agaricus deserticola", "date": "2022-08-25", "location": "Taos County, NM, USA", "elevation": 2128.0, "land_cover_label": "Grassland", "water_mask": false, "exclude_reason": "keep", "ndvi": null, "soil_moisture": null, "solar_exposure": null, "wind_exposure": null, "water_retention": null, "slope": null, "aspect": null, "num_identification_agreements": 2, "cluster": 2, "tavg": null, "tmin": 10.6, "tmax": 26.1, "prcp_d0": 0.0, "prcp_d1": 0.0, "prcp_d2": 0.0, "prcp_d3": 0.0, "prcp_d4": 0.0, "prcp_d5": 0.0, "prcp_d6": 0.0, "tmax_d0": 24.2, "tmax_d1": 21.8, "tmax_d2": 21.5, "tmax_d3": 23.3, "tmax_d4": 22.9, "tmax_d5": 21.4, "tmax_d6": 23.8, "tmin_d0": 10.9, "tmin_d1": 10.7, "tmin_d2": 10.9, "tmin_d3": 10.9, "tmin_d4": 10.1, "tmin_d5": 14.0, "tmin_d6": 10.6, "day_of_year": 237, "uuid": "b9608a64-9b77-42e7-8713-013c68b27695", "inat_id": 194694150}}, {"type": "Feature", "geometry": {"type": "Point", "coordinates": [-106.3017083333, 35.9048283333]}, "properties": {"species": "Agaricus deserticola", "date": "2025-06-12", "location": "Range Rd & Aspen Dr, Los Alamos, NM 87544, USA", "elevation": 2184.0, "land_cover_label": "Bare / sparse vegetation", "water_mask": false, "exclude_reason": "keep", "ndvi": null, "soil_moisture": null, "solar_exposure": null, "wind_exposure": null, "water_retention": null, "slope": null, "aspect": null, "num_identification_agreements": 1, "cluster": 2, "tavg": null, "tmin": 14.7, "tmax": 26.8, "prcp_d0": 1.8568962812423704, "prcp_d1": 2.731996297836304, "prcp_d2": 3.331122875213623, "prcp_d3": 6.662245750427246, "prcp_d4": 0.0, "prcp_d5": 0.0, "prcp_d6": 0.0, "tmax_d0": 24.2, "tmax_d1": 25.0, "tmax_d2": 24.0, "tmax_d3": 26.0, "tmax_d4": 26.9, "tmax_d5": 25.8, "tmax_d6": 23.4, "tmin_d0": 11.6, "tmin_d1": 11.8, "tmin_d2": 11.9, "tmin_d3": 12.8, "tmin_d4": 11.9, "tmin_d5": 10.1, "tmin_d6": 10.4, "day_of_year": 163, "uuid": "15000fe9-7d37-4daa-a845-184919584d97", "inat_id": 289023310}}]}