{"type": "FeatureCollection", "features": [{"type": "Feature", "geometry": {"type": "Point", "coordinates": [-104.7027325, 39.5679683]}, "properties": {"species": "Agaricus campestris", "date": "1980-01-01", "location": "8150 S Coolidge Way, Aurora, CO 80016, USA", "elevation": 1871.0, "land_cover_label": "Grassland", "water_mask": false, "exclude_reason": "keep", "ndvi": null, "soil_moisture": 0.2475971307082619, "solar_exposure": 0.8182153105735779, "wind_exposure": 0.3634058833122253, "water_retention": 0.2372641414403915, "slope": 3.741374492645264, "aspect": 299.8698425292969, "num_identification_agreements": 1, "cluster": 0, "tavg": null, "tmin": -2.7, "tmax": 3.9, "prcp_d0": null, "prcp_d1": null, "prcp_d2": null, "prcp_d3": null, "prcp_d4": null, "prcp_d5": null, "prcp_d6": null, "tmax_d0": 3.9, "tmax_d1": -2.5, "tmax_d2": -2.0, "tmax_d3": -2.8, "tmax_d4": -1.6, "tmax_d5": -0.3, "tmax_d6": 1.3, "tmin_d0": -11.6, "tmin_d1": -16.6, "tmin_d2": -18.9, "tmin_d3": -15.7, "tmin_d4": -4.6, "tmin_d5": -3.3, "tmin_d6": -8.2, "day_of_year": 1, "uuid": "e2e01bf8-a9ef-469e-a976-d6c56833764c", "inat_id": 80305209}}, {"type": "Feature", "geometry": {"type": "Point", "coordinates": [-107.2384694867, 39.9900788479]}, "properties": {"species": "Agaricus campestris", "date": "2005-08-26", "location": "Trappers Lake ,Garfield County, CO, USA", "elevation": 2957.0, "land_cover_label": "Grassland", "water_mask": false, "exclude_reason": "keep", "ndvi": null, "soil_moisture": null, "solar_exposure": null, "wind_exposure": null, "water_retention": null, "slope": null, "aspect": null, "num_identification_agreements": 2, "cluster": 0, "tavg": null, "tmin": 11.0, "tmax": 27.0, "prcp_d0": 0.0, "prcp_d1": 0.0, "prcp_d2": 0.0, "prcp_d3": 21.471332550048828, "prcp_d4": 0.0, "prcp_d5": 0.0, "prcp_d6": 0.0, "tmax_d0": 19.2, "tmax_d1": 18.7, "tmax_d2": 18.7, "tmax_d3": 17.2, "tmax_d4": 17.5, "tmax_d5": 18.5, "tmax_d6": 19.5, "tmin_d0": 6.3, "tmin_d1": 6.4, "tmin_d2": 5.6, "tmin_d3": 5.6, "tmin_d4": 4.1, "tmin_d5": 7.9, "tmin_d6": 4.8, "day_of_year": 238, "uuid": "3ab65afe-89be-466d-8ad3-7dc1e77161e0", "inat_id": 266048461}}, {"type": "Feature", "geometry": {"type": "Point", "coordinates": [-107.2384694867, 39.9900788479]}, "properties": {"species": "Agaricus campestris", "date": "2005-08-26", "location": "Trappers Lake ,Garfield County, CO, USA", "elevation": 2957.0, "land_cover_label": "Grassland", "water_mask": false, "exclude_reason": "keep", "ndvi": null, "soil_moisture": null, "solar_exposure": null, "wind_exposure": null, "water_retention": null, "slope": null, "aspect": null, "num_identification_agreements": 2, "cluster": 0, "tavg": null, "tmin": 11.0, "tmax": 27.0, "prcp_d0": 0.0, "prcp_d1": 0.0, "prcp_d2": 0.0, "prcp_d3": 21.471332550048828, "prcp_d4": 0.0, "prcp_d5": 0.0, "prcp_d6": 0.0, "tmax_d0": 19.2, "tmax_d1": 18.7, "tmax_d2": 18.7, "tmax_d3": 17.2, "tmax_d4": 17.5, "tmax_d5": 18.5, "tmax_d6": 19.5, "tmin_d0": 6.3, "tmin_d1": 6.4, "tmin_d2": 5.6, "tmin_d3": 5.6, "tmin_d4": 4.1, "tmin_d5": 7.9, "tmin_d6": 4.8, "day_of_year": 238, "uuid": "1d5b0df6-85ac-41ac-9da7-321f7e86ce14", "inat_id": 266048462}}, {"type": "Feature", "geometry": {"type": "Point", "coordinates": [-104.9135908574, 39.69317958]}, "properties": {"species": "Agaricus campestris", "date": "2018-07-27", "location": "Denver County, US-CO, US", "elevation": 1647.0, "land_cover_label": "Grassland", "water_mask": false, "exclude_reason": "keep", "ndvi": null, "soil_moisture": 0.328407996564134, "solar_exposure": 0.8331862092018127, "wind_exposure": 0.3282918632030487, "water_retention": 0.3975179493427276, "slope": 1.73896324634552, "aspect": 290.9510192871094, "num_identification_agreements": 2, "cluster": 3, "tavg": null, "tmin": 13.8, "tmax": 27.0, "prcp_d0": 0.0, "prcp_d1": 0.0, "prcp_d2": 10.865551948547363, "prcp_d3": 10.865551948547363, "prcp_d4": 10.865551948547363, "prcp_d5": 0.0, "prcp_d6": 0.0, "tmax_d0": 27.0, "tmax_d1": 25.8, "tmax_d2": 28.8, "tmax_d3": 28.9, "tmax_d4": 28.3, "tmax_d5": 32.8, "tmax_d6": 36.1, "tmin_d0": 15.1, "tmin_d1": 14.8, "tmin_d2": 16.3, "tmin_d3": 15.9, "tmin_d4": 16.5, "tmin_d5": 18.0, "tmin_d6": 19.2, "day_of_year": 208, "uuid": "28b33c39-90fc-40b3-8e90-768438058e77", "inat_id": 14793605}}, {"type": "Feature", "geometry": {"type": "Point", "coordinates": [-104.8550713183, 39.4083186015]}, "properties": {"species": "Agaricus campestris", "date": "2018-07-27", "location": "Castle Rock, CO, USA", "elevation": 1918.0, "land_cover_label": "Bare / sparse vegetation", "water_mask": false, "exclude_reason": "keep", "ndvi": null, "soil_moisture": 0.3859902464340587, "solar_exposure": 0.8803155422210693, "wind_exposure": 0.3359448611736297, "water_retention": 0.23079913854599, "slope": 4.116631031036377, "aspect": 191.3597717285156, "num_identification_agreements": 1, "cluster": 3, "tavg": null, "tmin": 15.6, "tmax": 28.9, "prcp_d0": 0.0, "prcp_d1": 0.0, "prcp_d2": 11.62574863433838, "prcp_d3": 11.62574863433838, "prcp_d4": 11.62574863433838, "prcp_d5": 0.0, "prcp_d6": 0.0, "tmax_d0": 25.9, "tmax_d1": 23.0, "tmax_d2": 26.6, "tmax_d3": 28.7, "tmax_d4": 28.0, "tmax_d5": 32.4, "tmax_d6": 33.0, "tmin_d0": 12.9, "tmin_d1": 13.1, "tmin_d2": 14.4, "tmin_d3": 13.7, "tmin_d4": 14.4, "tmin_d5": 16.3, "tmin_d6": 16.6, "day_of_year": 208, "uuid": "7eb9e302-f8a6-49b0-b99b-7b65db3a16d6", "inat_id": 18720458}}, {"type": "Feature", "geometry": {"type": "Point", "coordinates": [-104.67345802, 39.6394618]}, "properties": {"species": "Agaricus campestris", "date": "2018-07-28", "location": "Arapahoe County, US-CO, US", "elevation": 1770.0, "land_cover_label": "Grassland", "water_mask": false, "exclude_reason": "keep", "ndvi": null, "soil_moisture": 0.2916987147295259, "solar_exposure": 0.8227179646492004, "wind_exposure": 0.3186536729335785, "water_retention": 0.263007789850235, "slope": 2.5559117794036865, "aspect": 52.55630493164063, "num_identification_agreements": 1, "cluster": 1, "tavg": null, "tmin": 13.2, "tmax": 24.8, "prcp_d0": 9.170262336730955, "prcp_d1": 0.0, "prcp_d2": 0.0, "prcp_d3": 0.0, "prcp_d4": 10.160414695739746, "prcp_d5": 10.160414695739746, "prcp_d6": 0.0, "tmax_d0": 26.9, "tmax_d1": 26.2, "tmax_d2": 23.7, "tmax_d3": 27.8, "tmax_d4": 28.7, "tmax_d5": 26.9, "tmax_d6": 31.4, "tmin_d0": 13.8, "tmin_d1": 14.8, "tmin_d2": 15.2, "tmin_d3": 17.6, "tmin_d4": 15.9, "tmin_d5": 15.6, "tmin_d6": 19.5, "day_of_year": 209, "uuid": "2afdb348-ead0-49f8-8541-b9399a63c751", "inat_id": 14843974}}, {"type": "Feature", "geometry": {"type": "Point", "coordinates": [-105.8837432861, 37.4781799316]}, "properties": {"species": "Agaricus campestris", "date": "2018-08-23", "location": "505 Berkeley Ave, Alamosa, CO 81101, USA", "elevation": 2304.0, "land_cover_label": "Tree cover", "water_mask": false, "exclude_reason": "keep", "ndvi": null, "soil_moisture": null, "solar_exposure": null, "wind_exposure": null, "water_retention": null, "slope": null, "aspect": null, "num_identification_agreements": 1, "cluster": 0, "tavg": null, "tmin": 7.8, "tmax": 25.6, "prcp_d0": 0.0, "prcp_d1": 0.0, "prcp_d2": 0.0, "prcp_d3": 0.0345975831151008, "prcp_d4": 0.4046771824359894, "prcp_d5": 1.605832815170288, "prcp_d6": 1.7721449136734009, "tmax_d0": 25.4, "tmax_d1": 24.8, "tmax_d2": 27.1, "tmax_d3": 27.1, "tmax_d4": 27.5, "tmax_d5": 25.0, "tmax_d6": 27.0, "tmin_d0": 9.1, "tmin_d1": 8.9, "tmin_d2": 8.3, "tmin_d3": 7.8, "tmin_d4": 6.1, "tmin_d5": 9.8, "tmin_d6": 10.8, "day_of_year": 235, "uuid": "45669039-cb68-4a8c-8722-c36e86aafa92", "inat_id": 16224907}}, {"type": "Feature", "geometry": {"type": "Point", "coordinates": [-104.8071583333, 39.64495]}, "properties": {"species": "Agaricus campestris", "date": "2018-09-30", "location": "3912 S Helena St, Aurora, CO, US", "elevation": 1748.0, "land_cover_label": "Grassland", "water_mask": false, "exclude_reason": "keep", "ndvi": null, "soil_moisture": 0.1314603148156429, "solar_exposure": 0.8224255442619324, "wind_exposure": 0.3218400180339813, "water_retention": 0.3288306295871734, "slope": 2.888166904449463, "aspect": 57.45646286010742, "num_identification_agreements": 1, "cluster": 0, "tavg": null, "tmin": 3.7, "tmax": 18.3, "prcp_d0": 0.0, "prcp_d1": 8.705070495605469, "prcp_d2": 0.0, "prcp_d3": 0.0, "prcp_d4": 0.0, "prcp_d5": 0.0, "prcp_d6": 4.7970380783081055, "tmax_d0": 23.8, "tmax_d1": 29.5, "tmax_d2": 23.4, "tmax_d3": 25.2, "tmax_d4": 21.4, "tmax_d5": 21.8, "tmax_d6": 27.0, "tmin_d0": 6.7, "tmin_d1": 4.6, "tmin_d2": 5.8, "tmin_d3": 7.6, "tmin_d4": 6.8, "tmin_d5": 5.8, "tmin_d6": 12.1, "day_of_year": 273, "uuid": "54782860-c0d4-42de-abdf-5d6fe56205cb", "inat_id": 18867611}}, {"type": "Feature", "geometry": {"type": "Point", "coordinates": [-104.96259793, 39.60598752]}, "properties": {"species": "Agaricus campestris", "date": "2019-06-01", "location": "Littleton, CO 80121, USA", "elevation": 1678.0, "land_cover_label": "Grassland", "water_mask": false, "exclude_reason": "keep", "ndvi": null, "soil_moisture": 0.2982983945730246, "solar_exposure": 0.8490625619888306, "wind_exposure": 0.3368997275829315, "water_retention": 0.2616600394248962, "slope": 2.607444524765014, "aspect": 249.04898071289065, "num_identification_agreements": 1, "cluster": 1, "tavg": null, "tmin": 8.3, "tmax": 23.9, "prcp_d0": 0.0, "prcp_d1": 0.0, "prcp_d2": 0.0, "prcp_d3": 0.0, "prcp_d4": 0.0, "prcp_d5": 16.548431396484375, "prcp_d6": 0.0, "tmax_d0": 24.3, "tmax_d1": 23.0, "tmax_d2": 20.0, "tmax_d3": 13.4, "tmax_d4": 18.7, "tmax_d5": 22.2, "tmax_d6": 23.7, "tmin_d0": 6.6, "tmin_d1": 5.7, "tmin_d2": 4.0, "tmin_d3": 5.1, "tmin_d4": 6.6, "tmin_d5": 6.6, "tmin_d6": 5.1, "day_of_year": 152, "uuid": "82b28e0d-32bf-451d-b55b-971bd8f74502", "inat_id": 26184934}}, {"type": "Feature", "geometry": {"type": "Point", "coordinates": [-105.7112473853, 40.3495400458]}, "properties": {"species": "Agaricus campestris", "date": "2019-07-31", "location": "Rocky Mountain National Park, Estes Park, CO, US", "elevation": 3689.0, "land_cover_label": "Moss and lichen", "water_mask": false, "exclude_reason": "keep", "ndvi": null, "soil_moisture": 0.2997513019823016, "solar_exposure": 0.9705678820610046, "wind_exposure": 0.6384825110435486, "water_retention": 0.098447285592556, "slope": 27.132583618164062, "aspect": 152.841064453125, "num_identification_agreements": 1, "cluster": 0, "tavg": null, "tmin": null, "tmax": null, "prcp_d0": 0.0, "prcp_d1": 0.0, "prcp_d2": 0.0, "prcp_d3": 0.0, "prcp_d4": 0.0, "prcp_d5": 0.0, "prcp_d6": 32.71333312988281, "tmax_d0": 13.8, "tmax_d1": 16.1, "tmax_d2": 17.2, "tmax_d3": 13.7, "tmax_d4": 13.5, "tmax_d5": 14.8, "tmax_d6": 12.1, "tmin_d0": 3.5, "tmin_d1": 2.4, "tmin_d2": -0.4, "tmin_d3": 2.1, "tmin_d4": 2.4, "tmin_d5": 1.6, "tmin_d6": 3.8, "day_of_year": 212, "uuid": "7326e5c7-4aa8-4661-8e34-07aa2b5a210b", "inat_id": 29953059}}, {"type": "Feature", "geometry": {"type": "Point", "coordinates": [-108.03122, 37.7922366667]}, "properties": {"species": "Agaricus campestris", "date": "2019-08-18", "location": "Dolores County, CO, USA", "elevation": 3096.0, "land_cover_label": "Tree cover", "water_mask": false, "exclude_reason": "keep", "ndvi": null, "soil_moisture": null, "solar_exposure": null, "wind_exposure": null, "water_retention": null, "slope": null, "aspect": null, "num_identification_agreements": 5, "cluster": 0, "tavg": null, "tmin": 10.0, "tmax": 24.0, "prcp_d0": 0.0, "prcp_d1": 0.0, "prcp_d2": 0.0, "prcp_d3": 0.0, "prcp_d4": 0.0, "prcp_d5": 0.0, "prcp_d6": 0.0, "tmax_d0": 20.6, "tmax_d1": 18.9, "tmax_d2": 19.2, "tmax_d3": 19.8, "tmax_d4": 20.0, "tmax_d5": 18.3, "tmax_d6": 18.3, "tmin_d0": 5.6, "tmin_d1": 7.3, "tmin_d2": 6.8, "tmin_d3": 4.0, "tmin_d4": 6.1, "tmin_d5": 4.2, "tmin_d6": 8.5, "day_of_year": 230, "uuid": "52d5b0e3-6dec-4439-9bbc-7fd7652285de", "inat_id": 67498232}}, {"type": "Feature", "geometry": {"type": "Point", "coordinates": [-105.0384688916, 38.8982963117]}, "properties": {"species": "Agaricus campestris", "date": "2020-09-04", "location": "Colorado, US", "elevation": 3046.0, "land_cover_label": "Tree cover", "water_mask": false, "exclude_reason": "keep", "ndvi": null, "soil_moisture": null, "solar_exposure": null, "wind_exposure": null, "water_retention": null, "slope": null, "aspect": null, "num_identification_agreements": 2, "cluster": 0, "tavg": null, "tmin": 7.6, "tmax": 31.1, "prcp_d0": 0.0, "prcp_d1": 0.0, "prcp_d2": 0.0, "prcp_d3": 5.443312644958496, "prcp_d4": 0.0, "prcp_d5": 0.0, "prcp_d6": 0.0, "tmax_d0": 21.1, "tmax_d1": 19.8, "tmax_d2": 20.1, "tmax_d3": 15.6, "tmax_d4": 17.8, "tmax_d5": 19.1, "tmax_d6": 15.8, "tmin_d0": 8.2, "tmin_d1": 6.4, "tmin_d2": 6.4, "tmin_d3": 5.0, "tmin_d4": 3.5, "tmin_d5": 9.0, "tmin_d6": 7.3, "day_of_year": 248, "uuid": "d8bb4f03-e697-4533-b341-1149cf4fab53", "inat_id": 58561268}}, {"type": "Feature", "geometry": {"type": "Point", "coordinates": [-105.2857538685, 39.9589386311]}, "properties": {"species": "Agaricus campestris", "date": "2021-05-16", "location": "Boulder County, CO, USA", "elevation": 2087.0, "land_cover_label": "Tree cover", "water_mask": false, "exclude_reason": "keep", "ndvi": null, "soil_moisture": 0.4196131861103643, "solar_exposure": 0.7810978293418884, "wind_exposure": 0.2691986560821533, "water_retention": 0.2545080780982971, "slope": 19.51692008972168, "aspect": 89.12256622314453, "num_identification_agreements": 1, "cluster": 1, "tavg": null, "tmin": 10.0, "tmax": 14.0, "prcp_d0": 3.415670394897461, "prcp_d1": 0.0, "prcp_d2": 0.0, "prcp_d3": 0.0, "prcp_d4": 0.0, "prcp_d5": 11.883667945861816, "prcp_d6": 0.0, "tmax_d0": 11.4, "tmax_d1": 13.7, "tmax_d2": 15.4, "tmax_d3": 15.3, "tmax_d4": 6.7, "tmax_d5": 0.3, "tmax_d6": 4.2, "tmin_d0": 3.3, "tmin_d1": 3.2, "tmin_d2": 1.3, "tmin_d3": -3.1, "tmin_d4": -6.0, "tmin_d5": -2.6, "tmin_d6": 0.4, "day_of_year": 136, "uuid": "08ce76b6-e064-4887-9dc9-bc4e93f11626", "inat_id": 79602100}}, {"type": "Feature", "geometry": {"type": "Point", "coordinates": [-105.2887883333, 39.991755]}, "properties": {"species": "Agaricus campestris", "date": "2021-05-21", "location": "Bergheim Wood, Boulder, CO, US", "elevation": 1882.0, "land_cover_label": "Tree cover", "water_mask": false, "exclude_reason": "keep", "ndvi": null, "soil_moisture": 0.3845221719249486, "solar_exposure": 0.805538535118103, "wind_exposure": 0.2941911816596985, "water_retention": 0.1454446613788604, "slope": 14.318058967590332, "aspect": 88.78142547607422, "num_identification_agreements": 1, "cluster": 1, "tavg": null, "tmin": 9.1, "tmax": 24.4, "prcp_d0": 6.719504833221436, "prcp_d1": 0.0, "prcp_d2": 0.0, "prcp_d3": 3.415670394897461, "prcp_d4": 13.662681579589844, "prcp_d5": 3.415670394897461, "prcp_d6": 0.0, "tmax_d0": 23.6, "tmax_d1": 21.3, "tmax_d2": 17.4, "tmax_d3": 14.2, "tmax_d4": 14.1, "tmax_d5": 14.1, "tmax_d6": 15.8, "tmin_d0": 9.7, "tmin_d1": 5.7, "tmin_d2": 5.3, "tmin_d3": 4.9, "tmin_d4": 7.0, "tmin_d5": 5.3, "tmin_d6": 6.8, "day_of_year": 141, "uuid": "dc30f326-6b9a-4698-86e8-3e39534020f5", "inat_id": 79695361}}, {"type": "Feature", "geometry": {"type": "Point", "coordinates": [-104.860155, 38.88338445]}, "properties": {"species": "Agaricus campestris", "date": "2021-07-02", "location": "Garden of The Gods Club, Colorado Springs, CO, US", "elevation": 1985.0, "land_cover_label": "Tree cover", "water_mask": false, "exclude_reason": "keep", "ndvi": null, "soil_moisture": null, "solar_exposure": null, "wind_exposure": null, "water_retention": null, "slope": null, "aspect": null, "num_identification_agreements": 1, "cluster": 0, "tavg": null, "tmin": 13.2, "tmax": 21.1, "prcp_d0": 24.65052795410156, "prcp_d1": 0.0, "prcp_d2": 0.0, "prcp_d3": 0.0, "prcp_d4": 0.0, "prcp_d5": 0.0, "prcp_d6": 0.0, "tmax_d0": 23.9, "tmax_d1": 21.8, "tmax_d2": 23.3, "tmax_d3": 21.0, "tmax_d4": 18.8, "tmax_d5": 19.1, "tmax_d6": 19.7, "tmin_d0": 13.6, "tmin_d1": 14.6, "tmin_d2": 11.8, "tmin_d3": 8.4, "tmin_d4": 8.8, "tmin_d5": 9.8, "tmin_d6": 11.7, "day_of_year": 183, "uuid": "54bd340e-19f1-42a5-b660-9e90085c8d00", "inat_id": 85421916}}, {"type": "Feature", "geometry": {"type": "Point", "coordinates": [-105.0398028333, 40.5647283333]}, "properties": {"species": "Agaricus campestris", "date": "2021-08-10", "location": "S Timberline Rd, Fort Collins, CO, US", "elevation": 1502.0, "land_cover_label": "Bare / sparse vegetation", "water_mask": false, "exclude_reason": "keep", "ndvi": null, "soil_moisture": 0.1792774968980307, "solar_exposure": 0.8402569890022278, "wind_exposure": 0.3161989152431488, "water_retention": 0.3870841562747955, "slope": 0.4061164557933807, "aspect": 90.0, "num_identification_agreements": 2, "cluster": 0, "tavg": null, "tmin": 16.1, "tmax": 35.6, "prcp_d0": 0.0, "prcp_d1": 0.0, "prcp_d2": 0.0, "prcp_d3": 9.781879425048828, "prcp_d4": 0.0, "prcp_d5": 0.0, "prcp_d6": 0.0, "tmax_d0": 32.1, "tmax_d1": 32.8, "tmax_d2": 32.1, "tmax_d3": 28.9, "tmax_d4": 31.8, "tmax_d5": 30.7, "tmax_d6": 28.8, "tmin_d0": 14.7, "tmin_d1": 13.8, "tmin_d2": 13.2, "tmin_d3": 16.5, "tmin_d4": 14.3, "tmin_d5": 14.0, "tmin_d6": 17.6, "day_of_year": 222, "uuid": "c6df3ff6-697a-4f71-b6e1-2e085f9d4e47", "inat_id": 93193721}}, {"type": "Feature", "geometry": {"type": "Point", "coordinates": [-105.8831466667, 39.9069783333]}, "properties": {"species": "Agaricus campestris", "date": "2021-08-12", "location": "Arapaho & Roosevelt National Forests Pawnee National Grassland, Parshall, CO, US", "elevation": 2766.0, "land_cover_label": "Tree cover", "water_mask": false, "exclude_reason": "keep", "ndvi": null, "soil_moisture": 0.2979656624063538, "solar_exposure": 0.8559514880180359, "wind_exposure": 0.2528590857982635, "water_retention": 0.3651580810546875, "slope": 2.247609615325928, "aspect": 133.7475128173828, "num_identification_agreements": 3, "cluster": 0, "tavg": null, "tmin": 4.2, "tmax": 27.5, "prcp_d0": 5.318371295928955, "prcp_d1": 0.0, "prcp_d2": 0.0, "prcp_d3": 0.0, "prcp_d4": 0.0, "prcp_d5": 0.0, "prcp_d6": 0.0, "tmax_d0": 24.4, "tmax_d1": 23.9, "tmax_d2": 22.2, "tmax_d3": 22.7, "tmax_d4": 22.9, "tmax_d5": 19.5, "tmax_d6": 22.3, "tmin_d0": 8.1, "tmin_d1": 7.5, "tmin_d2": 6.1, "tmin_d3": 7.1, "tmin_d4": 6.0, "tmin_d5": 6.7, "tmin_d6": 7.5, "day_of_year": 224, "uuid": "cd51b5ad-e9d4-4c8b-8c4a-6029c3762957", "inat_id": 91504511}}, {"type": "Feature", "geometry": {"type": "Point", "coordinates": [-104.8045233171, 39.7011641599]}, "properties": {"species": "Agaricus campestris", "date": "2021-09-04", "location": "Centre Pointe, Aurora, CO 80017, USA", "elevation": 1669.0, "land_cover_label": "Grassland", "water_mask": false, "exclude_reason": "keep", "ndvi": null, "soil_moisture": 0.1972601324669496, "solar_exposure": 0.8298072218894958, "wind_exposure": 0.3204275667667389, "water_retention": 0.5464125871658325, "slope": 1.8726835250854488, "aspect": 299.8698425292969, "num_identification_agreements": 1, "cluster": 2, "tavg": null, "tmin": 11.7, "tmax": 28.4, "prcp_d0": 0.0, "prcp_d1": 0.0, "prcp_d2": 0.0, "prcp_d3": 0.0, "prcp_d4": 0.0, "prcp_d5": 0.0, "prcp_d6": 0.0, "tmax_d0": 26.7, "tmax_d1": 25.6, "tmax_d2": 27.4, "tmax_d3": 32.2, "tmax_d4": 32.7, "tmax_d5": 32.7, "tmax_d6": 30.0, "tmin_d0": 13.5, "tmin_d1": 16.4, "tmin_d2": 15.2, "tmin_d3": 18.5, "tmin_d4": 17.9, "tmin_d5": 16.1, "tmin_d6": 14.8, "day_of_year": 247, "uuid": "982a2cfd-9e7d-4617-aa60-8b512fbc4ffa", "inat_id": 93584529}}, {"type": "Feature", "geometry": {"type": "Point", "coordinates": [-104.9713593283, 39.7067003417]}, "properties": {"species": "Agaricus campestris", "date": "2022-06-07", "location": "Denver, Colorado, United States", "elevation": 1634.0, "land_cover_label": "Grassland", "water_mask": false, "exclude_reason": "keep", "ndvi": null, "soil_moisture": 0.1844345968304502, "solar_exposure": 0.8743725419044495, "wind_exposure": 0.338133692741394, "water_retention": 0.2393710166215896, "slope": 3.626587390899658, "aspect": 199.6033172607422, "num_identification_agreements": 1, "cluster": 0, "tavg": null, "tmin": 10.8, "tmax": 24.5, "prcp_d0": 0.0, "prcp_d1": 0.0, "prcp_d2": 0.0, "prcp_d3": 7.542357444763184, "prcp_d4": 7.542357444763184, "prcp_d5": 0.0, "prcp_d6": 0.0, "tmax_d0": 25.1, "tmax_d1": 26.6, "tmax_d2": 27.8, "tmax_d3": 28.3, "tmax_d4": 23.6, "tmax_d5": 21.3, "tmax_d6": 16.6, "tmin_d0": 11.3, "tmin_d1": 11.1, "tmin_d2": 12.4, "tmin_d3": 8.3, "tmin_d4": 8.0, "tmin_d5": 5.4, "tmin_d6": 5.0, "day_of_year": 158, "uuid": "de92f96b-ff6c-4ae4-b9b3-f6d7f81678d1", "inat_id": 120690914}}, {"type": "Feature", "geometry": {"type": "Point", "coordinates": [-104.7282791138, 38.7632141113]}, "properties": {"species": "Agaricus campestris", "date": "2022-07-05", "location": "Widefield", "elevation": 1790.0, "land_cover_label": "Grassland", "water_mask": false, "exclude_reason": "keep", "ndvi": null, "soil_moisture": null, "solar_exposure": null, "wind_exposure": null, "water_retention": null, "slope": null, "aspect": null, "num_identification_agreements": 1, "cluster": 3, "tavg": null, "tmin": 16.1, "tmax": 33.3, "prcp_d0": 0.0, "prcp_d1": 7.858978271484375, "prcp_d2": 7.858978271484375, "prcp_d3": 0.0, "prcp_d4": 0.0, "prcp_d5": 7.703128814697266, "prcp_d6": 0.0, "tmax_d0": 33.2, "tmax_d1": 32.8, "tmax_d2": 29.3, "tmax_d3": 30.3, "tmax_d4": 27.3, "tmax_d5": 29.7, "tmax_d6": 33.3, "tmin_d0": 15.6, "tmin_d1": 14.4, "tmin_d2": 15.4, "tmin_d3": 13.9, "tmin_d4": 14.1, "tmin_d5": 14.7, "tmin_d6": 13.4, "day_of_year": 186, "uuid": "04d7102d-ccdf-4ca4-b8e4-d9949e8dd3bf", "inat_id": 124878426}}, {"type": "Feature", "geometry": {"type": "Point", "coordinates": [-105.6124644797, 40.0586468756]}, "properties": {"species": "Agaricus campestris", "date": "2022-07-12", "location": "Arapaho & Roosevelt National Forests Pawnee National Grassland, Ward, CO, US", "elevation": 3694.0, "land_cover_label": "Moss and lichen", "water_mask": false, "exclude_reason": "keep", "ndvi": null, "soil_moisture": 0.3133069185025354, "solar_exposure": 0.8874979019165039, "wind_exposure": 0.4965578615665436, "water_retention": 0.2086095660924911, "slope": 5.7117767333984375, "aspect": 150.2596893310547, "num_identification_agreements": 1, "cluster": 0, "tavg": null, "tmin": 5.2, "tmax": 26.0, "prcp_d0": 0.0, "prcp_d1": 2.852574825286865, "prcp_d2": 0.0, "prcp_d3": 0.0, "prcp_d4": 0.0, "prcp_d5": 0.0, "prcp_d6": 0.0, "tmax_d0": 15.9, "tmax_d1": 16.9, "tmax_d2": 17.7, "tmax_d3": 17.4, "tmax_d4": 15.9, "tmax_d5": 12.9, "tmax_d6": 12.2, "tmin_d0": 3.8, "tmin_d1": 1.9, "tmin_d2": 8.1, "tmin_d3": 5.8, "tmin_d4": 4.6, "tmin_d5": 0.3, "tmin_d6": 0.6, "day_of_year": 193, "uuid": "95058f48-034a-454d-a5db-27e850a9799c", "inat_id": 125996450}}, {"type": "Feature", "geometry": {"type": "Point", "coordinates": [-105.5834666667, 40.0505945]}, "properties": {"species": "Agaricus campestris", "date": "2022-07-27", "location": "Arapaho & Roosevelt National Forests Pawnee National Grassland, Ward, CO, US", "elevation": 3460.0, "land_cover_label": "Moss and lichen", "water_mask": false, "exclude_reason": "keep", "ndvi": null, "soil_moisture": 0.3376820280568746, "solar_exposure": 0.9093158841133118, "wind_exposure": 0.3544903993606567, "water_retention": 0.2075978368520736, "slope": 11.47874355316162, "aspect": 138.4547882080078, "num_identification_agreements": 1, "cluster": 0, "tavg": null, "tmin": 7.6, "tmax": 27.3, "prcp_d0": 0.0, "prcp_d1": 0.0, "prcp_d2": 0.0, "prcp_d3": 12.33629322052002, "prcp_d4": 12.33629322052002, "prcp_d5": 0.0, "prcp_d6": 0.0, "tmax_d0": 18.4, "tmax_d1": 16.8, "tmax_d2": 17.2, "tmax_d3": 15.5, "tmax_d4": 19.2, "tmax_d5": 18.5, "tmax_d6": 18.5, "tmin_d0": 4.4, "tmin_d1": 5.1, "tmin_d2": 4.5, "tmin_d3": 5.1, "tmin_d4": 8.4, "tmin_d5": 6.1, "tmin_d6": 5.5, "day_of_year": 208, "uuid": "221410f8-eaf2-4dd5-935e-3426c2b97430", "inat_id": 128220644}}, {"type": "Feature", "geometry": {"type": "Point", "coordinates": [-107.8250610272, 37.9584205273]}, "properties": {"species": "Agaricus campestris", "date": "2022-08-17", "location": "Grand Mesa Uncompahgre and Gunnison National Forests, Telluride, CO, US", "elevation": 2942.0, "land_cover_label": "Tree cover", "water_mask": false, "exclude_reason": "keep", "ndvi": null, "soil_moisture": null, "solar_exposure": null, "wind_exposure": null, "water_retention": null, "slope": null, "aspect": null, "num_identification_agreements": 1, "cluster": 1, "tavg": null, "tmin": 11.0, "tmax": 18.0, "prcp_d0": 0.0, "prcp_d1": 0.0, "prcp_d2": 0.0, "prcp_d3": 0.0, "prcp_d4": 0.0, "prcp_d5": 17.591333389282227, "prcp_d6": 17.591333389282227, "tmax_d0": 17.6, "tmax_d1": 18.3, "tmax_d2": 19.9, "tmax_d3": 21.3, "tmax_d4": 20.3, "tmax_d5": 20.2, "tmax_d6": 20.1, "tmin_d0": 4.5, "tmin_d1": 6.2, "tmin_d2": 6.3, "tmin_d3": 5.5, "tmin_d4": 6.5, "tmin_d5": 6.0, "tmin_d6": 6.6, "day_of_year": 229, "uuid": "47aa0d9f-f021-40ca-8273-dbd01ba2c041", "inat_id": 131214705}}, {"type": "Feature", "geometry": {"type": "Point", "coordinates": [-105.7328333333, 40.4126966667]}, "properties": {"species": "Agaricus campestris", "date": "2022-08-19", "location": "Rocky Mountain National Park, Estes Park, CO, US", "elevation": 3704.0, "land_cover_label": "Moss and lichen", "water_mask": false, "exclude_reason": "keep", "ndvi": null, "soil_moisture": 0.3607990065437878, "solar_exposure": 0.8486785292625427, "wind_exposure": 0.5652656555175781, "water_retention": 0.1833584308624267, "slope": 8.27600383758545, "aspect": 257.0619201660156, "num_identification_agreements": 1, "cluster": 1, "tavg": null, "tmin": 6.7, "tmax": 22.1, "prcp_d0": 0.0, "prcp_d1": 0.0, "prcp_d2": 0.0, "prcp_d3": 14.919012069702148, "prcp_d4": 0.0, "prcp_d5": 12.897534370422363, "prcp_d6": 12.897534370422363, "tmax_d0": 11.7, "tmax_d1": 14.6, "tmax_d2": 13.2, "tmax_d3": 9.6, "tmax_d4": 14.0, "tmax_d5": 16.1, "tmax_d6": 14.8, "tmin_d0": 2.5, "tmin_d1": 2.3, "tmin_d2": 1.1, "tmin_d3": 1.8, "tmin_d4": 4.5, "tmin_d5": 4.5, "tmin_d6": 3.3, "day_of_year": 231, "uuid": "f7b8f85c-80e9-4e01-9fd2-9d8846d7e765", "inat_id": 143982291}}, {"type": "Feature", "geometry": {"type": "Point", "coordinates": [-106.2555, 39.49292]}, "properties": {"species": "Agaricus campestris", "date": "2022-08-27", "location": "White River National Forest, Basalt, CO, US", "elevation": 3589.0, "land_cover_label": "Moss and lichen", "water_mask": false, "exclude_reason": "keep", "ndvi": null, "soil_moisture": null, "solar_exposure": null, "wind_exposure": null, "water_retention": null, "slope": null, "aspect": null, "num_identification_agreements": 1, "cluster": 0, "tavg": null, "tmin": 2.8, "tmax": 18.3, "prcp_d0": 0.0, "prcp_d1": 0.0, "prcp_d2": 0.0, "prcp_d3": 0.0, "prcp_d4": 0.0, "prcp_d5": 12.357562065124512, "prcp_d6": 0.0, "tmax_d0": 13.6, "tmax_d1": 11.0, "tmax_d2": 14.8, "tmax_d3": 14.4, "tmax_d4": 14.9, "tmax_d5": 13.2, "tmax_d6": 13.3, "tmin_d0": 0.2, "tmin_d1": 2.9, "tmin_d2": 4.0, "tmin_d3": 1.4, "tmin_d4": -0.0, "tmin_d5": -0.8, "tmin_d6": -0.5, "day_of_year": 239, "uuid": "711f3436-ab11-4002-9920-70f05350c8a4", "inat_id": 135486856}}, {"type": "Feature", "geometry": {"type": "Point", "coordinates": [-105.2885056907, 39.7176586905]}, "properties": {"species": "Agaricus campestris", "date": "2022-10-10", "location": "Aspen Way, Golden, CO, US", "elevation": 2361.0, "land_cover_label": "Grassland", "water_mask": false, "exclude_reason": "keep", "ndvi": null, "soil_moisture": 0.2532425727550445, "solar_exposure": 0.7849712371826172, "wind_exposure": 0.3586705327033996, "water_retention": 0.2343721538782119, "slope": 7.773737907409668, "aspect": 56.17609786987305, "num_identification_agreements": 1, "cluster": 0, "tavg": null, "tmin": 9.0, "tmax": 23.0, "prcp_d0": 0.0, "prcp_d1": 0.0, "prcp_d2": 0.0, "prcp_d3": 0.0, "prcp_d4": 6.419935703277588, "prcp_d5": 0.0, "prcp_d6": 0.0, "tmax_d0": 18.2, "tmax_d1": 15.2, "tmax_d2": 11.8, "tmax_d3": 11.9, "tmax_d4": 15.1, "tmax_d5": 13.4, "tmax_d6": 13.4, "tmin_d0": 1.6, "tmin_d1": 0.6, "tmin_d2": -1.0, "tmin_d3": 1.1, "tmin_d4": 1.9, "tmin_d5": 1.5, "tmin_d6": 3.1, "day_of_year": 283, "uuid": "e26b6840-70f1-4a70-ac9b-8e8ba0925c23", "inat_id": 138897636}}, {"type": "Feature", "geometry": {"type": "Point", "coordinates": [-105.1119655744, 39.773645578]}, "properties": {"species": "Agaricus campestris", "date": "2023-05-15", "location": "W 41st Ave, Wheat Ridge, CO, US", "elevation": 1638.0, "land_cover_label": "Tree cover", "water_mask": false, "exclude_reason": "keep", "ndvi": null, "soil_moisture": 0.4164486070966935, "solar_exposure": 0.8335094451904297, "wind_exposure": 0.3121694326400757, "water_retention": 0.4456022381782532, "slope": 1.0229346752166748, "aspect": 52.55630493164063, "num_identification_agreements": 2, "cluster": 1, "tavg": null, "tmin": 8.0, "tmax": 15.0, "prcp_d0": 0.0, "prcp_d1": 0.0, "prcp_d2": 0.0, "prcp_d3": 18.17227554321289, "prcp_d4": 72.68910217285156, "prcp_d5": 3.939042568206787, "prcp_d6": 0.0, "tmax_d0": 15.8, "tmax_d1": 14.9, "tmax_d2": 14.7, "tmax_d3": 15.3, "tmax_d4": 11.3, "tmax_d5": 19.4, "tmax_d6": 22.5, "tmin_d0": 8.1, "tmin_d1": 8.4, "tmin_d2": 5.8, "tmin_d3": 7.5, "tmin_d4": 6.1, "tmin_d5": 7.3, "tmin_d6": 5.6, "day_of_year": 135, "uuid": "f433c071-fa39-426b-99bb-7b8a9acd68e9", "inat_id": 161901558}}, {"type": "Feature", "geometry": {"type": "Point", "coordinates": [-105.177347168, 40.1854587517]}, "properties": {"species": "Agaricus campestris", "date": "2023-06-08", "location": "Boulder County, CO, USA", "elevation": 1552.0, "land_cover_label": "Grassland", "water_mask": false, "exclude_reason": "keep", "ndvi": null, "soil_moisture": 0.3421706247185422, "solar_exposure": 0.84292072057724, "wind_exposure": 0.3126803338527679, "water_retention": 0.2189908027648925, "slope": 4.901021957397461, "aspect": 97.2732162475586, "num_identification_agreements": 1, "cluster": 0, "tavg": null, "tmin": 12.7, "tmax": 27.7, "prcp_d0": 0.0, "prcp_d1": 0.0, "prcp_d2": 3.974430561065674, "prcp_d3": 0.0, "prcp_d4": 0.0, "prcp_d5": 0.0, "prcp_d6": 0.0, "tmax_d0": 23.7, "tmax_d1": 21.4, "tmax_d2": 22.1, "tmax_d3": 20.7, "tmax_d4": 16.8, "tmax_d5": 18.7, "tmax_d6": 20.7, "tmin_d0": 10.1, "tmin_d1": 9.9, "tmin_d2": 9.7, "tmin_d3": 10.6, "tmin_d4": 11.9, "tmin_d5": 10.2, "tmin_d6": 10.8, "day_of_year": 159, "uuid": "006afccb-fae0-4985-ad7f-a88139f9baaf", "inat_id": 166340324}}, {"type": "Feature", "geometry": {"type": "Point", "coordinates": [-104.9637419722, 39.732264]}, "properties": {"species": "Agaricus campestris", "date": "2023-06-15", "location": "Cheesman Park, Denver, CO, USA", "elevation": 1646.0, "land_cover_label": "Tree cover", "water_mask": false, "exclude_reason": "keep", "ndvi": null, "soil_moisture": 0.3263057320736752, "solar_exposure": 0.856143593788147, "wind_exposure": 0.3386717438697815, "water_retention": 0.2804226577281952, "slope": 1.9746628999710083, "aspect": 141.9202880859375, "num_identification_agreements": 1, "cluster": 0, "tavg": null, "tmin": 13.0, "tmax": 22.3, "prcp_d0": 7.520040988922119, "prcp_d1": 0.0, "prcp_d2": 0.0, "prcp_d3": 10.026721000671388, "prcp_d4": 2.5066802501678467, "prcp_d5": 5.312597274780273, "prcp_d6": 7.968896865844727, "tmax_d0": 22.0, "tmax_d1": 24.6, "tmax_d2": 18.3, "tmax_d3": 18.4, "tmax_d4": 21.5, "tmax_d5": 23.2, "tmax_d6": 24.6, "tmin_d0": 9.0, "tmin_d1": 7.8, "tmin_d2": 7.9, "tmin_d3": 10.1, "tmin_d4": 9.4, "tmin_d5": 9.3, "tmin_d6": 10.2, "day_of_year": 166, "uuid": "969ce6ac-e4d6-44f7-835d-9c45ae78e13b", "inat_id": 167577184}}, {"type": "Feature", "geometry": {"type": "Point", "coordinates": [-105.1434194444, 40.5490194444]}, "properties": {"species": "Agaricus campestris", "date": "2023-06-17", "location": "Fort Collins, CO 80526, USA", "elevation": 1597.0, "land_cover_label": "Grassland", "water_mask": false, "exclude_reason": "keep", "ndvi": null, "soil_moisture": 0.4222802913794533, "solar_exposure": 0.8088108897209167, "wind_exposure": 0.286130428314209, "water_retention": 0.2269626855850219, "slope": 8.663691520690918, "aspect": 77.65869903564453, "num_identification_agreements": 1, "cluster": 3, "tavg": null, "tmin": 8.9, "tmax": 23.9, "prcp_d0": 0.0, "prcp_d1": 28.98499298095703, "prcp_d2": 27.645830154418945, "prcp_d3": 0.0, "prcp_d4": 0.0, "prcp_d5": 13.822915077209473, "prcp_d6": 0.0, "tmax_d0": 18.1, "tmax_d1": 16.3, "tmax_d2": 20.8, "tmax_d3": 23.3, "tmax_d4": 18.4, "tmax_d5": 16.8, "tmax_d6": 19.2, "tmin_d0": 8.8, "tmin_d1": 11.0, "tmin_d2": 9.9, "tmin_d3": 7.6, "tmin_d4": 10.8, "tmin_d5": 11.6, "tmin_d6": 10.8, "day_of_year": 168, "uuid": "a302a5d1-8f4e-4914-ab44-8ff2ec3c9d55", "inat_id": 167986882}}, {"type": "Feature", "geometry": {"type": "Point", "coordinates": [-106.414213495, 35.9914511737]}, "properties": {"species": "Agaricus campestris", "date": "2023-09-20", "location": "New Mexico, US", "elevation": 2935.0, "land_cover_label": "Tree cover", "water_mask": false, "exclude_reason": "keep", "ndvi": null, "soil_moisture": null, "solar_exposure": null, "wind_exposure": null, "water_retention": null, "slope": null, "aspect": null, "num_identification_agreements": 1, "cluster": 0, "tavg": null, "tmin": 11.0, "tmax": 21.9, "prcp_d0": 10.870512008666992, "prcp_d1": 0.0, "prcp_d2": 0.0, "prcp_d3": 0.0, "prcp_d4": 0.0, "prcp_d5": 0.0, "prcp_d6": 0.0, "tmax_d0": 17.1, "tmax_d1": 16.3, "tmax_d2": 16.7, "tmax_d3": 15.4, "tmax_d4": 14.3, "tmax_d5": 12.5, "tmax_d6": 14.5, "tmin_d0": 4.8, "tmin_d1": 4.4, "tmin_d2": 5.0, "tmin_d3": 4.3, "tmin_d4": 2.3, "tmin_d5": 3.3, "tmin_d6": 5.1, "day_of_year": 263, "uuid": "f0a43c64-31ef-4761-b650-707cfb33ea9a", "inat_id": 184189698}}, {"type": "Feature", "geometry": {"type": "Point", "coordinates": [-107.5103443436, 39.5644269487]}, "properties": {"species": "Agaricus campestris", "date": "2023-09-28", "location": "Grand River Park, New Castle, CO, US", "elevation": 1704.0, "land_cover_label": "Grassland", "water_mask": false, "exclude_reason": "keep", "ndvi": null, "soil_moisture": null, "solar_exposure": null, "wind_exposure": null, "water_retention": null, "slope": null, "aspect": null, "num_identification_agreements": 1, "cluster": 0, "tavg": null, "tmin": 4.4, "tmax": 28.9, "prcp_d0": 0.0, "prcp_d1": 0.0, "prcp_d2": 0.0, "prcp_d3": 0.0, "prcp_d4": 0.0, "prcp_d5": 0.0, "prcp_d6": 0.0, "tmax_d0": 28.5, "tmax_d1": 28.2, "tmax_d2": 28.0, "tmax_d3": 25.9, "tmax_d4": 23.7, "tmax_d5": 22.8, "tmax_d6": 25.3, "tmin_d0": 7.3, "tmin_d1": 6.9, "tmin_d2": 5.0, "tmin_d3": 3.9, "tmin_d4": 2.7, "tmin_d5": 4.1, "tmin_d6": 9.0, "day_of_year": 271, "uuid": "afb2d47b-3a7e-4732-9613-50294394a63f", "inat_id": 185344258}}, {"type": "Feature", "geometry": {"type": "Point", "coordinates": [-108.3016711133, 37.4273914745]}, "properties": {"species": "Agaricus campestris", "date": "2024-07-02", "location": "San Juan National Forest - Headquarters, Mancos, CO, US", "elevation": 2408.0, "land_cover_label": "Tree cover", "water_mask": false, "exclude_reason": "keep", "ndvi": null, "soil_moisture": null, "solar_exposure": null, "wind_exposure": null, "water_retention": null, "slope": null, "aspect": null, "num_identification_agreements": 1, "cluster": 0, "tavg": null, "tmin": 14.3, "tmax": 31.0, "prcp_d0": 0.0, "prcp_d1": 0.0, "prcp_d2": 0.0, "prcp_d3": 0.0, "prcp_d4": 0.0, "prcp_d5": 0.0, "prcp_d6": 0.0, "tmax_d0": 24.2, "tmax_d1": 21.9, "tmax_d2": 25.0, "tmax_d3": 25.8, "tmax_d4": 23.8, "tmax_d5": 25.7, "tmax_d6": 26.4, "tmin_d0": 13.7, "tmin_d1": 14.5, "tmin_d2": 14.7, "tmin_d3": 12.0, "tmin_d4": 11.7, "tmin_d5": 16.1, "tmin_d6": 16.0, "day_of_year": 184, "uuid": "1df030c1-84da-4f31-a4d6-d5363dd9f8e1", "inat_id": 227434551}}, {"type": "Feature", "geometry": {"type": "Point", "coordinates": [-106.4169083333, 39.5770716667]}, "properties": {"species": "Agaricus campestris", "date": "2024-07-03", "location": "White River National Forest, Minturn, CO, US", "elevation": 2430.0, "land_cover_label": "Grassland", "water_mask": false, "exclude_reason": "keep", "ndvi": null, "soil_moisture": null, "solar_exposure": null, "wind_exposure": null, "water_retention": null, "slope": null, "aspect": null, "num_identification_agreements": 1, "cluster": 1, "tavg": null, "tmin": 8.0, "tmax": 16.0, "prcp_d0": 0.0, "prcp_d1": 0.0, "prcp_d2": 5.264572620391846, "prcp_d3": 0.0, "prcp_d4": 0.0, "prcp_d5": 16.42267608642578, "prcp_d6": 0.0, "tmax_d0": 22.3, "tmax_d1": 20.7, "tmax_d2": 21.1, "tmax_d3": 24.7, "tmax_d4": 25.5, "tmax_d5": 22.7, "tmax_d6": 22.5, "tmin_d0": 5.5, "tmin_d1": 9.1, "tmin_d2": 12.1, "tmin_d3": 10.3, "tmin_d4": 7.8, "tmin_d5": 7.5, "tmin_d6": 9.8, "day_of_year": 185, "uuid": "e0394eb2-e633-46d0-b3d7-732e5e05e3ab", "inat_id": 227094299}}, {"type": "Feature", "geometry": {"type": "Point", "coordinates": [-104.8972783333, 39.7311533333]}, "properties": {"species": "Agaricus campestris", "date": "2024-07-15", "location": "E Ninth Ave, Denver, CO, US", "elevation": 1638.0, "land_cover_label": "Tree cover", "water_mask": false, "exclude_reason": "keep", "ndvi": null, "soil_moisture": 0.1216315915748615, "solar_exposure": 0.8318983316421509, "wind_exposure": 0.3222409784793854, "water_retention": 0.3664732873439789, "slope": 3.3043196201324463, "aspect": 79.1623306274414, "num_identification_agreements": 1, "cluster": 0, "tavg": null, "tmin": 21.7, "tmax": 34.2, "prcp_d0": 7.214409828186035, "prcp_d1": 0.0, "prcp_d2": 0.0, "prcp_d3": 0.0, "prcp_d4": 0.0, "prcp_d5": 0.0, "prcp_d6": 0.0, "tmax_d0": 34.9, "tmax_d1": 36.4, "tmax_d2": 37.1, "tmax_d3": 38.5, "tmax_d4": 35.2, "tmax_d5": 33.3, "tmax_d6": 31.0, "tmin_d0": 19.1, "tmin_d1": 18.3, "tmin_d2": 16.0, "tmin_d3": 17.7, "tmin_d4": 16.0, "tmin_d5": 14.0, "tmin_d6": 13.6, "day_of_year": 197, "uuid": "d9bb33f7-e5ef-4ec0-8cb6-a0d141916531", "inat_id": 229616881}}, {"type": "Feature", "geometry": {"type": "Point", "coordinates": [-105.0272342394, 37.8350884616]}, "properties": {"species": "Agaricus campestris", "date": "2024-08-01", "location": "Colorado, US", "elevation": 2653.0, "land_cover_label": "Tree cover", "water_mask": false, "exclude_reason": "keep", "ndvi": null, "soil_moisture": null, "solar_exposure": null, "wind_exposure": null, "water_retention": null, "slope": null, "aspect": null, "num_identification_agreements": 1, "cluster": 0, "tavg": null, "tmin": 19.4, "tmax": 32.5, "prcp_d0": 0.0, "prcp_d1": 0.0, "prcp_d2": 0.0, "prcp_d3": 0.0, "prcp_d4": 0.0, "prcp_d5": 5.883014678955078, "prcp_d6": 6.165145397186279, "tmax_d0": 25.6, "tmax_d1": 27.7, "tmax_d2": 26.4, "tmax_d3": 24.6, "tmax_d4": 25.5, "tmax_d5": 24.4, "tmax_d6": 22.9, "tmin_d0": 11.7, "tmin_d1": 14.6, "tmin_d2": 14.3, "tmin_d3": 13.4, "tmin_d4": 13.0, "tmin_d5": 11.5, "tmin_d6": 13.4, "day_of_year": 214, "uuid": "05ac235d-4925-4e7c-bc0f-caa33ba6361f", "inat_id": 233880988}}, {"type": "Feature", "geometry": {"type": "Point", "coordinates": [-105.8094722222, 35.7936055556]}, "properties": {"species": "Agaricus campestris", "date": "2024-08-10", "location": "Santa Fe County, NM, USA", "elevation": 3055.0, "land_cover_label": "Tree cover", "water_mask": false, "exclude_reason": "keep", "ndvi": null, "soil_moisture": null, "solar_exposure": null, "wind_exposure": null, "water_retention": null, "slope": null, "aspect": null, "num_identification_agreements": 1, "cluster": 3, "tavg": null, "tmin": 17.2, "tmax": 28.3, "prcp_d0": 5.929532051086426, "prcp_d1": 11.859064102172852, "prcp_d2": 11.859064102172852, "prcp_d3": 0.0, "prcp_d4": 5.929532051086426, "prcp_d5": 8.402263641357422, "prcp_d6": 0.0, "tmax_d0": 18.1, "tmax_d1": 17.5, "tmax_d2": 20.7, "tmax_d3": 21.6, "tmax_d4": 23.0, "tmax_d5": 22.0, "tmax_d6": 22.9, "tmin_d0": 9.1, "tmin_d1": 8.0, "tmin_d2": 8.3, "tmin_d3": 10.9, "tmin_d4": 8.9, "tmin_d5": 10.2, "tmin_d6": 9.6, "day_of_year": 223, "uuid": "aea2e223-74fd-48ff-8f1a-4b5ae508431a", "inat_id": 236953985}}, {"type": "Feature", "geometry": {"type": "Point", "coordinates": [-105.2643966675, 39.992805481]}, "properties": {"species": "Agaricus campestris", "date": "2024-08-20", "location": "Boulder", "elevation": 1668.0, "land_cover_label": "Grassland", "water_mask": false, "exclude_reason": "keep", "ndvi": null, "soil_moisture": 0.2224605473867138, "solar_exposure": 0.8194868564605713, "wind_exposure": 0.3095686435699463, "water_retention": 0.3393235504627228, "slope": 2.472496747970581, "aspect": 41.04240798950195, "num_identification_agreements": 1, "cluster": 0, "tavg": null, "tmin": 16.0, "tmax": 35.0, "prcp_d0": 0.0, "prcp_d1": 0.0, "prcp_d2": 0.0, "prcp_d3": 0.0, "prcp_d4": 0.0, "prcp_d5": 0.0, "prcp_d6": 0.0, "tmax_d0": 32.9, "tmax_d1": 31.4, "tmax_d2": 32.9, "tmax_d3": 34.2, "tmax_d4": 30.3, "tmax_d5": 27.1, "tmax_d6": 27.9, "tmin_d0": 14.2, "tmin_d1": 16.9, "tmin_d2": 15.8, "tmin_d3": 14.1, "tmin_d4": 13.2, "tmin_d5": 12.1, "tmin_d6": 12.9, "day_of_year": 233, "uuid": "5a53fe49-5e1b-4940-a1e6-0bec1b05b81d", "inat_id": 237013240}}, {"type": "Feature", "geometry": {"type": "Point", "coordinates": [-107.0190043291, 39.5551446007]}, "properties": {"species": "Agaricus campestris", "date": "2024-08-31", "location": "Colorado, US", "elevation": 2384.0, "land_cover_label": "Tree cover", "water_mask": false, "exclude_reason": "keep", "ndvi": null, "soil_moisture": null, "solar_exposure": null, "wind_exposure": null, "water_retention": null, "slope": null, "aspect": null, "num_identification_agreements": 3, "cluster": 0, "tavg": null, "tmin": null, "tmax": null, "prcp_d0": 0.0135538540780544, "prcp_d1": 0.0, "prcp_d2": 0.1985896676778793, "prcp_d3": 0.1207920163869857, "prcp_d4": 0.0401438325643539, "prcp_d5": 5.191431522369385, "prcp_d6": 2.411510944366455, "tmax_d0": 24.8, "tmax_d1": 23.7, "tmax_d2": 22.6, "tmax_d3": 23.3, "tmax_d4": 22.3, "tmax_d5": 20.2, "tmax_d6": 21.1, "tmin_d0": 7.2, "tmin_d1": 5.3, "tmin_d2": 10.8, "tmin_d3": 6.4, "tmin_d4": 6.7, "tmin_d5": 6.9, "tmin_d6": 8.0, "day_of_year": 244, "uuid": "05a74147-98ba-4c55-88fc-9911551e88e3", "inat_id": 241555978}}, {"type": "Feature", "geometry": {"type": "Point", "coordinates": [-105.08272609, 39.04430727]}, "properties": {"species": "Agaricus campestris", "date": "2024-09-18", "location": "Woodland Park, CO 80863, USA", "elevation": 2468.0, "land_cover_label": "Grassland", "water_mask": false, "exclude_reason": "keep", "ndvi": null, "soil_moisture": 0.1737305025816788, "solar_exposure": 0.7588300704956055, "wind_exposure": 0.2955091893672943, "water_retention": 0.3707906901836395, "slope": 7.710150241851807, "aspect": 28.11219596862793, "num_identification_agreements": 2, "cluster": 0, "tavg": null, "tmin": 9.0, "tmax": 27.2, "prcp_d0": 0.0, "prcp_d1": 9.217427253723145, "prcp_d2": 0.0, "prcp_d3": 0.2440533638000488, "prcp_d4": 0.0072464724071323, "prcp_d5": 1.6645692824113214e-07, "prcp_d6": 0.7103357315063477, "tmax_d0": 21.1, "tmax_d1": 22.0, "tmax_d2": 20.5, "tmax_d3": 24.0, "tmax_d4": 24.1, "tmax_d5": 23.3, "tmax_d6": 23.5, "tmin_d0": 9.5, "tmin_d1": 11.9, "tmin_d2": 11.5, "tmin_d3": 11.0, "tmin_d4": 9.1, "tmin_d5": 8.5, "tmin_d6": 11.8, "day_of_year": 262, "uuid": "7dac9ce3-28ed-4618-a814-7f7b46df6f0e", "inat_id": 242686214}}, {"type": "Feature", "geometry": {"type": "Point", "coordinates": [-105.3438813, 40.0466525]}, "properties": {"species": "Agaricus campestris", "date": "2025-05-01", "location": "Bald Mountain, Colorado 80302, USA", "elevation": 2172.0, "land_cover_label": "Grassland", "water_mask": false, "exclude_reason": "keep", "ndvi": null, "soil_moisture": 0.3207425209434657, "solar_exposure": 0.8915039896965027, "wind_exposure": 0.4852993488311767, "water_retention": 0.2132585495710373, "slope": 5.333498477935791, "aspect": 188.73423767089844, "num_identification_agreements": 1, "cluster": 0, "tavg": null, "tmin": 5.0, "tmax": 15.0, "prcp_d0": 11.464454650878906, "prcp_d1": 0.0, "prcp_d2": 4.005561351776123, "prcp_d3": 0.0, "prcp_d4": 0.0, "prcp_d5": 0.0, "prcp_d6": 0.0, "tmax_d0": 10.9, "tmax_d1": 15.9, "tmax_d2": 12.5, "tmax_d3": 18.6, "tmax_d4": 20.9, "tmax_d5": 15.9, "tmax_d6": 9.6, "tmin_d0": 2.5, "tmin_d1": -0.2, "tmin_d2": -2.3, "tmin_d3": 0.9, "tmin_d4": 1.5, "tmin_d5": 0.7, "tmin_d6": 2.0, "day_of_year": 121, "uuid": "853987ec-a986-4cc9-9ed6-3748b222e1c5", "inat_id": 277462046}}, {"type": "Feature", "geometry": {"type": "Point", "coordinates": [-105.1735383957, 40.4704004484]}, "properties": {"species": "Agaricus campestris", "date": "2025-06-05", "location": "Colorado, US", "elevation": 1832.0, "land_cover_label": "Grassland", "water_mask": false, "exclude_reason": "keep", "ndvi": null, "soil_moisture": 0.3704368280653677, "solar_exposure": 0.8603275418281555, "wind_exposure": 0.5607109665870667, "water_retention": 0.1858837604522705, "slope": 22.798402786254883, "aspect": 245.592041015625, "num_identification_agreements": 1, "cluster": 0, "tavg": null, "tmin": 11.7, "tmax": 21.7, "prcp_d0": 0.0, "prcp_d1": 0.0, "prcp_d2": 0.0, "prcp_d3": 6.771056175231934, "prcp_d4": 6.771056175231934, "prcp_d5": 0.0, "prcp_d6": 0.0, "tmax_d0": 18.5, "tmax_d1": 17.4, "tmax_d2": 20.1, "tmax_d3": 23.6, "tmax_d4": 26.4, "tmax_d5": 21.6, "tmax_d6": 23.3, "tmin_d0": 6.4, "tmin_d1": 8.5, "tmin_d2": 6.9, "tmin_d3": 9.9, "tmin_d4": 9.1, "tmin_d5": 10.7, "tmin_d6": 4.9, "day_of_year": 156, "uuid": "5dc42519-94cc-4e24-8599-ad62d2f26fda", "inat_id": 287150407}}, {"type": "Feature", "geometry": {"type": "Point", "coordinates": [-105.2325258984, 39.8127206663]}, "properties": {"species": "Agaricus campestris", "date": "2025-06-06", "location": "Colorado, US", "elevation": 1869.0, "land_cover_label": "Grassland", "water_mask": false, "exclude_reason": "keep", "ndvi": null, "soil_moisture": 0.4179500242638203, "solar_exposure": 0.9261783361434937, "wind_exposure": 0.3557914793491363, "water_retention": 0.1671301871538162, "slope": 10.48328685760498, "aspect": 159.83277893066406, "num_identification_agreements": 1, "cluster": 3, "tavg": null, "tmin": 11.0, "tmax": 19.0, "prcp_d0": 0.0, "prcp_d1": 0.0, "prcp_d2": 0.0, "prcp_d3": 35.241886138916016, "prcp_d4": 0.0, "prcp_d5": 0.0, "prcp_d6": 12.453140258789062, "tmax_d0": 16.8, "tmax_d1": 17.8, "tmax_d2": 16.7, "tmax_d3": 23.4, "tmax_d4": 26.0, "tmax_d5": 28.6, "tmax_d6": 23.3, "tmin_d0": 7.2, "tmin_d1": 7.5, "tmin_d2": 7.3, "tmin_d3": 7.0, "tmin_d4": 10.0, "tmin_d5": 8.5, "tmin_d6": 10.8, "day_of_year": 157, "uuid": "54540087-7717-4ff1-89a5-74e9c1ce53df", "inat_id": 287444706}}, {"type": "Feature", "geometry": {"type": "Point", "coordinates": [-105.07735229, 40.57165542]}, "properties": {"species": "Agaricus campestris", "date": "2025-07-02", "location": "Fort Collins, CO 80521, USA", "elevation": 1525.0, "land_cover_label": "Tree cover", "water_mask": false, "exclude_reason": "keep", "ndvi": null, "soil_moisture": 0.1593238775260081, "solar_exposure": 0.8299949169158936, "wind_exposure": 0.3304799199104309, "water_retention": 0.4182631373405456, "slope": 1.53419828414917, "aspect": 307.4436950683594, "num_identification_agreements": 1, "cluster": 0, "tavg": null, "tmin": 13.9, "tmax": 35.6, "prcp_d0": 0.0, "prcp_d1": 0.000193897401914, "prcp_d2": 0.0, "prcp_d3": 6.676615238189697, "prcp_d4": 0.0, "prcp_d5": 0.0, "prcp_d6": 0.0, "tmax_d0": 32.4, "tmax_d1": 29.6, "tmax_d2": 25.5, "tmax_d3": 30.7, "tmax_d4": 32.8, "tmax_d5": 31.3, "tmax_d6": 27.6, "tmin_d0": 14.5, "tmin_d1": 15.0, "tmin_d2": 14.8, "tmin_d3": 15.3, "tmin_d4": 13.5, "tmin_d5": 12.8, "tmin_d6": 10.9, "day_of_year": 183, "uuid": "848ad8a2-2e52-46dd-b687-3a7b4c04a34d", "inat_id": 294667662}}, {"type": "Feature", "geometry": {"type": "Point", "coordinates": [-106.3712541, 35.8411819]}, "properties": {"species": "Agaricus campestris", "date": "2025-07-09", "location": "Los Alamos County, NM, USA", "elevation": 2379.0, "land_cover_label": "Tree cover", "water_mask": false, "exclude_reason": "keep", "ndvi": null, "soil_moisture": null, "solar_exposure": null, "wind_exposure": null, "water_retention": null, "slope": null, "aspect": null, "num_identification_agreements": 1, "cluster": 0, "tavg": null, "tmin": 19.5, "tmax": 30.0, "prcp_d0": 0.0, "prcp_d1": 0.0, "prcp_d2": 0.0, "prcp_d3": 0.0, "prcp_d4": 0.0, "prcp_d5": 1.0570570230484009, "prcp_d6": 3.69102931022644, "tmax_d0": 28.2, "tmax_d1": 28.3, "tmax_d2": 25.7, "tmax_d3": 26.8, "tmax_d4": 27.3, "tmax_d5": 25.4, "tmax_d6": 24.1, "tmin_d0": 14.3, "tmin_d1": 12.9, "tmin_d2": 12.3, "tmin_d3": 12.8, "tmin_d4": 8.9, "tmin_d5": 9.5, "tmin_d6": 11.7, "day_of_year": 190, "uuid": "f8a4b6db-3b6c-450a-91f5-34216f545947", "inat_id": 296671069}}, {"type": "Feature", "geometry": {"type": "Point", "coordinates": [-105.4571616667, 39.4811583333]}, "properties": {"species": "Agaricus campestris", "date": "2025-09-01", "location": "Wagon Tongue Rd, Bailey, CO, US", "elevation": 2650.0, "land_cover_label": "Grassland", "water_mask": false, "exclude_reason": "keep", "ndvi": null, "soil_moisture": 0.3784063632090303, "solar_exposure": 0.8497998118400574, "wind_exposure": 0.296691745519638, "water_retention": 0.3441874980926513, "slope": 1.53419828414917, "aspect": 127.44369506835938, "num_identification_agreements": 1, "cluster": 0, "tavg": null, "tmin": -2.2, "tmax": 10.0, "prcp_d0": 0.0, "prcp_d1": 0.0, "prcp_d2": 0.0, "prcp_d3": 0.0, "prcp_d4": 0.0, "prcp_d5": 0.0, "prcp_d6": 43.11166000366211, "tmax_d0": 18.5, "tmax_d1": 18.9, "tmax_d2": 15.8, "tmax_d3": 19.1, "tmax_d4": 18.9, "tmax_d5": 19.7, "tmax_d6": 18.2, "tmin_d0": 2.5, "tmin_d1": 1.4, "tmin_d2": 6.3, "tmin_d3": 5.1, "tmin_d4": 4.5, "tmin_d5": 8.4, "tmin_d6": 5.8, "day_of_year": 244, "uuid": "96e454d9-8e0e-40a7-8e7f-f04fe329825b", "inat_id": 333752738}}, {"type": "Feature", "geometry": {"type": "Point", "coordinates": [-105.3620916667, 41.1528388333]}, "properties": {"species": "Agaricus campestris", "date": "2025-09-03", "location": "Vedauwoo Glen Rd, Buford, WY, US", "elevation": 2503.0, "land_cover_label": "Grassland", "water_mask": false, "exclude_reason": "keep", "ndvi": null, "soil_moisture": 0.2471102512933907, "solar_exposure": 0.8467150926589966, "wind_exposure": 0.3410569727420807, "water_retention": 0.3247901201248169, "slope": 1.0229346752166748, "aspect": 127.44369506835938, "num_identification_agreements": 1, "cluster": 0, "tavg": null, "tmin": 9.4, "tmax": 21.3, "prcp_d0": 0.0, "prcp_d1": 0.0, "prcp_d2": 0.0, "prcp_d3": 0.0, "prcp_d4": 5.667700290679932, "prcp_d5": 0.0, "prcp_d6": 0.0, "tmax_d0": 21.5, "tmax_d1": 20.7, "tmax_d2": 19.9, "tmax_d3": 18.4, "tmax_d4": 16.5, "tmax_d5": 18.9, "tmax_d6": 18.2, "tmin_d0": 10.9, "tmin_d1": 9.3, "tmin_d2": 8.4, "tmin_d3": 7.2, "tmin_d4": 9.0, "tmin_d5": 10.0, "tmin_d6": 9.4, "day_of_year": 246, "uuid": "4719bac9-85a0-437d-b69e-672e7822ff03", "inat_id": 326218730}}, {"type": "Feature", "geometry": {"type": "Point", "coordinates": [-106.2739988, 39.1848981997]}, "properties": {"species": "Agaricus campestris", "date": "2025-09-14", "location": "Leadville, CO 80461, USA", "elevation": 3051.0, "land_cover_label": "Grassland", "water_mask": false, "exclude_reason": "keep", "ndvi": null, "soil_moisture": null, "solar_exposure": null, "wind_exposure": null, "water_retention": null, "slope": null, "aspect": null, "num_identification_agreements": 1, "cluster": 0, "tavg": null, "tmin": 1.0, "tmax": 12.0, "prcp_d0": 0.0, "prcp_d1": 0.0, "prcp_d2": 5.00379753112793, "prcp_d3": 0.0, "prcp_d4": 0.0, "prcp_d5": 6.44223165512085, "prcp_d6": 0.0, "tmax_d0": 12.4, "tmax_d1": 14.6, "tmax_d2": 16.0, "tmax_d3": 17.2, "tmax_d4": 19.3, "tmax_d5": 17.8, "tmax_d6": 17.3, "tmin_d0": -0.4, "tmin_d1": 1.7, "tmin_d2": 3.6, "tmin_d3": 4.2, "tmin_d4": 2.2, "tmin_d5": 1.9, "tmin_d6": 2.0, "day_of_year": 257, "uuid": "f3c35eef-89fa-4b03-b997-789a95f7588b", "inat_id": 314038417}}, {"type": "Feature", "geometry": {"type": "Point", "coordinates": [-105.0035333333, 39.741925]}, "properties": {"species": "Agaricus campestris", "date": "2025-09-24", "location": "Metropolitan State University of Denver, Denver, CO, US", "elevation": 1594.0, "land_cover_label": "Tree cover", "water_mask": false, "exclude_reason": "keep", "ndvi": null, "soil_moisture": 0.3885339816199361, "solar_exposure": 0.8497998118400574, "wind_exposure": 0.3236625790596008, "water_retention": 0.297450989484787, "slope": 1.53419828414917, "aspect": 127.44369506835938, "num_identification_agreements": 1, "cluster": 0, "tavg": null, "tmin": 8.5, "tmax": 20.2, "prcp_d0": 0.0, "prcp_d1": 0.0, "prcp_d2": 0.0, "prcp_d3": 0.0, "prcp_d4": 7.0033159255981445, "prcp_d5": 0.0, "prcp_d6": 0.0, "tmax_d0": 19.7, "tmax_d1": 16.9, "tmax_d2": 26.2, "tmax_d3": 27.1, "tmax_d4": 28.0, "tmax_d5": 27.6, "tmax_d6": 23.1, "tmin_d0": 6.8, "tmin_d1": 10.8, "tmin_d2": 11.2, "tmin_d3": 11.6, "tmin_d4": 12.7, "tmin_d5": 7.8, "tmin_d6": 8.2, "day_of_year": 267, "uuid": "b011e704-01d8-460f-990e-3e1b4df5b528", "inat_id": 316313652}}, {"type": "Feature", "geometry": {"type": "Point", "coordinates": [-105.35852, 41.1690033333]}, "properties": {"species": "Agaricus campestris", "date": "2025-10-15", "location": "Buford, WY, US", "elevation": 2431.0, "land_cover_label": "Grassland", "water_mask": false, "exclude_reason": "keep", "ndvi": null, "soil_moisture": 0.2406420413097101, "solar_exposure": 0.827563464641571, "wind_exposure": 0.3053485155105591, "water_retention": 0.2300949543714523, "slope": 4.159698486328125, "aspect": 77.06192779541016, "num_identification_agreements": 1, "cluster": 0, "tavg": null, "tmin": 6.3, "tmax": 15.6, "prcp_d0": 0.0, "prcp_d1": 0.0, "prcp_d2": 0.0, "prcp_d3": 0.0, "prcp_d4": 0.0, "prcp_d5": 2.245778083801269, "prcp_d6": 0.0, "tmax_d0": 14.8, "tmax_d1": 15.9, "tmax_d2": 4.9, "tmax_d3": 10.5, "tmax_d4": 12.2, "tmax_d5": 14.9, "tmax_d6": 18.1, "tmin_d0": 6.0, "tmin_d1": 1.2, "tmin_d2": -1.5, "tmin_d3": 0.8, "tmin_d4": 7.7, "tmin_d5": 8.1, "tmin_d6": 6.7, "day_of_year": 288, "uuid": "6d3b5450-25a7-4b69-a9c8-8df0c1df34ce", "inat_id": 321111170}}, {"type": "Feature", "geometry": {"type": "Point", "coordinates": [-105.4090695946, 36.1851335778]}, "properties": {"species": "Agaricus campestris", "date": "2026-07-24", "location": "Taos County, US-NM, US", "elevation": 3021.0, "land_cover_label": "Tree cover", "water_mask": false, "exclude_reason": "keep", "ndvi": null, "soil_moisture": null, "solar_exposure": null, "wind_exposure": null, "water_retention": null, "slope": null, "aspect": null, "num_identification_agreements": 1, "cluster": 0, "tavg": null, "tmin": 7.9, "tmax": 28.3, "prcp_d0": 20.100196838378903, "prcp_d1": 0.0, "prcp_d2": 0.0, "prcp_d3": 0.0, "prcp_d4": 0.0, "prcp_d5": 0.0, "prcp_d6": 0.0, "tmax_d0": 24.3, "tmax_d1": 20.5, "tmax_d2": 21.7, "tmax_d3": 22.1, "tmax_d4": 23.9, "tmax_d5": 21.7, "tmax_d6": 20.9, "tmin_d0": 11.8, "tmin_d1": 11.2, "tmin_d2": 10.8, "tmin_d3": 11.0, "tmin_d4": 10.3, "tmin_d5": 8.8, "tmin_d6": 8.3, "day_of_year": 205, "uuid": "16503a1a-5190-473a-a382-c858f04f3e03", "inat_id": 384710774}}]}