{"type": "FeatureCollection", "features": [{"type": "Feature", "geometry": {"type": "Point", "coordinates": [-121.96882, 44.7723966667]}, "properties": {"species": "Agaricus hondensis", "date": "2019-10-17", "location": "Marion County, US-OR, US", "elevation": 741.0, "land_cover_label": "Tree cover", "water_mask": false, "exclude_reason": "keep", "ndvi": null, "soil_moisture": null, "solar_exposure": null, "wind_exposure": null, "water_retention": null, "slope": null, "aspect": null, "num_identification_agreements": 2, "cluster": 0, "tavg": null, "tmin": null, "tmax": null, "prcp_d0": 0.0, "prcp_d1": 0.0, "prcp_d2": 0.0, "prcp_d3": 0.0, "prcp_d4": 0.0, "prcp_d5": 0.0, "prcp_d6": 0.0, "tmax_d0": 9.4, "tmax_d1": 14.6, "tmax_d2": 15.0, "tmax_d3": 15.9, "tmax_d4": 14.6, "tmax_d5": 16.4, "tmax_d6": 17.8, "tmin_d0": 5.5, "tmin_d1": 7.7, "tmin_d2": 4.3, "tmin_d3": 1.1, "tmin_d4": 7.3, "tmin_d5": 1.1, "tmin_d6": 3.2, "day_of_year": 290, "uuid": "dc09f1ed-8b62-4a11-879d-26bcb9e7a49a", "inat_id": 34739597}}, {"type": "Feature", "geometry": {"type": "Point", "coordinates": [-122.2259312325, 45.3099642572]}, "properties": {"species": "Agaricus hondensis", "date": "2025-11-10", "location": "Clackamas County, OR, USA", "elevation": 383.0, "land_cover_label": "Tree cover", "water_mask": false, "exclude_reason": "keep", "ndvi": null, "soil_moisture": null, "solar_exposure": null, "wind_exposure": null, "water_retention": null, "slope": null, "aspect": null, "num_identification_agreements": 1, "cluster": 2, "tavg": null, "tmin": 8.0, "tmax": 13.0, "prcp_d0": 0.0, "prcp_d1": 0.0, "prcp_d2": 0.0, "prcp_d3": 21.020526885986328, "prcp_d4": 21.020526885986328, "prcp_d5": 107.37605285644533, "prcp_d6": 21.475208282470703, "tmax_d0": 15.6, "tmax_d1": 19.1, "tmax_d2": 16.2, "tmax_d3": 11.5, "tmax_d4": 14.8, "tmax_d5": 15.3, "tmax_d6": 16.2, "tmin_d0": 6.5, "tmin_d1": 10.1, "tmin_d2": 2.7, "tmin_d3": 6.2, "tmin_d4": 8.2, "tmin_d5": 8.7, "tmin_d6": 7.4, "day_of_year": 314, "uuid": "7eaae0e7-9a86-4be4-b875-e7334cc62e32", "inat_id": 325956977}}, {"type": "Feature", "geometry": {"type": "Point", "coordinates": [-122.2251956284, 45.3112069284]}, "properties": {"species": "Agaricus hondensis", "date": "2025-12-16", "location": "Clackamas County, OR, USA", "elevation": 411.0, "land_cover_label": "Tree cover", "water_mask": false, "exclude_reason": "keep", "ndvi": null, "soil_moisture": null, "solar_exposure": null, "wind_exposure": null, "water_retention": null, "slope": null, "aspect": null, "num_identification_agreements": 1, "cluster": 0, "tavg": null, "tmin": 11.0, "tmax": 16.0, "prcp_d0": 0.0, "prcp_d1": 19.012807846069336, "prcp_d2": 0.0, "prcp_d3": 0.0, "prcp_d4": 0.0, "prcp_d5": 0.0, "prcp_d6": 15.19613552093506, "tmax_d0": 13.6, "tmax_d1": 15.1, "tmax_d2": 11.2, "tmax_d3": 16.5, "tmax_d4": 14.9, "tmax_d5": 13.5, "tmax_d6": 13.2, "tmin_d0": 8.6, "tmin_d1": 7.9, "tmin_d2": 3.6, "tmin_d3": 2.8, "tmin_d4": 5.2, "tmin_d5": 10.8, "tmin_d6": 10.8, "day_of_year": 350, "uuid": "b26c5611-bfed-447f-95e4-fd321bf4a8a9", "inat_id": 331033744}}]}