{"type": "FeatureCollection", "features": [{"type": "Feature", "geometry": {"type": "Point", "coordinates": [-107.836, 37.9421]}, "properties": {"species": "Albatrellopsis confluens", "date": "2018-08-18", "location": "Telluride, Colorado, USA", "elevation": 2652.0, "land_cover_label": "Grassland", "water_mask": false, "exclude_reason": "keep", "ndvi": null, "soil_moisture": null, "solar_exposure": null, "wind_exposure": null, "water_retention": null, "slope": null, "aspect": null, "num_identification_agreements": 1, "cluster": 0, "tavg": null, "tmin": 11.0, "tmax": 21.0, "prcp_d0": 1.8666332960128784, "prcp_d1": 4.325623989105225, "prcp_d2": 7.511468410491943, "prcp_d3": 0.0, "prcp_d4": 0.0, "prcp_d5": 0.0, "prcp_d6": 0.0, "tmax_d0": 20.6, "tmax_d1": 20.9, "tmax_d2": 22.4, "tmax_d3": 21.7, "tmax_d4": 23.5, "tmax_d5": 24.1, "tmax_d6": 24.9, "tmin_d0": 8.3, "tmin_d1": 7.7, "tmin_d2": 8.2, "tmin_d3": 9.0, "tmin_d4": 10.1, "tmin_d5": 7.7, "tmin_d6": 8.4, "day_of_year": 230, "uuid": "c938f848-22b5-4ba8-8b04-bac81003d058", "inat_id": 38951445}}, {"type": "Feature", "geometry": {"type": "Point", "coordinates": [-121.8877162553, 44.540086735]}, "properties": {"species": "Albatrellopsis confluens", "date": "2019-10-03", "location": "Oregon, US", "elevation": 1545.0, "land_cover_label": "Grassland", "water_mask": false, "exclude_reason": "keep", "ndvi": null, "soil_moisture": null, "solar_exposure": null, "wind_exposure": null, "water_retention": null, "slope": null, "aspect": null, "num_identification_agreements": 2, "cluster": 0, "tavg": null, "tmin": null, "tmax": null, "prcp_d0": 0.0, "prcp_d1": 0.0, "prcp_d2": 0.0, "prcp_d3": 0.0, "prcp_d4": 0.0, "prcp_d5": 0.0, "prcp_d6": 0.0, "tmax_d0": 7.4, "tmax_d1": 9.3, "tmax_d2": 6.2, "tmax_d3": 4.2, "tmax_d4": 2.8, "tmax_d5": 6.1, "tmax_d6": 9.6, "tmin_d0": 1.3, "tmin_d1": -4.5, "tmin_d2": -4.3, "tmin_d3": -3.5, "tmin_d4": -3.8, "tmin_d5": -0.9, "tmin_d6": 2.9, "day_of_year": 276, "uuid": "69caf213-3971-4cca-a812-1ee91e0068e4", "inat_id": 33876440}}, {"type": "Feature", "geometry": {"type": "Point", "coordinates": [-106.4336136142, 39.183375889]}, "properties": {"species": "Albatrellopsis confluens", "date": "2020-08-01", "location": "Pike and San Isabel National Forests, Twin Lakes, CO, US", "elevation": 3552.0, "land_cover_label": "Tree cover", "water_mask": false, "exclude_reason": "keep", "ndvi": null, "soil_moisture": null, "solar_exposure": null, "wind_exposure": null, "water_retention": null, "slope": null, "aspect": null, "num_identification_agreements": 1, "cluster": 0, "tavg": null, "tmin": 2.8, "tmax": 23.3, "prcp_d0": 0.0, "prcp_d1": 0.0, "prcp_d2": 0.0, "prcp_d3": 0.0, "prcp_d4": 0.0, "prcp_d5": 0.0, "prcp_d6": 0.0, "tmax_d0": 16.3, "tmax_d1": 16.0, "tmax_d2": 15.5, "tmax_d3": 14.9, "tmax_d4": 13.2, "tmax_d5": 15.4, "tmax_d6": 15.4, "tmin_d0": 2.7, "tmin_d1": 3.5, "tmin_d2": 2.5, "tmin_d3": 3.4, "tmin_d4": 3.7, "tmin_d5": 4.2, "tmin_d6": 3.0, "day_of_year": 214, "uuid": "40bc9360-6de8-4110-ad8a-f15bb99e8bca", "inat_id": 55332072}}, {"type": "Feature", "geometry": {"type": "Point", "coordinates": [-107.8359055556, 37.6595638889]}, "properties": {"species": "Albatrellopsis confluens", "date": "2021-08-12", "location": "San Juan County, CO, USA", "elevation": 3279.0, "land_cover_label": "Tree cover", "water_mask": false, "exclude_reason": "keep", "ndvi": null, "soil_moisture": null, "solar_exposure": null, "wind_exposure": null, "water_retention": null, "slope": null, "aspect": null, "num_identification_agreements": 1, "cluster": 0, "tavg": null, "tmin": 12.0, "tmax": 26.0, "prcp_d0": 0.0, "prcp_d1": 0.0, "prcp_d2": 0.0, "prcp_d3": 0.0, "prcp_d4": 0.0, "prcp_d5": 0.0, "prcp_d6": 0.0, "tmax_d0": 20.3, "tmax_d1": 19.6, "tmax_d2": 19.6, "tmax_d3": 19.7, "tmax_d4": 19.8, "tmax_d5": 17.3, "tmax_d6": 17.9, "tmin_d0": 3.2, "tmin_d1": 1.0, "tmin_d2": 1.5, "tmin_d3": 4.2, "tmin_d4": -0.3, "tmin_d5": 5.8, "tmin_d6": 7.4, "day_of_year": 224, "uuid": "08eb9583-9d7e-4d2e-a091-e89f0127abfd", "inat_id": 90935351}}, {"type": "Feature", "geometry": {"type": "Point", "coordinates": [-105.7951333333, 39.9052166667]}, "properties": {"species": "Albatrellopsis confluens", "date": "2021-08-14", "location": "Arapaho & Roosevelt National Forests Pawnee National Grassland, Winter Park, CO, US", "elevation": 2766.0, "land_cover_label": "Tree cover", "water_mask": false, "exclude_reason": "keep", "ndvi": null, "soil_moisture": 0.3062616936830717, "solar_exposure": 0.8014716506004333, "wind_exposure": 0.298814058303833, "water_retention": 0.5736369490623474, "slope": 6.104280471801758, "aspect": 300.5002746582031, "num_identification_agreements": 2, "cluster": 3, "tavg": null, "tmin": 6.0, "tmax": 28.3, "prcp_d0": 0.0, "prcp_d1": 6.066195011138916, "prcp_d2": 0.0, "prcp_d3": 0.0, "prcp_d4": 0.0, "prcp_d5": 0.0, "prcp_d6": 0.0, "tmax_d0": 24.0, "tmax_d1": 21.5, "tmax_d2": 22.9, "tmax_d3": 23.1, "tmax_d4": 21.9, "tmax_d5": 22.1, "tmax_d6": 22.3, "tmin_d0": 7.0, "tmin_d1": 6.3, "tmin_d2": 9.0, "tmin_d3": 7.7, "tmin_d4": 8.7, "tmin_d5": 8.4, "tmin_d6": 5.3, "day_of_year": 226, "uuid": "7c13153d-4f1f-4dda-88c4-ef67d54e2f5e", "inat_id": 91203504}}, {"type": "Feature", "geometry": {"type": "Point", "coordinates": [-105.7758373473, 39.7974046105]}, "properties": {"species": "Albatrellopsis confluens", "date": "2021-08-14", "location": "Arapaho & Roosevelt National Forests Pawnee National Grassland, Idaho Springs, CO, US", "elevation": 3464.0, "land_cover_label": "Grassland", "water_mask": false, "exclude_reason": "keep", "ndvi": null, "soil_moisture": 0.328564204022625, "solar_exposure": 0.7773731350898743, "wind_exposure": 0.3813559114933014, "water_retention": 0.1605601459741592, "slope": 11.528756141662598, "aspect": 290.2390441894531, "num_identification_agreements": 2, "cluster": 0, "tavg": null, "tmin": 6.0, "tmax": 28.3, "prcp_d0": 7.13837194442749, "prcp_d1": 7.13837194442749, "prcp_d2": 0.0, "prcp_d3": 0.0, "prcp_d4": 0.0, "prcp_d5": 0.0, "prcp_d6": 0.0, "tmax_d0": 19.3, "tmax_d1": 15.9, "tmax_d2": 17.8, "tmax_d3": 19.2, "tmax_d4": 16.8, "tmax_d5": 17.0, "tmax_d6": 17.8, "tmin_d0": 5.5, "tmin_d1": 3.4, "tmin_d2": 7.6, "tmin_d3": 4.7, "tmin_d4": 5.2, "tmin_d5": 5.1, "tmin_d6": 2.6, "day_of_year": 226, "uuid": "0ecffb01-bdda-4d81-97d8-f7932351ff67", "inat_id": 91316900}}, {"type": "Feature", "geometry": {"type": "Point", "coordinates": [-105.77554358, 39.79487674]}, "properties": {"species": "Albatrellopsis confluens", "date": "2021-08-14", "location": "Parshall, CO 80468, USA", "elevation": 3447.0, "land_cover_label": "Tree cover", "water_mask": false, "exclude_reason": "keep", "ndvi": null, "soil_moisture": 0.3287959221987124, "solar_exposure": 0.8389787077903748, "wind_exposure": 0.4230822324752807, "water_retention": 0.2458021938800811, "slope": 19.06964111328125, "aspect": 254.5183563232422, "num_identification_agreements": 1, "cluster": 0, "tavg": null, "tmin": 6.0, "tmax": 28.3, "prcp_d0": 7.13837194442749, "prcp_d1": 7.13837194442749, "prcp_d2": 0.0, "prcp_d3": 0.0, "prcp_d4": 0.0, "prcp_d5": 0.0, "prcp_d6": 0.0, "tmax_d0": 19.3, "tmax_d1": 15.9, "tmax_d2": 17.8, "tmax_d3": 19.2, "tmax_d4": 16.8, "tmax_d5": 17.0, "tmax_d6": 17.8, "tmin_d0": 5.5, "tmin_d1": 3.4, "tmin_d2": 7.6, "tmin_d3": 4.7, "tmin_d4": 5.2, "tmin_d5": 5.1, "tmin_d6": 2.6, "day_of_year": 226, "uuid": "c46d205a-2bc4-4ef2-b90e-361fa9ca7533", "inat_id": 91174638}}, {"type": "Feature", "geometry": {"type": "Point", "coordinates": [-105.5613420722, 39.8049450362]}, "properties": {"species": "Albatrellopsis confluens", "date": "2021-08-17", "location": "Colorado, US", "elevation": 2857.0, "land_cover_label": "Tree cover", "water_mask": false, "exclude_reason": "keep", "ndvi": null, "soil_moisture": 0.318365873555434, "solar_exposure": 0.7645570039749146, "wind_exposure": 0.3490208685398102, "water_retention": 0.2588692605495453, "slope": 8.104046821594238, "aspect": 319.6746520996094, "num_identification_agreements": 1, "cluster": 0, "tavg": null, "tmin": 16.0, "tmax": 35.0, "prcp_d0": 0.0, "prcp_d1": 0.0, "prcp_d2": 5.152496337890625, "prcp_d3": 0.0, "prcp_d4": 5.152496337890625, "prcp_d5": 0.0, "prcp_d6": 0.0, "tmax_d0": 22.8, "tmax_d1": 21.6, "tmax_d2": 21.8, "tmax_d3": 23.3, "tmax_d4": 18.8, "tmax_d5": 22.5, "tmax_d6": 24.5, "tmin_d0": 6.4, "tmin_d1": 5.0, "tmin_d2": 7.3, "tmin_d3": 4.9, "tmin_d4": 4.8, "tmin_d5": 5.9, "tmin_d6": 5.7, "day_of_year": 229, "uuid": "7a81a672-a38f-479a-a604-a2da3f2ab123", "inat_id": 91596902}}, {"type": "Feature", "geometry": {"type": "Point", "coordinates": [-105.7080833333, 39.5133133333]}, "properties": {"species": "Albatrellopsis confluens", "date": "2021-08-21", "location": "Pike and San Isabel National Forests, Bailey, CO, US", "elevation": 2978.0, "land_cover_label": "Tree cover", "water_mask": false, "exclude_reason": "keep", "ndvi": null, "soil_moisture": 0.2615614082831762, "solar_exposure": 0.8861392140388489, "wind_exposure": 0.3063781559467315, "water_retention": 0.2348725497722625, "slope": 7.71695613861084, "aspect": 227.0814819335937, "num_identification_agreements": 1, "cluster": 0, "tavg": null, "tmin": null, "tmax": null, "prcp_d0": 0.0, "prcp_d1": 0.0, "prcp_d2": 0.0, "prcp_d3": 0.0, "prcp_d4": 0.0, "prcp_d5": 13.634912490844728, "prcp_d6": 0.0, "tmax_d0": 16.1, "tmax_d1": 16.0, "tmax_d2": 18.5, "tmax_d3": 22.3, "tmax_d4": 20.7, "tmax_d5": 19.7, "tmax_d6": 19.7, "tmin_d0": 5.2, "tmin_d1": 2.6, "tmin_d2": 7.4, "tmin_d3": 7.2, "tmin_d4": 5.8, "tmin_d5": 6.5, "tmin_d6": 8.4, "day_of_year": 233, "uuid": "ea315dd9-c9e0-44b7-babe-9f3f269853d7", "inat_id": 92275860}}, {"type": "Feature", "geometry": {"type": "Point", "coordinates": [-106.1480721667, 39.4970083333]}, "properties": {"species": "Albatrellopsis confluens", "date": "2021-08-31", "location": "Copper Mountain, Frisco, CO, US", "elevation": 3031.0, "land_cover_label": "Tree cover", "water_mask": false, "exclude_reason": "keep", "ndvi": null, "soil_moisture": null, "solar_exposure": null, "wind_exposure": null, "water_retention": null, "slope": null, "aspect": null, "num_identification_agreements": 1, "cluster": 0, "tavg": null, "tmin": 2.0, "tmax": 19.0, "prcp_d0": 0.0, "prcp_d1": 0.0, "prcp_d2": 0.0, "prcp_d3": 0.0, "prcp_d4": 0.0, "prcp_d5": 0.0, "prcp_d6": 0.0, "tmax_d0": 21.5, "tmax_d1": 20.6, "tmax_d2": 21.3, "tmax_d3": 20.9, "tmax_d4": 20.9, "tmax_d5": 20.2, "tmax_d6": 22.2, "tmin_d0": 3.7, "tmin_d1": 3.2, "tmin_d2": 2.6, "tmin_d3": 3.2, "tmin_d4": 3.9, "tmin_d5": 3.4, "tmin_d6": 2.0, "day_of_year": 243, "uuid": "0e228ef4-6e8a-4e8d-ab9e-568ac4fffb1d", "inat_id": 93330713}}, {"type": "Feature", "geometry": {"type": "Point", "coordinates": [-105.77391365, 39.82293347]}, "properties": {"species": "Albatrellopsis confluens", "date": "2021-09-08", "location": "Winter Park, CO 80482, USA", "elevation": 3314.0, "land_cover_label": "Tree cover", "water_mask": false, "exclude_reason": "keep", "ndvi": null, "soil_moisture": 0.2978705395321624, "solar_exposure": 0.8625379204750061, "wind_exposure": 0.2497695088386535, "water_retention": 0.1767728775739669, "slope": 9.111516952514648, "aspect": 111.85650634765624, "num_identification_agreements": 1, "cluster": 0, "tavg": null, "tmin": 2.4, "tmax": 28.2, "prcp_d0": 0.0, "prcp_d1": 0.0, "prcp_d2": 0.0, "prcp_d3": 0.0, "prcp_d4": 0.0, "prcp_d5": 0.0, "prcp_d6": 0.0, "tmax_d0": 20.0, "tmax_d1": 18.7, "tmax_d2": 17.6, "tmax_d3": 16.0, "tmax_d4": 14.9, "tmax_d5": 14.7, "tmax_d6": 13.6, "tmin_d0": 5.9, "tmin_d1": 5.1, "tmin_d2": 5.1, "tmin_d3": 3.0, "tmin_d4": 1.5, "tmin_d5": 2.7, "tmin_d6": 4.3, "day_of_year": 251, "uuid": "d705e5aa-8399-4f13-b45c-2b589334877d", "inat_id": 94120944}}, {"type": "Feature", "geometry": {"type": "Point", "coordinates": [-106.6460503266, 39.1250231071]}, "properties": {"species": "Albatrellopsis confluens", "date": "2022-07-28", "location": "Pitkin County, US-CO, US", "elevation": 3158.0, "land_cover_label": "Tree cover", "water_mask": false, "exclude_reason": "keep", "ndvi": null, "soil_moisture": null, "solar_exposure": null, "wind_exposure": null, "water_retention": null, "slope": null, "aspect": null, "num_identification_agreements": 1, "cluster": 0, "tavg": null, "tmin": 13.9, "tmax": 20.6, "prcp_d0": 0.0, "prcp_d1": 0.0, "prcp_d2": 21.051109313964844, "prcp_d3": 0.0, "prcp_d4": 0.0, "prcp_d5": 0.0, "prcp_d6": 0.0, "tmax_d0": 18.4, "tmax_d1": 20.1, "tmax_d2": 19.6, "tmax_d3": 18.9, "tmax_d4": 17.7, "tmax_d5": 22.5, "tmax_d6": 21.7, "tmin_d0": 9.4, "tmin_d1": 7.1, "tmin_d2": 7.5, "tmin_d3": 7.4, "tmin_d4": 9.6, "tmin_d5": 9.8, "tmin_d6": 6.6, "day_of_year": 209, "uuid": "1486f08b-e6a0-40ce-94fc-d94dd324121f", "inat_id": 128355845}}, {"type": "Feature", "geometry": {"type": "Point", "coordinates": [-106.6454120447, 39.1256794939]}, "properties": {"species": "Albatrellopsis confluens", "date": "2022-07-28", "location": "Pitkin County, US-CO, US", "elevation": 3168.0, "land_cover_label": "Bare / sparse vegetation", "water_mask": false, "exclude_reason": "keep", "ndvi": null, "soil_moisture": null, "solar_exposure": null, "wind_exposure": null, "water_retention": null, "slope": null, "aspect": null, "num_identification_agreements": 1, "cluster": 0, "tavg": null, "tmin": 13.9, "tmax": 20.6, "prcp_d0": 0.0, "prcp_d1": 0.0, "prcp_d2": 21.051109313964844, "prcp_d3": 0.0, "prcp_d4": 0.0, "prcp_d5": 0.0, "prcp_d6": 0.0, "tmax_d0": 18.4, "tmax_d1": 20.1, "tmax_d2": 19.6, "tmax_d3": 18.9, "tmax_d4": 17.7, "tmax_d5": 22.5, "tmax_d6": 21.7, "tmin_d0": 9.4, "tmin_d1": 7.1, "tmin_d2": 7.5, "tmin_d3": 7.4, "tmin_d4": 9.6, "tmin_d5": 9.8, "tmin_d6": 6.6, "day_of_year": 209, "uuid": "5fbfa7df-ba04-4e60-901f-9180fe81601c", "inat_id": 128354944}}, {"type": "Feature", "geometry": {"type": "Point", "coordinates": [-106.6462108581, 39.1251589635]}, "properties": {"species": "Albatrellopsis confluens", "date": "2022-07-28", "location": "Pitkin County, US-CO, US", "elevation": 3158.0, "land_cover_label": "Tree cover", "water_mask": false, "exclude_reason": "keep", "ndvi": null, "soil_moisture": null, "solar_exposure": null, "wind_exposure": null, "water_retention": null, "slope": null, "aspect": null, "num_identification_agreements": 1, "cluster": 0, "tavg": null, "tmin": 13.9, "tmax": 20.6, "prcp_d0": 0.0, "prcp_d1": 0.0, "prcp_d2": 21.051109313964844, "prcp_d3": 0.0, "prcp_d4": 0.0, "prcp_d5": 0.0, "prcp_d6": 0.0, "tmax_d0": 18.4, "tmax_d1": 20.1, "tmax_d2": 19.6, "tmax_d3": 18.9, "tmax_d4": 17.7, "tmax_d5": 22.5, "tmax_d6": 21.7, "tmin_d0": 9.4, "tmin_d1": 7.1, "tmin_d2": 7.5, "tmin_d3": 7.4, "tmin_d4": 9.6, "tmin_d5": 9.8, "tmin_d6": 6.6, "day_of_year": 209, "uuid": "c0beab9d-b944-40c5-a33c-0b9633474698", "inat_id": 128355081}}, {"type": "Feature", "geometry": {"type": "Point", "coordinates": [-106.4032863997, 39.3298466]}, "properties": {"species": "Albatrellopsis confluens", "date": "2022-07-29", "location": "Lake County, US-CO, US", "elevation": 3336.0, "land_cover_label": "Tree cover", "water_mask": false, "exclude_reason": "keep", "ndvi": null, "soil_moisture": null, "solar_exposure": null, "wind_exposure": null, "water_retention": null, "slope": null, "aspect": null, "num_identification_agreements": 1, "cluster": 0, "tavg": null, "tmin": 5.0, "tmax": 18.3, "prcp_d0": 0.0, "prcp_d1": 0.0, "prcp_d2": 0.0, "prcp_d3": 0.0, "prcp_d4": 0.0, "prcp_d5": 0.0, "prcp_d6": 0.0, "tmax_d0": 15.0, "tmax_d1": 19.5, "tmax_d2": 19.4, "tmax_d3": 18.7, "tmax_d4": 19.3, "tmax_d5": 19.0, "tmax_d6": 21.0, "tmin_d0": 3.3, "tmin_d1": 6.8, "tmin_d2": 5.3, "tmin_d3": 4.9, "tmin_d4": 3.6, "tmin_d5": 5.3, "tmin_d6": 7.3, "day_of_year": 210, "uuid": "45dabf52-5383-4c89-866f-9ca556deaa7b", "inat_id": 129051293}}, {"type": "Feature", "geometry": {"type": "Point", "coordinates": [-106.944304, 38.99389]}, "properties": {"species": "Albatrellopsis confluens", "date": "2022-08-06", "location": "Gunnison County, CO, USA", "elevation": 3331.0, "land_cover_label": "Tree cover", "water_mask": false, "exclude_reason": "keep", "ndvi": null, "soil_moisture": null, "solar_exposure": null, "wind_exposure": null, "water_retention": null, "slope": null, "aspect": null, "num_identification_agreements": 2, "cluster": 0, "tavg": null, "tmin": 12.8, "tmax": 28.3, "prcp_d0": 0.0, "prcp_d1": 0.0, "prcp_d2": 0.0, "prcp_d3": 10.84520435333252, "prcp_d4": 10.84520435333252, "prcp_d5": 0.0, "prcp_d6": 0.0, "tmax_d0": 18.8, "tmax_d1": 17.6, "tmax_d2": 18.4, "tmax_d3": 17.5, "tmax_d4": 17.0, "tmax_d5": 18.3, "tmax_d6": 16.9, "tmin_d0": 6.2, "tmin_d1": 6.7, "tmin_d2": 5.1, "tmin_d3": 4.3, "tmin_d4": 4.5, "tmin_d5": 4.5, "tmin_d6": 1.1, "day_of_year": 218, "uuid": "31c700b4-7355-4714-913a-efa5093f7c55", "inat_id": 243263066}}, {"type": "Feature", "geometry": {"type": "Point", "coordinates": [-105.4729916667, 39.8973883333]}, "properties": {"species": "Albatrellopsis confluens", "date": "2022-08-07", "location": "Arapaho & Roosevelt National Forests Pawnee National Grassland, Black Hawk, CO, US", "elevation": 2728.0, "land_cover_label": "Tree cover", "water_mask": false, "exclude_reason": "keep", "ndvi": null, "soil_moisture": 0.4059362398592306, "solar_exposure": 0.7501553893089294, "wind_exposure": 0.33009934425354, "water_retention": 0.3012832105159759, "slope": 8.632756233215332, "aspect": 30.90172576904297, "num_identification_agreements": 1, "cluster": 0, "tavg": null, "tmin": 18.0, "tmax": 29.0, "prcp_d0": 16.920940399169922, "prcp_d1": 0.0, "prcp_d2": 4.119579315185547, "prcp_d3": 0.0, "prcp_d4": 4.119579315185547, "prcp_d5": 0.0, "prcp_d6": 0.0, "tmax_d0": 21.3, "tmax_d1": 23.5, "tmax_d2": 26.1, "tmax_d3": 25.5, "tmax_d4": 21.4, "tmax_d5": 23.4, "tmax_d6": 23.6, "tmin_d0": 9.7, "tmin_d1": 10.6, "tmin_d2": 13.8, "tmin_d3": 9.4, "tmin_d4": 11.2, "tmin_d5": 13.3, "tmin_d6": 11.4, "day_of_year": 219, "uuid": "475bfc71-0e33-42fc-8a3b-e66db6981d94", "inat_id": 129881271}}, {"type": "Feature", "geometry": {"type": "Point", "coordinates": [-105.947772, 39.5680479722]}, "properties": {"species": "Albatrellopsis confluens", "date": "2022-08-16", "location": "Keystone, CO 80435, USA", "elevation": 3176.0, "land_cover_label": "Tree cover", "water_mask": false, "exclude_reason": "keep", "ndvi": null, "soil_moisture": 0.4226989958261807, "solar_exposure": 0.9863707423210144, "wind_exposure": 0.3334250152111053, "water_retention": 0.1149252504110336, "slope": 21.86752319335937, "aspect": 189.1460723876953, "num_identification_agreements": 1, "cluster": 2, "tavg": null, "tmin": 2.9, "tmax": 7.4, "prcp_d0": 0.0, "prcp_d1": 0.0, "prcp_d2": 0.0, "prcp_d3": 0.0, "prcp_d4": 0.0, "prcp_d5": 25.61056900024414, "prcp_d6": 0.0, "tmax_d0": 11.3, "tmax_d1": 17.5, "tmax_d2": 20.2, "tmax_d3": 19.7, "tmax_d4": 19.9, "tmax_d5": 21.5, "tmax_d6": 21.3, "tmin_d0": 5.2, "tmin_d1": 5.6, "tmin_d2": 6.3, "tmin_d3": 5.1, "tmin_d4": 5.4, "tmin_d5": 5.1, "tmin_d6": 5.0, "day_of_year": 228, "uuid": "5d12c046-b14f-4d34-92bd-244148aeaded", "inat_id": 131112465}}, {"type": "Feature", "geometry": {"type": "Point", "coordinates": [-105.93106276, 39.55296772]}, "properties": {"species": "Albatrellopsis confluens", "date": "2022-08-17", "location": "Keystone, CO 80435, USA", "elevation": 3304.0, "land_cover_label": "Tree cover", "water_mask": false, "exclude_reason": "keep", "ndvi": null, "soil_moisture": 0.4331636554741256, "solar_exposure": 0.9692096710205078, "wind_exposure": 0.2733786106109619, "water_retention": 0.1756583750247955, "slope": 18.061479568481445, "aspect": 164.8806915283203, "num_identification_agreements": 1, "cluster": 0, "tavg": null, "tmin": -1.7, "tmax": 12.6, "prcp_d0": 0.0, "prcp_d1": 0.0, "prcp_d2": 0.0, "prcp_d3": 0.0, "prcp_d4": 0.0, "prcp_d5": 0.0, "prcp_d6": 25.61056900024414, "tmax_d0": 18.3, "tmax_d1": 11.3, "tmax_d2": 17.5, "tmax_d3": 20.2, "tmax_d4": 19.7, "tmax_d5": 19.9, "tmax_d6": 21.5, "tmin_d0": 1.8, "tmin_d1": 5.2, "tmin_d2": 5.6, "tmin_d3": 6.3, "tmin_d4": 5.1, "tmin_d5": 5.4, "tmin_d6": 5.1, "day_of_year": 229, "uuid": "ca89480c-c726-4bf8-852a-22541dc9e72c", "inat_id": 131231473}}, {"type": "Feature", "geometry": {"type": "Point", "coordinates": [-107.8793209791, 37.8994086867]}, "properties": {"species": "Albatrellopsis confluens", "date": "2022-08-19", "location": "Mountain Village, CO 81435, USA", "elevation": 3008.0, "land_cover_label": "Tree cover", "water_mask": false, "exclude_reason": "keep", "ndvi": null, "soil_moisture": null, "solar_exposure": null, "wind_exposure": null, "water_retention": null, "slope": null, "aspect": null, "num_identification_agreements": 2, "cluster": 0, "tavg": null, "tmin": 10.0, "tmax": 17.0, "prcp_d0": 0.0, "prcp_d1": 0.0, "prcp_d2": 0.0, "prcp_d3": 10.033473014831545, "prcp_d4": 8.028586387634277, "prcp_d5": 0.0, "prcp_d6": 0.0, "tmax_d0": 18.6, "tmax_d1": 19.7, "tmax_d2": 17.3, "tmax_d3": 18.0, "tmax_d4": 19.5, "tmax_d5": 20.9, "tmax_d6": 20.0, "tmin_d0": 6.3, "tmin_d1": 4.8, "tmin_d2": 4.1, "tmin_d3": 5.9, "tmin_d4": 6.0, "tmin_d5": 5.1, "tmin_d6": 6.1, "day_of_year": 231, "uuid": "ba703df3-da34-46e1-be5f-05cba5f2280a", "inat_id": 136387229}}, {"type": "Feature", "geometry": {"type": "Point", "coordinates": [-105.7796119694, 39.9756702453]}, "properties": {"species": "Albatrellopsis confluens", "date": "2022-08-20", "location": "CR-83, Granby, CO, US", "elevation": 2626.0, "land_cover_label": "Tree cover", "water_mask": false, "exclude_reason": "keep", "ndvi": null, "soil_moisture": 0.3163302466432865, "solar_exposure": 0.8772917985916138, "wind_exposure": 0.3156503140926361, "water_retention": 0.2341157793998718, "slope": 3.919668674468994, "aspect": 161.91969299316406, "num_identification_agreements": 1, "cluster": 0, "tavg": null, "tmin": 6.6, "tmax": 22.2, "prcp_d0": 0.0, "prcp_d1": 0.0, "prcp_d2": 0.0, "prcp_d3": 0.0, "prcp_d4": 0.0, "prcp_d5": 0.0, "prcp_d6": 25.99932289123535, "tmax_d0": 19.3, "tmax_d1": 20.1, "tmax_d2": 24.1, "tmax_d3": 23.0, "tmax_d4": 15.9, "tmax_d5": 20.4, "tmax_d6": 24.4, "tmin_d0": 7.7, "tmin_d1": 6.5, "tmin_d2": 4.0, "tmin_d3": 5.2, "tmin_d4": 9.0, "tmin_d5": 8.5, "tmin_d6": 8.7, "day_of_year": 232, "uuid": "06a5db69-3f82-4b97-bab0-6a367d3f588f", "inat_id": 131655702}}, {"type": "Feature", "geometry": {"type": "Point", "coordinates": [-105.52391251, 40.0205412583]}, "properties": {"species": "Albatrellopsis confluens", "date": "2022-08-20", "location": "Colorado, US", "elevation": 2785.0, "land_cover_label": "Tree cover", "water_mask": false, "exclude_reason": "keep", "ndvi": null, "soil_moisture": 0.3830133928601356, "solar_exposure": 0.84292072057724, "wind_exposure": 0.3069379031658172, "water_retention": 0.2930664122104645, "slope": 4.901021957397461, "aspect": 97.2732162475586, "num_identification_agreements": 1, "cluster": 2, "tavg": null, "tmin": 15.0, "tmax": 26.0, "prcp_d0": 0.0, "prcp_d1": 0.0, "prcp_d2": 0.0, "prcp_d3": 0.0, "prcp_d4": 24.67070198059082, "prcp_d5": 0.0, "prcp_d6": 17.635744094848633, "tmax_d0": 15.1, "tmax_d1": 16.5, "tmax_d2": 19.0, "tmax_d3": 17.0, "tmax_d4": 13.9, "tmax_d5": 17.7, "tmax_d6": 22.3, "tmin_d0": 7.4, "tmin_d1": 8.4, "tmin_d2": 8.2, "tmin_d3": 6.9, "tmin_d4": 9.7, "tmin_d5": 7.1, "tmin_d6": 9.3, "day_of_year": 232, "uuid": "03fd8787-8332-4e2d-8507-cf87c8e93c93", "inat_id": 132106728}}, {"type": "Feature", "geometry": {"type": "Point", "coordinates": [-106.2146133333, 39.5291966667]}, "properties": {"species": "Albatrellopsis confluens", "date": "2022-08-23", "location": "White River National Forest, Silverthorne, CO, US", "elevation": 3239.0, "land_cover_label": "Tree cover", "water_mask": false, "exclude_reason": "keep", "ndvi": null, "soil_moisture": null, "solar_exposure": null, "wind_exposure": null, "water_retention": null, "slope": null, "aspect": null, "num_identification_agreements": 2, "cluster": 0, "tavg": null, "tmin": 8.0, "tmax": 18.0, "prcp_d0": 0.0, "prcp_d1": 12.542817115783691, "prcp_d2": 0.0, "prcp_d3": 0.0, "prcp_d4": 0.0, "prcp_d5": 0.0, "prcp_d6": 0.0, "tmax_d0": 18.0, "tmax_d1": 16.0, "tmax_d2": 14.6, "tmax_d3": 13.9, "tmax_d4": 17.9, "tmax_d5": 19.0, "tmax_d6": 18.8, "tmin_d0": 1.0, "tmin_d1": 0.8, "tmin_d2": 2.0, "tmin_d3": 4.8, "tmin_d4": 1.5, "tmin_d5": 0.9, "tmin_d6": 2.3, "day_of_year": 235, "uuid": "c88c5107-babe-4854-9b86-90720f22566e", "inat_id": 135010202}}, {"type": "Feature", "geometry": {"type": "Point", "coordinates": [-106.0885540211, 39.2015904934]}, "properties": {"species": "Albatrellopsis confluens", "date": "2022-08-26", "location": "Pike and San Isabel National Forests, Hartsel, CO, US", "elevation": 3247.0, "land_cover_label": "Tree cover", "water_mask": false, "exclude_reason": "keep", "ndvi": null, "soil_moisture": null, "solar_exposure": null, "wind_exposure": null, "water_retention": null, "slope": null, "aspect": null, "num_identification_agreements": 1, "cluster": 0, "tavg": null, "tmin": 5.6, "tmax": 13.9, "prcp_d0": 0.0, "prcp_d1": 0.0, "prcp_d2": 0.0, "prcp_d3": 0.0, "prcp_d4": 0.0, "prcp_d5": 0.0, "prcp_d6": 0.0, "tmax_d0": 14.8, "tmax_d1": 16.9, "tmax_d2": 16.0, "tmax_d3": 16.2, "tmax_d4": 13.7, "tmax_d5": 14.4, "tmax_d6": 13.3, "tmin_d0": 4.2, "tmin_d1": 4.6, "tmin_d2": 3.1, "tmin_d3": 2.7, "tmin_d4": 2.4, "tmin_d5": 1.9, "tmin_d6": 4.8, "day_of_year": 238, "uuid": "c622573b-d9f7-4fa9-a519-058f00063224", "inat_id": 132403524}}, {"type": "Feature", "geometry": {"type": "Point", "coordinates": [-106.1600945, 39.4323916667]}, "properties": {"species": "Albatrellopsis confluens", "date": "2022-08-28", "location": "White River National Forest, Breckenridge, CO, US", "elevation": 3421.0, "land_cover_label": "Tree cover", "water_mask": false, "exclude_reason": "keep", "ndvi": null, "soil_moisture": null, "solar_exposure": null, "wind_exposure": null, "water_retention": null, "slope": null, "aspect": null, "num_identification_agreements": 1, "cluster": 0, "tavg": null, "tmin": 2.8, "tmax": 17.8, "prcp_d0": 0.0, "prcp_d1": 0.0, "prcp_d2": 0.0, "prcp_d3": 0.0, "prcp_d4": 0.0, "prcp_d5": 0.0, "prcp_d6": 16.402738571166992, "tmax_d0": 15.0, "tmax_d1": 14.9, "tmax_d2": 12.4, "tmax_d3": 16.1, "tmax_d4": 15.8, "tmax_d5": 16.3, "tmax_d6": 14.5, "tmin_d0": 4.0, "tmin_d1": 1.5, "tmin_d2": 4.2, "tmin_d3": 5.3, "tmin_d4": 2.8, "tmin_d5": 1.3, "tmin_d6": 0.5, "day_of_year": 240, "uuid": "86a6a520-043c-455b-b90c-358d4e431ee9", "inat_id": 132721097}}, {"type": "Feature", "geometry": {"type": "Point", "coordinates": [-105.5688966, 40.0104899997]}, "properties": {"species": "Albatrellopsis confluens", "date": "2022-08-28", "location": "Nederland, CO 80466, USA", "elevation": 3061.0, "land_cover_label": "Tree cover", "water_mask": false, "exclude_reason": "keep", "ndvi": null, "soil_moisture": 0.3399520170030221, "solar_exposure": 0.9022106528282166, "wind_exposure": 0.3250413835048675, "water_retention": 0.1996670812368393, "slope": 6.515296936035156, "aspect": 183.558349609375, "num_identification_agreements": 1, "cluster": 0, "tavg": null, "tmin": 2.8, "tmax": 12.1, "prcp_d0": 15.76111888885498, "prcp_d1": 0.0, "prcp_d2": 0.0, "prcp_d3": 0.0, "prcp_d4": 0.0, "prcp_d5": 0.0, "prcp_d6": 0.0, "tmax_d0": 17.3, "tmax_d1": 16.7, "tmax_d2": 15.2, "tmax_d3": 17.9, "tmax_d4": 17.0, "tmax_d5": 17.0, "tmax_d6": 15.6, "tmin_d0": 8.0, "tmin_d1": 4.7, "tmin_d2": 5.8, "tmin_d3": 5.9, "tmin_d4": 4.0, "tmin_d5": 3.5, "tmin_d6": 3.6, "day_of_year": 240, "uuid": "ab09ee3c-995d-4cb3-a353-9978a786f7d2", "inat_id": 132699777}}, {"type": "Feature", "geometry": {"type": "Point", "coordinates": [-105.671183234, 39.7166175193]}, "properties": {"species": "Albatrellopsis confluens", "date": "2022-09-05", "location": "Colorado, US", "elevation": 3373.0, "land_cover_label": "Tree cover", "water_mask": false, "exclude_reason": "keep", "ndvi": null, "soil_moisture": 0.3168139729196003, "solar_exposure": 0.8862045407295227, "wind_exposure": 0.3777966797351837, "water_retention": 0.165343627333641, "slope": 10.758281707763672, "aspect": 124.8437728881836, "num_identification_agreements": 1, "cluster": 0, "tavg": null, "tmin": 6.8, "tmax": 17.0, "prcp_d0": 0.0, "prcp_d1": 0.0, "prcp_d2": 0.0, "prcp_d3": 0.0, "prcp_d4": 0.0, "prcp_d5": 0.0, "prcp_d6": 0.0, "tmax_d0": 20.2, "tmax_d1": 19.8, "tmax_d2": 17.1, "tmax_d3": 17.5, "tmax_d4": 16.4, "tmax_d5": 16.3, "tmax_d6": 18.0, "tmin_d0": 6.9, "tmin_d1": 4.5, "tmin_d2": 2.5, "tmin_d3": 5.5, "tmin_d4": 3.7, "tmin_d5": 5.1, "tmin_d6": 3.1, "day_of_year": 248, "uuid": "1faa5801-d3f8-4b17-8e2e-cd75219f13a3", "inat_id": 133919913}}, {"type": "Feature", "geometry": {"type": "Point", "coordinates": [-105.9051091221, 39.6008179242]}, "properties": {"species": "Albatrellopsis confluens", "date": "2022-09-07", "location": "Colorado, US", "elevation": 2953.0, "land_cover_label": "Tree cover", "water_mask": false, "exclude_reason": "keep", "ndvi": null, "soil_moisture": 0.3170657372501248, "solar_exposure": 0.6660911440849304, "wind_exposure": 0.169552132487297, "water_retention": 0.4050504267215729, "slope": 13.731610298156738, "aspect": 1.6622321605682373, "num_identification_agreements": 1, "cluster": 3, "tavg": null, "tmin": 5.8, "tmax": 17.7, "prcp_d0": 0.0, "prcp_d1": 0.0, "prcp_d2": 0.0, "prcp_d3": 0.0, "prcp_d4": 7.556181907653809, "prcp_d5": 0.0, "prcp_d6": 0.0, "tmax_d0": 24.2, "tmax_d1": 23.6, "tmax_d2": 23.5, "tmax_d3": 22.3, "tmax_d4": 22.2, "tmax_d5": 22.1, "tmax_d6": 19.4, "tmin_d0": 6.1, "tmin_d1": 6.3, "tmin_d2": 6.1, "tmin_d3": 4.6, "tmin_d4": 5.8, "tmin_d5": 4.1, "tmin_d6": 4.7, "day_of_year": 250, "uuid": "b789f9a0-f528-4994-a36f-a79e69b0ad18", "inat_id": 134109651}}, {"type": "Feature", "geometry": {"type": "Point", "coordinates": [-105.1524944231, 38.0241707268]}, "properties": {"species": "Albatrellopsis confluens", "date": "2022-09-07", "location": "Mammoth Gulch", "elevation": 3103.0, "land_cover_label": "Tree cover", "water_mask": false, "exclude_reason": "keep", "ndvi": null, "soil_moisture": null, "solar_exposure": null, "wind_exposure": null, "water_retention": null, "slope": null, "aspect": null, "num_identification_agreements": 1, "cluster": 0, "tavg": null, "tmin": 17.5, "tmax": 34.9, "prcp_d0": 0.0, "prcp_d1": 0.0, "prcp_d2": 0.0, "prcp_d3": 0.0, "prcp_d4": 0.0, "prcp_d5": 0.0, "prcp_d6": 6.476504325866699, "tmax_d0": 21.1, "tmax_d1": 21.9, "tmax_d2": 21.5, "tmax_d3": 20.4, "tmax_d4": 18.0, "tmax_d5": 20.0, "tmax_d6": 19.3, "tmin_d0": 11.0, "tmin_d1": 11.0, "tmin_d2": 10.3, "tmin_d3": 9.7, "tmin_d4": 6.1, "tmin_d5": 10.2, "tmin_d6": 7.4, "day_of_year": 250, "uuid": "8eb672bd-b65c-43fb-809b-c5903484d19b", "inat_id": 143133724}}, {"type": "Feature", "geometry": {"type": "Point", "coordinates": [-105.9699098202, 39.6896047799]}, "properties": {"species": "Albatrellopsis confluens", "date": "2022-09-08", "location": "Colorado, US", "elevation": 3767.0, "land_cover_label": "Moss and lichen", "water_mask": false, "exclude_reason": "keep", "ndvi": null, "soil_moisture": 0.2999145447148339, "solar_exposure": 0.8772914409637451, "wind_exposure": 0.5695522427558899, "water_retention": 0.2341157793998718, "slope": 3.919668674468994, "aspect": 198.080307006836, "num_identification_agreements": 4, "cluster": 0, "tavg": null, "tmin": 3.6, "tmax": 16.6, "prcp_d0": 0.0, "prcp_d1": 0.0, "prcp_d2": 0.0, "prcp_d3": 0.0, "prcp_d4": 0.0, "prcp_d5": 6.434495449066162, "prcp_d6": 0.0, "tmax_d0": 16.2, "tmax_d1": 18.1, "tmax_d2": 17.9, "tmax_d3": 18.1, "tmax_d4": 16.6, "tmax_d5": 16.0, "tmax_d6": 16.0, "tmin_d0": 4.7, "tmin_d1": 5.3, "tmin_d2": 5.1, "tmin_d3": 5.2, "tmin_d4": 2.7, "tmin_d5": 0.8, "tmin_d6": 5.2, "day_of_year": 251, "uuid": "2ac1d5a0-e353-47bc-85f3-a541ade3b8fb", "inat_id": 134250001}}, {"type": "Feature", "geometry": {"type": "Point", "coordinates": [-105.7096388889, 39.6336416667]}, "properties": {"species": "Albatrellopsis confluens", "date": "2022-09-08", "location": "Idaho Springs, CO 80452, USA", "elevation": 3176.0, "land_cover_label": "Tree cover", "water_mask": false, "exclude_reason": "keep", "ndvi": null, "soil_moisture": 0.3167688490414558, "solar_exposure": 0.7959051728248596, "wind_exposure": 0.1090866178274154, "water_retention": 0.4823716282844543, "slope": 8.631589889526367, "aspect": 290.9510192871094, "num_identification_agreements": 2, "cluster": 3, "tavg": null, "tmin": 3.6, "tmax": 16.6, "prcp_d0": 0.0, "prcp_d1": 0.0, "prcp_d2": 0.0, "prcp_d3": 0.0, "prcp_d4": 0.0, "prcp_d5": 8.792691230773926, "prcp_d6": 0.0, "tmax_d0": 21.1, "tmax_d1": 21.8, "tmax_d2": 22.7, "tmax_d3": 21.5, "tmax_d4": 21.0, "tmax_d5": 18.3, "tmax_d6": 18.7, "tmin_d0": 8.5, "tmin_d1": 7.1, "tmin_d2": 7.8, "tmin_d3": 8.2, "tmin_d4": 5.7, "tmin_d5": 3.7, "tmin_d6": 6.7, "day_of_year": 251, "uuid": "b8660af0-66bd-4615-b300-6c44188a666d", "inat_id": 134203408}}, {"type": "Feature", "geometry": {"type": "Point", "coordinates": [-105.8153118991, 39.7086162513]}, "properties": {"species": "Albatrellopsis confluens", "date": "2022-09-08", "location": "Colorado, US", "elevation": 3604.0, "land_cover_label": "Moss and lichen", "water_mask": false, "exclude_reason": "keep", "ndvi": null, "soil_moisture": 0.3060011830180445, "solar_exposure": 0.7872299551963806, "wind_exposure": 0.2811785638332367, "water_retention": 0.2705846130847931, "slope": 17.700647354125977, "aspect": 88.05074310302734, "num_identification_agreements": 2, "cluster": 0, "tavg": null, "tmin": 3.6, "tmax": 16.6, "prcp_d0": 0.0, "prcp_d1": 0.0, "prcp_d2": 0.0, "prcp_d3": 0.0, "prcp_d4": 0.0, "prcp_d5": 0.0, "prcp_d6": 0.0, "tmax_d0": 17.2, "tmax_d1": 18.5, "tmax_d2": 19.2, "tmax_d3": 18.3, "tmax_d4": 17.5, "tmax_d5": 16.0, "tmax_d6": 15.8, "tmin_d0": 5.7, "tmin_d1": 6.0, "tmin_d2": 3.9, "tmin_d3": 5.7, "tmin_d4": 4.6, "tmin_d5": 2.6, "tmin_d6": 4.4, "day_of_year": 251, "uuid": "20953833-4343-4587-a468-ffebdf296b5b", "inat_id": 134230817}}, {"type": "Feature", "geometry": {"type": "Point", "coordinates": [-104.9720206484, 38.9764096004]}, "properties": {"species": "Albatrellopsis confluens", "date": "2022-09-16", "location": "Colorado Springs, CO 80921, USA", "elevation": 2764.0, "land_cover_label": "Grassland", "water_mask": false, "exclude_reason": "keep", "ndvi": null, "soil_moisture": null, "solar_exposure": null, "wind_exposure": null, "water_retention": null, "slope": null, "aspect": null, "num_identification_agreements": 1, "cluster": 0, "tavg": null, "tmin": 6.3, "tmax": 25.2, "prcp_d0": 0.0, "prcp_d1": 0.0, "prcp_d2": 0.0, "prcp_d3": 0.0, "prcp_d4": 0.0, "prcp_d5": 0.0, "prcp_d6": 0.0, "tmax_d0": 18.7, "tmax_d1": 17.0, "tmax_d2": 17.5, "tmax_d3": 20.0, "tmax_d4": 21.3, "tmax_d5": 18.6, "tmax_d6": 11.8, "tmin_d0": 5.3, "tmin_d1": 8.1, "tmin_d2": 8.9, "tmin_d3": 8.4, "tmin_d4": 9.1, "tmin_d5": 4.4, "tmin_d6": 5.6, "day_of_year": 259, "uuid": "5bf5ef78-1f1e-4271-8530-b52095d9e1dc", "inat_id": 172012945}}, {"type": "Feature", "geometry": {"type": "Point", "coordinates": [-105.7133111111, 39.5092305556]}, "properties": {"species": "Albatrellopsis confluens", "date": "2022-09-29", "location": "Keystone, CO 80435, USA", "elevation": 2958.0, "land_cover_label": "Tree cover", "water_mask": false, "exclude_reason": "keep", "ndvi": null, "soil_moisture": 0.3088702649698204, "solar_exposure": 0.546852707862854, "wind_exposure": 0.3113098740577698, "water_retention": 0.2728765308856964, "slope": 22.985183715820312, "aspect": 24.69377899169922, "num_identification_agreements": 2, "cluster": 0, "tavg": null, "tmin": -1.1, "tmax": 9.3, "prcp_d0": 0.0, "prcp_d1": 0.0, "prcp_d2": 0.0, "prcp_d3": 0.0, "prcp_d4": 0.0, "prcp_d5": 0.0, "prcp_d6": 0.0, "tmax_d0": 15.5, "tmax_d1": 16.2, "tmax_d2": 15.3, "tmax_d3": 16.6, "tmax_d4": 16.9, "tmax_d5": 16.8, "tmax_d6": 14.8, "tmin_d0": 3.8, "tmin_d1": 1.7, "tmin_d2": 2.5, "tmin_d3": 2.0, "tmin_d4": 0.9, "tmin_d5": 0.4, "tmin_d6": 3.4, "day_of_year": 272, "uuid": "10750fc2-8b38-4236-b22b-18bbafdf167a", "inat_id": 137016981}}, {"type": "Feature", "geometry": {"type": "Point", "coordinates": [-105.5056128278, 39.9505773278]}, "properties": {"species": "Albatrellopsis confluens", "date": "2023-07-14", "location": "Eldora Rd, Nederland, CO, US", "elevation": 2642.0, "land_cover_label": "Tree cover", "water_mask": false, "exclude_reason": "keep", "ndvi": null, "soil_moisture": 0.302355651787869, "solar_exposure": 0.7422730326652527, "wind_exposure": 0.3664613664150238, "water_retention": 0.2849346101284027, "slope": 9.15908145904541, "aspect": 28.92012023925781, "num_identification_agreements": 1, "cluster": 0, "tavg": null, "tmin": 17.0, "tmax": 27.0, "prcp_d0": 0.0, "prcp_d1": 0.0, "prcp_d2": 0.0, "prcp_d3": 0.0, "prcp_d4": 0.0, "prcp_d5": 0.0, "prcp_d6": 0.0, "tmax_d0": 20.9, "tmax_d1": 23.2, "tmax_d2": 23.8, "tmax_d3": 25.0, "tmax_d4": 23.2, "tmax_d5": 19.8, "tmax_d6": 16.4, "tmin_d0": 9.8, "tmin_d1": 8.2, "tmin_d2": 9.3, "tmin_d3": 8.0, "tmin_d4": 7.0, "tmin_d5": 5.8, "tmin_d6": 7.3, "day_of_year": 195, "uuid": "5345b4ca-8497-4685-b903-a5f997232b2f", "inat_id": 172915494}}, {"type": "Feature", "geometry": {"type": "Point", "coordinates": [-105.5311366667, 40.0848055]}, "properties": {"species": "Albatrellopsis confluens", "date": "2023-08-05", "location": "Ward, CO, US", "elevation": 3040.0, "land_cover_label": "Tree cover", "water_mask": false, "exclude_reason": "keep", "ndvi": null, "soil_moisture": 0.3259768509747189, "solar_exposure": 0.691760241985321, "wind_exposure": 0.3896101713180542, "water_retention": 0.3009407818317413, "slope": 12.892363548278809, "aspect": 334.3071594238281, "num_identification_agreements": 1, "cluster": 2, "tavg": null, "tmin": 15.0, "tmax": 28.0, "prcp_d0": 0.0, "prcp_d1": 0.0, "prcp_d2": 0.0, "prcp_d3": 9.744040489196776, "prcp_d4": 38.97616195678711, "prcp_d5": 15.339624404907228, "prcp_d6": 0.0, "tmax_d0": 18.5, "tmax_d1": 18.9, "tmax_d2": 17.8, "tmax_d3": 17.7, "tmax_d4": 19.9, "tmax_d5": 19.5, "tmax_d6": 22.5, "tmin_d0": 5.4, "tmin_d1": 6.1, "tmin_d2": 7.9, "tmin_d3": 8.9, "tmin_d4": 9.3, "tmin_d5": 10.2, "tmin_d6": 10.2, "day_of_year": 217, "uuid": "e37f450f-da49-42ba-8e5d-ffcea281c869", "inat_id": 177291436}}, {"type": "Feature", "geometry": {"type": "Point", "coordinates": [-105.4598166667, 39.6902366667]}, "properties": {"species": "Albatrellopsis confluens", "date": "2023-08-08", "location": "Idaho Springs, CO, US", "elevation": 2690.0, "land_cover_label": "Tree cover", "water_mask": false, "exclude_reason": "keep", "ndvi": null, "soil_moisture": 0.406967254336791, "solar_exposure": 0.6135857701301575, "wind_exposure": 0.2631960213184356, "water_retention": 0.3565177619457245, "slope": 17.343564987182617, "aspect": 7.826889514923096, "num_identification_agreements": 1, "cluster": 3, "tavg": null, "tmin": -0.4, "tmax": 13.3, "prcp_d0": 0.0, "prcp_d1": 0.0, "prcp_d2": 0.0, "prcp_d3": 0.0, "prcp_d4": 0.0, "prcp_d5": 0.0, "prcp_d6": 13.34237575531006, "tmax_d0": 21.7, "tmax_d1": 20.9, "tmax_d2": 17.7, "tmax_d3": 21.1, "tmax_d4": 22.2, "tmax_d5": 20.3, "tmax_d6": 19.8, "tmin_d0": 5.1, "tmin_d1": 6.1, "tmin_d2": 7.5, "tmin_d3": 6.6, "tmin_d4": 6.8, "tmin_d5": 8.2, "tmin_d6": 8.7, "day_of_year": 220, "uuid": "689026fe-e2f7-4dc9-b9f9-9dcb9991f4e0", "inat_id": 177461259}}, {"type": "Feature", "geometry": {"type": "Point", "coordinates": [-105.3008461202, 39.5894783024]}, "properties": {"species": "Albatrellopsis confluens", "date": "2023-08-26", "location": "Colorado, US", "elevation": 2392.0, "land_cover_label": "Tree cover", "water_mask": false, "exclude_reason": "keep", "ndvi": null, "soil_moisture": 0.2633242876440437, "solar_exposure": 0.8826050758361816, "wind_exposure": 0.3675837814807892, "water_retention": 0.2520882785320282, "slope": 8.948222160339355, "aspect": 234.1246337890625, "num_identification_agreements": 2, "cluster": 0, "tavg": null, "tmin": 13.9, "tmax": 25.6, "prcp_d0": 0.0, "prcp_d1": 0.0, "prcp_d2": 0.0, "prcp_d3": 0.0, "prcp_d4": 0.0, "prcp_d5": 0.0, "prcp_d6": 0.0, "tmax_d0": 17.8, "tmax_d1": 17.5, "tmax_d2": 25.4, "tmax_d3": 27.0, "tmax_d4": 28.4, "tmax_d5": 30.3, "tmax_d6": 30.4, "tmin_d0": 9.3, "tmin_d1": 12.1, "tmin_d2": 15.1, "tmin_d3": 12.0, "tmin_d4": 15.2, "tmin_d5": 15.0, "tmin_d6": 11.9, "day_of_year": 238, "uuid": "8d5d8d11-c288-4f16-9f95-c5418ee1c5c1", "inat_id": 202363371}}, {"type": "Feature", "geometry": {"type": "Point", "coordinates": [-105.7777850702, 39.7983193575]}, "properties": {"species": "Albatrellopsis confluens", "date": "2023-08-27", "location": "Berthoud Pass", "elevation": 3454.0, "land_cover_label": "Tree cover", "water_mask": false, "exclude_reason": "keep", "ndvi": null, "soil_moisture": 0.3850741295340827, "solar_exposure": 0.84292072057724, "wind_exposure": 0.2928450107574463, "water_retention": 0.2657273113727569, "slope": 4.901021957397461, "aspect": 97.2732162475586, "num_identification_agreements": 1, "cluster": 0, "tavg": null, "tmin": 2.4, "tmax": 14.2, "prcp_d0": 0.0, "prcp_d1": 0.0, "prcp_d2": 22.968482971191406, "prcp_d3": 0.0, "prcp_d4": 0.0, "prcp_d5": 0.0, "prcp_d6": 0.0, "tmax_d0": 16.8, "tmax_d1": 15.2, "tmax_d2": 11.7, "tmax_d3": 16.7, "tmax_d4": 16.9, "tmax_d5": 20.0, "tmax_d6": 21.4, "tmin_d0": 5.2, "tmin_d1": 3.3, "tmin_d2": 6.4, "tmin_d3": 7.1, "tmin_d4": 5.8, "tmin_d5": 7.1, "tmin_d6": 4.7, "day_of_year": 239, "uuid": "35186b51-a655-46d1-a70c-0c1800def765", "inat_id": 180559521}}, {"type": "Feature", "geometry": {"type": "Point", "coordinates": [-105.0630786988, 37.9322314645]}, "properties": {"species": "Albatrellopsis confluens", "date": "2024-07-20", "location": "Colorado, US", "elevation": 3468.0, "land_cover_label": "Tree cover", "water_mask": false, "exclude_reason": "keep", "ndvi": null, "soil_moisture": null, "solar_exposure": null, "wind_exposure": null, "water_retention": null, "slope": null, "aspect": null, "num_identification_agreements": 1, "cluster": 0, "tavg": null, "tmin": 16.6, "tmax": 29.1, "prcp_d0": 0.0, "prcp_d1": 0.0, "prcp_d2": 0.0, "prcp_d3": 0.0, "prcp_d4": 4.75114107131958, "prcp_d5": 10.696754455566406, "prcp_d6": 0.0, "tmax_d0": 13.8, "tmax_d1": 18.0, "tmax_d2": 17.3, "tmax_d3": 14.0, "tmax_d4": 17.3, "tmax_d5": 20.8, "tmax_d6": 21.0, "tmin_d0": 5.5, "tmin_d1": 7.1, "tmin_d2": 4.6, "tmin_d3": 4.7, "tmin_d4": 7.7, "tmin_d5": 11.8, "tmin_d6": 10.7, "day_of_year": 202, "uuid": "ff13781b-f044-45db-bce0-f86634167740", "inat_id": 230607103}}, {"type": "Feature", "geometry": {"type": "Point", "coordinates": [-107.9513266667, 37.8074883333]}, "properties": {"species": "Albatrellopsis confluens", "date": "2024-07-29", "location": "Dolores County, US-CO, US", "elevation": 3316.0, "land_cover_label": "Tree cover", "water_mask": false, "exclude_reason": "keep", "ndvi": null, "soil_moisture": null, "solar_exposure": null, "wind_exposure": null, "water_retention": null, "slope": null, "aspect": null, "num_identification_agreements": 1, "cluster": 0, "tavg": null, "tmin": 12.0, "tmax": 25.0, "prcp_d0": 0.0, "prcp_d1": 0.0, "prcp_d2": 0.0, "prcp_d3": 0.0, "prcp_d4": 0.0, "prcp_d5": 0.0, "prcp_d6": 0.0, "tmax_d0": 17.7, "tmax_d1": 17.6, "tmax_d2": 17.4, "tmax_d3": 17.5, "tmax_d4": 20.0, "tmax_d5": 18.8, "tmax_d6": 18.4, "tmin_d0": 6.4, "tmin_d1": 7.1, "tmin_d2": 6.7, "tmin_d3": 4.8, "tmin_d4": 7.0, "tmin_d5": 4.9, "tmin_d6": 3.2, "day_of_year": 211, "uuid": "caa3cd72-265e-4b48-80f1-941aa0c288cc", "inat_id": 232888560}}, {"type": "Feature", "geometry": {"type": "Point", "coordinates": [-106.6812666667, 39.4950333333]}, "properties": {"species": "Albatrellopsis confluens", "date": "2024-08-10", "location": "White River National Forest, Eagle, CO, US", "elevation": 2946.0, "land_cover_label": "Tree cover", "water_mask": false, "exclude_reason": "keep", "ndvi": null, "soil_moisture": null, "solar_exposure": null, "wind_exposure": null, "water_retention": null, "slope": null, "aspect": null, "num_identification_agreements": 1, "cluster": 0, "tavg": null, "tmin": 11.7, "tmax": 27.8, "prcp_d0": 0.0, "prcp_d1": 0.0, "prcp_d2": 0.0, "prcp_d3": 0.0, "prcp_d4": 15.017114639282228, "prcp_d5": 9.973939895629885, "prcp_d6": 0.0, "tmax_d0": 20.5, "tmax_d1": 20.6, "tmax_d2": 22.6, "tmax_d3": 23.9, "tmax_d4": 23.6, "tmax_d5": 23.4, "tmax_d6": 25.1, "tmin_d0": 6.5, "tmin_d1": 10.6, "tmin_d2": 9.3, "tmin_d3": 11.3, "tmin_d4": 8.9, "tmin_d5": 9.6, "tmin_d6": 12.6, "day_of_year": 223, "uuid": "e1d1a89f-95fb-457f-a809-d36ca466c263", "inat_id": 235203238}}, {"type": "Feature", "geometry": {"type": "Point", "coordinates": [-107.822765, 38.01432]}, "properties": {"species": "Albatrellopsis confluens", "date": "2024-08-10", "location": "Ouray County, US-CO, US", "elevation": 3252.0, "land_cover_label": "Tree cover", "water_mask": false, "exclude_reason": "keep", "ndvi": null, "soil_moisture": null, "solar_exposure": null, "wind_exposure": null, "water_retention": null, "slope": null, "aspect": null, "num_identification_agreements": 1, "cluster": 0, "tavg": null, "tmin": 11.0, "tmax": 21.0, "prcp_d0": 28.291046142578125, "prcp_d1": 0.0, "prcp_d2": 0.0, "prcp_d3": 0.0, "prcp_d4": 0.0, "prcp_d5": 6.369287967681885, "prcp_d6": 0.0, "tmax_d0": 16.9, "tmax_d1": 19.2, "tmax_d2": 20.8, "tmax_d3": 19.8, "tmax_d4": 20.2, "tmax_d5": 20.6, "tmax_d6": 21.3, "tmin_d0": 6.6, "tmin_d1": 9.1, "tmin_d2": 7.7, "tmin_d3": 7.7, "tmin_d4": 7.2, "tmin_d5": 8.5, "tmin_d6": 7.0, "day_of_year": 223, "uuid": "d17ce267-56bc-4534-9ffc-35c151431a40", "inat_id": 236158195}}, {"type": "Feature", "geometry": {"type": "Point", "coordinates": [-106.2454371428, 38.7968279292]}, "properties": {"species": "Albatrellopsis confluens", "date": "2024-08-12", "location": "Pike and San Isabel National Forests, Nathrop, CO, US", "elevation": 2761.0, "land_cover_label": "Tree cover", "water_mask": false, "exclude_reason": "keep", "ndvi": null, "soil_moisture": null, "solar_exposure": null, "wind_exposure": null, "water_retention": null, "slope": null, "aspect": null, "num_identification_agreements": 2, "cluster": 0, "tavg": null, "tmin": 5.9, "tmax": 17.9, "prcp_d0": 0.0, "prcp_d1": 0.0, "prcp_d2": 0.0, "prcp_d3": 0.0, "prcp_d4": 0.0, "prcp_d5": 0.0, "prcp_d6": 17.88109016418457, "tmax_d0": 21.0, "tmax_d1": 22.3, "tmax_d2": 20.8, "tmax_d3": 21.4, "tmax_d4": 22.0, "tmax_d5": 23.9, "tmax_d6": 22.2, "tmin_d0": 8.1, "tmin_d1": 7.3, "tmin_d2": 6.7, "tmin_d3": 10.4, "tmin_d4": 7.2, "tmin_d5": 7.5, "tmin_d6": 8.1, "day_of_year": 225, "uuid": "0352c93c-7c62-4179-8f1f-f85313e6fc36", "inat_id": 235574412}}, {"type": "Feature", "geometry": {"type": "Point", "coordinates": [-107.8551166667, 37.8826916667]}, "properties": {"species": "Albatrellopsis confluens", "date": "2024-08-17", "location": "Grand Mesa Uncompahgre and Gunnison National Forests, Ophir, CO, US", "elevation": 3347.0, "land_cover_label": "Tree cover", "water_mask": false, "exclude_reason": "keep", "ndvi": null, "soil_moisture": null, "solar_exposure": null, "wind_exposure": null, "water_retention": null, "slope": null, "aspect": null, "num_identification_agreements": 1, "cluster": 0, "tavg": null, "tmin": 12.0, "tmax": 23.0, "prcp_d0": 14.800861358642578, "prcp_d1": 0.0, "prcp_d2": 0.0, "prcp_d3": 0.0, "prcp_d4": 43.863800048828125, "prcp_d5": 0.0, "prcp_d6": 0.0, "tmax_d0": 18.5, "tmax_d1": 18.2, "tmax_d2": 17.1, "tmax_d3": 15.1, "tmax_d4": 13.7, "tmax_d5": 16.4, "tmax_d6": 17.0, "tmin_d0": 4.6, "tmin_d1": 5.1, "tmin_d2": 2.6, "tmin_d3": 1.7, "tmin_d4": 5.0, "tmin_d5": 5.4, "tmin_d6": 4.7, "day_of_year": 230, "uuid": "59a2ed0e-8996-46f4-af9d-78801d1a9757", "inat_id": 236402442}}, {"type": "Feature", "geometry": {"type": "Point", "coordinates": [-107.8549716667, 37.883295]}, "properties": {"species": "Albatrellopsis confluens", "date": "2024-08-17", "location": "Grand Mesa Uncompahgre and Gunnison National Forests, Ophir, CO, US", "elevation": 3347.0, "land_cover_label": "Tree cover", "water_mask": false, "exclude_reason": "keep", "ndvi": null, "soil_moisture": null, "solar_exposure": null, "wind_exposure": null, "water_retention": null, "slope": null, "aspect": null, "num_identification_agreements": 1, "cluster": 0, "tavg": null, "tmin": 12.0, "tmax": 23.0, "prcp_d0": 14.800861358642578, "prcp_d1": 0.0, "prcp_d2": 0.0, "prcp_d3": 0.0, "prcp_d4": 43.863800048828125, "prcp_d5": 0.0, "prcp_d6": 0.0, "tmax_d0": 18.5, "tmax_d1": 18.2, "tmax_d2": 17.1, "tmax_d3": 15.1, "tmax_d4": 13.7, "tmax_d5": 16.4, "tmax_d6": 17.0, "tmin_d0": 4.6, "tmin_d1": 5.1, "tmin_d2": 2.6, "tmin_d3": 1.7, "tmin_d4": 5.0, "tmin_d5": 5.4, "tmin_d6": 4.7, "day_of_year": 230, "uuid": "b1103d9a-0063-4816-ab7f-9248dff49e58", "inat_id": 237505038}}, {"type": "Feature", "geometry": {"type": "Point", "coordinates": [-105.8014852093, 35.7979318911]}, "properties": {"species": "Albatrellopsis confluens", "date": "2024-08-17", "location": "Santa Fe National Forest, Tererro, NM, US", "elevation": 3166.0, "land_cover_label": "Tree cover", "water_mask": false, "exclude_reason": "keep", "ndvi": null, "soil_moisture": null, "solar_exposure": null, "wind_exposure": null, "water_retention": null, "slope": null, "aspect": null, "num_identification_agreements": 1, "cluster": 0, "tavg": null, "tmin": 18.3, "tmax": 35.0, "prcp_d0": 0.0, "prcp_d1": 0.0, "prcp_d2": 0.0, "prcp_d3": 0.0, "prcp_d4": 0.0, "prcp_d5": 0.0, "prcp_d6": 0.0, "tmax_d0": 22.4, "tmax_d1": 20.7, "tmax_d2": 19.7, "tmax_d3": 18.0, "tmax_d4": 19.5, "tmax_d5": 19.5, "tmax_d6": 19.3, "tmin_d0": 11.0, "tmin_d1": 9.3, "tmin_d2": 7.8, "tmin_d3": 8.8, "tmin_d4": 8.6, "tmin_d5": 9.9, "tmin_d6": 10.5, "day_of_year": 230, "uuid": "2e7c4365-6ab7-4249-b389-dabf92c4bf0d", "inat_id": 236399683}}, {"type": "Feature", "geometry": {"type": "Point", "coordinates": [-106.1743831619, 39.6943450892]}, "properties": {"species": "Albatrellopsis confluens", "date": "2024-08-24", "location": "White River National Forest, Silverthorne, CO, US", "elevation": 3016.0, "land_cover_label": "Tree cover", "water_mask": false, "exclude_reason": "keep", "ndvi": null, "soil_moisture": null, "solar_exposure": null, "wind_exposure": null, "water_retention": null, "slope": null, "aspect": null, "num_identification_agreements": 1, "cluster": 0, "tavg": null, "tmin": 8.0, "tmax": 15.0, "prcp_d0": 1.738603591918945, "prcp_d1": 3.19420862197876, "prcp_d2": 10.622862815856934, "prcp_d3": 3.850031852722168, "prcp_d4": 0.0, "prcp_d5": 0.0, "prcp_d6": 0.0, "tmax_d0": 19.0, "tmax_d1": 19.5, "tmax_d2": 19.6, "tmax_d3": 20.7, "tmax_d4": 22.6, "tmax_d5": 20.4, "tmax_d6": 22.1, "tmin_d0": 4.7, "tmin_d1": 4.9, "tmin_d2": 7.1, "tmin_d3": 4.5, "tmin_d4": 4.5, "tmin_d5": 5.8, "tmin_d6": 5.5, "day_of_year": 237, "uuid": "dabc2bb2-9930-4464-9524-124a8ee44135", "inat_id": 237946373}}, {"type": "Feature", "geometry": {"type": "Point", "coordinates": [-106.0346752411, 39.4778736465]}, "properties": {"species": "Albatrellopsis confluens", "date": "2024-08-25", "location": "White River National Forest, Breckenridge, CO, US", "elevation": 3045.0, "land_cover_label": "Tree cover", "water_mask": false, "exclude_reason": "keep", "ndvi": null, "soil_moisture": null, "solar_exposure": null, "wind_exposure": null, "water_retention": null, "slope": null, "aspect": null, "num_identification_agreements": 1, "cluster": 0, "tavg": null, "tmin": 6.1, "tmax": 17.2, "prcp_d0": 0.6488743424415588, "prcp_d1": 1.8978211879730225, "prcp_d2": 2.888478279113769, "prcp_d3": 10.299126625061035, "prcp_d4": 3.9320297241210938, "prcp_d5": 0.0, "prcp_d6": 0.0, "tmax_d0": 18.4, "tmax_d1": 19.1, "tmax_d2": 19.6, "tmax_d3": 18.6, "tmax_d4": 21.2, "tmax_d5": 22.1, "tmax_d6": 20.0, "tmin_d0": 2.7, "tmin_d1": 5.3, "tmin_d2": 3.8, "tmin_d3": 7.3, "tmin_d4": 5.5, "tmin_d5": 4.4, "tmin_d6": 5.7, "day_of_year": 238, "uuid": "5982ae05-ff26-484d-ac57-f8b571ff87ff", "inat_id": 237968620}}, {"type": "Feature", "geometry": {"type": "Point", "coordinates": [-105.7972416667, 35.8017833333]}, "properties": {"species": "Albatrellopsis confluens", "date": "2024-08-29", "location": "Santa Fe County, NM, USA", "elevation": 3319.0, "land_cover_label": "Tree cover", "water_mask": false, "exclude_reason": "keep", "ndvi": null, "soil_moisture": null, "solar_exposure": null, "wind_exposure": null, "water_retention": null, "slope": null, "aspect": null, "num_identification_agreements": 1, "cluster": 0, "tavg": null, "tmin": 15.6, "tmax": 28.9, "prcp_d0": 2.6917762756347656, "prcp_d1": 0.4040963351726532, "prcp_d2": 4.634634494781494, "prcp_d3": 1.4237905740737915, "prcp_d4": 1.9023528099060056, "prcp_d5": 3.57135009765625, "prcp_d6": 3.3443503379821777, "tmax_d0": 14.4, "tmax_d1": 15.4, "tmax_d2": 15.6, "tmax_d3": 14.4, "tmax_d4": 15.8, "tmax_d5": 16.1, "tmax_d6": 17.0, "tmin_d0": 3.3, "tmin_d1": 5.3, "tmin_d2": 6.1, "tmin_d3": 6.7, "tmin_d4": 6.0, "tmin_d5": 7.3, "tmin_d6": 8.2, "day_of_year": 242, "uuid": "5e0380db-8a37-43f3-879c-3ce4c6549c12", "inat_id": 239057836}}, {"type": "Feature", "geometry": {"type": "Point", "coordinates": [-105.1425401047, 37.3049944013]}, "properties": {"species": "Albatrellopsis confluens", "date": "2024-09-01", "location": "Huerfano County, CO, USA", "elevation": 3322.0, "land_cover_label": "Tree cover", "water_mask": false, "exclude_reason": "keep", "ndvi": null, "soil_moisture": null, "solar_exposure": null, "wind_exposure": null, "water_retention": null, "slope": null, "aspect": null, "num_identification_agreements": 1, "cluster": 0, "tavg": null, "tmin": null, "tmax": null, "prcp_d0": 0.0, "prcp_d1": 1.9784877167694503e-06, "prcp_d2": 0.2519850432872772, "prcp_d3": 3.51582407951355, "prcp_d4": 0.0, "prcp_d5": 1.9947257041931152, "prcp_d6": 2.347825765609741, "tmax_d0": 13.2, "tmax_d1": 15.1, "tmax_d2": 13.5, "tmax_d3": 14.9, "tmax_d4": 16.1, "tmax_d5": 15.1, "tmax_d6": 15.0, "tmin_d0": 3.4, "tmin_d1": 4.9, "tmin_d2": 5.2, "tmin_d3": 5.1, "tmin_d4": 5.5, "tmin_d5": 6.3, "tmin_d6": 6.9, "day_of_year": 245, "uuid": "80349eb6-c0a7-486c-916b-ec60d66de97f", "inat_id": 239550490}}, {"type": "Feature", "geometry": {"type": "Point", "coordinates": [-105.4563179722, 39.68139]}, "properties": {"species": "Albatrellopsis confluens", "date": "2024-09-17", "location": "Clear Creek County, US-CO, US", "elevation": 2734.0, "land_cover_label": "Tree cover", "water_mask": false, "exclude_reason": "keep", "ndvi": null, "soil_moisture": 0.2864447895115992, "solar_exposure": 0.787829577922821, "wind_exposure": 0.2245041131973266, "water_retention": 0.3809981346130371, "slope": 7.949343204498291, "aspect": 59.6473388671875, "num_identification_agreements": 1, "cluster": 3, "tavg": null, "tmin": -1.8, "tmax": 10.0, "prcp_d0": 0.0, "prcp_d1": 6.556233406066895, "prcp_d2": 0.0, "prcp_d3": 0.0, "prcp_d4": 0.0, "prcp_d5": 0.0, "prcp_d6": 7.437386035919189, "tmax_d0": 18.6, "tmax_d1": 18.8, "tmax_d2": 20.4, "tmax_d3": 21.3, "tmax_d4": 18.9, "tmax_d5": 21.3, "tmax_d6": 19.6, "tmin_d0": 3.9, "tmin_d1": 2.9, "tmin_d2": 4.5, "tmin_d3": 2.6, "tmin_d4": 3.8, "tmin_d5": 3.6, "tmin_d6": 5.0, "day_of_year": 261, "uuid": "3cb1dd65-6dfc-42be-bbbb-b66e1c0705a8", "inat_id": 244431088}}, {"type": "Feature", "geometry": {"type": "Point", "coordinates": [-105.7708083802, 35.8028671258]}, "properties": {"species": "Albatrellopsis confluens", "date": "2024-09-22", "location": "Santa Fe National Forest, Tererro, NM, US", "elevation": 3597.0, "land_cover_label": "Tree cover", "water_mask": false, "exclude_reason": "keep", "ndvi": null, "soil_moisture": null, "solar_exposure": null, "wind_exposure": null, "water_retention": null, "slope": null, "aspect": null, "num_identification_agreements": 1, "cluster": 0, "tavg": null, "tmin": 8.9, "tmax": 20.6, "prcp_d0": 0.0, "prcp_d1": 6.1698527336120605, "prcp_d2": 0.0, "prcp_d3": 0.0, "prcp_d4": 0.0, "prcp_d5": 0.0, "prcp_d6": 0.0, "tmax_d0": 6.6, "tmax_d1": 9.5, "tmax_d2": 11.6, "tmax_d3": 12.6, "tmax_d4": 9.7, "tmax_d5": 9.1, "tmax_d6": 10.2, "tmin_d0": -2.8, "tmin_d1": 3.1, "tmin_d2": 5.0, "tmin_d3": 0.7, "tmin_d4": -0.5, "tmin_d5": 3.5, "tmin_d6": 2.3, "day_of_year": 266, "uuid": "af743730-6d48-4c2f-bf7e-446114000096", "inat_id": 243615270}}, {"type": "Feature", "geometry": {"type": "Point", "coordinates": [-105.5393133333, 40.1318778333]}, "properties": {"species": "Albatrellopsis confluens", "date": "2025-07-18", "location": "Buchanan Pass Trail, Lyons, CO, US", "elevation": 2713.0, "land_cover_label": "Tree cover", "water_mask": false, "exclude_reason": "keep", "ndvi": null, "soil_moisture": 0.353635914777447, "solar_exposure": 0.7584129571914673, "wind_exposure": 0.1808322221040725, "water_retention": 0.5162239074707031, "slope": 7.905901908874512, "aspect": 30.692607879638672, "num_identification_agreements": 1, "cluster": 3, "tavg": null, "tmin": 17.0, "tmax": 34.0, "prcp_d0": 0.0, "prcp_d1": 0.0, "prcp_d2": 0.0, "prcp_d3": 0.0, "prcp_d4": 13.501996994018556, "prcp_d5": 0.0, "prcp_d6": 4.500665664672852, "tmax_d0": 22.5, "tmax_d1": 21.4, "tmax_d2": 20.3, "tmax_d3": 23.2, "tmax_d4": 24.0, "tmax_d5": 20.5, "tmax_d6": 19.5, "tmin_d0": 10.3, "tmin_d1": 8.9, "tmin_d2": 10.9, "tmin_d3": 10.7, "tmin_d4": 11.9, "tmin_d5": 10.7, "tmin_d6": 8.1, "day_of_year": 199, "uuid": "8be7f050-69cf-494c-a17d-a539ae4c6ba2", "inat_id": 299716599}}, {"type": "Feature", "geometry": {"type": "Point", "coordinates": [-105.0644369437, 37.9269764894]}, "properties": {"species": "Albatrellopsis confluens", "date": "2025-07-27", "location": "Colorado, US", "elevation": 3397.0, "land_cover_label": "Grassland", "water_mask": false, "exclude_reason": "keep", "ndvi": null, "soil_moisture": null, "solar_exposure": null, "wind_exposure": null, "water_retention": null, "slope": null, "aspect": null, "num_identification_agreements": 1, "cluster": 0, "tavg": null, "tmin": 17.0, "tmax": 35.0, "prcp_d0": 0.0, "prcp_d1": 0.0, "prcp_d2": 0.0, "prcp_d3": 4.750171184539795, "prcp_d4": 0.0, "prcp_d5": 9.50034236907959, "prcp_d6": 0.0, "tmax_d0": 19.9, "tmax_d1": 17.8, "tmax_d2": 18.1, "tmax_d3": 15.5, "tmax_d4": 15.4, "tmax_d5": 17.7, "tmax_d6": 18.7, "tmin_d0": 10.9, "tmin_d1": 8.5, "tmin_d2": 6.8, "tmin_d3": 6.1, "tmin_d4": 6.1, "tmin_d5": 7.9, "tmin_d6": 8.9, "day_of_year": 208, "uuid": "209fb8e0-314d-45ab-b9e5-4977187fc4e7", "inat_id": 301649799}}, {"type": "Feature", "geometry": {"type": "Point", "coordinates": [-105.5976272, 39.6554891997]}, "properties": {"species": "Albatrellopsis confluens", "date": "2025-08-01", "location": "Golden, CO 80439, USA", "elevation": 3283.0, "land_cover_label": "Tree cover", "water_mask": false, "exclude_reason": "keep", "ndvi": null, "soil_moisture": 0.3699161183874327, "solar_exposure": 0.6997121572494507, "wind_exposure": 0.324906587600708, "water_retention": 0.1612312495708465, "slope": 11.41759204864502, "aspect": 353.9559020996094, "num_identification_agreements": 1, "cluster": 0, "tavg": null, "tmin": 0.9, "tmax": 12.6, "prcp_d0": 4.892375469207764, "prcp_d1": 4.305025100708008, "prcp_d2": 4.305025100708008, "prcp_d3": 4.305025100708008, "prcp_d4": 0.0, "prcp_d5": 0.0, "prcp_d6": 0.0, "tmax_d0": 18.2, "tmax_d1": 19.9, "tmax_d2": 16.1, "tmax_d3": 17.3, "tmax_d4": 21.7, "tmax_d5": 21.7, "tmax_d6": 19.1, "tmin_d0": 3.8, "tmin_d1": 5.3, "tmin_d2": 5.1, "tmin_d3": 10.0, "tmin_d4": 7.5, "tmin_d5": 5.6, "tmin_d6": 7.1, "day_of_year": 213, "uuid": "9dc0cfe2-1fcf-4eac-a484-4bf66ae2eba6", "inat_id": 302985645}}, {"type": "Feature", "geometry": {"type": "Point", "coordinates": [-107.9023057776, 37.8182139228]}, "properties": {"species": "Albatrellopsis confluens", "date": "2025-08-14", "location": "Lizard Head Trail, Telluride, CO, US", "elevation": 3162.0, "land_cover_label": "Tree cover", "water_mask": false, "exclude_reason": "keep", "ndvi": null, "soil_moisture": null, "solar_exposure": null, "wind_exposure": null, "water_retention": null, "slope": null, "aspect": null, "num_identification_agreements": 1, "cluster": 0, "tavg": null, "tmin": 14.0, "tmax": 23.0, "prcp_d0": 0.0, "prcp_d1": 0.0, "prcp_d2": 0.0, "prcp_d3": 0.0, "prcp_d4": 0.0, "prcp_d5": 0.0, "prcp_d6": 0.0, "tmax_d0": 20.8, "tmax_d1": 21.2, "tmax_d2": 19.1, "tmax_d3": 18.5, "tmax_d4": 19.0, "tmax_d5": 20.3, "tmax_d6": 20.0, "tmin_d0": 10.7, "tmin_d1": 6.4, "tmin_d2": 4.6, "tmin_d3": 4.2, "tmin_d4": 9.0, "tmin_d5": 8.9, "tmin_d6": 10.7, "day_of_year": 226, "uuid": "f415cd90-c7bc-4ab6-8886-f7aab6b27dbb", "inat_id": 306515574}}, {"type": "Feature", "geometry": {"type": "Point", "coordinates": [-105.3747451391, 39.5918121741]}, "properties": {"species": "Albatrellopsis confluens", "date": "2025-08-14", "location": "Colorado, US", "elevation": 2498.0, "land_cover_label": "Tree cover", "water_mask": false, "exclude_reason": "keep", "ndvi": null, "soil_moisture": 0.2348296013873803, "solar_exposure": 0.7451680898666382, "wind_exposure": 0.3213590085506439, "water_retention": 0.2837758064270019, "slope": 9.315091133117676, "aspect": 34.17877578735352, "num_identification_agreements": 1, "cluster": 0, "tavg": null, "tmin": 8.0, "tmax": 15.0, "prcp_d0": 0.0, "prcp_d1": 0.0, "prcp_d2": 0.0, "prcp_d3": 0.0, "prcp_d4": 13.602404594421388, "prcp_d5": 0.0, "prcp_d6": 0.0, "tmax_d0": 28.4, "tmax_d1": 27.7, "tmax_d2": 22.9, "tmax_d3": 20.3, "tmax_d4": 20.1, "tmax_d5": 25.6, "tmax_d6": 27.3, "tmin_d0": 10.0, "tmin_d1": 10.8, "tmin_d2": 6.2, "tmin_d3": 5.3, "tmin_d4": 10.0, "tmin_d5": 10.3, "tmin_d6": 11.8, "day_of_year": 226, "uuid": "358372a9-4480-4d87-a52f-9c7247115bfd", "inat_id": 307435601}}, {"type": "Feature", "geometry": {"type": "Point", "coordinates": [-107.82682, 37.8546533333]}, "properties": {"species": "Albatrellopsis confluens", "date": "2025-08-15", "location": "Grand Mesa Uncompahgre and Gunnison National Forests, Ophir, CO, US", "elevation": 2981.0, "land_cover_label": "Tree cover", "water_mask": false, "exclude_reason": "keep", "ndvi": null, "soil_moisture": null, "solar_exposure": null, "wind_exposure": null, "water_retention": null, "slope": null, "aspect": null, "num_identification_agreements": 2, "cluster": 0, "tavg": null, "tmin": 11.0, "tmax": 21.0, "prcp_d0": 8.844578742980957, "prcp_d1": 0.0, "prcp_d2": 0.0, "prcp_d3": 0.0, "prcp_d4": 0.0, "prcp_d5": 0.0, "prcp_d6": 0.0, "tmax_d0": 19.8, "tmax_d1": 20.9, "tmax_d2": 21.4, "tmax_d3": 19.9, "tmax_d4": 18.6, "tmax_d5": 19.5, "tmax_d6": 20.5, "tmin_d0": 8.6, "tmin_d1": 9.3, "tmin_d2": 7.4, "tmin_d3": 6.2, "tmin_d4": 6.1, "tmin_d5": 9.7, "tmin_d6": 7.2, "day_of_year": 227, "uuid": "02a9e614-4b09-43bd-b97e-e89b0c3beced", "inat_id": 306572800}}, {"type": "Feature", "geometry": {"type": "Point", "coordinates": [-105.7891080153, 39.9223673137]}, "properties": {"species": "Albatrellopsis confluens", "date": "2025-08-31", "location": "Alpine Trail, Winter Park, CO, US", "elevation": 2698.0, "land_cover_label": "Tree cover", "water_mask": false, "exclude_reason": "keep", "ndvi": null, "soil_moisture": 0.3024298453872501, "solar_exposure": 0.8078786730766296, "wind_exposure": 0.313574731349945, "water_retention": 0.203235313296318, "slope": 6.1821393966674805, "aspect": 66.3667221069336, "num_identification_agreements": 1, "cluster": 0, "tavg": null, "tmin": -2.2, "tmax": 8.3, "prcp_d0": 0.0, "prcp_d1": 0.0, "prcp_d2": 0.0, "prcp_d3": 0.0, "prcp_d4": 0.0, "prcp_d5": 0.0, "prcp_d6": 0.0, "tmax_d0": 17.1, "tmax_d1": 15.1, "tmax_d2": 17.4, "tmax_d3": 17.8, "tmax_d4": 18.2, "tmax_d5": 19.6, "tmax_d6": 18.8, "tmin_d0": 5.1, "tmin_d1": 7.1, "tmin_d2": 7.6, "tmin_d3": 6.7, "tmin_d4": 8.6, "tmin_d5": 6.0, "tmin_d6": 8.0, "day_of_year": 243, "uuid": "32b51cb0-2d1f-445f-9149-d7fb141d3aa9", "inat_id": 311411152}}, {"type": "Feature", "geometry": {"type": "Point", "coordinates": [-105.7459529489, 39.6952270061]}, "properties": {"species": "Albatrellopsis confluens", "date": "2026-08-08", "location": "Silver Plume, CO 80476, USA", "elevation": 2933.0, "land_cover_label": "Tree cover", "water_mask": false, "exclude_reason": "keep", "ndvi": null, "soil_moisture": 0.2661244771956825, "solar_exposure": 0.4582014679908752, "wind_exposure": 0.1441266983747482, "water_retention": 0.217507466673851, "slope": 27.74136543273925, "aspect": 14.039599418640137, "num_identification_agreements": 1, "cluster": 0, "tavg": null, "tmin": 10.0, "tmax": 16.0, "prcp_d0": null, "prcp_d1": null, "prcp_d2": null, "prcp_d3": null, "prcp_d4": null, "prcp_d5": null, "prcp_d6": null, "tmax_d0": 25.9, "tmax_d1": 27.5, "tmax_d2": 25.5, "tmax_d3": 25.0, "tmax_d4": 25.0, "tmax_d5": 27.1, "tmax_d6": 27.5, "tmin_d0": 9.0, "tmin_d1": 7.3, "tmin_d2": 6.5, "tmin_d3": 6.6, "tmin_d4": 7.5, "tmin_d5": 10.7, "tmin_d6": 9.6, "day_of_year": 220, "uuid": "9b966353-daf7-40c0-9572-2c07b7cfb630", "inat_id": 389464309}}, {"type": "Feature", "geometry": {"type": "Point", "coordinates": [-105.9221962094, 39.678211443]}, "properties": {"species": "Albatrellopsis confluens", "date": "2026-08-16", "location": "Dillon, CO 80435, USA", "elevation": 3760.0, "land_cover_label": "Moss and lichen", "water_mask": false, "exclude_reason": "keep", "ndvi": null, "soil_moisture": 0.4044125184589851, "solar_exposure": 0.8851887583732605, "wind_exposure": 0.4120548963546753, "water_retention": 0.1300208568572998, "slope": 17.78801727294922, "aspect": 120.50027465820312, "num_identification_agreements": 1, "cluster": 0, "tavg": null, "tmin": 4.0, "tmax": 11.0, "prcp_d0": null, "prcp_d1": null, "prcp_d2": null, "prcp_d3": null, "prcp_d4": null, "prcp_d5": null, "prcp_d6": null, "tmax_d0": 13.5, "tmax_d1": 12.9, "tmax_d2": 14.0, "tmax_d3": 13.2, "tmax_d4": 15.7, "tmax_d5": 17.4, "tmax_d6": 16.8, "tmin_d0": 1.5, "tmin_d1": 2.2, "tmin_d2": 2.2, "tmin_d3": 3.2, "tmin_d4": 4.2, "tmin_d5": 4.5, "tmin_d6": 6.1, "day_of_year": 228, "uuid": "da06e5b8-07d4-42dd-b6bc-35c0f2eb80c0", "inat_id": 393694292}}, {"type": "Feature", "geometry": {"type": "Point", "coordinates": [-105.7018388889, 39.8163777778]}, "properties": {"species": "Albatrellopsis confluens", "date": "2026-08-16", "location": "Upper Chinns Dam, Idaho Springs, CO 80452, USA", "elevation": 3412.0, "land_cover_label": "Tree cover", "water_mask": false, "exclude_reason": "keep", "ndvi": null, "soil_moisture": 0.4054194803904283, "solar_exposure": 0.8899692893028259, "wind_exposure": 0.1661787927150726, "water_retention": 0.3851741552352905, "slope": 14.31710147857666, "aspect": 123.5708236694336, "num_identification_agreements": 1, "cluster": 3, "tavg": null, "tmin": 4.0, "tmax": 11.0, "prcp_d0": null, "prcp_d1": null, "prcp_d2": null, "prcp_d3": null, "prcp_d4": null, "prcp_d5": null, "prcp_d6": null, "tmax_d0": 16.0, "tmax_d1": 15.8, "tmax_d2": 16.6, "tmax_d3": 16.4, "tmax_d4": 17.9, "tmax_d5": 20.7, "tmax_d6": 19.5, "tmin_d0": 2.3, "tmin_d1": 3.4, "tmin_d2": 3.7, "tmin_d3": 4.4, "tmin_d4": 7.4, "tmin_d5": 6.6, "tmin_d6": 7.0, "day_of_year": 228, "uuid": "83853d3e-e57b-4bd0-b846-16cc9d8e6452", "inat_id": 391941792}}]}