{"type": "FeatureCollection", "features": [{"type": "Feature", "geometry": {"type": "Point", "coordinates": [-105.3924783333, 36.22058]}, "properties": {"species": "Albatrellus subrubescens", "date": "2024-08-13", "location": "Carson National Forest, Chacon, NM, US", "elevation": 3369.0, "land_cover_label": "Tree cover", "water_mask": false, "exclude_reason": "keep", "ndvi": null, "soil_moisture": null, "solar_exposure": null, "wind_exposure": null, "water_retention": null, "slope": null, "aspect": null, "num_identification_agreements": 1, "cluster": 0, "tavg": null, "tmin": 7.7, "tmax": 21.6, "prcp_d0": 0.0, "prcp_d1": 0.0, "prcp_d2": 0.0, "prcp_d3": 0.0, "prcp_d4": 5.357777118682861, "prcp_d5": 10.715554237365724, "prcp_d6": 5.357777118682861, "tmax_d0": 16.4, "tmax_d1": 18.3, "tmax_d2": 18.3, "tmax_d3": 16.4, "tmax_d4": 16.1, "tmax_d5": 15.4, "tmax_d6": 19.0, "tmin_d0": 6.6, "tmin_d1": 8.9, "tmin_d2": 8.2, "tmin_d3": 6.3, "tmin_d4": 6.5, "tmin_d5": 8.7, "tmin_d6": 9.2, "day_of_year": 226, "uuid": "ec0777ef-e7fc-41cb-99c2-aa58d09b2ef5", "inat_id": 235667558}}, {"type": "Feature", "geometry": {"type": "Point", "coordinates": [-105.79403692, 35.79908495]}, "properties": {"species": "Albatrellus subrubescens", "date": "2025-09-01", "location": "Santa Fe County, US-NM, US", "elevation": 3379.0, "land_cover_label": "Tree cover", "water_mask": false, "exclude_reason": "keep", "ndvi": null, "soil_moisture": null, "solar_exposure": null, "wind_exposure": null, "water_retention": null, "slope": null, "aspect": null, "num_identification_agreements": 1, "cluster": 2, "tavg": null, "tmin": 12.0, "tmax": 27.0, "prcp_d0": 0.0, "prcp_d1": 0.0, "prcp_d2": 0.0, "prcp_d3": 0.0, "prcp_d4": 0.0, "prcp_d5": 29.806293487548828, "prcp_d6": 29.806293487548828, "tmax_d0": 13.7, "tmax_d1": 13.4, "tmax_d2": 14.3, "tmax_d3": 14.8, "tmax_d4": 16.4, "tmax_d5": 12.8, "tmax_d6": 14.7, "tmin_d0": 3.0, "tmin_d1": 2.5, "tmin_d2": 4.3, "tmin_d3": 5.1, "tmin_d4": 4.3, "tmin_d5": 6.0, "tmin_d6": 5.7, "day_of_year": 244, "uuid": "b3eee057-4a76-49de-a179-09a002f088eb", "inat_id": 310896763}}]}