{"type": "FeatureCollection", "features": [{"type": "Feature", "geometry": {"type": "Point", "coordinates": [-121.722772245, 44.5403643161]}, "properties": {"species": "Albatrellopsis flettii", "date": "2011-10-21", "location": "Jefferson County, OR, USA", "elevation": 1170.0, "land_cover_label": "Tree cover", "water_mask": false, "exclude_reason": "keep", "ndvi": null, "soil_moisture": null, "solar_exposure": null, "wind_exposure": null, "water_retention": null, "slope": null, "aspect": null, "num_identification_agreements": 2, "cluster": 0, "tavg": null, "tmin": null, "tmax": null, "prcp_d0": 0.0, "prcp_d1": 0.0, "prcp_d2": 0.0, "prcp_d3": 0.0, "prcp_d4": 0.0, "prcp_d5": 0.0, "prcp_d6": 0.0, "tmax_d0": 15.2, "tmax_d1": 16.6, "tmax_d2": 15.8, "tmax_d3": 16.8, "tmax_d4": 17.4, "tmax_d5": 14.7, "tmax_d6": 17.0, "tmin_d0": 4.5, "tmin_d1": 4.6, "tmin_d2": 4.5, "tmin_d3": 4.0, "tmin_d4": -0.0, "tmin_d5": 6.7, "tmin_d6": 6.7, "day_of_year": 294, "uuid": "248ed042-3c5b-496c-a31d-0a7c756f3955", "inat_id": 42948062}}, {"type": "Feature", "geometry": {"type": "Point", "coordinates": [-121.625045, 45.319155]}, "properties": {"species": "Albatrellopsis flettii", "date": "2019-09-02", "location": "Mt. Hood National Forest, Mount Hood Parkdale, OR, US", "elevation": 1338.0, "land_cover_label": "Tree cover", "water_mask": false, "exclude_reason": "keep", "ndvi": null, "soil_moisture": null, "solar_exposure": null, "wind_exposure": null, "water_retention": null, "slope": null, "aspect": null, "num_identification_agreements": 2, "cluster": 0, "tavg": null, "tmin": 15.0, "tmax": 31.1, "prcp_d0": 0.0, "prcp_d1": 0.0, "prcp_d2": 0.0, "prcp_d3": 0.0, "prcp_d4": 0.0, "prcp_d5": 0.0, "prcp_d6": 0.0, "tmax_d0": 23.2, "tmax_d1": 20.1, "tmax_d2": 21.3, "tmax_d3": 22.8, "tmax_d4": 26.6, "tmax_d5": 29.2, "tmax_d6": 23.5, "tmin_d0": 8.3, "tmin_d1": 12.3, "tmin_d2": 11.1, "tmin_d3": 12.0, "tmin_d4": 14.3, "tmin_d5": 12.9, "tmin_d6": 12.3, "day_of_year": 245, "uuid": "a8f7587b-4d8a-448e-8461-13fb17e2d3d0", "inat_id": 32090146}}, {"type": "Feature", "geometry": {"type": "Point", "coordinates": [-121.81, 45.31605]}, "properties": {"species": "Albatrellopsis flettii", "date": "2019-09-20", "location": "SW Mount Hood, Clackamas Co., Oregon, USA", "elevation": 916.0, "land_cover_label": "Tree cover", "water_mask": false, "exclude_reason": "keep", "ndvi": null, "soil_moisture": null, "solar_exposure": null, "wind_exposure": null, "water_retention": null, "slope": null, "aspect": null, "num_identification_agreements": 2, "cluster": 0, "tavg": null, "tmin": null, "tmax": null, "prcp_d0": 0.0, "prcp_d1": 0.0, "prcp_d2": 0.0, "prcp_d3": 0.0, "prcp_d4": 0.0, "prcp_d5": 0.0, "prcp_d6": 0.0, "tmax_d0": 12.5, "tmax_d1": 11.5, "tmax_d2": 11.7, "tmax_d3": 11.4, "tmax_d4": 12.0, "tmax_d5": 16.5, "tmax_d6": 17.0, "tmin_d0": 7.9, "tmin_d1": 3.7, "tmin_d2": 6.3, "tmin_d3": 6.7, "tmin_d4": 6.6, "tmin_d5": 8.5, "tmin_d6": 9.2, "day_of_year": 263, "uuid": "08447dec-e900-4e6a-9374-bb1a9451cce0", "inat_id": 35019338}}, {"type": "Feature", "geometry": {"type": "Point", "coordinates": [-121.881395, 44.8285333333]}, "properties": {"species": "Albatrellopsis flettii", "date": "2019-10-18", "location": "Marion County, US-OR, US", "elevation": 1112.0, "land_cover_label": "Tree cover", "water_mask": false, "exclude_reason": "keep", "ndvi": null, "soil_moisture": null, "solar_exposure": null, "wind_exposure": null, "water_retention": null, "slope": null, "aspect": null, "num_identification_agreements": 3, "cluster": 0, "tavg": null, "tmin": null, "tmax": null, "prcp_d0": 0.0, "prcp_d1": 0.0, "prcp_d2": 0.0, "prcp_d3": 0.0, "prcp_d4": 0.0, "prcp_d5": 0.0, "prcp_d6": 0.0, "tmax_d0": 6.1, "tmax_d1": 6.9, "tmax_d2": 12.7, "tmax_d3": 13.5, "tmax_d4": 13.9, "tmax_d5": 12.6, "tmax_d6": 15.4, "tmin_d0": 2.4, "tmin_d1": 2.9, "tmin_d2": 6.2, "tmin_d3": 2.1, "tmin_d4": -0.2, "tmin_d5": 5.1, "tmin_d6": -0.7, "day_of_year": 291, "uuid": "ec94eb6c-2062-4294-bf89-6acb518f52ab", "inat_id": 34739811}}, {"type": "Feature", "geometry": {"type": "Point", "coordinates": [-121.5971170291, 45.2726609893]}, "properties": {"species": "Albatrellopsis flettii", "date": "2020-07-28", "location": "Oregon, US", "elevation": 1742.0, "land_cover_label": "Tree cover", "water_mask": false, "exclude_reason": "keep", "ndvi": null, "soil_moisture": null, "solar_exposure": null, "wind_exposure": null, "water_retention": null, "slope": null, "aspect": null, "num_identification_agreements": 2, "cluster": 0, "tavg": null, "tmin": null, "tmax": null, "prcp_d0": 5.668642044067383, "prcp_d1": 0.0, "prcp_d2": 0.0, "prcp_d3": 0.0, "prcp_d4": 0.0, "prcp_d5": 0.0, "prcp_d6": 0.0, "tmax_d0": 24.6, "tmax_d1": 27.1, "tmax_d2": 23.4, "tmax_d3": 19.9, "tmax_d4": 14.5, "tmax_d5": 17.0, "tmax_d6": 20.1, "tmin_d0": 12.1, "tmin_d1": 10.8, "tmin_d2": 9.6, "tmin_d3": 2.4, "tmin_d4": 5.0, "tmin_d5": 7.0, "tmin_d6": 9.5, "day_of_year": 210, "uuid": "e0c488fb-0ec8-430e-925b-3555210615ba", "inat_id": 54699088}}, {"type": "Feature", "geometry": {"type": "Point", "coordinates": [-121.6209040231, 45.3456754699]}, "properties": {"species": "Albatrellopsis flettii", "date": "2020-08-25", "location": "Mt. Hood Park Division Recreation Area, Mount Hood Parkdale, OR, US", "elevation": 1590.0, "land_cover_label": "Tree cover", "water_mask": false, "exclude_reason": "keep", "ndvi": null, "soil_moisture": null, "solar_exposure": null, "wind_exposure": null, "water_retention": null, "slope": null, "aspect": null, "num_identification_agreements": 2, "cluster": 0, "tavg": null, "tmin": 13.9, "tmax": 31.1, "prcp_d0": 0.0, "prcp_d1": 0.0, "prcp_d2": 0.0, "prcp_d3": 0.0, "prcp_d4": 0.0, "prcp_d5": 0.0, "prcp_d6": 0.0, "tmax_d0": 18.6, "tmax_d1": 20.6, "tmax_d2": 23.0, "tmax_d3": 19.7, "tmax_d4": 17.7, "tmax_d5": 20.7, "tmax_d6": 23.2, "tmin_d0": 6.5, "tmin_d1": 6.7, "tmin_d2": 10.3, "tmin_d3": 5.4, "tmin_d4": 10.3, "tmin_d5": 9.8, "tmin_d6": 9.1, "day_of_year": 238, "uuid": "48ae9254-c97e-4673-8b3d-d51f6b1ca868", "inat_id": 58184710}}, {"type": "Feature", "geometry": {"type": "Point", "coordinates": [-121.6059993886, 45.39614787]}, "properties": {"species": "Albatrellopsis flettii", "date": "2020-10-05", "location": "Oregon, US", "elevation": 1409.0, "land_cover_label": "Tree cover", "water_mask": false, "exclude_reason": "keep", "ndvi": null, "soil_moisture": null, "solar_exposure": null, "wind_exposure": null, "water_retention": null, "slope": null, "aspect": null, "num_identification_agreements": 2, "cluster": 0, "tavg": null, "tmin": 11.1, "tmax": 27.8, "prcp_d0": 0.0, "prcp_d1": 0.0, "prcp_d2": 0.0, "prcp_d3": 0.0, "prcp_d4": 0.0, "prcp_d5": 0.0, "prcp_d6": 0.0, "tmax_d0": 21.2, "tmax_d1": 19.6, "tmax_d2": 22.1, "tmax_d3": 23.9, "tmax_d4": 25.1, "tmax_d5": 23.3, "tmax_d6": 24.0, "tmin_d0": 9.3, "tmin_d1": 7.7, "tmin_d2": 10.5, "tmin_d3": 12.7, "tmin_d4": 12.1, "tmin_d5": 11.4, "tmin_d6": 10.7, "day_of_year": 279, "uuid": "d0d4df47-e314-46ca-a3dd-f5fea511fcbf", "inat_id": 61861132}}, {"type": "Feature", "geometry": {"type": "Point", "coordinates": [-121.6795529053, 45.1697697155]}, "properties": {"species": "Albatrellopsis flettii", "date": "2020-10-08", "location": "Maupin, OR 97037, USA", "elevation": 1100.0, "land_cover_label": "Tree cover", "water_mask": false, "exclude_reason": "keep", "ndvi": null, "soil_moisture": null, "solar_exposure": null, "wind_exposure": null, "water_retention": null, "slope": null, "aspect": null, "num_identification_agreements": 3, "cluster": 0, "tavg": null, "tmin": null, "tmax": null, "prcp_d0": 0.0, "prcp_d1": 0.0, "prcp_d2": 0.0, "prcp_d3": 0.0, "prcp_d4": 0.0, "prcp_d5": 0.0, "prcp_d6": 0.0, "tmax_d0": 19.3, "tmax_d1": 24.1, "tmax_d2": 24.9, "tmax_d3": 23.2, "tmax_d4": 20.1, "tmax_d5": 24.0, "tmax_d6": 25.9, "tmin_d0": 10.5, "tmin_d1": 11.2, "tmin_d2": 13.1, "tmin_d3": 9.4, "tmin_d4": 9.9, "tmin_d5": 11.8, "tmin_d6": 13.7, "day_of_year": 282, "uuid": "e87f3d73-6fba-4123-b1df-3c53e2aa1533", "inat_id": 62082766}}, {"type": "Feature", "geometry": {"type": "Point", "coordinates": [-121.7731783333, 45.1419833333]}, "properties": {"species": "Albatrellopsis flettii", "date": "2021-07-30", "location": "Zigzag Ranger Station, Estacada, OR, US", "elevation": 1030.0, "land_cover_label": "Tree cover", "water_mask": false, "exclude_reason": "keep", "ndvi": null, "soil_moisture": null, "solar_exposure": null, "wind_exposure": null, "water_retention": null, "slope": null, "aspect": null, "num_identification_agreements": 3, "cluster": 0, "tavg": null, "tmin": null, "tmax": null, "prcp_d0": 0.0, "prcp_d1": 0.0, "prcp_d2": 0.0, "prcp_d3": 0.0, "prcp_d4": 0.0, "prcp_d5": 0.0, "prcp_d6": 0.0, "tmax_d0": 33.8, "tmax_d1": 33.1, "tmax_d2": 29.8, "tmax_d3": 25.2, "tmax_d4": 29.0, "tmax_d5": 27.8, "tmax_d6": 29.9, "tmin_d0": 17.3, "tmin_d1": 14.9, "tmin_d2": 12.7, "tmin_d3": 13.6, "tmin_d4": 11.1, "tmin_d5": 10.9, "tmin_d6": 11.7, "day_of_year": 211, "uuid": "2b89dac9-5401-45e5-8158-c9f5f71c216c", "inat_id": 96357484}}, {"type": "Feature", "geometry": {"type": "Point", "coordinates": [-121.6257485335, 45.3487902824]}, "properties": {"species": "Albatrellopsis flettii", "date": "2021-09-12", "location": "Oregon, US", "elevation": 1652.0, "land_cover_label": "Tree cover", "water_mask": false, "exclude_reason": "keep", "ndvi": null, "soil_moisture": null, "solar_exposure": null, "wind_exposure": null, "water_retention": null, "slope": null, "aspect": null, "num_identification_agreements": 1, "cluster": 0, "tavg": null, "tmin": 15.0, "tmax": 28.3, "prcp_d0": 0.0, "prcp_d1": 0.0, "prcp_d2": 22.09958839416504, "prcp_d3": 0.0, "prcp_d4": 0.0, "prcp_d5": 0.0, "prcp_d6": 0.0, "tmax_d0": 16.0, "tmax_d1": 17.8, "tmax_d2": 17.7, "tmax_d3": 22.4, "tmax_d4": 23.9, "tmax_d5": 25.8, "tmax_d6": 23.5, "tmin_d0": 6.6, "tmin_d1": 3.1, "tmin_d2": 9.2, "tmin_d3": 11.6, "tmin_d4": 12.2, "tmin_d5": 13.2, "tmin_d6": 8.7, "day_of_year": 255, "uuid": "ea792f88-e372-4eb3-a2fa-f73d88a10821", "inat_id": 94682670}}, {"type": "Feature", "geometry": {"type": "Point", "coordinates": [-121.7634459723, 45.3745368256]}, "properties": {"species": "Albatrellopsis flettii", "date": "2021-09-24", "location": "Oregon, US", "elevation": 1234.0, "land_cover_label": "Bare / sparse vegetation", "water_mask": false, "exclude_reason": "keep", "ndvi": null, "soil_moisture": null, "solar_exposure": null, "wind_exposure": null, "water_retention": null, "slope": null, "aspect": null, "num_identification_agreements": 1, "cluster": 2, "tavg": null, "tmin": null, "tmax": null, "prcp_d0": 0.0, "prcp_d1": 0.0, "prcp_d2": 0.0, "prcp_d3": 0.0, "prcp_d4": 0.0, "prcp_d5": 37.15903091430664, "prcp_d6": 74.31806182861328, "tmax_d0": 20.1, "tmax_d1": 20.6, "tmax_d2": 19.0, "tmax_d3": 18.7, "tmax_d4": 15.2, "tmax_d5": 8.4, "tmax_d6": 16.1, "tmin_d0": 9.4, "tmin_d1": 6.0, "tmin_d2": 8.9, "tmin_d3": 7.2, "tmin_d4": 4.1, "tmin_d5": 3.2, "tmin_d6": 5.8, "day_of_year": 267, "uuid": "0d85a7b5-e74a-4d52-98cc-35f48245e3ed", "inat_id": 96033760}}, {"type": "Feature", "geometry": {"type": "Point", "coordinates": [-121.7019453272, 45.2810888525]}, "properties": {"species": "Albatrellopsis flettii", "date": "2021-09-25", "location": "TIMBRLINE LDG, OR 97028, USA", "elevation": 1156.0, "land_cover_label": "Tree cover", "water_mask": false, "exclude_reason": "keep", "ndvi": null, "soil_moisture": null, "solar_exposure": null, "wind_exposure": null, "water_retention": null, "slope": null, "aspect": null, "num_identification_agreements": 1, "cluster": 0, "tavg": null, "tmin": null, "tmax": null, "prcp_d0": 0.0, "prcp_d1": 0.0, "prcp_d2": 0.0, "prcp_d3": 0.0, "prcp_d4": 0.0, "prcp_d5": 0.0, "prcp_d6": 0.0, "tmax_d0": 21.9, "tmax_d1": 20.1, "tmax_d2": 21.4, "tmax_d3": 19.4, "tmax_d4": 19.2, "tmax_d5": 15.7, "tmax_d6": 9.6, "tmin_d0": 13.0, "tmin_d1": 12.4, "tmin_d2": 7.0, "tmin_d3": 11.4, "tmin_d4": 9.5, "tmin_d5": 5.3, "tmin_d6": 4.0, "day_of_year": 268, "uuid": "cf53274d-b932-4151-bfbd-bd69aca39f9b", "inat_id": 96154962}}, {"type": "Feature", "geometry": {"type": "Point", "coordinates": [-121.84568, 44.65452]}, "properties": {"species": "Albatrellopsis flettii", "date": "2022-08-20", "location": "Willamette National Forest, Idanha, OR, US", "elevation": 1236.0, "land_cover_label": "Tree cover", "water_mask": false, "exclude_reason": "keep", "ndvi": null, "soil_moisture": null, "solar_exposure": null, "wind_exposure": null, "water_retention": null, "slope": null, "aspect": null, "num_identification_agreements": 2, "cluster": 0, "tavg": null, "tmin": null, "tmax": null, "prcp_d0": 0.0, "prcp_d1": 0.0, "prcp_d2": 10.86225700378418, "prcp_d3": 0.0, "prcp_d4": 0.0, "prcp_d5": 0.0, "prcp_d6": 0.0, "tmax_d0": 25.4, "tmax_d1": 25.2, "tmax_d2": 29.8, "tmax_d3": 32.0, "tmax_d4": 29.8, "tmax_d5": 26.8, "tmax_d6": 24.4, "tmin_d0": 12.9, "tmin_d1": 16.3, "tmin_d2": 20.0, "tmin_d3": 15.2, "tmin_d4": 12.2, "tmin_d5": 10.8, "tmin_d6": 8.3, "day_of_year": 232, "uuid": "df155dbd-aa9a-43f0-99b3-e88202650e28", "inat_id": 131940768}}, {"type": "Feature", "geometry": {"type": "Point", "coordinates": [-121.7522313819, 45.1455962146]}, "properties": {"species": "Albatrellopsis flettii", "date": "2022-08-27", "location": "Clackamas County, US-OR, US", "elevation": 1003.0, "land_cover_label": "Tree cover", "water_mask": false, "exclude_reason": "keep", "ndvi": null, "soil_moisture": null, "solar_exposure": null, "wind_exposure": null, "water_retention": null, "slope": null, "aspect": null, "num_identification_agreements": 1, "cluster": 0, "tavg": null, "tmin": null, "tmax": null, "prcp_d0": 0.0, "prcp_d1": 0.0, "prcp_d2": 0.0, "prcp_d3": 0.0, "prcp_d4": 0.0, "prcp_d5": 0.0, "prcp_d6": 0.0, "tmax_d0": 20.0, "tmax_d1": 26.5, "tmax_d2": 29.9, "tmax_d3": 29.5, "tmax_d4": 25.8, "tmax_d5": 26.1, "tmax_d6": 28.7, "tmin_d0": 9.9, "tmin_d1": 13.1, "tmin_d2": 15.3, "tmin_d3": 13.6, "tmin_d4": 11.6, "tmin_d5": 13.1, "tmin_d6": 11.5, "day_of_year": 239, "uuid": "ed07cf0d-fbfc-4db1-a6bd-1c3681a1adb0", "inat_id": 132602178}}, {"type": "Feature", "geometry": {"type": "Point", "coordinates": [-121.7632416667, 45.113125]}, "properties": {"species": "Albatrellopsis flettii", "date": "2022-09-21", "location": "Clackamas County, OR, USA", "elevation": 1017.0, "land_cover_label": "Tree cover", "water_mask": false, "exclude_reason": "keep", "ndvi": null, "soil_moisture": null, "solar_exposure": null, "wind_exposure": null, "water_retention": null, "slope": null, "aspect": null, "num_identification_agreements": 1, "cluster": 0, "tavg": null, "tmin": null, "tmax": null, "prcp_d0": 8.29300308227539, "prcp_d1": 0.0, "prcp_d2": 0.0, "prcp_d3": 0.0, "prcp_d4": 0.0, "prcp_d5": 0.0, "prcp_d6": 0.0, "tmax_d0": 17.8, "tmax_d1": 20.0, "tmax_d2": 23.0, "tmax_d3": 17.7, "tmax_d4": 16.2, "tmax_d5": 15.2, "tmax_d6": 18.0, "tmin_d0": 10.3, "tmin_d1": 10.4, "tmin_d2": 5.8, "tmin_d3": 7.1, "tmin_d4": 5.9, "tmin_d5": 8.5, "tmin_d6": 7.7, "day_of_year": 264, "uuid": "77bce419-ad09-4f89-9398-b5dc23509088", "inat_id": 135963486}}, {"type": "Feature", "geometry": {"type": "Point", "coordinates": [-121.6999, 45.282]}, "properties": {"species": "Albatrellopsis flettii", "date": "2022-09-23", "location": "Zigzag Ranger District portion in Clackamas Co., Mount Hood National Forest, Clackamas Co., Oregon, USA", "elevation": 1148.0, "land_cover_label": "Tree cover", "water_mask": false, "exclude_reason": "keep", "ndvi": null, "soil_moisture": null, "solar_exposure": null, "wind_exposure": null, "water_retention": null, "slope": null, "aspect": null, "num_identification_agreements": 2, "cluster": 0, "tavg": null, "tmin": 11.6, "tmax": 24.4, "prcp_d0": 0.0, "prcp_d1": 0.0, "prcp_d2": 0.0, "prcp_d3": 0.0, "prcp_d4": 0.0, "prcp_d5": 0.0, "prcp_d6": 0.0, "tmax_d0": 18.3, "tmax_d1": 14.0, "tmax_d2": 18.0, "tmax_d3": 19.1, "tmax_d4": 22.9, "tmax_d5": 17.6, "tmax_d6": 16.1, "tmin_d0": 7.4, "tmin_d1": 8.6, "tmin_d2": 9.6, "tmin_d3": 10.7, "tmin_d4": 8.6, "tmin_d5": 6.8, "tmin_d6": 4.5, "day_of_year": 266, "uuid": "d084333a-4545-449f-bb29-bc19166bf60b", "inat_id": 137099824}}, {"type": "Feature", "geometry": {"type": "Point", "coordinates": [-121.7467571936, 45.1478192184]}, "properties": {"species": "Albatrellopsis flettii", "date": "2022-09-23", "location": "Zigzag Ranger Station, Estacada, OR, US", "elevation": 1000.0, "land_cover_label": "Tree cover", "water_mask": false, "exclude_reason": "keep", "ndvi": null, "soil_moisture": null, "solar_exposure": null, "wind_exposure": null, "water_retention": null, "slope": null, "aspect": null, "num_identification_agreements": 2, "cluster": 0, "tavg": null, "tmin": null, "tmax": null, "prcp_d0": 0.0, "prcp_d1": 0.0, "prcp_d2": 8.028903007507324, "prcp_d3": 0.0, "prcp_d4": 0.0, "prcp_d5": 0.0, "prcp_d6": 0.0, "tmax_d0": 20.2, "tmax_d1": 16.1, "tmax_d2": 17.9, "tmax_d3": 20.1, "tmax_d4": 23.1, "tmax_d5": 17.8, "tmax_d6": 16.4, "tmin_d0": 5.9, "tmin_d1": 9.4, "tmin_d2": 10.4, "tmin_d3": 10.5, "tmin_d4": 5.9, "tmin_d5": 7.3, "tmin_d6": 6.0, "day_of_year": 266, "uuid": "5be0771d-f77f-40be-8a25-8f2ee6a77e15", "inat_id": 138388837}}, {"type": "Feature", "geometry": {"type": "Point", "coordinates": [-121.6288316622, 45.3191946369]}, "properties": {"species": "Albatrellopsis flettii", "date": "2022-09-24", "location": "MT HOOD PRKDL, OR 97041, USA", "elevation": 1342.0, "land_cover_label": "Bare / sparse vegetation", "water_mask": false, "exclude_reason": "keep", "ndvi": null, "soil_moisture": null, "solar_exposure": null, "wind_exposure": null, "water_retention": null, "slope": null, "aspect": null, "num_identification_agreements": 1, "cluster": 0, "tavg": null, "tmin": 9.7, "tmax": 26.5, "prcp_d0": 0.0, "prcp_d1": 0.0, "prcp_d2": 0.0, "prcp_d3": 0.0, "prcp_d4": 0.0, "prcp_d5": 0.0, "prcp_d6": 0.0, "tmax_d0": 21.9, "tmax_d1": 18.1, "tmax_d2": 12.4, "tmax_d3": 16.1, "tmax_d4": 18.6, "tmax_d5": 21.3, "tmax_d6": 16.1, "tmin_d0": 7.3, "tmin_d1": 5.7, "tmin_d2": 7.3, "tmin_d3": 8.5, "tmin_d4": 8.7, "tmin_d5": 7.0, "tmin_d6": 5.8, "day_of_year": 267, "uuid": "567f1d63-db60-443d-a284-954c6aac7d17", "inat_id": 136341308}}, {"type": "Feature", "geometry": {"type": "Point", "coordinates": [-121.6811215567, 45.2816154917]}, "properties": {"species": "Albatrellopsis flettii", "date": "2022-09-25", "location": "Mount Hood Wilderness, OR, USA", "elevation": 1228.0, "land_cover_label": "Tree cover", "water_mask": false, "exclude_reason": "keep", "ndvi": null, "soil_moisture": null, "solar_exposure": null, "wind_exposure": null, "water_retention": null, "slope": null, "aspect": null, "num_identification_agreements": 2, "cluster": 0, "tavg": null, "tmin": 12.3, "tmax": 28.2, "prcp_d0": 0.0, "prcp_d1": 0.0, "prcp_d2": 0.0, "prcp_d3": 0.0, "prcp_d4": 0.0, "prcp_d5": 0.0, "prcp_d6": 0.0, "tmax_d0": 22.3, "tmax_d1": 22.5, "tmax_d2": 17.7, "tmax_d3": 13.4, "tmax_d4": 17.4, "tmax_d5": 18.5, "tmax_d6": 22.3, "tmin_d0": 12.1, "tmin_d1": 7.2, "tmin_d2": 6.8, "tmin_d3": 8.0, "tmin_d4": 9.0, "tmin_d5": 10.1, "tmin_d6": 8.0, "day_of_year": 268, "uuid": "f9665a7d-7242-402b-a5b4-721d5e6c688e", "inat_id": 136654010}}, {"type": "Feature", "geometry": {"type": "Point", "coordinates": [-121.7178229, 45.290399]}, "properties": {"species": "Albatrellopsis flettii", "date": "2022-09-29", "location": "MT HOOD PRKDL, OR 97041, USA", "elevation": 1226.0, "land_cover_label": "Tree cover", "water_mask": false, "exclude_reason": "keep", "ndvi": null, "soil_moisture": null, "solar_exposure": null, "wind_exposure": null, "water_retention": null, "slope": null, "aspect": null, "num_identification_agreements": 1, "cluster": 0, "tavg": null, "tmin": 12.1, "tmax": 20.4, "prcp_d0": 22.6176815032959, "prcp_d1": 0.5394964814186096, "prcp_d2": 0.0, "prcp_d3": 0.0, "prcp_d4": 0.0, "prcp_d5": 0.0, "prcp_d6": 0.0, "tmax_d0": 12.8, "tmax_d1": 19.3, "tmax_d2": 23.9, "tmax_d3": 24.5, "tmax_d4": 21.9, "tmax_d5": 22.1, "tmax_d6": 17.3, "tmin_d0": 7.6, "tmin_d1": 9.2, "tmin_d2": 12.6, "tmin_d3": 13.8, "tmin_d4": 11.7, "tmin_d5": 6.8, "tmin_d6": 6.4, "day_of_year": 272, "uuid": "8e414093-8e17-4685-ac34-a871e34e9efb", "inat_id": 136944226}}, {"type": "Feature", "geometry": {"type": "Point", "coordinates": [-121.707604197, 45.3885688427]}, "properties": {"species": "Albatrellopsis flettii", "date": "2022-09-30", "location": "Mt. Hood Park Division Recreation Area, Mount Hood Parkdale, OR, US", "elevation": 2369.0, "land_cover_label": "Bare / sparse vegetation", "water_mask": false, "exclude_reason": "keep", "ndvi": null, "soil_moisture": null, "solar_exposure": null, "wind_exposure": null, "water_retention": null, "slope": null, "aspect": null, "num_identification_agreements": 1, "cluster": 0, "tavg": null, "tmin": 11.8, "tmax": 23.6, "prcp_d0": 1.4137213230133057, "prcp_d1": 20.282686233520508, "prcp_d2": 0.5068069696426392, "prcp_d3": 0.0, "prcp_d4": 0.0, "prcp_d5": 0.0, "prcp_d6": 0.0, "tmax_d0": 11.7, "tmax_d1": 5.4, "tmax_d2": 12.5, "tmax_d3": 17.6, "tmax_d4": 19.0, "tmax_d5": 16.9, "tmax_d6": 15.4, "tmin_d0": -2.8, "tmin_d1": 0.7, "tmin_d2": 2.7, "tmin_d3": 5.3, "tmin_d4": 4.5, "tmin_d5": 2.3, "tmin_d6": 1.9, "day_of_year": 273, "uuid": "c8407be3-06c1-4f08-8bda-c88e6ad40170", "inat_id": 137090009}}, {"type": "Feature", "geometry": {"type": "Point", "coordinates": [-121.579861, 45.322953]}, "properties": {"species": "Albatrellopsis flettii", "date": "2022-10-01", "location": "Hood River County, OR, USA", "elevation": 1151.0, "land_cover_label": "Tree cover", "water_mask": false, "exclude_reason": "keep", "ndvi": null, "soil_moisture": null, "solar_exposure": null, "wind_exposure": null, "water_retention": null, "slope": null, "aspect": null, "num_identification_agreements": 1, "cluster": 0, "tavg": null, "tmin": 11.2, "tmax": 23.6, "prcp_d0": 0.0, "prcp_d1": 0.7559247016906738, "prcp_d2": 11.59299659729004, "prcp_d3": 0.2527265846729278, "prcp_d4": 0.0, "prcp_d5": 0.0, "prcp_d6": 0.0, "tmax_d0": 17.1, "tmax_d1": 17.8, "tmax_d2": 14.9, "tmax_d3": 23.5, "tmax_d4": 25.9, "tmax_d5": 24.2, "tmax_d6": 22.3, "tmin_d0": 9.2, "tmin_d1": 6.4, "tmin_d2": 8.7, "tmin_d3": 11.5, "tmin_d4": 14.3, "tmin_d5": 12.1, "tmin_d6": 11.0, "day_of_year": 274, "uuid": "f46a8063-d8f6-4756-860f-0420438299fd", "inat_id": 137278536}}, {"type": "Feature", "geometry": {"type": "Point", "coordinates": [-121.675799489, 45.2818376262]}, "properties": {"species": "Albatrellopsis flettii", "date": "2022-10-01", "location": "MT HOOD PRKDL, OR 97041, USA", "elevation": 1274.0, "land_cover_label": "Tree cover", "water_mask": false, "exclude_reason": "keep", "ndvi": null, "soil_moisture": null, "solar_exposure": null, "wind_exposure": null, "water_retention": null, "slope": null, "aspect": null, "num_identification_agreements": 1, "cluster": 0, "tavg": null, "tmin": 11.2, "tmax": 23.6, "prcp_d0": 0.0, "prcp_d1": 1.341011881828308, "prcp_d2": 19.95478248596192, "prcp_d3": 0.462457537651062, "prcp_d4": 0.0, "prcp_d5": 0.0, "prcp_d6": 0.0, "tmax_d0": 17.0, "tmax_d1": 18.0, "tmax_d2": 13.0, "tmax_d3": 19.5, "tmax_d4": 24.0, "tmax_d5": 24.7, "tmax_d6": 22.0, "tmin_d0": 9.1, "tmin_d1": 4.8, "tmin_d2": 7.7, "tmin_d3": 9.4, "tmin_d4": 12.7, "tmin_d5": 14.0, "tmin_d6": 11.8, "day_of_year": 274, "uuid": "956a3a46-a83b-4a5e-b642-a133034233c0", "inat_id": 137241068}}, {"type": "Feature", "geometry": {"type": "Point", "coordinates": [-121.6258383333, 45.3188366667]}, "properties": {"species": "Albatrellopsis flettii", "date": "2022-10-01", "location": "Mt. Hood Park Division Recreation Area, Mount Hood Parkdale, OR, US", "elevation": 1338.0, "land_cover_label": "Tree cover", "water_mask": false, "exclude_reason": "keep", "ndvi": null, "soil_moisture": null, "solar_exposure": null, "wind_exposure": null, "water_retention": null, "slope": null, "aspect": null, "num_identification_agreements": 2, "cluster": 0, "tavg": null, "tmin": 11.2, "tmax": 23.6, "prcp_d0": 0.0, "prcp_d1": 0.8508179783821106, "prcp_d2": 12.786768913269045, "prcp_d3": 0.2914353311061859, "prcp_d4": 0.0, "prcp_d5": 0.0, "prcp_d6": 0.0, "tmax_d0": 16.0, "tmax_d1": 17.3, "tmax_d2": 12.2, "tmax_d3": 19.7, "tmax_d4": 23.8, "tmax_d5": 24.4, "tmax_d6": 21.9, "tmin_d0": 8.5, "tmin_d1": 4.2, "tmin_d2": 7.5, "tmin_d3": 10.3, "tmin_d4": 11.7, "tmin_d5": 12.7, "tmin_d6": 10.6, "day_of_year": 274, "uuid": "c08487cb-7cea-4fe8-9541-21d9f9b4ba40", "inat_id": 137221538}}, {"type": "Feature", "geometry": {"type": "Point", "coordinates": [-121.582522653, 45.407569709]}, "properties": {"species": "Albatrellopsis flettii", "date": "2022-10-02", "location": "Mt Hood", "elevation": 1115.0, "land_cover_label": "Tree cover", "water_mask": false, "exclude_reason": "keep", "ndvi": null, "soil_moisture": null, "solar_exposure": null, "wind_exposure": null, "water_retention": null, "slope": null, "aspect": null, "num_identification_agreements": 1, "cluster": 0, "tavg": null, "tmin": 12.6, "tmax": 25.8, "prcp_d0": 0.0, "prcp_d1": 0.0, "prcp_d2": 0.9277417063713074, "prcp_d3": 13.981409072875977, "prcp_d4": 0.3184182941913605, "prcp_d5": 0.0, "prcp_d6": 0.0, "tmax_d0": 20.6, "tmax_d1": 17.7, "tmax_d2": 18.9, "tmax_d3": 14.0, "tmax_d4": 21.1, "tmax_d5": 24.3, "tmax_d6": 25.2, "tmin_d0": 11.1, "tmin_d1": 9.9, "tmin_d2": 6.6, "tmin_d3": 8.0, "tmin_d4": 11.1, "tmin_d5": 13.6, "tmin_d6": 12.7, "day_of_year": 275, "uuid": "5d9b72f8-5666-4f7d-aa75-e0fa2a75d99f", "inat_id": 137377619}}, {"type": "Feature", "geometry": {"type": "Point", "coordinates": [-121.5824583333, 45.3269]}, "properties": {"species": "Albatrellopsis flettii", "date": "2022-10-08", "location": "MT HOOD PRKDL, OR 97041, USA", "elevation": 1168.0, "land_cover_label": "Tree cover", "water_mask": false, "exclude_reason": "keep", "ndvi": null, "soil_moisture": null, "solar_exposure": null, "wind_exposure": null, "water_retention": null, "slope": null, "aspect": null, "num_identification_agreements": 1, "cluster": 0, "tavg": null, "tmin": 12.7, "tmax": 26.1, "prcp_d0": 0.0, "prcp_d1": 0.0, "prcp_d2": 0.0, "prcp_d3": 0.0, "prcp_d4": 0.0, "prcp_d5": 0.0, "prcp_d6": 0.0, "tmax_d0": 21.2, "tmax_d1": 21.4, "tmax_d2": 22.0, "tmax_d3": 23.1, "tmax_d4": 22.4, "tmax_d5": 21.4, "tmax_d6": 19.5, "tmin_d0": 10.3, "tmin_d1": 10.9, "tmin_d2": 10.4, "tmin_d3": 12.9, "tmin_d4": 11.1, "tmin_d5": 9.7, "tmin_d6": 8.3, "day_of_year": 281, "uuid": "d4687cc3-6c33-45c3-a075-d8ab28f3b6f7", "inat_id": 138039042}}, {"type": "Feature", "geometry": {"type": "Point", "coordinates": [-121.6771083333, 45.1697833333]}, "properties": {"species": "Albatrellopsis flettii", "date": "2022-10-13", "location": "Wasco, Oregon, United States", "elevation": 1088.0, "land_cover_label": "Tree cover", "water_mask": false, "exclude_reason": "keep", "ndvi": null, "soil_moisture": null, "solar_exposure": null, "wind_exposure": null, "water_retention": null, "slope": null, "aspect": null, "num_identification_agreements": 1, "cluster": 0, "tavg": null, "tmin": null, "tmax": null, "prcp_d0": 0.0, "prcp_d1": 0.0, "prcp_d2": 0.0, "prcp_d3": 0.0, "prcp_d4": 0.0, "prcp_d5": 0.0, "prcp_d6": 0.0, "tmax_d0": 20.4, "tmax_d1": 20.8, "tmax_d2": 20.7, "tmax_d3": 20.5, "tmax_d4": 22.4, "tmax_d5": 21.8, "tmax_d6": 22.1, "tmin_d0": 11.7, "tmin_d1": 9.8, "tmin_d2": 6.8, "tmin_d3": 10.6, "tmin_d4": 11.4, "tmin_d5": 13.7, "tmin_d6": 14.8, "day_of_year": 286, "uuid": "f914ff10-9f29-4c78-92b4-cfb4c659363e", "inat_id": 138684071}}, {"type": "Feature", "geometry": {"type": "Point", "coordinates": [-121.6229388889, 45.3189888889]}, "properties": {"species": "Albatrellopsis flettii", "date": "2022-10-14", "location": "Hood River, Oregon, United States", "elevation": 1324.0, "land_cover_label": "Tree cover", "water_mask": false, "exclude_reason": "keep", "ndvi": null, "soil_moisture": null, "solar_exposure": null, "wind_exposure": null, "water_retention": null, "slope": null, "aspect": null, "num_identification_agreements": 1, "cluster": 0, "tavg": null, "tmin": 11.4, "tmax": 23.8, "prcp_d0": 0.0, "prcp_d1": 0.0, "prcp_d2": 0.0, "prcp_d3": 0.0, "prcp_d4": 0.0, "prcp_d5": 0.0, "prcp_d6": 0.0, "tmax_d0": 22.8, "tmax_d1": 20.5, "tmax_d2": 20.7, "tmax_d3": 20.3, "tmax_d4": 19.2, "tmax_d5": 21.0, "tmax_d6": 20.9, "tmin_d0": 9.4, "tmin_d1": 10.0, "tmin_d2": 9.7, "tmin_d3": 4.8, "tmin_d4": 9.5, "tmin_d5": 9.6, "tmin_d6": 9.6, "day_of_year": 287, "uuid": "666c8514-c430-4743-8882-e1a004978dbf", "inat_id": 139080830}}, {"type": "Feature", "geometry": {"type": "Point", "coordinates": [-121.7176583333, 44.9958222222]}, "properties": {"species": "Albatrellopsis flettii", "date": "2023-08-31", "location": "Wasco County, OR, USA", "elevation": 1085.0, "land_cover_label": "Tree cover", "water_mask": false, "exclude_reason": "keep", "ndvi": null, "soil_moisture": null, "solar_exposure": null, "wind_exposure": null, "water_retention": null, "slope": null, "aspect": null, "num_identification_agreements": 1, "cluster": 0, "tavg": null, "tmin": null, "tmax": null, "prcp_d0": 15.577342987060549, "prcp_d1": 0.0, "prcp_d2": 0.0, "prcp_d3": 0.0, "prcp_d4": 0.0, "prcp_d5": 0.0, "prcp_d6": 0.0, "tmax_d0": 17.6, "tmax_d1": 18.8, "tmax_d2": 21.6, "tmax_d3": 26.8, "tmax_d4": 29.0, "tmax_d5": 24.6, "tmax_d6": 25.1, "tmin_d0": 10.1, "tmin_d1": 9.5, "tmin_d2": 10.7, "tmin_d3": 12.8, "tmin_d4": 13.8, "tmin_d5": 13.7, "tmin_d6": 13.6, "day_of_year": 243, "uuid": "cd206714-d582-49a9-8537-a7fba4bcb85f", "inat_id": 183746178}}, {"type": "Feature", "geometry": {"type": "Point", "coordinates": [-121.7139756768, 45.2000754303]}, "properties": {"species": "Albatrellopsis flettii", "date": "2023-10-15", "location": "Maupin, OR, US", "elevation": 1329.0, "land_cover_label": "Tree cover", "water_mask": false, "exclude_reason": "keep", "ndvi": null, "soil_moisture": null, "solar_exposure": null, "wind_exposure": null, "water_retention": null, "slope": null, "aspect": null, "num_identification_agreements": 1, "cluster": 0, "tavg": null, "tmin": null, "tmax": null, "prcp_d0": 0.0, "prcp_d1": 0.0, "prcp_d2": 0.0, "prcp_d3": 0.0, "prcp_d4": 0.0, "prcp_d5": 0.0, "prcp_d6": 17.159893035888672, "tmax_d0": 14.1, "tmax_d1": 11.6, "tmax_d2": 12.0, "tmax_d3": 9.8, "tmax_d4": 6.2, "tmax_d5": 8.8, "tmax_d6": 18.9, "tmin_d0": 6.2, "tmin_d1": 5.0, "tmin_d2": 4.1, "tmin_d3": 3.4, "tmin_d4": 2.7, "tmin_d5": 4.5, "tmin_d6": 8.4, "day_of_year": 288, "uuid": "ccc9ad12-4fef-4127-a49c-fcb58944fae4", "inat_id": 322514351}}, {"type": "Feature", "geometry": {"type": "Point", "coordinates": [-121.8425477887, 44.5857412545]}, "properties": {"species": "Albatrellopsis flettii", "date": "2023-10-15", "location": "Oregon, US", "elevation": 1483.0, "land_cover_label": "Grassland", "water_mask": false, "exclude_reason": "keep", "ndvi": null, "soil_moisture": null, "solar_exposure": null, "wind_exposure": null, "water_retention": null, "slope": null, "aspect": null, "num_identification_agreements": 1, "cluster": 0, "tavg": null, "tmin": null, "tmax": null, "prcp_d0": 0.0, "prcp_d1": 24.709604263305664, "prcp_d2": 0.0, "prcp_d3": 0.0, "prcp_d4": 0.0, "prcp_d5": 0.0, "prcp_d6": 12.305954933166504, "tmax_d0": 16.5, "tmax_d1": 12.2, "tmax_d2": 13.5, "tmax_d3": 9.7, "tmax_d4": 6.3, "tmax_d5": 8.8, "tmax_d6": 18.4, "tmin_d0": 5.2, "tmin_d1": 3.0, "tmin_d2": 1.4, "tmin_d3": 3.1, "tmin_d4": 1.9, "tmin_d5": 4.2, "tmin_d6": 7.8, "day_of_year": 288, "uuid": "51ea8114-ca0b-4c09-a533-71921e4a7100", "inat_id": 191540213}}, {"type": "Feature", "geometry": {"type": "Point", "coordinates": [-121.5869138889, 45.3214388889]}, "properties": {"species": "Albatrellopsis flettii", "date": "2023-10-22", "location": "Hood River County, OR, USA", "elevation": 1174.0, "land_cover_label": "Tree cover", "water_mask": false, "exclude_reason": "keep", "ndvi": null, "soil_moisture": null, "solar_exposure": null, "wind_exposure": null, "water_retention": null, "slope": null, "aspect": null, "num_identification_agreements": 1, "cluster": 0, "tavg": null, "tmin": 12.2, "tmax": 18.7, "prcp_d0": 0.0, "prcp_d1": 0.0, "prcp_d2": 0.0, "prcp_d3": 0.0, "prcp_d4": 0.0, "prcp_d5": 0.0, "prcp_d6": 14.673110008239746, "tmax_d0": 16.0, "tmax_d1": 18.7, "tmax_d2": 20.2, "tmax_d3": 22.3, "tmax_d4": 20.7, "tmax_d5": 14.3, "tmax_d6": 12.8, "tmin_d0": 7.2, "tmin_d1": 9.6, "tmin_d2": 11.5, "tmin_d3": 12.0, "tmin_d4": 7.1, "tmin_d5": 4.1, "tmin_d6": 8.7, "day_of_year": 295, "uuid": "213ec96d-3d5f-4b20-91d7-cab21d3426f5", "inat_id": 188633774}}, {"type": "Feature", "geometry": {"type": "Point", "coordinates": [-107.888042517, 37.8181199437]}, "properties": {"species": "Albatrellopsis flettii", "date": "2024-07-16", "location": "San Miguel County, US-CO, US", "elevation": 3054.0, "land_cover_label": "Tree cover", "water_mask": false, "exclude_reason": "keep", "ndvi": null, "soil_moisture": null, "solar_exposure": null, "wind_exposure": null, "water_retention": null, "slope": null, "aspect": null, "num_identification_agreements": 2, "cluster": 0, "tavg": null, "tmin": 12.0, "tmax": 26.0, "prcp_d0": 0.0, "prcp_d1": 0.0, "prcp_d2": 10.607026100158691, "prcp_d3": 5.303513050079346, "prcp_d4": 0.0, "prcp_d5": 0.0, "prcp_d6": 0.0, "tmax_d0": 19.2, "tmax_d1": 21.6, "tmax_d2": 22.3, "tmax_d3": 22.3, "tmax_d4": 21.9, "tmax_d5": 21.6, "tmax_d6": 20.7, "tmin_d0": 8.3, "tmin_d1": 7.0, "tmin_d2": 6.9, "tmin_d3": 6.2, "tmin_d4": 6.5, "tmin_d5": 5.8, "tmin_d6": 5.0, "day_of_year": 198, "uuid": "39c5cc3d-c4d7-4944-84a6-d540d8ceccab", "inat_id": 235793542}}, {"type": "Feature", "geometry": {"type": "Point", "coordinates": [-121.59076, 45.3987419722]}, "properties": {"species": "Albatrellopsis flettii", "date": "2024-08-14", "location": "MT HOOD PRKDL, OR 97041, USA", "elevation": 1126.0, "land_cover_label": "Tree cover", "water_mask": false, "exclude_reason": "keep", "ndvi": null, "soil_moisture": null, "solar_exposure": null, "wind_exposure": null, "water_retention": null, "slope": null, "aspect": null, "num_identification_agreements": 1, "cluster": 0, "tavg": null, "tmin": 12.9, "tmax": 26.5, "prcp_d0": 0.0, "prcp_d1": 0.0, "prcp_d2": 0.0, "prcp_d3": 0.0, "prcp_d4": 0.0, "prcp_d5": 0.0, "prcp_d6": 0.0, "tmax_d0": 21.9, "tmax_d1": 18.1, "tmax_d2": 22.1, "tmax_d3": 24.0, "tmax_d4": 27.2, "tmax_d5": 28.1, "tmax_d6": 28.6, "tmin_d0": 7.1, "tmin_d1": 8.4, "tmin_d2": 10.1, "tmin_d3": 12.2, "tmin_d4": 14.9, "tmin_d5": 16.9, "tmin_d6": 17.7, "day_of_year": 227, "uuid": "78834585-ba05-443a-b929-b2fe5114bf3d", "inat_id": 236072975}}, {"type": "Feature", "geometry": {"type": "Point", "coordinates": [-121.4890860423, 45.2102333215]}, "properties": {"species": "Albatrellopsis flettii", "date": "2024-08-17", "location": "Oregon, US", "elevation": 1073.0, "land_cover_label": "Tree cover", "water_mask": false, "exclude_reason": "keep", "ndvi": null, "soil_moisture": null, "solar_exposure": null, "wind_exposure": null, "water_retention": null, "slope": null, "aspect": null, "num_identification_agreements": 2, "cluster": 0, "tavg": null, "tmin": null, "tmax": null, "prcp_d0": 0.0, "prcp_d1": 0.0, "prcp_d2": 0.0, "prcp_d3": 0.0, "prcp_d4": 0.0, "prcp_d5": 0.0, "prcp_d6": 0.0, "tmax_d0": 25.5, "tmax_d1": 23.4, "tmax_d2": 23.9, "tmax_d3": 24.3, "tmax_d4": 20.9, "tmax_d5": 25.4, "tmax_d6": 27.3, "tmin_d0": 11.6, "tmin_d1": 10.3, "tmin_d2": 10.5, "tmin_d3": 5.9, "tmin_d4": 8.9, "tmin_d5": 11.1, "tmin_d6": 11.3, "day_of_year": 230, "uuid": "f11c916e-e8d5-46d9-a6af-31a1ef58a500", "inat_id": 236758915}}, {"type": "Feature", "geometry": {"type": "Point", "coordinates": [-121.6491030559, 45.2997738582]}, "properties": {"species": "Albatrellopsis flettii", "date": "2024-08-25", "location": "Oregon, US", "elevation": 1223.0, "land_cover_label": "Tree cover", "water_mask": false, "exclude_reason": "keep", "ndvi": null, "soil_moisture": null, "solar_exposure": null, "wind_exposure": null, "water_retention": null, "slope": null, "aspect": null, "num_identification_agreements": 1, "cluster": 0, "tavg": null, "tmin": 11.2, "tmax": 25.6, "prcp_d0": 0.0628923997282981, "prcp_d1": 0.1649570763111114, "prcp_d2": 6.676431179046631, "prcp_d3": 0.1574857831001281, "prcp_d4": 0.1676341742277145, "prcp_d5": 0.0, "prcp_d6": 0.0, "tmax_d0": 18.4, "tmax_d1": 11.8, "tmax_d2": 12.1, "tmax_d3": 16.9, "tmax_d4": 17.8, "tmax_d5": 17.4, "tmax_d6": 17.7, "tmin_d0": 4.4, "tmin_d1": 3.5, "tmin_d2": 7.0, "tmin_d3": 8.8, "tmin_d4": 8.4, "tmin_d5": 7.4, "tmin_d6": 8.4, "day_of_year": 238, "uuid": "1acc67e8-0224-425e-96b6-d32641fc595c", "inat_id": 237972046}}, {"type": "Feature", "geometry": {"type": "Point", "coordinates": [-121.9228648022, 44.5446220891]}, "properties": {"species": "Albatrellopsis flettii", "date": "2024-08-31", "location": "Sisters, OR 97759, USA", "elevation": 1438.0, "land_cover_label": "Tree cover", "water_mask": false, "exclude_reason": "keep", "ndvi": null, "soil_moisture": null, "solar_exposure": null, "wind_exposure": null, "water_retention": null, "slope": null, "aspect": null, "num_identification_agreements": 1, "cluster": 0, "tavg": null, "tmin": null, "tmax": null, "prcp_d0": 0.0, "prcp_d1": 1.609347054909449e-05, "prcp_d2": 0.0, "prcp_d3": 0.0999634563922882, "prcp_d4": 5.972527980804443, "prcp_d5": 2.62403682427248e-05, "prcp_d6": 0.1198021098971366, "tmax_d0": 30.2, "tmax_d1": 29.2, "tmax_d2": 23.5, "tmax_d3": 20.3, "tmax_d4": 20.7, "tmax_d5": 21.9, "tmax_d6": 18.0, "tmin_d0": 11.4, "tmin_d1": 9.2, "tmin_d2": 5.3, "tmin_d3": 1.5, "tmin_d4": 7.4, "tmin_d5": 5.4, "tmin_d6": 3.9, "day_of_year": 244, "uuid": "728c0f8a-68c5-4ebc-9413-3c0e732d68e6", "inat_id": 239125324}}, {"type": "Feature", "geometry": {"type": "Point", "coordinates": [-121.5130388889, 45.392125]}, "properties": {"species": "Albatrellopsis flettii", "date": "2024-09-02", "location": "Hood River County, OR, USA", "elevation": 1384.0, "land_cover_label": "Tree cover", "water_mask": false, "exclude_reason": "keep", "ndvi": null, "soil_moisture": null, "solar_exposure": null, "wind_exposure": null, "water_retention": null, "slope": null, "aspect": null, "num_identification_agreements": 1, "cluster": 0, "tavg": null, "tmin": 18.9, "tmax": 26.1, "prcp_d0": 0.0, "prcp_d1": 0.0, "prcp_d2": 0.0, "prcp_d3": 1.4281310541264249e-05, "prcp_d4": 0.0, "prcp_d5": 1.164148211479187, "prcp_d6": 8.467079162597656, "tmax_d0": 26.3, "tmax_d1": 28.6, "tmax_d2": 27.4, "tmax_d3": 25.9, "tmax_d4": 20.2, "tmax_d5": 17.3, "tmax_d6": 20.7, "tmin_d0": 11.7, "tmin_d1": 15.4, "tmin_d2": 13.8, "tmin_d3": 10.1, "tmin_d4": 7.6, "tmin_d5": 2.7, "tmin_d6": 7.4, "day_of_year": 246, "uuid": "777f084d-2d99-4558-9d96-b004c441e44e", "inat_id": 242753420}}, {"type": "Feature", "geometry": {"type": "Point", "coordinates": [-121.8681116667, 45.1470528333]}, "properties": {"species": "Albatrellopsis flettii", "date": "2024-09-03", "location": "Mt. Hood National Forest, Estacada, OR, US", "elevation": 1275.0, "land_cover_label": "Tree cover", "water_mask": false, "exclude_reason": "keep", "ndvi": null, "soil_moisture": null, "solar_exposure": null, "wind_exposure": null, "water_retention": null, "slope": null, "aspect": null, "num_identification_agreements": 2, "cluster": 0, "tavg": null, "tmin": null, "tmax": null, "prcp_d0": 0.0, "prcp_d1": 0.0, "prcp_d2": 0.0, "prcp_d3": 0.0, "prcp_d4": 3.0312262424558867e-06, "prcp_d5": 0.0, "prcp_d6": 0.206556886434555, "tmax_d0": 19.2, "tmax_d1": 24.0, "tmax_d2": 29.1, "tmax_d3": 28.4, "tmax_d4": 28.0, "tmax_d5": 20.8, "tmax_d6": 19.0, "tmin_d0": 7.9, "tmin_d1": 9.0, "tmin_d2": 15.7, "tmin_d3": 13.9, "tmin_d4": 11.3, "tmin_d5": 9.4, "tmin_d6": 1.6, "day_of_year": 247, "uuid": "9597df88-b909-4f49-87d9-19ed6b20542d", "inat_id": 239826426}}, {"type": "Feature", "geometry": {"type": "Point", "coordinates": [-121.7524623997, 45.1481336]}, "properties": {"species": "Albatrellopsis flettii", "date": "2024-09-03", "location": "Clackamas County, OR, USA", "elevation": 1008.0, "land_cover_label": "Tree cover", "water_mask": false, "exclude_reason": "keep", "ndvi": null, "soil_moisture": null, "solar_exposure": null, "wind_exposure": null, "water_retention": null, "slope": null, "aspect": null, "num_identification_agreements": 2, "cluster": 0, "tavg": null, "tmin": null, "tmax": null, "prcp_d0": 0.0, "prcp_d1": 0.0, "prcp_d2": 0.0, "prcp_d3": 0.0, "prcp_d4": 3.317142500236514e-06, "prcp_d5": 0.0, "prcp_d6": 0.2301966995000839, "tmax_d0": 22.1, "tmax_d1": 26.2, "tmax_d2": 31.2, "tmax_d3": 29.8, "tmax_d4": 29.9, "tmax_d5": 22.9, "tmax_d6": 20.7, "tmin_d0": 10.0, "tmin_d1": 10.1, "tmin_d2": 16.3, "tmin_d3": 15.4, "tmin_d4": 12.5, "tmin_d5": 9.6, "tmin_d6": 3.1, "day_of_year": 247, "uuid": "833a383b-41f7-4a7b-9087-7e2b535d13ff", "inat_id": 239720394}}, {"type": "Feature", "geometry": {"type": "Point", "coordinates": [-121.6219166667, 45.3181116667]}, "properties": {"species": "Albatrellopsis flettii", "date": "2024-09-03", "location": "Mt. Hood Park Division Recreation Area, Mount Hood Parkdale, OR, US", "elevation": 1321.0, "land_cover_label": "Tree cover", "water_mask": false, "exclude_reason": "keep", "ndvi": null, "soil_moisture": null, "solar_exposure": null, "wind_exposure": null, "water_retention": null, "slope": null, "aspect": null, "num_identification_agreements": 1, "cluster": 0, "tavg": null, "tmin": 17.8, "tmax": 27.8, "prcp_d0": 0.0, "prcp_d1": 0.0, "prcp_d2": 0.0, "prcp_d3": 0.0, "prcp_d4": 5.300169505062513e-06, "prcp_d5": 0.0, "prcp_d6": 0.5264671444892883, "tmax_d0": 21.8, "tmax_d1": 26.5, "tmax_d2": 29.7, "tmax_d3": 28.6, "tmax_d4": 27.5, "tmax_d5": 21.1, "tmax_d6": 18.8, "tmin_d0": 8.1, "tmin_d1": 11.2, "tmin_d2": 17.4, "tmin_d3": 15.1, "tmin_d4": 10.9, "tmin_d5": 9.1, "tmin_d6": 3.0, "day_of_year": 247, "uuid": "a5acf3f7-b657-4e22-97e6-9757766dd2a0", "inat_id": 244955181}}, {"type": "Feature", "geometry": {"type": "Point", "coordinates": [-121.6066764622, 45.2736303325]}, "properties": {"species": "Albatrellopsis flettii", "date": "2024-09-08", "location": "Oregon, US", "elevation": 1255.0, "land_cover_label": "Tree cover", "water_mask": false, "exclude_reason": "keep", "ndvi": null, "soil_moisture": null, "solar_exposure": null, "wind_exposure": null, "water_retention": null, "slope": null, "aspect": null, "num_identification_agreements": 3, "cluster": 0, "tavg": null, "tmin": 17.4, "tmax": 29.7, "prcp_d0": 0.0, "prcp_d1": 0.0, "prcp_d2": 0.0, "prcp_d3": 0.0, "prcp_d4": 0.0, "prcp_d5": 0.0, "prcp_d6": 0.0, "tmax_d0": 26.3, "tmax_d1": 28.1, "tmax_d2": 29.3, "tmax_d3": 27.3, "tmax_d4": 25.0, "tmax_d5": 23.3, "tmax_d6": 27.8, "tmin_d0": 15.2, "tmin_d1": 19.9, "tmin_d2": 17.8, "tmin_d3": 17.6, "tmin_d4": 13.1, "tmin_d5": 8.3, "tmin_d6": 12.0, "day_of_year": 252, "uuid": "b289198b-6043-4907-9b64-5b19827e3553", "inat_id": 241233798}}, {"type": "Feature", "geometry": {"type": "Point", "coordinates": [-121.5720861111, 45.4038194444]}, "properties": {"species": "Albatrellopsis flettii", "date": "2024-09-12", "location": "MT HOOD PRKDL, OR 97041, USA", "elevation": 961.0, "land_cover_label": "Tree cover", "water_mask": false, "exclude_reason": "keep", "ndvi": null, "soil_moisture": null, "solar_exposure": null, "wind_exposure": null, "water_retention": null, "slope": null, "aspect": null, "num_identification_agreements": 1, "cluster": 0, "tavg": null, "tmin": 13.6, "tmax": 20.2, "prcp_d0": 4.162554740905762, "prcp_d1": 20.994659423828125, "prcp_d2": 0.0, "prcp_d3": 0.0, "prcp_d4": 0.0, "prcp_d5": 0.0, "prcp_d6": 0.0, "tmax_d0": 15.0, "tmax_d1": 19.7, "tmax_d2": 22.6, "tmax_d3": 25.5, "tmax_d4": 29.4, "tmax_d5": 31.2, "tmax_d6": 32.7, "tmin_d0": 9.8, "tmin_d1": 8.9, "tmin_d2": 11.4, "tmin_d3": 12.8, "tmin_d4": 18.0, "tmin_d5": 21.0, "tmin_d6": 19.9, "day_of_year": 256, "uuid": "94bea502-a2f0-4e67-ba94-5974240b3ab3", "inat_id": 241373898}}, {"type": "Feature", "geometry": {"type": "Point", "coordinates": [-121.857305, 44.5612883333]}, "properties": {"species": "Albatrellopsis flettii", "date": "2024-09-13", "location": "Willamette National Forest, Idanha, OR, US", "elevation": 1291.0, "land_cover_label": "Tree cover", "water_mask": false, "exclude_reason": "keep", "ndvi": null, "soil_moisture": null, "solar_exposure": null, "wind_exposure": null, "water_retention": null, "slope": null, "aspect": null, "num_identification_agreements": 2, "cluster": 0, "tavg": null, "tmin": null, "tmax": null, "prcp_d0": 0.3202169239521026, "prcp_d1": 3.0231196880340576, "prcp_d2": 15.477616310119627, "prcp_d3": 0.0, "prcp_d4": 0.0, "prcp_d5": 0.0, "prcp_d6": 11.968122482299805, "tmax_d0": 18.1, "tmax_d1": 12.1, "tmax_d2": 18.4, "tmax_d3": 22.2, "tmax_d4": 23.8, "tmax_d5": 25.7, "tmax_d6": 27.3, "tmin_d0": 3.1, "tmin_d1": 6.9, "tmin_d2": 6.5, "tmin_d3": 11.5, "tmin_d4": 14.5, "tmin_d5": 16.6, "tmin_d6": 15.9, "day_of_year": 257, "uuid": "45d3c41e-2fdd-4cd3-bc8a-774c9ecdd016", "inat_id": 241596272}}, {"type": "Feature", "geometry": {"type": "Point", "coordinates": [-121.7164383333, 45.3002583333]}, "properties": {"species": "Albatrellopsis flettii", "date": "2024-09-16", "location": "Mt. Hood Park Division Recreation Area, Government Camp, OR, US", "elevation": 1317.0, "land_cover_label": "Tree cover", "water_mask": false, "exclude_reason": "keep", "ndvi": null, "soil_moisture": null, "solar_exposure": null, "wind_exposure": null, "water_retention": null, "slope": null, "aspect": null, "num_identification_agreements": 2, "cluster": 0, "tavg": null, "tmin": 11.2, "tmax": 25.9, "prcp_d0": 0.0, "prcp_d1": 0.0, "prcp_d2": 0.0, "prcp_d3": 0.0, "prcp_d4": 0.0, "prcp_d5": 10.252826690673828, "prcp_d6": 0.0, "tmax_d0": 17.8, "tmax_d1": 12.5, "tmax_d2": 15.1, "tmax_d3": 16.3, "tmax_d4": 11.2, "tmax_d5": 16.7, "tmax_d6": 19.7, "tmin_d0": 4.8, "tmin_d1": 4.0, "tmin_d2": 7.6, "tmin_d3": 6.0, "tmin_d4": 6.6, "tmin_d5": 6.2, "tmin_d6": 9.7, "day_of_year": 260, "uuid": "8961ade8-fd0a-4b4b-86dc-0987d5fd31e0", "inat_id": 242236422}}, {"type": "Feature", "geometry": {"type": "Point", "coordinates": [-121.6227490827, 45.320135278]}, "properties": {"species": "Albatrellopsis flettii", "date": "2024-09-18", "location": "MT HOOD PRKDL, OR 97041, USA", "elevation": 1324.0, "land_cover_label": "Tree cover", "water_mask": false, "exclude_reason": "keep", "ndvi": null, "soil_moisture": null, "solar_exposure": null, "wind_exposure": null, "water_retention": null, "slope": null, "aspect": null, "num_identification_agreements": 1, "cluster": 0, "tavg": null, "tmin": 13.5, "tmax": 21.8, "prcp_d0": 9.59399700164795, "prcp_d1": 6.384174823760986, "prcp_d2": 0.0, "prcp_d3": 0.0, "prcp_d4": 0.0, "prcp_d5": 0.0, "prcp_d6": 0.0, "tmax_d0": 14.8, "tmax_d1": 16.0, "tmax_d2": 18.2, "tmax_d3": 12.4, "tmax_d4": 15.8, "tmax_d5": 17.2, "tmax_d6": 11.4, "tmin_d0": 7.1, "tmin_d1": 5.8, "tmin_d2": 5.8, "tmin_d3": 3.5, "tmin_d4": 7.4, "tmin_d5": 4.7, "tmin_d6": 6.6, "day_of_year": 262, "uuid": "51a73bce-8de8-4da7-9765-4fe9430f7fb7", "inat_id": 242602003}}, {"type": "Feature", "geometry": {"type": "Point", "coordinates": [-121.703129, 45.284021]}, "properties": {"species": "Albatrellopsis flettii", "date": "2024-09-18", "location": "TIMBRLINE LDG, OR 97028, USA", "elevation": 1150.0, "land_cover_label": "Tree cover", "water_mask": false, "exclude_reason": "keep", "ndvi": null, "soil_moisture": null, "solar_exposure": null, "wind_exposure": null, "water_retention": null, "slope": null, "aspect": null, "num_identification_agreements": 2, "cluster": 0, "tavg": null, "tmin": 13.5, "tmax": 21.8, "prcp_d0": 5.210668087005615, "prcp_d1": 0.0, "prcp_d2": 0.0, "prcp_d3": 0.0, "prcp_d4": 0.0, "prcp_d5": 0.0, "prcp_d6": 0.0, "tmax_d0": 14.8, "tmax_d1": 15.8, "tmax_d2": 18.7, "tmax_d3": 13.4, "tmax_d4": 16.0, "tmax_d5": 17.2, "tmax_d6": 12.2, "tmin_d0": 8.4, "tmin_d1": 7.4, "tmin_d2": 5.8, "tmin_d3": 5.0, "tmin_d4": 8.5, "tmin_d5": 6.9, "tmin_d6": 7.5, "day_of_year": 262, "uuid": "ebf731f0-9609-4849-90f4-c7b4c5b1e327", "inat_id": 243016831}}, {"type": "Feature", "geometry": {"type": "Point", "coordinates": [-121.7369528487, 45.2787584847]}, "properties": {"species": "Albatrellopsis flettii", "date": "2024-09-26", "location": "TIMBRLINE LDG, OR 97028, USA", "elevation": 1112.0, "land_cover_label": "Tree cover", "water_mask": false, "exclude_reason": "keep", "ndvi": null, "soil_moisture": null, "solar_exposure": null, "wind_exposure": null, "water_retention": null, "slope": null, "aspect": null, "num_identification_agreements": 1, "cluster": 0, "tavg": null, "tmin": 10.1, "tmax": 21.1, "prcp_d0": 5.209141254425049, "prcp_d1": 8.232942581176758, "prcp_d2": 0.0, "prcp_d3": 0.0, "prcp_d4": 0.0, "prcp_d5": 0.0, "prcp_d6": 0.0, "tmax_d0": 17.6, "tmax_d1": 25.1, "tmax_d2": 26.7, "tmax_d3": 20.7, "tmax_d4": 19.4, "tmax_d5": 19.7, "tmax_d6": 14.1, "tmin_d0": 2.5, "tmin_d1": 10.0, "tmin_d2": 14.7, "tmin_d3": 9.3, "tmin_d4": 9.6, "tmin_d5": 5.4, "tmin_d6": 5.0, "day_of_year": 270, "uuid": "3b51553d-affd-4e98-ae67-97c1097fca37", "inat_id": 244641915}}, {"type": "Feature", "geometry": {"type": "Point", "coordinates": [-121.773705, 45.2037716667]}, "properties": {"species": "Albatrellopsis flettii", "date": "2024-10-12", "location": "Zigzag Ranger Station, Government Camp, OR, US", "elevation": 1178.0, "land_cover_label": "Tree cover", "water_mask": false, "exclude_reason": "keep", "ndvi": null, "soil_moisture": null, "solar_exposure": null, "wind_exposure": null, "water_retention": null, "slope": null, "aspect": null, "num_identification_agreements": 2, "cluster": 0, "tavg": null, "tmin": null, "tmax": null, "prcp_d0": 0.0, "prcp_d1": 8.380023956298828, "prcp_d2": 0.0, "prcp_d3": 0.0, "prcp_d4": 0.0, "prcp_d5": 0.0, "prcp_d6": 0.0, "tmax_d0": 17.5, "tmax_d1": 17.8, "tmax_d2": 13.1, "tmax_d3": 14.7, "tmax_d4": 20.8, "tmax_d5": 22.1, "tmax_d6": 18.9, "tmin_d0": 7.2, "tmin_d1": 5.1, "tmin_d2": -0.2, "tmin_d3": 7.3, "tmin_d4": 7.9, "tmin_d5": 7.3, "tmin_d6": 5.7, "day_of_year": 286, "uuid": "47f0b96a-e8e1-4b28-85f9-91fd67259db4", "inat_id": 247224106}}, {"type": "Feature", "geometry": {"type": "Point", "coordinates": [-121.5035715796, 45.3044363932]}, "properties": {"species": "Albatrellopsis flettii", "date": "2024-10-20", "location": "Wasco County, US-OR, US", "elevation": 1150.0, "land_cover_label": "Tree cover", "water_mask": false, "exclude_reason": "keep", "ndvi": null, "soil_moisture": null, "solar_exposure": null, "wind_exposure": null, "water_retention": null, "slope": null, "aspect": null, "num_identification_agreements": 1, "cluster": 0, "tavg": null, "tmin": 7.7, "tmax": 21.7, "prcp_d0": 13.34995174407959, "prcp_d1": 13.34995174407959, "prcp_d2": 0.0, "prcp_d3": 0.0, "prcp_d4": 13.34995174407959, "prcp_d5": 0.0, "prcp_d6": 0.0, "tmax_d0": 17.9, "tmax_d1": 16.2, "tmax_d2": 8.0, "tmax_d3": 6.1, "tmax_d4": 11.1, "tmax_d5": 15.4, "tmax_d6": 18.1, "tmin_d0": 8.0, "tmin_d1": 5.5, "tmin_d2": -1.4, "tmin_d3": 1.6, "tmin_d4": 6.6, "tmin_d5": 8.3, "tmin_d6": 10.8, "day_of_year": 294, "uuid": "0a8c44ce-37f3-4ea2-8dd1-f024e43f5576", "inat_id": 248482689}}, {"type": "Feature", "geometry": {"type": "Point", "coordinates": [-105.80001111, 35.79901944]}, "properties": {"species": "Albatrellopsis flettii", "date": "2025-08-05", "location": "Santa Fe, New Mexico, United States", "elevation": 3208.0, "land_cover_label": "Tree cover", "water_mask": false, "exclude_reason": "keep", "ndvi": null, "soil_moisture": null, "solar_exposure": null, "wind_exposure": null, "water_retention": null, "slope": null, "aspect": null, "num_identification_agreements": 1, "cluster": 0, "tavg": null, "tmin": 12.8, "tmax": 35.0, "prcp_d0": 0.0, "prcp_d1": 0.0, "prcp_d2": 0.0, "prcp_d3": 0.0, "prcp_d4": 0.0, "prcp_d5": 7.859631538391113, "prcp_d6": 0.0, "tmax_d0": 22.6, "tmax_d1": 21.3, "tmax_d2": 20.5, "tmax_d3": 19.6, "tmax_d4": 17.7, "tmax_d5": 17.0, "tmax_d6": 18.7, "tmin_d0": 9.6, "tmin_d1": 3.4, "tmin_d2": 9.3, "tmin_d3": 8.2, "tmin_d4": 5.3, "tmin_d5": 3.3, "tmin_d6": 6.2, "day_of_year": 217, "uuid": "e11c9188-62e4-4a1e-b60f-78abcb43bec4", "inat_id": 304271196}}, {"type": "Feature", "geometry": {"type": "Point", "coordinates": [-121.85730415, 45.1372019]}, "properties": {"species": "Albatrellopsis flettii", "date": "2025-08-16", "location": "Anvil Lake, Estacada, OR, US", "elevation": 1238.0, "land_cover_label": "Grassland", "water_mask": false, "exclude_reason": "keep", "ndvi": null, "soil_moisture": null, "solar_exposure": null, "wind_exposure": null, "water_retention": null, "slope": null, "aspect": null, "num_identification_agreements": 2, "cluster": 0, "tavg": null, "tmin": null, "tmax": null, "prcp_d0": 0.0, "prcp_d1": 0.0, "prcp_d2": 0.0, "prcp_d3": 0.0, "prcp_d4": 0.0, "prcp_d5": 0.0, "prcp_d6": 0.0, "tmax_d0": 18.1, "tmax_d1": 17.9, "tmax_d2": 20.4, "tmax_d3": 26.0, "tmax_d4": 29.0, "tmax_d5": 29.8, "tmax_d6": 29.6, "tmin_d0": 12.6, "tmin_d1": 11.8, "tmin_d2": 11.2, "tmin_d3": 12.1, "tmin_d4": 16.8, "tmin_d5": 17.7, "tmin_d6": 12.5, "day_of_year": 228, "uuid": "1568460d-d68a-4cc5-9916-b12c1b33ec08", "inat_id": 307659656}}, {"type": "Feature", "geometry": {"type": "Point", "coordinates": [-121.86805, 45.1471055]}, "properties": {"species": "Albatrellopsis flettii", "date": "2025-08-16", "location": "Mt. Hood National Forest, Estacada, OR, US", "elevation": 1275.0, "land_cover_label": "Tree cover", "water_mask": false, "exclude_reason": "keep", "ndvi": null, "soil_moisture": null, "solar_exposure": null, "wind_exposure": null, "water_retention": null, "slope": null, "aspect": null, "num_identification_agreements": 1, "cluster": 0, "tavg": null, "tmin": null, "tmax": null, "prcp_d0": 0.0, "prcp_d1": 0.0, "prcp_d2": 0.0, "prcp_d3": 0.0, "prcp_d4": 0.0, "prcp_d5": 0.0, "prcp_d6": 0.0, "tmax_d0": 17.3, "tmax_d1": 17.1, "tmax_d2": 19.6, "tmax_d3": 25.2, "tmax_d4": 28.2, "tmax_d5": 29.0, "tmax_d6": 28.8, "tmin_d0": 11.8, "tmin_d1": 11.0, "tmin_d2": 10.4, "tmin_d3": 11.3, "tmin_d4": 16.0, "tmin_d5": 16.9, "tmin_d6": 11.7, "day_of_year": 228, "uuid": "054b06e9-60bd-4ae7-b392-84c57b60fe97", "inat_id": 307033185}}, {"type": "Feature", "geometry": {"type": "Point", "coordinates": [-121.7975808683, 45.3401205462]}, "properties": {"species": "Albatrellopsis flettii", "date": "2025-08-21", "location": "Oregon, US", "elevation": 1446.0, "land_cover_label": "Tree cover", "water_mask": false, "exclude_reason": "keep", "ndvi": null, "soil_moisture": null, "solar_exposure": null, "wind_exposure": null, "water_retention": null, "slope": null, "aspect": null, "num_identification_agreements": 1, "cluster": 0, "tavg": null, "tmin": 8.0, "tmax": 33.0, "prcp_d0": 0.0, "prcp_d1": 0.0, "prcp_d2": 0.0, "prcp_d3": 0.0, "prcp_d4": 0.0, "prcp_d5": 4.147284984588623, "prcp_d6": 0.0, "tmax_d0": 24.4, "tmax_d1": 17.0, "tmax_d2": 16.7, "tmax_d3": 15.0, "tmax_d4": 17.3, "tmax_d5": 15.3, "tmax_d6": 15.6, "tmin_d0": 9.1, "tmin_d1": 6.9, "tmin_d2": 7.2, "tmin_d3": 7.9, "tmin_d4": 7.3, "tmin_d5": 10.3, "tmin_d6": 10.3, "day_of_year": 233, "uuid": "cb9040e8-7878-4006-9002-dd71e9391aa5", "inat_id": 308113009}}, {"type": "Feature", "geometry": {"type": "Point", "coordinates": [-121.625840927, 45.3387669625]}, "properties": {"species": "Albatrellopsis flettii", "date": "2025-08-25", "location": "Hood River County, OR, USA", "elevation": 1546.0, "land_cover_label": "Tree cover", "water_mask": false, "exclude_reason": "keep", "ndvi": null, "soil_moisture": null, "solar_exposure": null, "wind_exposure": null, "water_retention": null, "slope": null, "aspect": null, "num_identification_agreements": 2, "cluster": 0, "tavg": null, "tmin": 17.0, "tmax": 33.7, "prcp_d0": 6.212221622467041, "prcp_d1": 0.0, "prcp_d2": 0.0, "prcp_d3": 0.0, "prcp_d4": 0.0, "prcp_d5": 0.0, "prcp_d6": 0.0, "tmax_d0": 28.0, "tmax_d1": 28.8, "tmax_d2": 27.2, "tmax_d3": 25.1, "tmax_d4": 23.5, "tmax_d5": 18.3, "tmax_d6": 18.3, "tmin_d0": 19.4, "tmin_d1": 17.9, "tmin_d2": 16.6, "tmin_d3": 13.1, "tmin_d4": 10.1, "tmin_d5": 8.5, "tmin_d6": 6.7, "day_of_year": 237, "uuid": "29eb32fb-1070-473d-ab59-c52882ba5c3d", "inat_id": 311370637}}, {"type": "Feature", "geometry": {"type": "Point", "coordinates": [-105.4361752423, 39.6803752964]}, "properties": {"species": "Albatrellopsis flettii", "date": "2026-08-19", "location": "SH-103, Evergreen, CO, US", "elevation": 2761.0, "land_cover_label": "Tree cover", "water_mask": false, "exclude_reason": "keep", "ndvi": null, "soil_moisture": 0.3490291999243029, "solar_exposure": 0.7584118843078613, "wind_exposure": 0.2998704314231872, "water_retention": 0.2605602443218231, "slope": 7.905901908874512, "aspect": 329.3074035644531, "num_identification_agreements": 1, "cluster": 0, "tavg": null, "tmin": 3.3, "tmax": 15.6, "prcp_d0": null, "prcp_d1": null, "prcp_d2": null, "prcp_d3": null, "prcp_d4": null, "prcp_d5": null, "prcp_d6": null, "tmax_d0": 24.4, "tmax_d1": 25.0, "tmax_d2": 24.4, "tmax_d3": 21.8, "tmax_d4": 19.9, "tmax_d5": 21.8, "tmax_d6": 18.6, "tmin_d0": 7.8, "tmin_d1": 7.8, "tmin_d2": 5.7, "tmin_d3": 4.3, "tmin_d4": 6.6, "tmin_d5": 7.2, "tmin_d6": 7.5, "day_of_year": 231, "uuid": "0cf38e25-afbd-4ee5-9b1d-2fe7a6ce287f", "inat_id": 392795393}}]}