{"type": "FeatureCollection", "features": [{"type": "Feature", "geometry": {"type": "Point", "coordinates": [-107.3161765165, 37.5940884034]}, "properties": {"species": "Albatrellus ovinus", "date": "2008-09-04", "location": "Hinsdale County, CO, USA", "elevation": 2920.0, "land_cover_label": "Tree cover", "water_mask": false, "exclude_reason": "keep", "ndvi": null, "soil_moisture": null, "solar_exposure": null, "wind_exposure": null, "water_retention": null, "slope": null, "aspect": null, "num_identification_agreements": 1, "cluster": 0, "tavg": null, "tmin": null, "tmax": null, "prcp_d0": 0.0, "prcp_d1": 0.0, "prcp_d2": 0.0, "prcp_d3": 42.82544708251953, "prcp_d4": 0.0, "prcp_d5": 0.0, "prcp_d6": 15.847784996032717, "tmax_d0": 17.3, "tmax_d1": 16.6, "tmax_d2": 19.2, "tmax_d3": 15.2, "tmax_d4": 15.1, "tmax_d5": 19.2, "tmax_d6": 20.1, "tmin_d0": -0.8, "tmin_d1": 6.8, "tmin_d2": 2.2, "tmin_d3": 8.0, "tmin_d4": 8.5, "tmin_d5": 5.1, "tmin_d6": 9.0, "day_of_year": 248, "uuid": "fcc04e88-3c22-4d93-b938-8facd279c05e", "inat_id": 99682802}}, {"type": "Feature", "geometry": {"type": "Point", "coordinates": [-106.1790383333, 39.710725]}, "properties": {"species": "Albatrellus ovinus", "date": "2019-08-01", "location": "Arapaho National Forest, Silverthorne, CO, US", "elevation": 3014.0, "land_cover_label": "Tree cover", "water_mask": false, "exclude_reason": "keep", "ndvi": null, "soil_moisture": null, "solar_exposure": null, "wind_exposure": null, "water_retention": null, "slope": null, "aspect": null, "num_identification_agreements": 1, "cluster": 0, "tavg": null, "tmin": 12.0, "tmax": 15.0, "prcp_d0": 0.0, "prcp_d1": 4.736973762512207, "prcp_d2": 0.0, "prcp_d3": 0.0, "prcp_d4": 0.0, "prcp_d5": 0.0, "prcp_d6": 4.736973762512207, "tmax_d0": 18.3, "tmax_d1": 19.7, "tmax_d2": 21.3, "tmax_d3": 20.7, "tmax_d4": 19.1, "tmax_d5": 18.5, "tmax_d6": 18.8, "tmin_d0": 4.8, "tmin_d1": 4.1, "tmin_d2": 3.9, "tmin_d3": 3.3, "tmin_d4": 4.0, "tmin_d5": 4.5, "tmin_d6": 3.7, "day_of_year": 213, "uuid": "65ae7d05-08ae-4e84-881e-7ef16862b9c9", "inat_id": 30024272}}, {"type": "Feature", "geometry": {"type": "Point", "coordinates": [-106.4428716667, 39.4723033333]}, "properties": {"species": "Albatrellus ovinus", "date": "2019-08-03", "location": "White River National Forest, Red Cliff, CO, US", "elevation": 3459.0, "land_cover_label": "Tree cover", "water_mask": false, "exclude_reason": "keep", "ndvi": null, "soil_moisture": null, "solar_exposure": null, "wind_exposure": null, "water_retention": null, "slope": null, "aspect": null, "num_identification_agreements": 1, "cluster": 0, "tavg": null, "tmin": 6.7, "tmax": 23.3, "prcp_d0": 0.0, "prcp_d1": 0.0, "prcp_d2": 0.0, "prcp_d3": 0.0, "prcp_d4": 0.0, "prcp_d5": 0.0, "prcp_d6": 0.0, "tmax_d0": 18.3, "tmax_d1": 17.4, "tmax_d2": 15.6, "tmax_d3": 17.3, "tmax_d4": 17.4, "tmax_d5": 17.8, "tmax_d6": 15.8, "tmin_d0": 3.3, "tmin_d1": 1.3, "tmin_d2": 3.6, "tmin_d3": 1.2, "tmin_d4": 0.1, "tmin_d5": -0.5, "tmin_d6": 0.2, "day_of_year": 215, "uuid": "5ecf78bd-cc47-495a-a4b0-38bdf0a4f10c", "inat_id": 255660259}}, {"type": "Feature", "geometry": {"type": "Point", "coordinates": [-105.7595921, 39.8735539997]}, "properties": {"species": "Albatrellus ovinus", "date": "2021-08-14", "location": "Mary Jane Base Complex, Winter Park, CO 80482, USA", "elevation": 2891.0, "land_cover_label": "Tree cover", "water_mask": false, "exclude_reason": "keep", "ndvi": null, "soil_moisture": 0.3170963852892018, "solar_exposure": 0.7549394965171814, "wind_exposure": 0.2487444281578064, "water_retention": 0.4409966468811035, "slope": 7.98065710067749, "aspect": 332.93310546875, "num_identification_agreements": 1, "cluster": 3, "tavg": null, "tmin": 6.0, "tmax": 28.3, "prcp_d0": 2.797855854034424, "prcp_d1": 2.797855854034424, "prcp_d2": 0.0, "prcp_d3": 0.0, "prcp_d4": 0.0, "prcp_d5": 0.0, "prcp_d6": 0.0, "tmax_d0": 23.2, "tmax_d1": 20.7, "tmax_d2": 22.1, "tmax_d3": 22.3, "tmax_d4": 21.1, "tmax_d5": 21.3, "tmax_d6": 21.5, "tmin_d0": 6.2, "tmin_d1": 5.5, "tmin_d2": 8.2, "tmin_d3": 6.9, "tmin_d4": 7.9, "tmin_d5": 7.6, "tmin_d6": 4.5, "day_of_year": 226, "uuid": "e63f9077-5157-4c8f-8e84-112863754496", "inat_id": 91143805}}, {"type": "Feature", "geometry": {"type": "Point", "coordinates": [-105.759410944, 39.8767058558]}, "properties": {"species": "Albatrellus ovinus", "date": "2021-08-14", "location": "Winter Park Resort, Winter Park, CO, US", "elevation": 2884.0, "land_cover_label": "Tree cover", "water_mask": false, "exclude_reason": "keep", "ndvi": null, "soil_moisture": 0.3166589560932027, "solar_exposure": 0.7903390526771545, "wind_exposure": 0.3209847509860992, "water_retention": 0.4307239353656769, "slope": 9.479775428771973, "aspect": 290.9510192871094, "num_identification_agreements": 1, "cluster": 0, "tavg": null, "tmin": 6.0, "tmax": 28.3, "prcp_d0": 2.797855854034424, "prcp_d1": 2.797855854034424, "prcp_d2": 0.0, "prcp_d3": 0.0, "prcp_d4": 0.0, "prcp_d5": 0.0, "prcp_d6": 0.0, "tmax_d0": 23.3, "tmax_d1": 20.8, "tmax_d2": 22.2, "tmax_d3": 22.4, "tmax_d4": 21.2, "tmax_d5": 21.4, "tmax_d6": 21.6, "tmin_d0": 6.3, "tmin_d1": 5.6, "tmin_d2": 8.3, "tmin_d3": 7.0, "tmin_d4": 8.0, "tmin_d5": 7.7, "tmin_d6": 4.6, "day_of_year": 226, "uuid": "01c4ac23-ef02-445f-809d-4ef3b3659699", "inat_id": 91129759}}, {"type": "Feature", "geometry": {"type": "Point", "coordinates": [-105.7514116667, 40.0564916667]}, "properties": {"species": "Albatrellus ovinus", "date": "2021-08-14", "location": "Arapaho & Roosevelt National Forests Pawnee National Grassland, Granby, CO, US", "elevation": 3066.0, "land_cover_label": "Tree cover", "water_mask": false, "exclude_reason": "keep", "ndvi": null, "soil_moisture": 0.2499733908652227, "solar_exposure": 0.8790600895881653, "wind_exposure": 0.3112837374210357, "water_retention": 0.218588724732399, "slope": 4.930190563201904, "aspect": 144.8863983154297, "num_identification_agreements": 1, "cluster": 0, "tavg": null, "tmin": 6.0, "tmax": 28.3, "prcp_d0": 0.0, "prcp_d1": 0.0, "prcp_d2": 0.0, "prcp_d3": 0.0, "prcp_d4": 0.0, "prcp_d5": 0.0, "prcp_d6": 0.0, "tmax_d0": 22.3, "tmax_d1": 18.8, "tmax_d2": 20.2, "tmax_d3": 20.7, "tmax_d4": 19.4, "tmax_d5": 19.6, "tmax_d6": 19.6, "tmin_d0": 7.6, "tmin_d1": 6.2, "tmin_d2": 5.6, "tmin_d3": 7.1, "tmin_d4": 6.7, "tmin_d5": 6.2, "tmin_d6": 3.7, "day_of_year": 226, "uuid": "281e3b29-f955-4ef4-bec3-ea4079347fad", "inat_id": 91153850}}, {"type": "Feature", "geometry": {"type": "Point", "coordinates": [-105.641253, 39.690446]}, "properties": {"species": "Albatrellus ovinus", "date": "2021-08-14", "location": "Clear Creek County, CO, USA", "elevation": 2865.0, "land_cover_label": "Tree cover", "water_mask": false, "exclude_reason": "keep", "ndvi": null, "soil_moisture": 0.3206948268921495, "solar_exposure": 0.6970125436782837, "wind_exposure": 0.2514865100383758, "water_retention": 0.4038114845752716, "slope": 15.163676261901855, "aspect": 47.081485748291016, "num_identification_agreements": 2, "cluster": 3, "tavg": null, "tmin": null, "tmax": null, "prcp_d0": 10.777685165405272, "prcp_d1": 0.0, "prcp_d2": 0.0, "prcp_d3": 0.0, "prcp_d4": 0.0, "prcp_d5": 0.0, "prcp_d6": 0.0, "tmax_d0": 22.6, "tmax_d1": 17.8, "tmax_d2": 21.5, "tmax_d3": 23.6, "tmax_d4": 20.6, "tmax_d5": 21.2, "tmax_d6": 22.1, "tmin_d0": 7.3, "tmin_d1": 7.6, "tmin_d2": 10.1, "tmin_d3": 9.2, "tmin_d4": 8.1, "tmin_d5": 8.5, "tmin_d6": 6.9, "day_of_year": 226, "uuid": "876cb00b-4b48-4bc3-835c-5a0e16de9ee6", "inat_id": 91184199}}, {"type": "Feature", "geometry": {"type": "Point", "coordinates": [-106.0855555556, 39.1990972222]}, "properties": {"species": "Albatrellus ovinus", "date": "2021-09-04", "location": "Park, Colorado, United States", "elevation": 3238.0, "land_cover_label": "Tree cover", "water_mask": false, "exclude_reason": "keep", "ndvi": null, "soil_moisture": null, "solar_exposure": null, "wind_exposure": null, "water_retention": null, "slope": null, "aspect": null, "num_identification_agreements": 1, "cluster": 0, "tavg": null, "tmin": 1.7, "tmax": 18.9, "prcp_d0": 0.0, "prcp_d1": 0.0, "prcp_d2": 0.0, "prcp_d3": 7.223835468292236, "prcp_d4": 0.0, "prcp_d5": 0.0, "prcp_d6": 0.0, "tmax_d0": 15.5, "tmax_d1": 15.6, "tmax_d2": 14.1, "tmax_d3": 17.8, "tmax_d4": 19.2, "tmax_d5": 20.1, "tmax_d6": 18.9, "tmin_d0": 3.1, "tmin_d1": 4.0, "tmin_d2": 4.8, "tmin_d3": 7.4, "tmin_d4": 4.6, "tmin_d5": 4.7, "tmin_d6": 4.4, "day_of_year": 247, "uuid": "9017a102-fbca-4df6-b970-c277d6734859", "inat_id": 93936625}}, {"type": "Feature", "geometry": {"type": "Point", "coordinates": [-106.646255, 39.1256416667]}, "properties": {"species": "Albatrellus ovinus", "date": "2022-07-28", "location": "White River National Forest, Aspen, CO, US", "elevation": 3158.0, "land_cover_label": "Tree cover", "water_mask": false, "exclude_reason": "keep", "ndvi": null, "soil_moisture": null, "solar_exposure": null, "wind_exposure": null, "water_retention": null, "slope": null, "aspect": null, "num_identification_agreements": 2, "cluster": 0, "tavg": null, "tmin": 13.9, "tmax": 20.6, "prcp_d0": 0.0, "prcp_d1": 0.0, "prcp_d2": 21.051109313964844, "prcp_d3": 0.0, "prcp_d4": 0.0, "prcp_d5": 0.0, "prcp_d6": 0.0, "tmax_d0": 18.4, "tmax_d1": 20.1, "tmax_d2": 19.6, "tmax_d3": 18.9, "tmax_d4": 17.7, "tmax_d5": 22.5, "tmax_d6": 21.7, "tmin_d0": 9.4, "tmin_d1": 7.1, "tmin_d2": 7.5, "tmin_d3": 7.4, "tmin_d4": 9.6, "tmin_d5": 9.8, "tmin_d6": 6.6, "day_of_year": 209, "uuid": "40a3bf7d-a99b-405f-8436-96982dd5a2da", "inat_id": 128354805}}, {"type": "Feature", "geometry": {"type": "Point", "coordinates": [-105.2951861111, 39.3256944444]}, "properties": {"species": "Albatrellus ovinus", "date": "2022-08-02", "location": "Pine, CO 80470, USA", "elevation": 2457.0, "land_cover_label": "Tree cover", "water_mask": false, "exclude_reason": "keep", "ndvi": null, "soil_moisture": 0.2733464122262988, "solar_exposure": 0.7861083745956421, "wind_exposure": 0.3125737607479095, "water_retention": 0.3987831175327301, "slope": 5.446455478668213, "aspect": 328.64141845703125, "num_identification_agreements": 1, "cluster": 0, "tavg": null, "tmin": 6.7, "tmax": 21.6, "prcp_d0": 4.763295650482178, "prcp_d1": 0.0, "prcp_d2": 0.0, "prcp_d3": 0.0, "prcp_d4": 0.0, "prcp_d5": 14.670208930969238, "prcp_d6": 7.335104465484619, "tmax_d0": 27.5, "tmax_d1": 27.3, "tmax_d2": 25.2, "tmax_d3": 26.0, "tmax_d4": 21.3, "tmax_d5": 24.0, "tmax_d6": 27.0, "tmin_d0": 13.8, "tmin_d1": 13.1, "tmin_d2": 13.8, "tmin_d3": 10.1, "tmin_d4": 11.6, "tmin_d5": 12.6, "tmin_d6": 11.7, "day_of_year": 214, "uuid": "dcde1e74-a1f0-498e-a64e-5edbed65d43f", "inat_id": 129255626}}, {"type": "Feature", "geometry": {"type": "Point", "coordinates": [-105.4887, 39.9524216667]}, "properties": {"species": "Albatrellus ovinus", "date": "2022-09-06", "location": "Nederland, CO, US", "elevation": 2664.0, "land_cover_label": "Tree cover", "water_mask": false, "exclude_reason": "keep", "ndvi": null, "soil_moisture": 0.2274322114467888, "solar_exposure": 0.7938617467880249, "wind_exposure": 0.391286164522171, "water_retention": 0.2216860055923462, "slope": 4.709860324859619, "aspect": 31.07796287536621, "num_identification_agreements": 1, "cluster": 0, "tavg": null, "tmin": 18.0, "tmax": 36.0, "prcp_d0": 0.0, "prcp_d1": 0.0, "prcp_d2": 0.0, "prcp_d3": 0.0, "prcp_d4": 0.0, "prcp_d5": 0.0, "prcp_d6": 0.0, "tmax_d0": 26.1, "tmax_d1": 25.8, "tmax_d2": 24.0, "tmax_d3": 20.7, "tmax_d4": 22.1, "tmax_d5": 22.0, "tmax_d6": 22.8, "tmin_d0": 10.4, "tmin_d1": 11.3, "tmin_d2": 7.0, "tmin_d3": 7.7, "tmin_d4": 9.1, "tmin_d5": 7.5, "tmin_d6": 8.7, "day_of_year": 249, "uuid": "03bd99c0-d214-47a5-9b7b-f2ffde0b2e6a", "inat_id": 134004634}}, {"type": "Feature", "geometry": {"type": "Point", "coordinates": [-105.7558396997, 39.8726715]}, "properties": {"species": "Albatrellus ovinus", "date": "2022-09-06", "location": "Winter Park, CO 80482, USA", "elevation": 3003.0, "land_cover_label": "Tree cover", "water_mask": false, "exclude_reason": "keep", "ndvi": null, "soil_moisture": 0.2972858651006815, "solar_exposure": 0.8223344087600708, "wind_exposure": 0.4022396802902221, "water_retention": 0.2123169749975204, "slope": 5.408059120178223, "aspect": 76.74176025390625, "num_identification_agreements": 1, "cluster": 0, "tavg": null, "tmin": 5.4, "tmax": 17.8, "prcp_d0": 0.0, "prcp_d1": 0.0, "prcp_d2": 0.0, "prcp_d3": 5.21610689163208, "prcp_d4": 0.0, "prcp_d5": 0.0, "prcp_d6": 0.0, "tmax_d0": 24.0, "tmax_d1": 23.1, "tmax_d2": 22.6, "tmax_d3": 20.8, "tmax_d4": 21.2, "tmax_d5": 19.1, "tmax_d6": 19.5, "tmin_d0": 7.1, "tmin_d1": 7.7, "tmin_d2": 4.4, "tmin_d3": 4.0, "tmin_d4": 7.6, "tmin_d5": 3.5, "tmin_d6": 6.1, "day_of_year": 249, "uuid": "1ed97c6f-90fd-4946-8da9-f7ea8e85607d", "inat_id": 133989536}}, {"type": "Feature", "geometry": {"type": "Point", "coordinates": [-105.559718, 40.037849]}, "properties": {"species": "Albatrellus ovinus", "date": "2022-09-17", "location": "Boulder County, US-CO, US", "elevation": 3168.0, "land_cover_label": "Tree cover", "water_mask": false, "exclude_reason": "keep", "ndvi": null, "soil_moisture": 0.3017065904303901, "solar_exposure": 0.8564422130584717, "wind_exposure": 0.303549975156784, "water_retention": 0.3316439092159271, "slope": 6.441862106323242, "aspect": 109.6647491455078, "num_identification_agreements": 5, "cluster": 0, "tavg": null, "tmin": 12.0, "tmax": 26.0, "prcp_d0": 0.0, "prcp_d1": 0.0, "prcp_d2": 0.0, "prcp_d3": 0.0, "prcp_d4": 0.0, "prcp_d5": 0.0, "prcp_d6": 0.0, "tmax_d0": 12.4, "tmax_d1": 11.9, "tmax_d2": 11.2, "tmax_d3": 12.3, "tmax_d4": 16.1, "tmax_d5": 16.7, "tmax_d6": 16.3, "tmin_d0": 1.1, "tmin_d1": 1.0, "tmin_d2": 1.9, "tmin_d3": 3.4, "tmin_d4": 5.4, "tmin_d5": 2.1, "tmin_d6": -2.4, "day_of_year": 260, "uuid": "d80be9ba-13ac-46db-a089-405f29b2058f", "inat_id": 135790021}}, {"type": "Feature", "geometry": {"type": "Point", "coordinates": [-121.622005608, 45.3182935529]}, "properties": {"species": "Albatrellus ovinus", "date": "2022-09-23", "location": "Mt. Hood Park Division Recreation Area, Mount Hood Parkdale, OR, US", "elevation": 1321.0, "land_cover_label": "Tree cover", "water_mask": false, "exclude_reason": "keep", "ndvi": null, "soil_moisture": null, "solar_exposure": null, "wind_exposure": null, "water_retention": null, "slope": null, "aspect": null, "num_identification_agreements": 1, "cluster": 0, "tavg": null, "tmin": 11.6, "tmax": 24.4, "prcp_d0": 0.0, "prcp_d1": 0.0, "prcp_d2": 0.0, "prcp_d3": 0.0, "prcp_d4": 0.0, "prcp_d5": 0.0, "prcp_d6": 0.0, "tmax_d0": 18.2, "tmax_d1": 12.5, "tmax_d2": 16.2, "tmax_d3": 18.7, "tmax_d4": 21.4, "tmax_d5": 16.2, "tmax_d6": 14.7, "tmin_d0": 5.8, "tmin_d1": 7.4, "tmin_d2": 8.6, "tmin_d3": 8.8, "tmin_d4": 7.1, "tmin_d5": 5.9, "tmin_d6": 3.1, "day_of_year": 266, "uuid": "8d4828cc-c8e0-460a-8f9e-5de168f97eb0", "inat_id": 136208160}}, {"type": "Feature", "geometry": {"type": "Point", "coordinates": [-105.5900096521, 39.6531718586]}, "properties": {"species": "Albatrellus ovinus", "date": "2022-09-24", "location": "Clear Creek County, US-CO, US", "elevation": 3296.0, "land_cover_label": "Tree cover", "water_mask": false, "exclude_reason": "keep", "ndvi": null, "soil_moisture": 0.3479944181032681, "solar_exposure": 0.6391974687576294, "wind_exposure": 0.3223006129264831, "water_retention": 0.1389033645391464, "slope": 15.707808494567873, "aspect": 10.161706924438477, "num_identification_agreements": 1, "cluster": 0, "tavg": null, "tmin": -1.5, "tmax": 9.1, "prcp_d0": 0.0, "prcp_d1": 0.0, "prcp_d2": 0.0, "prcp_d3": 0.0, "prcp_d4": 0.0, "prcp_d5": 0.0, "prcp_d6": 0.0, "tmax_d0": 14.3, "tmax_d1": 12.5, "tmax_d2": 12.7, "tmax_d3": 13.9, "tmax_d4": 16.9, "tmax_d5": 16.8, "tmax_d6": 16.5, "tmin_d0": 0.4, "tmin_d1": 2.9, "tmin_d2": 5.1, "tmin_d3": 5.0, "tmin_d4": 4.8, "tmin_d5": 3.2, "tmin_d6": 2.1, "day_of_year": 267, "uuid": "086749b3-922d-481b-9c57-9d5c91c12e9f", "inat_id": 136869690}}, {"type": "Feature", "geometry": {"type": "Point", "coordinates": [-121.6219326077, 45.3197506749]}, "properties": {"species": "Albatrellus ovinus", "date": "2022-09-28", "location": "Hood River County, US-OR, US", "elevation": 1324.0, "land_cover_label": "Tree cover", "water_mask": false, "exclude_reason": "keep", "ndvi": null, "soil_moisture": null, "solar_exposure": null, "wind_exposure": null, "water_retention": null, "slope": null, "aspect": null, "num_identification_agreements": 1, "cluster": 0, "tavg": null, "tmin": 14.1, "tmax": 22.9, "prcp_d0": 0.2914353311061859, "prcp_d1": 0.0, "prcp_d2": 0.0, "prcp_d3": 0.0, "prcp_d4": 0.0, "prcp_d5": 0.0, "prcp_d6": 0.0, "tmax_d0": 19.8, "tmax_d1": 23.9, "tmax_d2": 24.4, "tmax_d3": 22.0, "tmax_d4": 22.0, "tmax_d5": 18.2, "tmax_d6": 12.5, "tmin_d0": 10.4, "tmin_d1": 11.8, "tmin_d2": 12.8, "tmin_d3": 10.6, "tmin_d4": 7.4, "tmin_d5": 5.8, "tmin_d6": 7.4, "day_of_year": 271, "uuid": "c4980e69-6839-456b-8de5-b3173613ba84", "inat_id": 137152475}}, {"type": "Feature", "geometry": {"type": "Point", "coordinates": [-105.48777, 39.9557716667]}, "properties": {"species": "Albatrellus ovinus", "date": "2023-07-28", "location": "Reynolds Ranch Spur, Nederland, CO, US", "elevation": 2608.0, "land_cover_label": "Tree cover", "water_mask": false, "exclude_reason": "keep", "ndvi": null, "soil_moisture": 0.3296184794548613, "solar_exposure": 0.6951826214790344, "wind_exposure": 0.3445183336734772, "water_retention": 0.3263766467571258, "slope": 11.820420265197754, "aspect": 9.749719619750977, "num_identification_agreements": 1, "cluster": 0, "tavg": null, "tmin": 17.0, "tmax": 34.0, "prcp_d0": 0.0, "prcp_d1": 0.0, "prcp_d2": 0.0, "prcp_d3": 12.761967658996582, "prcp_d4": 0.0, "prcp_d5": 0.0, "prcp_d6": 0.0, "tmax_d0": 24.5, "tmax_d1": 24.9, "tmax_d2": 23.8, "tmax_d3": 26.1, "tmax_d4": 26.1, "tmax_d5": 26.1, "tmax_d6": 22.6, "tmin_d0": 10.4, "tmin_d1": 10.5, "tmin_d2": 11.9, "tmin_d3": 13.4, "tmin_d4": 10.8, "tmin_d5": 8.0, "tmin_d6": 7.4, "day_of_year": 209, "uuid": "95ca2935-a3c6-46b9-923a-d85b6fcbe354", "inat_id": 175438670}}, {"type": "Feature", "geometry": {"type": "Point", "coordinates": [-105.571228154, 40.9099640642]}, "properties": {"species": "Albatrellus ovinus", "date": "2023-08-12", "location": "Livermore, CO 80536, USA", "elevation": 2441.0, "land_cover_label": "Grassland", "water_mask": false, "exclude_reason": "keep", "ndvi": null, "soil_moisture": 0.2869184292333011, "solar_exposure": 0.9456911087036132, "wind_exposure": 0.2918806374073028, "water_retention": 0.1499495655298233, "slope": 13.427291870117188, "aspect": 162.72828674316406, "num_identification_agreements": 2, "cluster": 0, "tavg": null, "tmin": 12.5, "tmax": 24.5, "prcp_d0": 0.0, "prcp_d1": 0.0, "prcp_d2": 0.0, "prcp_d3": 0.0, "prcp_d4": 0.0, "prcp_d5": 9.168376922607422, "prcp_d6": 0.0, "tmax_d0": 23.8, "tmax_d1": 25.4, "tmax_d2": 23.9, "tmax_d3": 23.0, "tmax_d4": 21.0, "tmax_d5": 20.3, "tmax_d6": 18.9, "tmin_d0": 15.0, "tmin_d1": 13.9, "tmin_d2": 7.6, "tmin_d3": 8.9, "tmin_d4": 6.0, "tmin_d5": 5.5, "tmin_d6": 6.8, "day_of_year": 224, "uuid": "533962f0-264f-4070-b334-a07d47b015ce", "inat_id": 195779017}}, {"type": "Feature", "geometry": {"type": "Point", "coordinates": [-105.5362466667, 40.465625]}, "properties": {"species": "Albatrellus ovinus", "date": "2023-08-18", "location": "Rocky Mountain National Park, Estes Park, CO, US", "elevation": 2755.0, "land_cover_label": "Tree cover", "water_mask": false, "exclude_reason": "keep", "ndvi": null, "soil_moisture": 0.3175154529280826, "solar_exposure": 0.8050748109817505, "wind_exposure": 0.2821874022483825, "water_retention": 0.4671826362609863, "slope": 3.709004402160645, "aspect": 33.14213562011719, "num_identification_agreements": 1, "cluster": 3, "tavg": null, "tmin": 17.2, "tmax": 35.0, "prcp_d0": 0.0, "prcp_d1": 0.0, "prcp_d2": 0.0, "prcp_d3": 0.0, "prcp_d4": 0.0, "prcp_d5": 0.0, "prcp_d6": 0.0, "tmax_d0": 22.4, "tmax_d1": 21.2, "tmax_d2": 24.1, "tmax_d3": 22.8, "tmax_d4": 16.0, "tmax_d5": 18.0, "tmax_d6": 19.4, "tmin_d0": 11.4, "tmin_d1": 8.3, "tmin_d2": 7.7, "tmin_d3": 3.0, "tmin_d4": 5.2, "tmin_d5": 8.5, "tmin_d6": 8.7, "day_of_year": 230, "uuid": "50ea8571-4a68-450a-ac66-20fa8ce2c1c7", "inat_id": 179079249}}, {"type": "Feature", "geometry": {"type": "Point", "coordinates": [-105.83584825, 39.734348088]}, "properties": {"species": "Albatrellus ovinus", "date": "2023-09-09", "location": "Colorado, US", "elevation": 3843.0, "land_cover_label": "Bare / sparse vegetation", "water_mask": false, "exclude_reason": "keep", "ndvi": null, "soil_moisture": 0.3047793374005121, "solar_exposure": 0.8467425107955933, "wind_exposure": 0.4863530993461609, "water_retention": 0.1070914268493652, "slope": 24.265125274658203, "aspect": 111.91748809814452, "num_identification_agreements": 2, "cluster": 0, "tavg": null, "tmin": 2.2, "tmax": 13.4, "prcp_d0": 0.0, "prcp_d1": 0.0, "prcp_d2": 0.0, "prcp_d3": 0.0, "prcp_d4": 0.0, "prcp_d5": 0.0, "prcp_d6": 0.0, "tmax_d0": 12.2, "tmax_d1": 12.7, "tmax_d2": 12.7, "tmax_d3": 13.6, "tmax_d4": 11.3, "tmax_d5": 11.2, "tmax_d6": 12.2, "tmin_d0": 3.6, "tmin_d1": 0.4, "tmin_d2": 0.4, "tmin_d3": -1.3, "tmin_d4": -3.3, "tmin_d5": 1.0, "tmin_d6": 2.5, "day_of_year": 252, "uuid": "3d407e8c-f016-4c7c-b022-4a796c1bafaf", "inat_id": 182833777}}, {"type": "Feature", "geometry": {"type": "Point", "coordinates": [-105.9122236053, 39.7228000538]}, "properties": {"species": "Albatrellus ovinus", "date": "2023-09-09", "location": "Colorado, US", "elevation": 3879.0, "land_cover_label": "Bare / sparse vegetation", "water_mask": false, "exclude_reason": "keep", "ndvi": null, "soil_moisture": 0.3001460332670227, "solar_exposure": 0.5589338541030884, "wind_exposure": 0.5811411738395691, "water_retention": 0.1245738491415977, "slope": 34.82465744018555, "aspect": 291.99481201171875, "num_identification_agreements": 2, "cluster": 0, "tavg": null, "tmin": 2.2, "tmax": 13.4, "prcp_d0": 0.0, "prcp_d1": 0.0, "prcp_d2": 0.0, "prcp_d3": 0.0, "prcp_d4": 0.0, "prcp_d5": 0.0, "prcp_d6": 0.0, "tmax_d0": 12.9, "tmax_d1": 13.3, "tmax_d2": 13.1, "tmax_d3": 14.0, "tmax_d4": 11.6, "tmax_d5": 11.8, "tmax_d6": 12.8, "tmin_d0": 3.8, "tmin_d1": 0.5, "tmin_d2": 2.4, "tmin_d3": -1.6, "tmin_d4": -2.8, "tmin_d5": 1.4, "tmin_d6": 1.4, "day_of_year": 252, "uuid": "0d868f72-b346-4997-97dd-a4e081def702", "inat_id": 182833432}}, {"type": "Feature", "geometry": {"type": "Point", "coordinates": [-106.347114699, 35.8830299339]}, "properties": {"species": "Albatrellus ovinus", "date": "2024-07-14", "location": "New Mexico, US", "elevation": 2323.0, "land_cover_label": "Shrubland", "water_mask": false, "exclude_reason": "keep", "ndvi": null, "soil_moisture": null, "solar_exposure": null, "wind_exposure": null, "water_retention": null, "slope": null, "aspect": null, "num_identification_agreements": 2, "cluster": 0, "tavg": null, "tmin": 19.7, "tmax": 31.3, "prcp_d0": 6.650638580322266, "prcp_d1": 3.325319290161133, "prcp_d2": 0.0, "prcp_d3": 0.0, "prcp_d4": 0.0, "prcp_d5": 0.0, "prcp_d6": 5.573335647583008, "tmax_d0": 28.3, "tmax_d1": 28.0, "tmax_d2": 25.6, "tmax_d3": 24.6, "tmax_d4": 23.7, "tmax_d5": 23.2, "tmax_d6": 26.4, "tmin_d0": 14.3, "tmin_d1": 13.7, "tmin_d2": 12.7, "tmin_d3": 13.2, "tmin_d4": 12.2, "tmin_d5": 10.6, "tmin_d6": 12.1, "day_of_year": 196, "uuid": "85f3a24e-e3e8-4589-a6e8-ae6c36ca0837", "inat_id": 243503501}}, {"type": "Feature", "geometry": {"type": "Point", "coordinates": [-105.8039393971, 35.7964151514]}, "properties": {"species": "Albatrellus ovinus", "date": "2024-07-31", "location": "Santa Fe County, NM, USA", "elevation": 3149.0, "land_cover_label": "Tree cover", "water_mask": false, "exclude_reason": "keep", "ndvi": null, "soil_moisture": null, "solar_exposure": null, "wind_exposure": null, "water_retention": null, "slope": null, "aspect": null, "num_identification_agreements": 3, "cluster": 0, "tavg": null, "tmin": 15.0, "tmax": 36.7, "prcp_d0": 0.0, "prcp_d1": 0.0, "prcp_d2": 0.0, "prcp_d3": 0.0, "prcp_d4": 0.0, "prcp_d5": 0.0, "prcp_d6": 0.0, "tmax_d0": 22.9, "tmax_d1": 22.0, "tmax_d2": 21.6, "tmax_d3": 20.4, "tmax_d4": 19.6, "tmax_d5": 18.8, "tmax_d6": 20.2, "tmin_d0": 11.7, "tmin_d1": 11.6, "tmin_d2": 11.1, "tmin_d3": 9.7, "tmin_d4": 7.4, "tmin_d5": 9.8, "tmin_d6": 6.4, "day_of_year": 213, "uuid": "11ab8d23-bbc0-4504-8ec0-2af5ae3c7bd8", "inat_id": 233344482}}, {"type": "Feature", "geometry": {"type": "Point", "coordinates": [-107.3833305, 38.1503642]}, "properties": {"species": "Albatrellus ovinus", "date": "2024-07-31", "location": "Grand Mesa Uncompahgre and Gunnison National Forests, Cimarron, CO, US", "elevation": 3149.0, "land_cover_label": "Tree cover", "water_mask": false, "exclude_reason": "keep", "ndvi": null, "soil_moisture": null, "solar_exposure": null, "wind_exposure": null, "water_retention": null, "slope": null, "aspect": null, "num_identification_agreements": 2, "cluster": 0, "tavg": null, "tmin": null, "tmax": null, "prcp_d0": 0.0, "prcp_d1": 0.0, "prcp_d2": 0.0, "prcp_d3": 0.0, "prcp_d4": 0.0, "prcp_d5": 0.0, "prcp_d6": 0.0, "tmax_d0": 22.5, "tmax_d1": 22.2, "tmax_d2": 20.2, "tmax_d3": 20.4, "tmax_d4": 19.8, "tmax_d5": 19.4, "tmax_d6": 23.4, "tmin_d0": 8.9, "tmin_d1": 8.9, "tmin_d2": 8.6, "tmin_d3": 8.9, "tmin_d4": 8.8, "tmin_d5": 8.8, "tmin_d6": 6.8, "day_of_year": 213, "uuid": "6b00f90e-12bb-43fc-a677-2f2c2700c8ae", "inat_id": 232990988}}, {"type": "Feature", "geometry": {"type": "Point", "coordinates": [-108.1041028333, 37.46957]}, "properties": {"species": "Albatrellus ovinus", "date": "2024-08-05", "location": "San Juan National Forest - Headquarters, Dolores, CO, US", "elevation": 3310.0, "land_cover_label": "Tree cover", "water_mask": false, "exclude_reason": "keep", "ndvi": null, "soil_moisture": null, "solar_exposure": null, "wind_exposure": null, "water_retention": null, "slope": null, "aspect": null, "num_identification_agreements": 1, "cluster": 0, "tavg": null, "tmin": 13.9, "tmax": 33.9, "prcp_d0": 7.704503536224365, "prcp_d1": 3.852251768112183, "prcp_d2": 3.852251768112183, "prcp_d3": 0.0, "prcp_d4": 0.0, "prcp_d5": 0.0, "prcp_d6": 0.0, "tmax_d0": 20.6, "tmax_d1": 19.6, "tmax_d2": 20.8, "tmax_d3": 21.4, "tmax_d4": 22.0, "tmax_d5": 21.0, "tmax_d6": 19.1, "tmin_d0": 10.3, "tmin_d1": 7.7, "tmin_d2": 6.3, "tmin_d3": 7.5, "tmin_d4": 9.3, "tmin_d5": 9.1, "tmin_d6": 9.0, "day_of_year": 218, "uuid": "a6086b96-afcb-4655-b513-5256f3ab5a8b", "inat_id": 234047283}}, {"type": "Feature", "geometry": {"type": "Point", "coordinates": [-106.6947111111, 37.4731416667]}, "properties": {"species": "Albatrellus ovinus", "date": "2024-08-12", "location": "Rio Grande County, CO, USA", "elevation": 3238.0, "land_cover_label": "Tree cover", "water_mask": false, "exclude_reason": "keep", "ndvi": null, "soil_moisture": null, "solar_exposure": null, "wind_exposure": null, "water_retention": null, "slope": null, "aspect": null, "num_identification_agreements": 1, "cluster": 2, "tavg": null, "tmin": 5.0, "tmax": 13.0, "prcp_d0": 0.0, "prcp_d1": 39.00519180297852, "prcp_d2": 0.0, "prcp_d3": 0.0, "prcp_d4": 11.40426540374756, "prcp_d5": 11.40426540374756, "prcp_d6": 34.212791442871094, "tmax_d0": 16.7, "tmax_d1": 17.6, "tmax_d2": 17.2, "tmax_d3": 16.0, "tmax_d4": 19.7, "tmax_d5": 20.2, "tmax_d6": 18.1, "tmin_d0": 8.1, "tmin_d1": 7.0, "tmin_d2": 6.6, "tmin_d3": 6.5, "tmin_d4": 7.3, "tmin_d5": 7.7, "tmin_d6": 8.0, "day_of_year": 225, "uuid": "c662290b-558d-4b85-9dc2-ddcad27bb2ff", "inat_id": 235533206}}, {"type": "Feature", "geometry": {"type": "Point", "coordinates": [-107.899375, 37.814505]}, "properties": {"species": "Albatrellus ovinus", "date": "2024-08-16", "location": "Grand Mesa Uncompahgre and Gunnison National Forests, Telluride, CO, US", "elevation": 3101.0, "land_cover_label": "Grassland", "water_mask": false, "exclude_reason": "keep", "ndvi": null, "soil_moisture": null, "solar_exposure": null, "wind_exposure": null, "water_retention": null, "slope": null, "aspect": null, "num_identification_agreements": 1, "cluster": 0, "tavg": null, "tmin": 12.0, "tmax": 25.0, "prcp_d0": 0.0, "prcp_d1": 0.0, "prcp_d2": 0.0, "prcp_d3": 43.5639533996582, "prcp_d4": 0.0, "prcp_d5": 0.0, "prcp_d6": 0.0, "tmax_d0": 20.2, "tmax_d1": 19.1, "tmax_d2": 17.2, "tmax_d3": 16.2, "tmax_d4": 19.0, "tmax_d5": 19.3, "tmax_d6": 17.8, "tmin_d0": 8.5, "tmin_d1": 5.1, "tmin_d2": 7.2, "tmin_d3": 7.8, "tmin_d4": 7.4, "tmin_d5": 8.1, "tmin_d6": 5.6, "day_of_year": 229, "uuid": "ef518f57-8dec-4da7-b952-59399e214564", "inat_id": 236175326}}, {"type": "Feature", "geometry": {"type": "Point", "coordinates": [-105.79903398, 35.7979369699]}, "properties": {"species": "Albatrellus ovinus", "date": "2024-08-16", "location": "Santa Fe County, US-NM, US", "elevation": 3238.0, "land_cover_label": "Tree cover", "water_mask": false, "exclude_reason": "keep", "ndvi": null, "soil_moisture": null, "solar_exposure": null, "wind_exposure": null, "water_retention": null, "slope": null, "aspect": null, "num_identification_agreements": 2, "cluster": 0, "tavg": null, "tmin": 16.7, "tmax": 34.4, "prcp_d0": 0.0, "prcp_d1": 0.0, "prcp_d2": 0.0, "prcp_d3": 0.0, "prcp_d4": 0.0, "prcp_d5": 0.0, "prcp_d6": 7.033227443695068, "tmax_d0": 19.5, "tmax_d1": 19.3, "tmax_d2": 17.2, "tmax_d3": 18.1, "tmax_d4": 18.3, "tmax_d5": 18.4, "tmax_d6": 16.8, "tmin_d0": 8.6, "tmin_d1": 6.9, "tmin_d2": 7.7, "tmin_d3": 8.7, "tmin_d4": 8.7, "tmin_d5": 10.0, "tmin_d6": 8.2, "day_of_year": 229, "uuid": "8b9c99e1-f95c-4bb3-ae96-ec4e7759b276", "inat_id": 236391393}}, {"type": "Feature", "geometry": {"type": "Point", "coordinates": [-107.8324952257, 37.9206545139]}, "properties": {"species": "Albatrellus ovinus", "date": "2024-08-17", "location": "Telluride Ski Resort, Telluride, CO, US", "elevation": 3296.0, "land_cover_label": "Tree cover", "water_mask": false, "exclude_reason": "keep", "ndvi": null, "soil_moisture": null, "solar_exposure": null, "wind_exposure": null, "water_retention": null, "slope": null, "aspect": null, "num_identification_agreements": 1, "cluster": 2, "tavg": null, "tmin": 12.0, "tmax": 23.0, "prcp_d0": 14.55306339263916, "prcp_d1": 0.0, "prcp_d2": 0.0, "prcp_d3": 0.0, "prcp_d4": 0.0, "prcp_d5": 35.675926208496094, "prcp_d6": 0.0, "tmax_d0": 19.1, "tmax_d1": 19.7, "tmax_d2": 18.3, "tmax_d3": 15.9, "tmax_d4": 14.6, "tmax_d5": 16.8, "tmax_d6": 17.6, "tmin_d0": 3.4, "tmin_d1": 3.5, "tmin_d2": 3.9, "tmin_d3": 3.5, "tmin_d4": 5.0, "tmin_d5": 5.1, "tmin_d6": 5.4, "day_of_year": 230, "uuid": "3ecbe664-9b31-4ab4-8bdc-29f68831f84d", "inat_id": 236549597}}, {"type": "Feature", "geometry": {"type": "Point", "coordinates": [-121.7603876618, 45.2298230071]}, "properties": {"species": "Albatrellus ovinus", "date": "2024-08-17", "location": "Oregon, US", "elevation": 1105.0, "land_cover_label": "Tree cover", "water_mask": false, "exclude_reason": "keep", "ndvi": null, "soil_moisture": null, "solar_exposure": null, "wind_exposure": null, "water_retention": null, "slope": null, "aspect": null, "num_identification_agreements": 1, "cluster": 0, "tavg": null, "tmin": null, "tmax": null, "prcp_d0": 0.0, "prcp_d1": 0.0, "prcp_d2": 0.0, "prcp_d3": 0.0, "prcp_d4": 0.0, "prcp_d5": 0.0, "prcp_d6": 0.0, "tmax_d0": 25.9, "tmax_d1": 20.7, "tmax_d2": 19.1, "tmax_d3": 21.1, "tmax_d4": 17.0, "tmax_d5": 21.5, "tmax_d6": 23.1, "tmin_d0": 12.4, "tmin_d1": 10.6, "tmin_d2": 11.4, "tmin_d3": 8.3, "tmin_d4": 8.2, "tmin_d5": 10.2, "tmin_d6": 13.2, "day_of_year": 230, "uuid": "b12b9c0d-9dd1-423f-82be-5c5e22716b4c", "inat_id": 236402782}}, {"type": "Feature", "geometry": {"type": "Point", "coordinates": [-105.5403408408, 39.6709809654]}, "properties": {"species": "Albatrellus ovinus", "date": "2024-08-25", "location": "Evergreen, CO 80439, USA", "elevation": 3314.0, "land_cover_label": "Tree cover", "water_mask": false, "exclude_reason": "keep", "ndvi": null, "soil_moisture": 0.3779883317156207, "solar_exposure": 0.9872196912765504, "wind_exposure": 0.4656635522842407, "water_retention": 0.1152634471654892, "slope": 21.76836585998535, "aspect": 187.13751220703125, "num_identification_agreements": 1, "cluster": 0, "tavg": null, "tmin": 1.5, "tmax": 12.8, "prcp_d0": 0.1338086128234863, "prcp_d1": 0.7358542680740356, "prcp_d2": 4.620327472686768, "prcp_d3": 9.83238124847412, "prcp_d4": 3.1481246948242188, "prcp_d5": 0.0, "prcp_d6": 0.0, "tmax_d0": 15.3, "tmax_d1": 18.3, "tmax_d2": 15.4, "tmax_d3": 16.0, "tmax_d4": 20.2, "tmax_d5": 20.0, "tmax_d6": 17.1, "tmin_d0": 6.9, "tmin_d1": 6.8, "tmin_d2": 5.7, "tmin_d3": 8.6, "tmin_d4": 8.4, "tmin_d5": 7.9, "tmin_d6": 8.9, "day_of_year": 238, "uuid": "c988e95b-7fcb-4446-b0d2-9a0cc81b110f", "inat_id": 237993792}}, {"type": "Feature", "geometry": {"type": "Point", "coordinates": [-106.260718015, 38.9960806235]}, "properties": {"species": "Albatrellus ovinus", "date": "2024-09-02", "location": "Pike and San Isabel National Forests, Granite, CO, US", "elevation": 2910.0, "land_cover_label": "Tree cover", "water_mask": false, "exclude_reason": "keep", "ndvi": null, "soil_moisture": null, "solar_exposure": null, "wind_exposure": null, "water_retention": null, "slope": null, "aspect": null, "num_identification_agreements": 1, "cluster": 0, "tavg": null, "tmin": 4.2, "tmax": 26.6, "prcp_d0": 0.0, "prcp_d1": 0.0, "prcp_d2": 0.0151394084095954, "prcp_d3": 0.0556182861328125, "prcp_d4": 0.4729824364185333, "prcp_d5": 0.1871526092290878, "prcp_d6": 0.1917878091335296, "tmax_d0": 19.3, "tmax_d1": 18.3, "tmax_d2": 19.5, "tmax_d3": 20.3, "tmax_d4": 17.8, "tmax_d5": 20.7, "tmax_d6": 20.1, "tmin_d0": 4.9, "tmin_d1": 4.8, "tmin_d2": 6.0, "tmin_d3": 3.1, "tmin_d4": 7.8, "tmin_d5": 6.2, "tmin_d6": 2.4, "day_of_year": 246, "uuid": "5eeaaa35-8910-4970-859e-3481c6cb007c", "inat_id": 239732402}}, {"type": "Feature", "geometry": {"type": "Point", "coordinates": [-105.719086, 39.609279]}, "properties": {"species": "Albatrellus ovinus", "date": "2024-09-03", "location": "Clear Creek County, US-CO, US", "elevation": 3343.0, "land_cover_label": "Tree cover", "water_mask": false, "exclude_reason": "keep", "ndvi": null, "soil_moisture": 0.3056784043036746, "solar_exposure": 0.7429735660552979, "wind_exposure": 0.1863176971673965, "water_retention": 0.4580958783626556, "slope": 11.188989639282228, "aspect": 48.808815002441406, "num_identification_agreements": 1, "cluster": 3, "tavg": null, "tmin": 8.0, "tmax": 18.0, "prcp_d0": 0.0, "prcp_d1": 0.0, "prcp_d2": 0.0, "prcp_d3": 2.7066576876677573e-05, "prcp_d4": 0.0092583913356065, "prcp_d5": 0.0, "prcp_d6": 0.0, "tmax_d0": 15.6, "tmax_d1": 16.3, "tmax_d2": 14.5, "tmax_d3": 16.5, "tmax_d4": 17.1, "tmax_d5": 15.6, "tmax_d6": 17.0, "tmin_d0": 4.7, "tmin_d1": 5.4, "tmin_d2": 5.4, "tmin_d3": 5.2, "tmin_d4": 3.4, "tmin_d5": 6.7, "tmin_d6": 7.3, "day_of_year": 247, "uuid": "3d00d3b1-d890-4790-bc4b-3085589bcb93", "inat_id": 239703187}}, {"type": "Feature", "geometry": {"type": "Point", "coordinates": [-121.6809916667, 45.2819133333]}, "properties": {"species": "Albatrellus ovinus", "date": "2024-09-18", "location": "Mt. Hood Park Division Recreation Area, Mount Hood Parkdale, OR, US", "elevation": 1228.0, "land_cover_label": "Tree cover", "water_mask": false, "exclude_reason": "keep", "ndvi": null, "soil_moisture": null, "solar_exposure": null, "wind_exposure": null, "water_retention": null, "slope": null, "aspect": null, "num_identification_agreements": 1, "cluster": 0, "tavg": null, "tmin": 13.5, "tmax": 21.8, "prcp_d0": 0.0, "prcp_d1": 0.0, "prcp_d2": 0.0, "prcp_d3": 4.414263725280762, "prcp_d4": 0.2606098651885986, "prcp_d5": 0.9746474027633668, "prcp_d6": 6.519250392913818, "tmax_d0": 14.2, "tmax_d1": 15.1, "tmax_d2": 18.1, "tmax_d3": 12.8, "tmax_d4": 15.4, "tmax_d5": 16.6, "tmax_d6": 11.5, "tmin_d0": 7.8, "tmin_d1": 6.8, "tmin_d2": 5.1, "tmin_d3": 4.3, "tmin_d4": 7.9, "tmin_d5": 6.3, "tmin_d6": 6.9, "day_of_year": 262, "uuid": "6871ce41-3725-4754-95d6-547879fe22aa", "inat_id": 243426213}}, {"type": "Feature", "geometry": {"type": "Point", "coordinates": [-121.5243333333, 45.4193277778]}, "properties": {"species": "Albatrellus ovinus", "date": "2024-09-28", "location": "MT HOOD PRKDL, OR 97041, USA", "elevation": 1326.0, "land_cover_label": "Tree cover", "water_mask": false, "exclude_reason": "keep", "ndvi": null, "soil_moisture": null, "solar_exposure": null, "wind_exposure": null, "water_retention": null, "slope": null, "aspect": null, "num_identification_agreements": 1, "cluster": 0, "tavg": null, "tmin": 11.8, "tmax": 26.0, "prcp_d0": 0.0, "prcp_d1": 0.0, "prcp_d2": 0.0, "prcp_d3": 0.0, "prcp_d4": 0.0, "prcp_d5": 0.0, "prcp_d6": 0.0, "tmax_d0": 21.4, "tmax_d1": 18.0, "tmax_d2": 17.3, "tmax_d3": 25.0, "tmax_d4": 26.2, "tmax_d5": 21.6, "tmax_d6": 20.0, "tmin_d0": 9.0, "tmin_d1": 8.4, "tmin_d2": 2.0, "tmin_d3": 9.5, "tmin_d4": 12.6, "tmin_d5": 9.8, "tmin_d6": 9.0, "day_of_year": 272, "uuid": "c2554795-7b09-4891-97fc-d3be85bf2b4c", "inat_id": 244626688}}, {"type": "Feature", "geometry": {"type": "Point", "coordinates": [-105.800114, 35.800797]}, "properties": {"species": "Albatrellus ovinus", "date": "2025-07-30", "location": "Santa Fe, New Mexico, United States", "elevation": 3266.0, "land_cover_label": "Tree cover", "water_mask": false, "exclude_reason": "keep", "ndvi": null, "soil_moisture": null, "solar_exposure": null, "wind_exposure": null, "water_retention": null, "slope": null, "aspect": null, "num_identification_agreements": 1, "cluster": 0, "tavg": null, "tmin": 13.3, "tmax": 27.8, "prcp_d0": 0.0, "prcp_d1": 7.438765525817871, "prcp_d2": 3.719382762908936, "prcp_d3": 0.0, "prcp_d4": 0.0, "prcp_d5": 0.0, "prcp_d6": 0.0, "tmax_d0": 16.9, "tmax_d1": 16.3, "tmax_d2": 21.5, "tmax_d3": 20.2, "tmax_d4": 18.8, "tmax_d5": 17.9, "tmax_d6": 16.1, "tmin_d0": 5.4, "tmin_d1": 7.2, "tmin_d2": 7.7, "tmin_d3": 8.9, "tmin_d4": 7.0, "tmin_d5": 6.9, "tmin_d6": 7.7, "day_of_year": 211, "uuid": "c44a136a-e8f1-4594-b3b8-84bce4ad8514", "inat_id": 304327980}}, {"type": "Feature", "geometry": {"type": "Point", "coordinates": [-105.8067481937, 35.794116287]}, "properties": {"species": "Albatrellus ovinus", "date": "2025-08-20", "location": "Rio en Medio Trail, Tererro, NM, US", "elevation": 3112.0, "land_cover_label": "Tree cover", "water_mask": false, "exclude_reason": "keep", "ndvi": null, "soil_moisture": null, "solar_exposure": null, "wind_exposure": null, "water_retention": null, "slope": null, "aspect": null, "num_identification_agreements": 1, "cluster": 0, "tavg": null, "tmin": 14.4, "tmax": 31.1, "prcp_d0": 0.0, "prcp_d1": 11.7296724319458, "prcp_d2": 0.0, "prcp_d3": 0.0, "prcp_d4": 0.0, "prcp_d5": 0.0, "prcp_d6": 0.0, "tmax_d0": 20.2, "tmax_d1": 20.1, "tmax_d2": 21.6, "tmax_d3": 20.8, "tmax_d4": 18.4, "tmax_d5": 21.2, "tmax_d6": 22.1, "tmin_d0": 5.8, "tmin_d1": 6.6, "tmin_d2": 9.1, "tmin_d3": 8.4, "tmin_d4": 7.6, "tmin_d5": 9.3, "tmin_d6": 8.3, "day_of_year": 232, "uuid": "1162ec61-c543-4b63-ac96-94c5d9862d9d", "inat_id": 307876953}}, {"type": "Feature", "geometry": {"type": "Point", "coordinates": [-105.79719444, 35.80190556]}, "properties": {"species": "Albatrellus ovinus", "date": "2025-08-22", "location": "Santa Fe, New Mexico, United States", "elevation": 3319.0, "land_cover_label": "Tree cover", "water_mask": false, "exclude_reason": "keep", "ndvi": null, "soil_moisture": null, "solar_exposure": null, "wind_exposure": null, "water_retention": null, "slope": null, "aspect": null, "num_identification_agreements": 1, "cluster": 0, "tavg": null, "tmin": 15.0, "tmax": 31.7, "prcp_d0": 0.0, "prcp_d1": 6.354998588562012, "prcp_d2": 0.0, "prcp_d3": 13.724198341369627, "prcp_d4": 0.0, "prcp_d5": 0.0, "prcp_d6": 0.0, "tmax_d0": 20.6, "tmax_d1": 19.5, "tmax_d2": 18.5, "tmax_d3": 17.9, "tmax_d4": 18.8, "tmax_d5": 18.2, "tmax_d6": 16.5, "tmin_d0": 5.9, "tmin_d1": 6.4, "tmin_d2": 5.8, "tmin_d3": 6.5, "tmin_d4": 8.1, "tmin_d5": 6.4, "tmin_d6": 6.6, "day_of_year": 234, "uuid": "6806475e-6e88-4706-903f-6960a66208f5", "inat_id": 308560840}}, {"type": "Feature", "geometry": {"type": "Point", "coordinates": [-105.79993333, 35.79896111]}, "properties": {"species": "Albatrellus ovinus", "date": "2025-09-11", "location": "Santa Fe, New Mexico, United States", "elevation": 3249.0, "land_cover_label": "Tree cover", "water_mask": false, "exclude_reason": "keep", "ndvi": null, "soil_moisture": null, "solar_exposure": null, "wind_exposure": null, "water_retention": null, "slope": null, "aspect": null, "num_identification_agreements": 1, "cluster": 0, "tavg": null, "tmin": 13.0, "tmax": 28.0, "prcp_d0": 0.0, "prcp_d1": 25.404356002807617, "prcp_d2": 0.0, "prcp_d3": 0.0, "prcp_d4": 0.0, "prcp_d5": 0.0, "prcp_d6": 0.0, "tmax_d0": 16.0, "tmax_d1": 17.8, "tmax_d2": 17.8, "tmax_d3": 16.8, "tmax_d4": 15.7, "tmax_d5": 13.6, "tmax_d6": 13.2, "tmin_d0": 7.5, "tmin_d1": 7.3, "tmin_d2": 5.8, "tmin_d3": 6.5, "tmin_d4": 5.1, "tmin_d5": 3.0, "tmin_d6": 4.1, "day_of_year": 254, "uuid": "a9aba007-1101-4987-b09b-8e85b0d32421", "inat_id": 313332737}}, {"type": "Feature", "geometry": {"type": "Point", "coordinates": [-105.7029734044, 39.8674597811]}, "properties": {"species": "Albatrellus ovinus", "date": "2026-07-19", "location": "Colorado, US", "elevation": 3351.0, "land_cover_label": "Tree cover", "water_mask": false, "exclude_reason": "keep", "ndvi": null, "soil_moisture": 0.2284844886863478, "solar_exposure": 0.7895475625991821, "wind_exposure": 0.4531526863574981, "water_retention": 0.2112034857273101, "slope": 30.005430221557617, "aspect": 255.8546295166016, "num_identification_agreements": 1, "cluster": 0, "tavg": null, "tmin": 8.0, "tmax": 16.0, "prcp_d0": 0.0, "prcp_d1": 0.0, "prcp_d2": 0.0, "prcp_d3": 0.0, "prcp_d4": 0.0, "prcp_d5": 0.0, "prcp_d6": 0.0, "tmax_d0": 21.5, "tmax_d1": 19.9, "tmax_d2": 19.2, "tmax_d3": 19.2, "tmax_d4": 21.3, "tmax_d5": 21.6, "tmax_d6": 23.4, "tmin_d0": 6.8, "tmin_d1": 6.7, "tmin_d2": 6.5, "tmin_d3": 6.3, "tmin_d4": 6.2, "tmin_d5": 8.5, "tmin_d6": 5.5, "day_of_year": 200, "uuid": "a6125a61-72b1-4007-9068-49978c467c4d", "inat_id": 383203600}}]}