{"type": "FeatureCollection", "features": [{"type": "Feature", "geometry": {"type": "Point", "coordinates": [-106.5130163711, 35.822113013]}, "properties": {"species": "Amanita novinupta", "date": "2024-06-28", "location": "Sandoval County, US-NM, US", "elevation": 2643.0, "land_cover_label": "Tree cover", "water_mask": false, "exclude_reason": "keep", "ndvi": null, "soil_moisture": null, "solar_exposure": null, "wind_exposure": null, "water_retention": null, "slope": null, "aspect": null, "num_identification_agreements": 1, "cluster": 0, "tavg": null, "tmin": 13.4, "tmax": 27.2, "prcp_d0": 0.0, "prcp_d1": 0.0, "prcp_d2": 0.0, "prcp_d3": 0.0, "prcp_d4": 0.0, "prcp_d5": 0.0, "prcp_d6": 7.338978290557861, "tmax_d0": 24.0, "tmax_d1": 22.6, "tmax_d2": 26.9, "tmax_d3": 26.8, "tmax_d4": 25.2, "tmax_d5": 22.3, "tmax_d6": 22.1, "tmin_d0": 9.6, "tmin_d1": 11.8, "tmin_d2": 12.3, "tmin_d3": 10.6, "tmin_d4": 10.0, "tmin_d5": 12.8, "tmin_d6": 11.7, "day_of_year": 180, "uuid": "49e7a939-9bad-459e-8c3c-012d67d47960", "inat_id": 226048130}}, {"type": "Feature", "geometry": {"type": "Point", "coordinates": [-105.79676111, 35.80134167]}, "properties": {"species": "Amanita novinupta", "date": "2025-09-16", "location": "Santa Fe, New Mexico, United States", "elevation": 3319.0, "land_cover_label": "Tree cover", "water_mask": false, "exclude_reason": "keep", "ndvi": null, "soil_moisture": null, "solar_exposure": null, "wind_exposure": null, "water_retention": null, "slope": null, "aspect": null, "num_identification_agreements": 1, "cluster": 0, "tavg": null, "tmin": 11.0, "tmax": 28.0, "prcp_d0": 0.0, "prcp_d1": 0.0, "prcp_d2": 0.0, "prcp_d3": 12.237910270690918, "prcp_d4": 0.0, "prcp_d5": 0.0, "prcp_d6": 11.76673412322998, "tmax_d0": 13.8, "tmax_d1": 14.3, "tmax_d2": 11.2, "tmax_d3": 12.3, "tmax_d4": 14.4, "tmax_d5": 14.2, "tmax_d6": 16.6, "tmin_d0": 5.0, "tmin_d1": 2.4, "tmin_d2": 1.3, "tmin_d3": 4.4, "tmin_d4": 5.5, "tmin_d5": 6.5, "tmin_d6": 7.2, "day_of_year": 259, "uuid": "9531dea0-15e5-4d24-b36b-f81ae09fcd31", "inat_id": 314604971}}]}