{"type": "FeatureCollection", "features": [{"type": "Feature", "geometry": {"type": "Point", "coordinates": [-122.0470711534, 45.0363213855]}, "properties": {"species": "Amanita calyptroderma", "date": "2019-10-28", "location": "Clackamas County, US-OR, US", "elevation": 640.0, "land_cover_label": "Tree cover", "water_mask": false, "exclude_reason": "keep", "ndvi": null, "soil_moisture": null, "solar_exposure": null, "wind_exposure": null, "water_retention": null, "slope": null, "aspect": null, "num_identification_agreements": 2, "cluster": 2, "tavg": null, "tmin": null, "tmax": null, "prcp_d0": 0.0, "prcp_d1": 0.0, "prcp_d2": 0.0, "prcp_d3": 0.0, "prcp_d4": 0.0, "prcp_d5": 0.0, "prcp_d6": 0.0, "tmax_d0": 10.0, "tmax_d1": 7.8, "tmax_d2": 12.1, "tmax_d3": 18.5, "tmax_d4": 20.8, "tmax_d5": 15.9, "tmax_d6": 15.3, "tmin_d0": -3.9, "tmin_d1": -0.3, "tmin_d2": 2.2, "tmin_d3": 5.1, "tmin_d4": 0.3, "tmin_d5": 0.0, "tmin_d6": 8.8, "day_of_year": 301, "uuid": "aca8d3dd-67be-4c73-b1de-172d80a82c7c", "inat_id": 35030002}}, {"type": "Feature", "geometry": {"type": "Point", "coordinates": [-122.274664782, 45.3240622185]}, "properties": {"species": "Amanita calyptroderma", "date": "2020-10-18", "location": "97022, Eagle Creek, OR, US", "elevation": 210.0, "land_cover_label": "Tree cover", "water_mask": false, "exclude_reason": "keep", "ndvi": null, "soil_moisture": null, "solar_exposure": null, "wind_exposure": null, "water_retention": null, "slope": null, "aspect": null, "num_identification_agreements": 2, "cluster": 2, "tavg": null, "tmin": 12.8, "tmax": 19.4, "prcp_d0": 0.0, "prcp_d1": 0.0, "prcp_d2": 0.0, "prcp_d3": 0.0, "prcp_d4": 0.0, "prcp_d5": 46.18045425415039, "prcp_d6": 0.0, "tmax_d0": 15.4, "tmax_d1": 16.5, "tmax_d2": 17.2, "tmax_d3": 16.1, "tmax_d4": 14.0, "tmax_d5": 13.8, "tmax_d6": 14.3, "tmin_d0": 10.3, "tmin_d1": 10.7, "tmin_d2": 4.5, "tmin_d3": 2.8, "tmin_d4": 9.1, "tmin_d5": 10.1, "tmin_d6": 10.8, "day_of_year": 292, "uuid": "abee3347-0b45-456e-980f-3b23bf63643b", "inat_id": 62974317}}, {"type": "Feature", "geometry": {"type": "Point", "coordinates": [-122.2050027778, 45.2779861111]}, "properties": {"species": "Amanita calyptroderma", "date": "2020-10-24", "location": "Estacada, OR 97023, USA", "elevation": 371.0, "land_cover_label": "Tree cover", "water_mask": false, "exclude_reason": "keep", "ndvi": null, "soil_moisture": null, "solar_exposure": null, "wind_exposure": null, "water_retention": null, "slope": null, "aspect": null, "num_identification_agreements": 2, "cluster": 2, "tavg": null, "tmin": 6.7, "tmax": 14.4, "prcp_d0": 0.0, "prcp_d1": 0.0, "prcp_d2": 0.0, "prcp_d3": 0.0, "prcp_d4": 0.0, "prcp_d5": 0.0, "prcp_d6": 0.0, "tmax_d0": 10.6, "tmax_d1": 8.9, "tmax_d2": 10.7, "tmax_d3": 11.8, "tmax_d4": 13.2, "tmax_d5": 13.9, "tmax_d6": 14.2, "tmin_d0": 6.6, "tmin_d1": 2.8, "tmin_d2": -0.5, "tmin_d3": 6.6, "tmin_d4": 7.3, "tmin_d5": 10.0, "tmin_d6": 10.3, "day_of_year": 298, "uuid": "01a8df07-fb7f-417f-bf77-2c943c98153b", "inat_id": 63445270}}, {"type": "Feature", "geometry": {"type": "Point", "coordinates": [-121.6891223566, 45.6890421454]}, "properties": {"species": "Amanita calyptroderma", "date": "2021-10-19", "location": "Columbia River Gorge National Scenic Area, Hood River, OR, US", "elevation": 68.0, "land_cover_label": "Tree cover", "water_mask": false, "exclude_reason": "keep", "ndvi": null, "soil_moisture": null, "solar_exposure": null, "wind_exposure": null, "water_retention": null, "slope": null, "aspect": null, "num_identification_agreements": 1, "cluster": 2, "tavg": null, "tmin": 2.8, "tmax": 17.2, "prcp_d0": 0.0, "prcp_d1": 0.0, "prcp_d2": 8.031107902526855, "prcp_d3": 0.0, "prcp_d4": 0.0, "prcp_d5": 0.0, "prcp_d6": 0.0, "tmax_d0": 17.5, "tmax_d1": 15.6, "tmax_d2": 19.1, "tmax_d3": 20.0, "tmax_d4": 18.2, "tmax_d5": 12.9, "tmax_d6": 12.5, "tmin_d0": 6.5, "tmin_d1": 9.7, "tmin_d2": 9.2, "tmin_d3": 8.8, "tmin_d4": 8.8, "tmin_d5": 7.5, "tmin_d6": 6.3, "day_of_year": 292, "uuid": "73419b0c-c319-4241-95e2-7d923cb01d88", "inat_id": 98737891}}, {"type": "Feature", "geometry": {"type": "Point", "coordinates": [-122.2049716667, 45.2780616667]}, "properties": {"species": "Amanita calyptroderma", "date": "2022-11-03", "location": "SE Rainbow Rd, Estacada, OR, US", "elevation": 371.0, "land_cover_label": "Tree cover", "water_mask": false, "exclude_reason": "keep", "ndvi": null, "soil_moisture": null, "solar_exposure": null, "wind_exposure": null, "water_retention": null, "slope": null, "aspect": null, "num_identification_agreements": 1, "cluster": 2, "tavg": null, "tmin": 6.1, "tmax": 9.4, "prcp_d0": 0.0, "prcp_d1": 0.0, "prcp_d2": 10.879587173461914, "prcp_d3": 0.0, "prcp_d4": 0.0, "prcp_d5": 0.0, "prcp_d6": 25.30632781982422, "tmax_d0": 6.5, "tmax_d1": 4.9, "tmax_d2": 8.4, "tmax_d3": 11.3, "tmax_d4": 11.6, "tmax_d5": 13.3, "tmax_d6": 11.0, "tmin_d0": 1.8, "tmin_d1": 1.2, "tmin_d2": 4.1, "tmin_d3": 8.8, "tmin_d4": 8.8, "tmin_d5": 9.2, "tmin_d6": 6.1, "day_of_year": 307, "uuid": "2d42b1b0-3220-40bf-a387-4a8bb7a0ee5b", "inat_id": 141033455}}, {"type": "Feature", "geometry": {"type": "Point", "coordinates": [-121.7416994106, 45.604196502]}, "properties": {"species": "Amanita calyptroderma", "date": "2023-10-20", "location": "Washington, US", "elevation": 939.0, "land_cover_label": "Grassland", "water_mask": false, "exclude_reason": "keep", "ndvi": null, "soil_moisture": null, "solar_exposure": null, "wind_exposure": null, "water_retention": null, "slope": null, "aspect": null, "num_identification_agreements": 1, "cluster": 3, "tavg": null, "tmin": 9.0, "tmax": 24.3, "prcp_d0": 0.0, "prcp_d1": 0.0, "prcp_d2": 0.0, "prcp_d3": 0.0, "prcp_d4": 24.390850067138672, "prcp_d5": 12.703384399414062, "prcp_d6": 12.703384399414062, "tmax_d0": 20.0, "tmax_d1": 20.9, "tmax_d2": 17.8, "tmax_d3": 14.7, "tmax_d4": 13.4, "tmax_d5": 13.9, "tmax_d6": 14.6, "tmin_d0": 8.6, "tmin_d1": 9.8, "tmin_d2": 5.5, "tmin_d3": 6.5, "tmin_d4": 7.9, "tmin_d5": 5.3, "tmin_d6": 4.6, "day_of_year": 293, "uuid": "cbfbb601-50f9-40c3-ae72-38669682d952", "inat_id": 188853351}}, {"type": "Feature", "geometry": {"type": "Point", "coordinates": [-121.8758375459, 45.6623584006]}, "properties": {"species": "Amanita calyptroderma", "date": "2023-10-21", "location": "Columbia River Gorge National Scenic Area, Cascade Locks, OR, US", "elevation": 253.0, "land_cover_label": "Tree cover", "water_mask": false, "exclude_reason": "keep", "ndvi": null, "soil_moisture": null, "solar_exposure": null, "wind_exposure": null, "water_retention": null, "slope": null, "aspect": null, "num_identification_agreements": 1, "cluster": 2, "tavg": null, "tmin": 11.1, "tmax": 21.1, "prcp_d0": 0.0, "prcp_d1": 0.0, "prcp_d2": 0.0, "prcp_d3": 0.0, "prcp_d4": 0.0, "prcp_d5": 29.48824882507324, "prcp_d6": 22.80118560791016, "tmax_d0": 20.8, "tmax_d1": 23.1, "tmax_d2": 23.6, "tmax_d3": 21.6, "tmax_d4": 18.2, "tmax_d5": 16.6, "tmax_d6": 18.1, "tmin_d0": 11.1, "tmin_d1": 10.7, "tmin_d2": 9.1, "tmin_d3": 8.1, "tmin_d4": 10.6, "tmin_d5": 10.9, "tmin_d6": 9.4, "day_of_year": 294, "uuid": "336a7d75-aa27-4353-ac1c-d85b5efed5ad", "inat_id": 189295676}}, {"type": "Feature", "geometry": {"type": "Point", "coordinates": [-121.8765353411, 45.6963311222]}, "properties": {"species": "Amanita calyptroderma", "date": "2023-10-27", "location": "Stevenson, WA 98648, USA", "elevation": 27.0, "land_cover_label": "Tree cover", "water_mask": false, "exclude_reason": "keep", "ndvi": null, "soil_moisture": null, "solar_exposure": null, "wind_exposure": null, "water_retention": null, "slope": null, "aspect": null, "num_identification_agreements": 1, "cluster": 1, "tavg": null, "tmin": 2.1, "tmax": 8.3, "prcp_d0": 0.0, "prcp_d1": 0.0, "prcp_d2": 0.0, "prcp_d3": 37.82986068725586, "prcp_d4": 0.0, "prcp_d5": 0.0, "prcp_d6": 0.0, "tmax_d0": 10.0, "tmax_d1": 10.5, "tmax_d2": 9.3, "tmax_d3": 13.4, "tmax_d4": 16.6, "tmax_d5": 18.9, "tmax_d6": 22.5, "tmin_d0": 3.5, "tmin_d1": 6.1, "tmin_d2": 5.6, "tmin_d3": 7.9, "tmin_d4": 11.3, "tmin_d5": 14.1, "tmin_d6": 12.4, "day_of_year": 300, "uuid": "16b88b3a-b5ed-4de8-8389-3e34b6947569", "inat_id": 189539693}}, {"type": "Feature", "geometry": {"type": "Point", "coordinates": [-121.8123601602, 45.6896130896]}, "properties": {"species": "Amanita calyptroderma", "date": "2023-11-05", "location": "Columbia River Gorge National Scenic Area, Cascade Locks, OR, US", "elevation": 212.0, "land_cover_label": "Tree cover", "water_mask": false, "exclude_reason": "keep", "ndvi": null, "soil_moisture": null, "solar_exposure": null, "wind_exposure": null, "water_retention": null, "slope": null, "aspect": null, "num_identification_agreements": 1, "cluster": 1, "tavg": null, "tmin": 7.4, "tmax": 12.3, "prcp_d0": 28.76125717163086, "prcp_d1": 115.04502868652344, "prcp_d2": 0.0, "prcp_d3": 28.76125717163086, "prcp_d4": 0.0, "prcp_d5": 0.0, "prcp_d6": 0.0, "tmax_d0": 13.7, "tmax_d1": 14.7, "tmax_d2": 13.9, "tmax_d3": 14.4, "tmax_d4": 7.3, "tmax_d5": 9.1, "tmax_d6": 8.2, "tmin_d0": 9.7, "tmin_d1": 10.4, "tmin_d2": 8.5, "tmin_d3": 4.9, "tmin_d4": 3.7, "tmin_d5": 1.6, "tmin_d6": 0.8, "day_of_year": 309, "uuid": "4f7be073-e478-4998-ad30-b484e198bd4b", "inat_id": 238544911}}, {"type": "Feature", "geometry": {"type": "Point", "coordinates": [-122.0219944444, 45.6312222222]}, "properties": {"species": "Amanita calyptroderma", "date": "2023-11-17", "location": "Skamania County, WA, USA", "elevation": 138.0, "land_cover_label": "Tree cover", "water_mask": false, "exclude_reason": "keep", "ndvi": null, "soil_moisture": null, "solar_exposure": null, "wind_exposure": null, "water_retention": null, "slope": null, "aspect": null, "num_identification_agreements": 1, "cluster": 2, "tavg": null, "tmin": 5.2, "tmax": 13.9, "prcp_d0": 0.0, "prcp_d1": 0.0, "prcp_d2": 0.0, "prcp_d3": 0.0, "prcp_d4": 0.0, "prcp_d5": 0.0, "prcp_d6": 0.0, "tmax_d0": 7.2, "tmax_d1": 11.1, "tmax_d2": 11.6, "tmax_d3": 11.2, "tmax_d4": 11.4, "tmax_d5": 12.0, "tmax_d6": 10.3, "tmin_d0": 2.6, "tmin_d1": 5.7, "tmin_d2": 6.3, "tmin_d3": 3.7, "tmin_d4": 8.0, "tmin_d5": 6.6, "tmin_d6": 8.2, "day_of_year": 321, "uuid": "d1ef4e1c-611e-4e3c-bb3c-0c3e5766bf5d", "inat_id": 191346712}}, {"type": "Feature", "geometry": {"type": "Point", "coordinates": [-121.713755003, 45.6245916291]}, "properties": {"species": "Amanita calyptroderma", "date": "2023-11-24", "location": "Washington, US", "elevation": 1041.0, "land_cover_label": "Tree cover", "water_mask": false, "exclude_reason": "keep", "ndvi": null, "soil_moisture": null, "solar_exposure": null, "wind_exposure": null, "water_retention": null, "slope": null, "aspect": null, "num_identification_agreements": 1, "cluster": 2, "tavg": null, "tmin": -0.5, "tmax": 8.2, "prcp_d0": 0.0, "prcp_d1": 0.0, "prcp_d2": 0.0, "prcp_d3": 17.889972686767578, "prcp_d4": 0.0, "prcp_d5": 0.0, "prcp_d6": 0.0, "tmax_d0": 3.4, "tmax_d1": 4.4, "tmax_d2": 6.5, "tmax_d3": 3.2, "tmax_d4": 3.1, "tmax_d5": 2.4, "tmax_d6": -0.2, "tmin_d0": -2.5, "tmin_d1": -2.1, "tmin_d2": -1.2, "tmin_d3": -4.6, "tmin_d4": -3.4, "tmin_d5": -1.9, "tmin_d6": -3.1, "day_of_year": 328, "uuid": "e9613189-f596-444b-a602-d1ddb58f0dec", "inat_id": 193059315}}, {"type": "Feature", "geometry": {"type": "Point", "coordinates": [-122.0272, 45.6197716667]}, "properties": {"species": "Amanita calyptroderma", "date": "2024-10-22", "location": "Beacon Rock State Park, Stevenson, WA, US", "elevation": 28.0, "land_cover_label": "Tree cover", "water_mask": false, "exclude_reason": "keep", "ndvi": null, "soil_moisture": null, "solar_exposure": null, "wind_exposure": null, "water_retention": null, "slope": null, "aspect": null, "num_identification_agreements": 1, "cluster": 2, "tavg": null, "tmin": 7.2, "tmax": 15.6, "prcp_d0": 0.0, "prcp_d1": 0.0, "prcp_d2": 0.0, "prcp_d3": 0.0, "prcp_d4": 0.0, "prcp_d5": 0.0, "prcp_d6": 0.0, "tmax_d0": 14.9, "tmax_d1": 19.5, "tmax_d2": 20.4, "tmax_d3": 20.0, "tmax_d4": 13.4, "tmax_d5": 13.6, "tmax_d6": 15.7, "tmin_d0": 7.8, "tmin_d1": 10.0, "tmin_d2": 9.3, "tmin_d3": 10.1, "tmin_d4": 5.9, "tmin_d5": 8.5, "tmin_d6": 12.0, "day_of_year": 296, "uuid": "bb1f4e48-ffd0-43e1-b174-e46718ce92fe", "inat_id": 248808333}}]}