{"type": "FeatureCollection", "features": [{"type": "Feature", "geometry": {"type": "Point", "coordinates": [-106.2288399805, 39.6536518619]}, "properties": {"species": "Amanita aprica", "date": "2024-08-05", "location": "White River National Forest, Avon, CO, US", "elevation": 3548.0, "land_cover_label": "Moss and lichen", "water_mask": false, "exclude_reason": "keep", "ndvi": null, "soil_moisture": null, "solar_exposure": null, "wind_exposure": null, "water_retention": null, "slope": null, "aspect": null, "num_identification_agreements": 1, "cluster": 1, "tavg": null, "tmin": 11.0, "tmax": 21.0, "prcp_d0": 13.664643287658691, "prcp_d1": 0.0, "prcp_d2": 0.0, "prcp_d3": 0.0, "prcp_d4": 0.0, "prcp_d5": 0.0, "prcp_d6": 0.0, "tmax_d0": 19.2, "tmax_d1": 19.7, "tmax_d2": 21.3, "tmax_d3": 20.2, "tmax_d4": 21.0, "tmax_d5": 18.3, "tmax_d6": 18.0, "tmin_d0": 4.1, "tmin_d1": 3.1, "tmin_d2": 4.0, "tmin_d3": 2.6, "tmin_d4": 0.6, "tmin_d5": 2.3, "tmin_d6": 1.0, "day_of_year": 218, "uuid": "ae0617bb-635e-4fd9-9733-715a0edd78a6", "inat_id": 265004711}}, {"type": "Feature", "geometry": {"type": "Point", "coordinates": [-104.7943363823, 39.0661025272]}, "properties": {"species": "Amanita aprica", "date": "2025-07-13", "location": "Fox Run Regional Park, Colorado Springs, CO, US", "elevation": 2276.0, "land_cover_label": "Tree cover", "water_mask": false, "exclude_reason": "keep", "ndvi": null, "soil_moisture": 0.2056089737467729, "solar_exposure": 0.8684319853782654, "wind_exposure": 0.3331151306629181, "water_retention": 0.2978142499923706, "slope": 3.049756526947021, "aspect": 156.47682189941406, "num_identification_agreements": 1, "cluster": 2, "tavg": null, "tmin": 11.4, "tmax": 30.5, "prcp_d0": 1.6490602493286133, "prcp_d1": 3.2981204986572266, "prcp_d2": 1.6490602493286133, "prcp_d3": 0.0, "prcp_d4": 0.0, "prcp_d5": 0.0, "prcp_d6": 0.0, "tmax_d0": 27.6, "tmax_d1": 22.5, "tmax_d2": 26.0, "tmax_d3": 30.2, "tmax_d4": 31.8, "tmax_d5": 29.6, "tmax_d6": 29.0, "tmin_d0": 9.7, "tmin_d1": 12.0, "tmin_d2": 9.7, "tmin_d3": 15.2, "tmin_d4": 10.3, "tmin_d5": 9.8, "tmin_d6": 10.5, "day_of_year": 194, "uuid": "910c4a81-3cc9-497e-a0f8-253ca1753c66", "inat_id": 297769686}}, {"type": "Feature", "geometry": {"type": "Point", "coordinates": [-109.2717788928, 42.7202576632]}, "properties": {"species": "Amanita aprica", "date": "2026-08-15", "location": "Sublette County, US-WY, US", "elevation": 2992.0, "land_cover_label": "Tree cover", "water_mask": false, "exclude_reason": "keep", "ndvi": null, "soil_moisture": null, "solar_exposure": null, "wind_exposure": null, "water_retention": null, "slope": null, "aspect": null, "num_identification_agreements": 1, "cluster": null, "tavg": null, "tmin": 7.0, "tmax": 20.0, "prcp_d0": null, "prcp_d1": null, "prcp_d2": null, "prcp_d3": null, "prcp_d4": null, "prcp_d5": null, "prcp_d6": null, "tmax_d0": 13.4, "tmax_d1": 12.6, "tmax_d2": 15.3, "tmax_d3": 20.4, "tmax_d4": 21.7, "tmax_d5": 21.8, "tmax_d6": 22.2, "tmin_d0": 5.3, "tmin_d1": 5.2, "tmin_d2": 5.3, "tmin_d3": 8.9, "tmin_d4": 8.2, "tmin_d5": 9.9, "tmin_d6": 9.9, "day_of_year": 227, "uuid": "8066140a-d3ea-49c0-bf68-ed21b2272fc4", "inat_id": 393657730}}]}