{"type": "FeatureCollection", "features": [{"type": "Feature", "geometry": {"type": "Point", "coordinates": [-105.0411990929, 38.9947247283]}, "properties": {"species": "Amanita nivalis", "date": "2025-08-24", "location": "Colorado, US", "elevation": 2634.0, "land_cover_label": "Tree cover", "water_mask": false, "exclude_reason": "keep", "ndvi": null, "soil_moisture": null, "solar_exposure": null, "wind_exposure": null, "water_retention": null, "slope": null, "aspect": null, "num_identification_agreements": 1, "cluster": 0, "tavg": null, "tmin": 12.3, "tmax": 25.6, "prcp_d0": 10.45267105102539, "prcp_d1": 20.90534210205078, "prcp_d2": 0.0, "prcp_d3": 0.0, "prcp_d4": 0.0, "prcp_d5": 0.0, "prcp_d6": 0.0, "tmax_d0": 20.8, "tmax_d1": 19.3, "tmax_d2": 25.2, "tmax_d3": 26.7, "tmax_d4": 23.7, "tmax_d5": 22.6, "tmax_d6": 22.8, "tmin_d0": 10.9, "tmin_d1": 9.9, "tmin_d2": 13.4, "tmin_d3": 11.0, "tmin_d4": 10.8, "tmin_d5": 10.7, "tmin_d6": 14.1, "day_of_year": 236, "uuid": "137aba14-7737-4cd3-92d5-0e3de02e2b4e", "inat_id": 308864051}}]}