{"type": "FeatureCollection", "features": [{"type": "Feature", "geometry": {"type": "Point", "coordinates": [-121.7593383333, 45.3823883333]}, "properties": {"species": "Amanita sp. 'pacificogemmata'", "date": "2023-08-19", "location": "Zigzag Ranger Station, Rhododendron, OR, US", "elevation": 1577.0, "land_cover_label": "Tree cover", "water_mask": false, "exclude_reason": "keep", "ndvi": null, "soil_moisture": null, "solar_exposure": null, "wind_exposure": null, "water_retention": null, "slope": null, "aspect": null, "num_identification_agreements": 3, "cluster": 2, "tavg": null, "tmin": 11.6, "tmax": 31.7, "prcp_d0": 0.0, "prcp_d1": 0.0, "prcp_d2": 0.0, "prcp_d3": 0.0, "prcp_d4": 0.0, "prcp_d5": 0.0, "prcp_d6": 0.0, "tmax_d0": 22.8, "tmax_d1": 21.5, "tmax_d2": 27.4, "tmax_d3": 29.9, "tmax_d4": 30.1, "tmax_d5": 29.4, "tmax_d6": 25.5, "tmin_d0": 8.3, "tmin_d1": 8.0, "tmin_d2": 14.8, "tmin_d3": 13.7, "tmin_d4": 15.5, "tmin_d5": 13.6, "tmin_d6": 11.8, "day_of_year": 231, "uuid": "4e5162f6-1c6d-4ec6-bc0e-c32534768176", "inat_id": 179410237}}]}