{"type": "FeatureCollection", "features": [{"type": "Feature", "geometry": {"type": "Point", "coordinates": [-104.8565197506, 39.8136993946]}, "properties": {"species": "Amanita populiphila", "date": "2026-06-03", "location": "Adams County, CO, USA", "elevation": 1597.0, "num_identification_agreements": 1, "tavg": null, "tmin": 14.0, "tmax": 25.6, "day_of_year": 154, "uuid": "c2c481ad-5d03-4115-b63f-99da7ff0b2f1", "inat_id": 368475193}}, {"type": "Feature", "geometry": {"type": "Point", "coordinates": [-105.1089633333, 39.7753483333]}, "properties": {"species": "Amanita populiphila", "date": "2025-07-25", "location": "Kipling, Wheat Ridge, CO 80033, USA", "elevation": 1641.0, "num_identification_agreements": 1, "tavg": null, "tmin": 15.0, "tmax": 32.0, "day_of_year": 206, "uuid": "ed1ed4e7-73c5-4f57-956e-d1ca7caffdcc", "inat_id": 301000409}}, {"type": "Feature", "geometry": {"type": "Point", "coordinates": [-105.1234501228, 39.9721610582]}, "properties": {"species": "Amanita populiphila", "date": "2025-06-11", "location": "Superior, CO 80027, USA", "elevation": 1623.0, "num_identification_agreements": 2, "tavg": null, "tmin": 18.0, "tmax": 29.0, "day_of_year": 162, "uuid": "a1f8f84b-1502-4f3e-ae3a-de735d71f196", "inat_id": 288842628}}, {"type": "Feature", "geometry": {"type": "Point", "coordinates": [-104.8414430727, 39.6237492403]}, "properties": {"species": "Amanita populiphila", "date": "2025-05-26", "location": "Arapahoe County, CO, USA", "elevation": 1698.0, "num_identification_agreements": 2, "tavg": null, "tmin": 7.2, "tmax": 15.6, "day_of_year": 146, "uuid": "806db4ba-ccb2-4cc9-90f7-0bbcda50a03e", "inat_id": 288758351}}, {"type": "Feature", "geometry": {"type": "Point", "coordinates": [-104.9526366667, 39.92503]}, "properties": {"species": "Amanita populiphila", "date": "2025-06-10", "location": "Eastlake #3 Trail, Thornton, CO, US", "elevation": 1593.0, "num_identification_agreements": 2, "tavg": null, "tmin": 8.4, "tmax": 33.0, "day_of_year": 161, "uuid": "9c05e51c-ed7d-46a5-bf63-e6f91a35ffdd", "inat_id": 288495904}}, {"type": "Feature", "geometry": {"type": "Point", "coordinates": [-105.14386917, 39.97016916]}, "properties": {"species": "Amanita populiphila", "date": "2025-06-09", "location": "Louisville, CO, USA", "elevation": 1648.0, "num_identification_agreements": 2, "tavg": null, "tmin": 11.0, "tmax": 26.0, "day_of_year": 160, "uuid": "b662686d-93dc-4286-b83d-988ac09cc6f8", "inat_id": 288267677}}, {"type": "Feature", "geometry": {"type": "Point", "coordinates": [-105.244638361, 40.0130659087]}, "properties": {"species": "Amanita populiphila", "date": "2025-06-01", "location": "Arapahoe Ave & Foothills Pkwy Nearside, Boulder, CO 80303, USA", "elevation": 1611.0, "num_identification_agreements": 2, "tavg": null, "tmin": 14.0, "tmax": 27.0, "day_of_year": 152, "uuid": "fd230c7a-746b-4d4c-bdc0-751fdb1d6418", "inat_id": 286556575}}, {"type": "Feature", "geometry": {"type": "Point", "coordinates": [-105.0462805, 39.5641033333]}, "properties": {"species": "Amanita populiphila", "date": "2025-05-31", "location": "Chatfield State Park, Littleton, CO, US", "elevation": 1647.0, "num_identification_agreements": 1, "tavg": null, "tmin": 11.7, "tmax": 24.4, "day_of_year": 151, "uuid": "959e376e-3e14-4c73-9010-a025c77449d9", "inat_id": 286458406}}, {"type": "Feature", "geometry": {"type": "Point", "coordinates": [-105.19618889, 40.04073293]}, "properties": {"species": "Amanita populiphila", "date": "2025-05-19", "location": "Boulder, Colorado 80301, EE. UU.", "elevation": 1575.0, "num_identification_agreements": 2, "tavg": null, "tmin": 10.0, "tmax": 18.0, "day_of_year": 139, "uuid": "85c74043-5dac-4730-990d-dda6440bb46e", "inat_id": 282525033}}, {"type": "Feature", "geometry": {"type": "Point", "coordinates": [-107.9074194444, 37.8958111111]}, "properties": {"species": "Amanita populiphila", "date": "2024-08-13", "location": "Mountain Village, CO 81435, USA", "elevation": 2534.0, "num_identification_agreements": 1, "tavg": null, "tmin": 10.0, "tmax": 18.0, "day_of_year": 226, "uuid": "ba36a908-ca4f-4ccd-a92c-1be9195ac3ba", "inat_id": 264037613}}, {"type": "Feature", "geometry": {"type": "Point", "coordinates": [-107.907096984, 37.8960169918]}, "properties": {"species": "Amanita populiphila", "date": "2024-08-14", "location": "Grand Mesa Uncompahgre and Gunnison National Forests, Ophir, CO, US", "elevation": 2531.0, "num_identification_agreements": 4, "tavg": null, "tmin": 9.0, "tmax": 20.0, "day_of_year": 227, "uuid": "0068b59f-63af-4661-bdf3-2f8d354ec790", "inat_id": 235770257}}, {"type": "Feature", "geometry": {"type": "Point", "coordinates": [-107.8431853429, 37.9157878368]}, "properties": {"species": "Amanita populiphila", "date": "2024-08-13", "location": "Colorado, US", "elevation": 3140.0, "num_identification_agreements": 1, "tavg": null, "tmin": 10.0, "tmax": 18.0, "day_of_year": 226, "uuid": "1bdb958b-2865-4e58-a0a9-8da83a111d7a", "inat_id": 235660250}}, {"type": "Feature", "geometry": {"type": "Point", "coordinates": [-105.0408778333, 39.5701833333]}, "properties": {"species": "Amanita populiphila", "date": "2024-06-10", "location": "South Platte Park, Littleton, CO, US", "elevation": 1636.0, "num_identification_agreements": 2, "tavg": null, "tmin": 12.8, "tmax": 26.7, "day_of_year": 162, "uuid": "3c59d18e-19fd-43c1-bd04-8dd87c0317f8", "inat_id": 221921579}}, {"type": "Feature", "geometry": {"type": "Point", "coordinates": [-104.8541361111, 39.631025]}, "properties": {"species": "Amanita populiphila", "date": "2021-06-12", "location": "Englewood, CO 80111, USA", "elevation": 1698.0, "num_identification_agreements": 1, "tavg": null, "tmin": 11.7, "tmax": 31.7, "day_of_year": 163, "uuid": "23fb2be9-dba7-4b92-8a4d-6dfe4df7d60e", "inat_id": 82941173}}, {"type": "Feature", "geometry": {"type": "Point", "coordinates": [-104.9783598448, 39.557614807]}, "properties": {"species": "Amanita populiphila", "date": "2021-06-05", "location": "Sage Cir, Highlands Ranch, CO, US", "elevation": 1731.0, "num_identification_agreements": 1, "tavg": null, "tmin": 13.9, "tmax": 31.7, "day_of_year": 156, "uuid": "ea7f3796-dec8-44ce-8f38-eb366f7c2254", "inat_id": 81792801}}, {"type": "Feature", "geometry": {"type": "Point", "coordinates": [-104.8427716667, 39.8111833333]}, "properties": {"species": "Amanita populiphila", "date": "2021-05-31", "location": "Rocky Mountain Arsenal National Wildlife Refuge, Denver, CO, US", "elevation": 1608.0, "num_identification_agreements": 2, "tavg": null, "tmin": 8.5, "tmax": 15.9, "day_of_year": 151, "uuid": "b2417419-4fb9-4b79-97a3-db9b7318fa07", "inat_id": 81522367}}, {"type": "Feature", "geometry": {"type": "Point", "coordinates": [-105.0978695, 39.8502083333]}, "properties": {"species": "Amanita populiphila", "date": "2021-05-31", "location": "Everett Way, Arvada, CO, US", "elevation": 1683.0, "num_identification_agreements": 1, "tavg": null, "tmin": 8.0, "tmax": 14.0, "day_of_year": 151, "uuid": "828d172c-ec36-4cd8-acad-491e476037f1", "inat_id": 81242584}}, {"type": "Feature", "geometry": {"type": "Point", "coordinates": [-104.9310711317, 39.9390846403]}, "properties": {"species": "Amanita populiphila", "date": "2019-06-17", "location": "13426 Dexter Way, Thornton, CO, US", "elevation": 1602.0, "num_identification_agreements": 1, "tavg": null, "tmin": 14.2, "tmax": 21.2, "day_of_year": 168, "uuid": "737dce77-1471-4f39-bc86-399730dd34e9", "inat_id": 27162349}}]}