{"type": "FeatureCollection", "features": [{"type": "Feature", "geometry": {"type": "Point", "coordinates": [-105.1983307396, 38.889295688]}, "properties": {"species": "Amanita sp. 'subnigra'", "date": "2023-08-30", "location": "Colorado, US", "elevation": 2905.0, "land_cover_label": "Tree cover", "water_mask": false, "exclude_reason": "keep", "ndvi": null, "soil_moisture": null, "solar_exposure": null, "wind_exposure": null, "water_retention": null, "slope": null, "aspect": null, "num_identification_agreements": 3, "cluster": 0, "tavg": null, "tmin": 3.1, "tmax": 20.0, "prcp_d0": 0.0, "prcp_d1": 0.0, "prcp_d2": 0.0, "prcp_d3": 0.0, "prcp_d4": 0.0, "prcp_d5": 0.0, "prcp_d6": 0.0, "tmax_d0": 23.1, "tmax_d1": 18.0, "tmax_d2": 16.3, "tmax_d3": 19.4, "tmax_d4": 17.7, "tmax_d5": 20.5, "tmax_d6": 22.8, "tmin_d0": 7.6, "tmin_d1": 3.9, "tmin_d2": 6.5, "tmin_d3": 7.8, "tmin_d4": 7.6, "tmin_d5": 9.7, "tmin_d6": 11.0, "day_of_year": 242, "uuid": "fec06b5d-fc0f-4f9d-8c5a-de5cc1bbe4cb", "inat_id": 181011605}}]}