{"type": "FeatureCollection", "features": [{"type": "Feature", "geometry": {"type": "Point", "coordinates": [-122.2284621149, 45.3072870558]}, "properties": {"species": "Ampulloclitocybe clavipes", "date": "2024-12-06", "location": "Clackamas County, US-OR, US", "elevation": 413.0, "land_cover_label": "Tree cover", "water_mask": false, "exclude_reason": "keep", "ndvi": null, "soil_moisture": null, "solar_exposure": null, "wind_exposure": null, "water_retention": null, "slope": null, "aspect": null, "num_identification_agreements": 1, "cluster": 0, "tavg": null, "tmin": 3.9, "tmax": 6.7, "prcp_d0": 0.0, "prcp_d1": 0.0, "prcp_d2": 0.0, "prcp_d3": 0.0, "prcp_d4": 0.0, "prcp_d5": 0.0, "prcp_d6": 0.0, "tmax_d0": 14.0, "tmax_d1": 11.6, "tmax_d2": 12.5, "tmax_d3": 12.6, "tmax_d4": 11.9, "tmax_d5": 13.3, "tmax_d6": 7.0, "tmin_d0": 2.7, "tmin_d1": 1.1, "tmin_d2": 1.6, "tmin_d3": 1.2, "tmin_d4": -1.2, "tmin_d5": -2.9, "tmin_d6": -4.3, "day_of_year": 341, "uuid": "3d1492cb-df8a-46ce-84d3-20636a7148fd", "inat_id": 254369987}}, {"type": "Feature", "geometry": {"type": "Point", "coordinates": [-121.9394126765, 45.2861336889]}, "properties": {"species": "Ampulloclitocybe clavipes", "date": "2025-11-03", "location": "Zigzag Ranger Station, Welches, OR, US", "elevation": 554.0, "land_cover_label": "Tree cover", "water_mask": false, "exclude_reason": "keep", "ndvi": null, "soil_moisture": null, "solar_exposure": null, "wind_exposure": null, "water_retention": null, "slope": null, "aspect": null, "num_identification_agreements": 1, "cluster": 0, "tavg": null, "tmin": 8.0, "tmax": 12.0, "prcp_d0": 26.064599990844727, "prcp_d1": 0.0, "prcp_d2": 0.0, "prcp_d3": 0.0, "prcp_d4": 0.0, "prcp_d5": 9.642078399658203, "prcp_d6": 0.0, "tmax_d0": 11.7, "tmax_d1": 12.5, "tmax_d2": 14.4, "tmax_d3": 17.2, "tmax_d4": 12.5, "tmax_d5": 13.5, "tmax_d6": 14.6, "tmin_d0": 5.5, "tmin_d1": 6.0, "tmin_d2": 10.5, "tmin_d3": 5.5, "tmin_d4": 3.8, "tmin_d5": 7.8, "tmin_d6": 2.3, "day_of_year": 307, "uuid": "190978b3-29f5-4f9f-aee8-ca052d4ba863", "inat_id": 324882860}}]}