{"type": "FeatureCollection", "features": [{"type": "Feature", "geometry": {"type": "Point", "coordinates": [-105.6116834601, 39.8832646619]}, "properties": {"species": "Aphroditeola olida", "date": "2025-09-20", "location": "Mammoth Gulch Rd, Black Hawk, CO, US", "elevation": 3026.0, "num_identification_agreements": 1, "tavg": null, "tmin": -1.3, "tmax": 7.8, "day_of_year": 263, "uuid": "91a32d0e-cf46-4f86-b8b7-72f721666da5", "inat_id": 315656856}}, {"type": "Feature", "geometry": {"type": "Point", "coordinates": [-107.8818390207, 37.8393687435]}, "properties": {"species": "Aphroditeola olida", "date": "2026-08-24", "location": "San Miguel County, US-CO, US", "elevation": 2913.0, "num_identification_agreements": 1, "tavg": null, "tmin": null, "tmax": null, "day_of_year": 236, "uuid": "c86c6cd3-e148-43ac-b7db-a682d23c52b3", "inat_id": 394263781}}, {"type": "Feature", "geometry": {"type": "Point", "coordinates": [-105.6314178573, 39.6486912655]}, "properties": {"species": "Aphroditeola olida", "date": "2025-07-23", "location": "Colorado, US", "elevation": 3529.0, "num_identification_agreements": 1, "tavg": null, "tmin": 3.2, "tmax": 12.3, "day_of_year": 204, "uuid": "93d375eb-e9e7-4bd1-9312-5902d4966968", "inat_id": 301433350}}, {"type": "Feature", "geometry": {"type": "Point", "coordinates": [-105.7711261243, 39.8266738139]}, "properties": {"species": "Aphroditeola olida", "date": "2024-09-06", "location": "Berthoud Pass Grand County, CO, USA", "elevation": 3374.0, "num_identification_agreements": 2, "tavg": null, "tmin": -3.6, "tmax": 13.4, "day_of_year": 250, "uuid": "182875c4-c881-44e6-a399-8dbefc51dbc1", "inat_id": 240255221}}, {"type": "Feature", "geometry": {"type": "Point", "coordinates": [-105.4274068947, 39.4538017736]}, "properties": {"species": "Aphroditeola olida", "date": "2024-07-30", "location": "Colorado, US", "elevation": 2561.0, "num_identification_agreements": 2, "tavg": null, "tmin": 6.1, "tmax": 22.4, "day_of_year": 212, "uuid": "2002d4fd-fddd-4e61-87d6-ec3eed59bb68", "inat_id": 232790895}}, {"type": "Feature", "geometry": {"type": "Point", "coordinates": [-105.722531082, 39.933228895]}, "properties": {"species": "Aphroditeola olida", "date": "2023-08-24", "location": "Colorado, US", "elevation": 3049.0, "num_identification_agreements": 2, "tavg": null, "tmin": 5.2, "tmax": 13.6, "day_of_year": 236, "uuid": "b0c6f569-9854-4553-bc69-242b45e30c3b", "inat_id": 180082270}}, {"type": "Feature", "geometry": {"type": "Point", "coordinates": [-107.8061952, 37.9322944]}, "properties": {"species": "Aphroditeola olida", "date": "2023-08-17", "location": "Firecracker Hill - Winter Sledding Hill, R1030096080, Telluride, CO 81435, USA", "elevation": 2708.0, "num_identification_agreements": 2, "tavg": null, "tmin": 11.0, "tmax": 25.0, "day_of_year": 229, "uuid": "1641afce-892a-499f-b6ff-283d965142a6", "inat_id": 178907121}}, {"type": "Feature", "geometry": {"type": "Point", "coordinates": [-106.0884, 39.3863]}, "properties": {"species": "Aphroditeola olida", "date": "2022-08-10", "location": "Colorado, Park Co., Blue Lakes, 500 ft south of eastern Blue Lakes car park.", "elevation": 3473.0, "num_identification_agreements": 1, "tavg": null, "tmin": 5.0, "tmax": 23.3, "day_of_year": 222, "uuid": "1c3b7ecf-8c68-4f07-be9f-162db86ae4cf", "inat_id": 130552559}}, {"type": "Feature", "geometry": {"type": "Point", "coordinates": [-107.8855, 37.8238]}, "properties": {"species": "Aphroditeola olida", "date": "2014-08-15", "location": "Trout Lake, San Juan Co., Colorado, USA", "elevation": 2958.0, "num_identification_agreements": 3, "tavg": null, "tmin": null, "tmax": null, "day_of_year": 227, "uuid": "61bb74ca-830e-42d4-a138-caa6f7665198", "inat_id": 3550185}}]}