{"type": "FeatureCollection", "features": [{"type": "Feature", "geometry": {"type": "Point", "coordinates": [-107.87487125, 37.914098]}, "properties": {"species": "Armillaria ostoyae", "date": "2019-08-24", "location": "San Miguel County, US-CO, US", "elevation": 2992.0, "land_cover_label": "Tree cover", "water_mask": false, "exclude_reason": "keep", "ndvi": null, "soil_moisture": null, "solar_exposure": null, "wind_exposure": null, "water_retention": null, "slope": null, "aspect": null, "num_identification_agreements": 2, "cluster": 0, "tavg": null, "tmin": 10.0, "tmax": 25.0, "prcp_d0": 0.0, "prcp_d1": 4.595932960510254, "prcp_d2": 4.595932960510254, "prcp_d3": 0.0, "prcp_d4": 0.0, "prcp_d5": 0.0, "prcp_d6": 0.0, "tmax_d0": 20.9, "tmax_d1": 18.5, "tmax_d2": 19.3, "tmax_d3": 21.0, "tmax_d4": 21.7, "tmax_d5": 22.1, "tmax_d6": 22.5, "tmin_d0": 4.6, "tmin_d1": 5.1, "tmin_d2": 6.4, "tmin_d3": 6.4, "tmin_d4": 7.6, "tmin_d5": 5.3, "tmin_d6": 4.1, "day_of_year": 236, "uuid": "3f5bdbcd-0f22-412c-a4e5-b00270b3613f", "inat_id": 31423867}}, {"type": "Feature", "geometry": {"type": "Point", "coordinates": [-105.6341710501, 39.6636898024]}, "properties": {"species": "Armillaria ostoyae", "date": "2020-08-22", "location": "Clear Creek County, US-CO, US", "elevation": 3063.0, "land_cover_label": "Tree cover", "water_mask": false, "exclude_reason": "keep", "ndvi": null, "soil_moisture": 0.2540301220000854, "solar_exposure": 0.7358176112174988, "wind_exposure": 0.2140500843524933, "water_retention": 0.4127428233623504, "slope": 9.083318710327148, "aspect": 341.919677734375, "num_identification_agreements": 1, "cluster": 3, "tavg": null, "tmin": null, "tmax": null, "prcp_d0": 0.0, "prcp_d1": 0.0, "prcp_d2": 0.0, "prcp_d3": 0.0, "prcp_d4": 0.0, "prcp_d5": 0.0, "prcp_d6": 0.0, "tmax_d0": 23.2, "tmax_d1": 21.4, "tmax_d2": 22.1, "tmax_d3": 22.1, "tmax_d4": 22.1, "tmax_d5": 22.0, "tmax_d6": 22.0, "tmin_d0": 9.4, "tmin_d1": 7.7, "tmin_d2": 7.6, "tmin_d3": 8.1, "tmin_d4": 8.2, "tmin_d5": 6.4, "tmin_d6": 7.1, "day_of_year": 235, "uuid": "2c9cd8e4-5afe-4f1d-b5cb-f77f958e3550", "inat_id": 57298712}}, {"type": "Feature", "geometry": {"type": "Point", "coordinates": [-107.8571299997, 37.8101483]}, "properties": {"species": "Armillaria ostoyae", "date": "2021-08-22", "location": "Ophir, CO 81426, USA", "elevation": 3222.0, "land_cover_label": "Tree cover", "water_mask": false, "exclude_reason": "keep", "ndvi": null, "soil_moisture": null, "solar_exposure": null, "wind_exposure": null, "water_retention": null, "slope": null, "aspect": null, "num_identification_agreements": 1, "cluster": 2, "tavg": null, "tmin": 13.0, "tmax": 22.0, "prcp_d0": 0.0, "prcp_d1": 0.0, "prcp_d2": 0.0, "prcp_d3": 0.0, "prcp_d4": 58.7341194152832, "prcp_d5": 0.0, "prcp_d6": 0.0, "tmax_d0": 16.7, "tmax_d1": 13.8, "tmax_d2": 15.1, "tmax_d3": 12.2, "tmax_d4": 16.4, "tmax_d5": 17.7, "tmax_d6": 17.6, "tmin_d0": 4.7, "tmin_d1": 1.2, "tmin_d2": 1.8, "tmin_d3": 5.3, "tmin_d4": 6.3, "tmin_d5": 1.7, "tmin_d6": 3.4, "day_of_year": 234, "uuid": "1f242c3d-8111-4a19-874a-9f3a39965e40", "inat_id": 92315133}}, {"type": "Feature", "geometry": {"type": "Point", "coordinates": [-105.0655310195, 38.3364105842]}, "properties": {"species": "Armillaria ostoyae", "date": "2021-08-30", "location": "Colorado, US", "elevation": 1642.0, "land_cover_label": "Grassland", "water_mask": false, "exclude_reason": "keep", "ndvi": null, "soil_moisture": null, "solar_exposure": null, "wind_exposure": null, "water_retention": null, "slope": null, "aspect": null, "num_identification_agreements": 1, "cluster": 0, "tavg": null, "tmin": 11.6, "tmax": 32.4, "prcp_d0": 0.0, "prcp_d1": 0.0, "prcp_d2": 0.0, "prcp_d3": 0.0, "prcp_d4": 0.0, "prcp_d5": 0.0, "prcp_d6": 0.0, "tmax_d0": 32.4, "tmax_d1": 31.8, "tmax_d2": 34.4, "tmax_d3": 32.7, "tmax_d4": 32.4, "tmax_d5": 32.0, "tmax_d6": 34.3, "tmin_d0": 15.3, "tmin_d1": 17.3, "tmin_d2": 18.3, "tmin_d3": 16.5, "tmin_d4": 17.9, "tmin_d5": 17.7, "tmin_d6": 18.1, "day_of_year": 242, "uuid": "8129a95f-d993-4ac6-bead-6332490e808e", "inat_id": 93145597}}, {"type": "Feature", "geometry": {"type": "Point", "coordinates": [-122.2180203, 45.5362717]}, "properties": {"species": "Armillaria ostoyae", "date": "2021-11-10", "location": "Multnomah County, OR, USA", "elevation": 163.0, "land_cover_label": "Tree cover", "water_mask": false, "exclude_reason": "keep", "ndvi": null, "soil_moisture": null, "solar_exposure": null, "wind_exposure": null, "water_retention": null, "slope": null, "aspect": null, "num_identification_agreements": 1, "cluster": 1, "tavg": null, "tmin": 6.1, "tmax": 12.2, "prcp_d0": 0.0, "prcp_d1": 40.87580108642578, "prcp_d2": 0.0, "prcp_d3": 0.0, "prcp_d4": 0.0, "prcp_d5": 0.0, "prcp_d6": 12.223722457885742, "tmax_d0": 11.8, "tmax_d1": 10.0, "tmax_d2": 11.9, "tmax_d3": 10.0, "tmax_d4": 10.3, "tmax_d5": 11.7, "tmax_d6": 12.8, "tmin_d0": 5.4, "tmin_d1": 6.5, "tmin_d2": 2.6, "tmin_d3": 3.4, "tmin_d4": 4.7, "tmin_d5": 8.1, "tmin_d6": 8.4, "day_of_year": 314, "uuid": "d55905d7-cc95-460e-b798-e67c7fa8b655", "inat_id": 151067504}}, {"type": "Feature", "geometry": {"type": "Point", "coordinates": [-107.8797027778, 37.8321694444]}, "properties": {"species": "Armillaria ostoyae", "date": "2022-08-20", "location": "Ophir, CO 81426, USA", "elevation": 2982.0, "land_cover_label": "Tree cover", "water_mask": false, "exclude_reason": "keep", "ndvi": null, "soil_moisture": null, "solar_exposure": null, "wind_exposure": null, "water_retention": null, "slope": null, "aspect": null, "num_identification_agreements": 1, "cluster": 2, "tavg": null, "tmin": 10.0, "tmax": 17.0, "prcp_d0": 0.0, "prcp_d1": 0.0, "prcp_d2": 0.0, "prcp_d3": 0.0, "prcp_d4": 0.0, "prcp_d5": 0.0, "prcp_d6": 37.34519577026367, "tmax_d0": 13.9, "tmax_d1": 17.5, "tmax_d2": 21.3, "tmax_d3": 16.9, "tmax_d4": 17.4, "tmax_d5": 18.9, "tmax_d6": 19.5, "tmin_d0": 3.7, "tmin_d1": 7.0, "tmin_d2": 6.2, "tmin_d3": 6.1, "tmin_d4": 6.5, "tmin_d5": 6.4, "tmin_d6": 6.7, "day_of_year": 232, "uuid": "d6740a12-0e59-4f89-a6d1-1dee786461a6", "inat_id": 134385393}}, {"type": "Feature", "geometry": {"type": "Point", "coordinates": [-107.6091782997, 37.7201446997]}, "properties": {"species": "Armillaria ostoyae", "date": "2022-08-20", "location": "Silverton, CO 81433, USA", "elevation": 3045.0, "land_cover_label": "Tree cover", "water_mask": false, "exclude_reason": "keep", "ndvi": null, "soil_moisture": null, "solar_exposure": null, "wind_exposure": null, "water_retention": null, "slope": null, "aspect": null, "num_identification_agreements": 1, "cluster": 0, "tavg": null, "tmin": 10.0, "tmax": 17.0, "prcp_d0": 0.0, "prcp_d1": 0.0, "prcp_d2": 28.90706253051757, "prcp_d3": 0.0, "prcp_d4": 0.0, "prcp_d5": 0.0, "prcp_d6": 0.0, "tmax_d0": 13.6, "tmax_d1": 15.6, "tmax_d2": 21.1, "tmax_d3": 16.7, "tmax_d4": 17.4, "tmax_d5": 18.7, "tmax_d6": 19.0, "tmin_d0": 4.9, "tmin_d1": 7.7, "tmin_d2": 3.9, "tmin_d3": 4.9, "tmin_d4": 7.4, "tmin_d5": 3.5, "tmin_d6": 5.1, "day_of_year": 232, "uuid": "dd883473-7971-4683-8e37-6b4281645877", "inat_id": 131683775}}, {"type": "Feature", "geometry": {"type": "Point", "coordinates": [-107.937585935, 37.7963194149]}, "properties": {"species": "Armillaria ostoyae", "date": "2022-08-21", "location": "Cross Mountain Trailhead", "elevation": 3071.0, "land_cover_label": "Bare / sparse vegetation", "water_mask": false, "exclude_reason": "keep", "ndvi": null, "soil_moisture": null, "solar_exposure": null, "wind_exposure": null, "water_retention": null, "slope": null, "aspect": null, "num_identification_agreements": 2, "cluster": 0, "tavg": null, "tmin": 9.0, "tmax": 17.0, "prcp_d0": 0.0, "prcp_d1": 0.0, "prcp_d2": 0.0, "prcp_d3": 0.0, "prcp_d4": 0.0, "prcp_d5": 11.528854370117188, "prcp_d6": 0.0, "tmax_d0": 15.6, "tmax_d1": 13.4, "tmax_d2": 17.1, "tmax_d3": 20.3, "tmax_d4": 16.9, "tmax_d5": 17.1, "tmax_d6": 18.5, "tmin_d0": 2.7, "tmin_d1": 6.4, "tmin_d2": 7.5, "tmin_d3": 6.1, "tmin_d4": 5.7, "tmin_d5": 7.1, "tmin_d6": 5.2, "day_of_year": 233, "uuid": "66bdd1f1-990a-4aed-b577-54cea112b947", "inat_id": 132484504}}, {"type": "Feature", "geometry": {"type": "Point", "coordinates": [-107.950997, 37.800505]}, "properties": {"species": "Armillaria ostoyae", "date": "2022-08-21", "location": "Dolores, CO 81323, USA", "elevation": 3268.0, "land_cover_label": "Tree cover", "water_mask": false, "exclude_reason": "keep", "ndvi": null, "soil_moisture": null, "solar_exposure": null, "wind_exposure": null, "water_retention": null, "slope": null, "aspect": null, "num_identification_agreements": 2, "cluster": 0, "tavg": null, "tmin": 9.0, "tmax": 17.0, "prcp_d0": 0.0, "prcp_d1": 0.0, "prcp_d2": 0.0, "prcp_d3": 0.0, "prcp_d4": 0.0, "prcp_d5": 9.466094970703123, "prcp_d6": 7.175105094909668, "tmax_d0": 13.6, "tmax_d1": 11.4, "tmax_d2": 15.1, "tmax_d3": 18.4, "tmax_d4": 14.9, "tmax_d5": 15.1, "tmax_d6": 16.6, "tmin_d0": 0.7, "tmin_d1": 4.4, "tmin_d2": 5.5, "tmin_d3": 4.1, "tmin_d4": 3.8, "tmin_d5": 5.2, "tmin_d6": 3.2, "day_of_year": 233, "uuid": "bec20ab2-15e7-44de-b3ba-7571266137c9", "inat_id": 132483732}}, {"type": "Feature", "geometry": {"type": "Point", "coordinates": [-107.8966715757, 37.9444601001]}, "properties": {"species": "Armillaria ostoyae", "date": "2022-08-21", "location": "Colorado, US", "elevation": 2490.0, "land_cover_label": "Bare / sparse vegetation", "water_mask": false, "exclude_reason": "keep", "ndvi": null, "soil_moisture": null, "solar_exposure": null, "wind_exposure": null, "water_retention": null, "slope": null, "aspect": null, "num_identification_agreements": 1, "cluster": 0, "tavg": null, "tmin": 9.0, "tmax": 17.0, "prcp_d0": 0.0, "prcp_d1": 0.0, "prcp_d2": 0.0, "prcp_d3": 0.0, "prcp_d4": 0.0, "prcp_d5": 0.0, "prcp_d6": 0.0, "tmax_d0": 19.2, "tmax_d1": 18.5, "tmax_d2": 21.9, "tmax_d3": 23.0, "tmax_d4": 20.6, "tmax_d5": 21.3, "tmax_d6": 22.8, "tmin_d0": 6.8, "tmin_d1": 6.9, "tmin_d2": 9.6, "tmin_d3": 8.1, "tmin_d4": 7.4, "tmin_d5": 9.2, "tmin_d6": 9.3, "day_of_year": 233, "uuid": "f2587526-65cd-4e56-b7e3-55625004d531", "inat_id": 131938703}}, {"type": "Feature", "geometry": {"type": "Point", "coordinates": [-105.4122170806, 36.605205713]}, "properties": {"species": "Armillaria ostoyae", "date": "2022-08-24", "location": "Taos Ski Valley, NM 87525, USA", "elevation": 3094.0, "land_cover_label": "Tree cover", "water_mask": false, "exclude_reason": "keep", "ndvi": null, "soil_moisture": null, "solar_exposure": null, "wind_exposure": null, "water_retention": null, "slope": null, "aspect": null, "num_identification_agreements": 1, "cluster": 0, "tavg": null, "tmin": 6.3, "tmax": 21.0, "prcp_d0": 0.0, "prcp_d1": 0.0, "prcp_d2": 0.0, "prcp_d3": 0.0, "prcp_d4": 0.0, "prcp_d5": 0.0, "prcp_d6": 0.0, "tmax_d0": 16.1, "tmax_d1": 15.5, "tmax_d2": 14.7, "tmax_d3": 14.7, "tmax_d4": 15.1, "tmax_d5": 17.7, "tmax_d6": 18.7, "tmin_d0": 6.3, "tmin_d1": 5.7, "tmin_d2": 6.8, "tmin_d3": 4.7, "tmin_d4": 7.2, "tmin_d5": 7.0, "tmin_d6": 7.5, "day_of_year": 236, "uuid": "e4c31b92-14e1-4180-92f1-0f4dce4c17c5", "inat_id": 132281839}}, {"type": "Feature", "geometry": {"type": "Point", "coordinates": [-107.9380995781, 37.7885913849]}, "properties": {"species": "Armillaria ostoyae", "date": "2022-08-27", "location": "Dolores County, US-CO, US", "elevation": 3116.0, "land_cover_label": "Tree cover", "water_mask": false, "exclude_reason": "keep", "ndvi": null, "soil_moisture": null, "solar_exposure": null, "wind_exposure": null, "water_retention": null, "slope": null, "aspect": null, "num_identification_agreements": 2, "cluster": 0, "tavg": null, "tmin": 7.0, "tmax": 20.0, "prcp_d0": 0.0, "prcp_d1": 11.770298957824709, "prcp_d2": 7.589012622833252, "prcp_d3": 0.0, "prcp_d4": 0.0, "prcp_d5": 0.0, "prcp_d6": 0.0, "tmax_d0": 16.6, "tmax_d1": 13.2, "tmax_d2": 17.0, "tmax_d3": 17.7, "tmax_d4": 17.3, "tmax_d5": 15.5, "tmax_d6": 15.2, "tmin_d0": 1.8, "tmin_d1": 5.8, "tmin_d2": 6.1, "tmin_d3": 5.8, "tmin_d4": 3.4, "tmin_d5": 5.1, "tmin_d6": 2.3, "day_of_year": 239, "uuid": "04b3788a-ca1e-4db9-8c65-21307b19c92a", "inat_id": 132609793}}, {"type": "Feature", "geometry": {"type": "Point", "coordinates": [-107.934349347, 37.7851767652]}, "properties": {"species": "Armillaria ostoyae", "date": "2022-08-28", "location": "Dolores County, US-CO, US", "elevation": 3182.0, "land_cover_label": "Tree cover", "water_mask": false, "exclude_reason": "keep", "ndvi": null, "soil_moisture": null, "solar_exposure": null, "wind_exposure": null, "water_retention": null, "slope": null, "aspect": null, "num_identification_agreements": 2, "cluster": 0, "tavg": null, "tmin": 8.0, "tmax": 20.0, "prcp_d0": 7.619271755218506, "prcp_d1": 0.0, "prcp_d2": 11.770298957824709, "prcp_d3": 7.589012622833252, "prcp_d4": 0.0, "prcp_d5": 0.0, "prcp_d6": 0.0, "tmax_d0": 15.7, "tmax_d1": 16.3, "tmax_d2": 12.9, "tmax_d3": 16.7, "tmax_d4": 17.4, "tmax_d5": 17.0, "tmax_d6": 15.2, "tmin_d0": 4.5, "tmin_d1": 1.5, "tmin_d2": 5.5, "tmin_d3": 5.8, "tmin_d4": 5.5, "tmin_d5": 3.1, "tmin_d6": 4.8, "day_of_year": 240, "uuid": "a8573f23-f6f7-48e7-a3c1-eec996705443", "inat_id": 132724722}}, {"type": "Feature", "geometry": {"type": "Point", "coordinates": [-105.8057809541, 39.5926844943]}, "properties": {"species": "Armillaria ostoyae", "date": "2022-08-28", "location": "Colorado, US", "elevation": 3818.0, "land_cover_label": "Moss and lichen", "water_mask": false, "exclude_reason": "keep", "ndvi": null, "soil_moisture": 0.3867647674318751, "solar_exposure": 0.9395238757133484, "wind_exposure": 0.6247589588165283, "water_retention": 0.110065758228302, "slope": 23.332075119018555, "aspect": 219.85874938964844, "num_identification_agreements": 1, "cluster": 0, "tavg": null, "tmin": 2.8, "tmax": 12.1, "prcp_d0": 0.0, "prcp_d1": 0.0, "prcp_d2": 0.0, "prcp_d3": 0.0, "prcp_d4": 0.0, "prcp_d5": 0.0, "prcp_d6": 30.504371643066406, "tmax_d0": 12.0, "tmax_d1": 11.3, "tmax_d2": 11.3, "tmax_d3": 12.6, "tmax_d4": 11.4, "tmax_d5": 11.9, "tmax_d6": 10.5, "tmin_d0": 0.4, "tmin_d1": -3.3, "tmin_d2": -1.3, "tmin_d3": 0.1, "tmin_d4": -0.1, "tmin_d5": -3.3, "tmin_d6": -2.2, "day_of_year": 240, "uuid": "031bf72c-9e19-40be-a76a-0fb5ced0a569", "inat_id": 132712603}}, {"type": "Feature", "geometry": {"type": "Point", "coordinates": [-107.9341479299, 37.7851771843]}, "properties": {"species": "Armillaria ostoyae", "date": "2022-08-28", "location": "Dolores County, US-CO, US", "elevation": 3182.0, "land_cover_label": "Tree cover", "water_mask": false, "exclude_reason": "keep", "ndvi": null, "soil_moisture": null, "solar_exposure": null, "wind_exposure": null, "water_retention": null, "slope": null, "aspect": null, "num_identification_agreements": 2, "cluster": 0, "tavg": null, "tmin": 8.0, "tmax": 20.0, "prcp_d0": 7.619271755218506, "prcp_d1": 0.0, "prcp_d2": 11.770298957824709, "prcp_d3": 7.589012622833252, "prcp_d4": 0.0, "prcp_d5": 0.0, "prcp_d6": 0.0, "tmax_d0": 15.7, "tmax_d1": 16.2, "tmax_d2": 12.8, "tmax_d3": 16.7, "tmax_d4": 17.4, "tmax_d5": 16.9, "tmax_d6": 15.1, "tmin_d0": 4.4, "tmin_d1": 1.5, "tmin_d2": 5.5, "tmin_d3": 5.7, "tmin_d4": 5.4, "tmin_d5": 3.0, "tmin_d6": 4.7, "day_of_year": 240, "uuid": "4788c2dd-d90b-4fd8-a432-09c49ade1e7c", "inat_id": 132725111}}, {"type": "Feature", "geometry": {"type": "Point", "coordinates": [-105.3514660522, 39.6125163584]}, "properties": {"species": "Armillaria ostoyae", "date": "2022-09-11", "location": "Hangen Ranch And M&B, CO 80439, USA", "elevation": 2365.0, "land_cover_label": "Tree cover", "water_mask": false, "exclude_reason": "keep", "ndvi": null, "soil_moisture": 0.2890028959610842, "solar_exposure": 0.6449280977249146, "wind_exposure": 0.3405056893825531, "water_retention": 0.1165022775530815, "slope": 21.40822029113769, "aspect": 54.44601058959961, "num_identification_agreements": 2, "cluster": 0, "tavg": null, "tmin": 7.0, "tmax": 24.0, "prcp_d0": 0.0, "prcp_d1": 0.0, "prcp_d2": 0.0, "prcp_d3": 0.0, "prcp_d4": 0.0, "prcp_d5": 0.0, "prcp_d6": 0.0, "tmax_d0": 19.1, "tmax_d1": 8.5, "tmax_d2": 21.3, "tmax_d3": 29.1, "tmax_d4": 29.6, "tmax_d5": 29.4, "tmax_d6": 28.4, "tmin_d0": 4.7, "tmin_d1": 4.8, "tmin_d2": 7.4, "tmin_d3": 14.5, "tmin_d4": 16.1, "tmin_d5": 14.0, "tmin_d6": 13.1, "day_of_year": 254, "uuid": "c8fbeb57-05f5-4aa2-b5a1-344fbe0b5b81", "inat_id": 134646666}}, {"type": "Feature", "geometry": {"type": "Point", "coordinates": [-105.9722521312, 39.5884600311]}, "properties": {"species": "Armillaria ostoyae", "date": "2022-09-20", "location": "White River National Forest, Dillon, CO, US", "elevation": 2889.0, "land_cover_label": "Tree cover", "water_mask": false, "exclude_reason": "keep", "ndvi": null, "soil_moisture": 0.323447057087652, "solar_exposure": 0.7443961501121521, "wind_exposure": 0.1850700825452804, "water_retention": 0.310254693031311, "slope": 19.51517105102539, "aspect": 78.51593780517578, "num_identification_agreements": 2, "cluster": 3, "tavg": null, "tmin": 1.2, "tmax": 14.0, "prcp_d0": 0.0, "prcp_d1": 0.0, "prcp_d2": 0.0, "prcp_d3": 0.0, "prcp_d4": 0.0, "prcp_d5": 0.0, "prcp_d6": 6.558164119720459, "tmax_d0": 19.8, "tmax_d1": 19.5, "tmax_d2": 19.3, "tmax_d3": 15.9, "tmax_d4": 14.7, "tmax_d5": 13.9, "tmax_d6": 14.7, "tmin_d0": 2.5, "tmin_d1": 2.5, "tmin_d2": 2.4, "tmin_d3": 2.0, "tmin_d4": 1.4, "tmin_d5": 2.2, "tmin_d6": 5.0, "day_of_year": 263, "uuid": "a844488d-d086-481e-90c9-d83999cc2ddb", "inat_id": 135807348}}, {"type": "Feature", "geometry": {"type": "Point", "coordinates": [-105.2916568145, 39.5997436134]}, "properties": {"species": "Armillaria ostoyae", "date": "2022-09-20", "location": "Evergreen", "elevation": 2434.0, "land_cover_label": "Tree cover", "water_mask": false, "exclude_reason": "keep", "ndvi": null, "soil_moisture": 0.2026058070164818, "solar_exposure": 0.828377366065979, "wind_exposure": 0.409674733877182, "water_retention": 0.208740621805191, "slope": 5.700759410858154, "aspect": 276.2430725097656, "num_identification_agreements": 1, "cluster": 0, "tavg": null, "tmin": 18.0, "tmax": 32.0, "prcp_d0": 0.0, "prcp_d1": 0.0, "prcp_d2": 0.0, "prcp_d3": 7.175436496734619, "prcp_d4": 0.0, "prcp_d5": 0.0, "prcp_d6": 0.0, "tmax_d0": 24.2, "tmax_d1": 23.2, "tmax_d2": 22.5, "tmax_d3": 19.6, "tmax_d4": 19.2, "tmax_d5": 16.6, "tmax_d6": 19.1, "tmin_d0": 7.4, "tmin_d1": 6.8, "tmin_d2": 5.0, "tmin_d3": 7.0, "tmin_d4": 4.5, "tmin_d5": 5.3, "tmin_d6": 10.1, "day_of_year": 263, "uuid": "71b409c6-3a55-4944-a8eb-2e40345502df", "inat_id": 136628984}}, {"type": "Feature", "geometry": {"type": "Point", "coordinates": [-105.6893907379, 39.7151109737]}, "properties": {"species": "Armillaria ostoyae", "date": "2022-09-22", "location": "Colorado, US", "elevation": 2764.0, "land_cover_label": "Tree cover", "water_mask": false, "exclude_reason": "keep", "ndvi": null, "soil_moisture": 0.4018490340293804, "solar_exposure": 0.5773168802261353, "wind_exposure": 0.4360267519950866, "water_retention": 0.1389492601156234, "slope": 40.13521194458008, "aspect": 280.38482666015625, "num_identification_agreements": 1, "cluster": 0, "tavg": null, "tmin": 1.1, "tmax": 8.8, "prcp_d0": 0.0, "prcp_d1": 0.0, "prcp_d2": 0.0, "prcp_d3": 0.0, "prcp_d4": 0.0, "prcp_d5": 0.0, "prcp_d6": 0.0, "tmax_d0": 17.0, "tmax_d1": 16.8, "tmax_d2": 21.5, "tmax_d3": 21.0, "tmax_d4": 21.0, "tmax_d5": 17.7, "tmax_d6": 16.7, "tmin_d0": 5.8, "tmin_d1": 7.6, "tmin_d2": 4.8, "tmin_d3": 4.7, "tmin_d4": 1.9, "tmin_d5": 1.3, "tmin_d6": 1.6, "day_of_year": 265, "uuid": "a3b58ef9-357c-4a16-ab31-e5c1f326e53c", "inat_id": 136105276}}, {"type": "Feature", "geometry": {"type": "Point", "coordinates": [-105.2886972813, 39.7837630072]}, "properties": {"species": "Armillaria ostoyae", "date": "2022-10-09", "location": "Colorado, US", "elevation": 2209.0, "land_cover_label": "Grassland", "water_mask": false, "exclude_reason": "keep", "ndvi": null, "soil_moisture": 0.2682075173596696, "solar_exposure": 0.8283085227012634, "wind_exposure": 0.3037370145320892, "water_retention": 0.1200830936431884, "slope": 20.3942928314209, "aspect": 103.5087661743164, "num_identification_agreements": 2, "cluster": 0, "tavg": null, "tmin": 8.0, "tmax": 22.0, "prcp_d0": 0.0, "prcp_d1": 0.0, "prcp_d2": 0.0, "prcp_d3": 0.0, "prcp_d4": 0.0, "prcp_d5": 0.0, "prcp_d6": 0.0, "tmax_d0": 16.8, "tmax_d1": 13.4, "tmax_d2": 13.5, "tmax_d3": 16.7, "tmax_d4": 15.0, "tmax_d5": 15.0, "tmax_d6": 18.0, "tmin_d0": 2.2, "tmin_d1": 0.6, "tmin_d2": 2.7, "tmin_d3": 3.5, "tmin_d4": 3.1, "tmin_d5": 4.7, "tmin_d6": 6.7, "day_of_year": 282, "uuid": "a2b13400-7245-48ab-8024-06d99549007b", "inat_id": 138202951}}, {"type": "Feature", "geometry": {"type": "Point", "coordinates": [-105.4312666667, 41.254325]}, "properties": {"species": "Armillaria ostoyae", "date": "2023-09-01", "location": "Porcupine Hill Rd, Laramie, WY, US", "elevation": 2597.0, "land_cover_label": "Tree cover", "water_mask": false, "exclude_reason": "keep", "ndvi": null, "soil_moisture": 0.1289497646588772, "solar_exposure": 0.74825119972229, "wind_exposure": 0.3082875311374664, "water_retention": 0.3727625608444214, "slope": 7.983619689941406, "aspect": 14.637316703796388, "num_identification_agreements": 1, "cluster": 0, "tavg": null, "tmin": 14.4, "tmax": 26.2, "prcp_d0": 0.0, "prcp_d1": 0.0, "prcp_d2": 0.0, "prcp_d3": 0.0, "prcp_d4": 0.0, "prcp_d5": 0.0, "prcp_d6": 0.0, "tmax_d0": 25.6, "tmax_d1": 25.4, "tmax_d2": 24.8, "tmax_d3": 19.1, "tmax_d4": 17.9, "tmax_d5": 20.1, "tmax_d6": 16.6, "tmin_d0": 12.9, "tmin_d1": 9.2, "tmin_d2": 11.1, "tmin_d3": 7.1, "tmin_d4": 7.7, "tmin_d5": 10.1, "tmin_d6": 8.0, "day_of_year": 244, "uuid": "bc680e59-60b8-4c4e-a013-cea3718a3de5", "inat_id": 181499136}}, {"type": "Feature", "geometry": {"type": "Point", "coordinates": [-105.5510381609, 40.0710310237]}, "properties": {"species": "Armillaria ostoyae", "date": "2023-09-02", "location": "Ward, CO 80481, USA", "elevation": 3219.0, "land_cover_label": "Tree cover", "water_mask": false, "exclude_reason": "keep", "ndvi": null, "soil_moisture": 0.2994371357500753, "solar_exposure": 0.7721622586250305, "wind_exposure": 0.3404466509819031, "water_retention": 0.3933326303958893, "slope": 5.901895999908447, "aspect": 3.931787252426148, "num_identification_agreements": 1, "cluster": 0, "tavg": null, "tmin": 20.0, "tmax": 33.0, "prcp_d0": 0.0, "prcp_d1": 0.0, "prcp_d2": 0.0, "prcp_d3": 0.0, "prcp_d4": 0.0, "prcp_d5": 0.0, "prcp_d6": 0.0, "tmax_d0": 19.1, "tmax_d1": 19.8, "tmax_d2": 19.4, "tmax_d3": 18.9, "tmax_d4": 15.7, "tmax_d5": 13.7, "tmax_d6": 17.2, "tmin_d0": 6.9, "tmin_d1": 7.8, "tmin_d2": 6.3, "tmin_d3": 4.5, "tmin_d4": 3.6, "tmin_d5": 4.8, "tmin_d6": 4.5, "day_of_year": 245, "uuid": "a49ae46e-9da6-4d72-96d0-5ca277b77df7", "inat_id": 181465082}}, {"type": "Feature", "geometry": {"type": "Point", "coordinates": [-109.2632784694, 38.4808332289]}, "properties": {"species": "Armillaria ostoyae", "date": "2023-09-16", "location": "Moab, UT 84532, USA", "elevation": 3037.0, "land_cover_label": "Shrubland", "water_mask": false, "exclude_reason": "keep", "ndvi": null, "soil_moisture": null, "solar_exposure": null, "wind_exposure": null, "water_retention": null, "slope": null, "aspect": null, "num_identification_agreements": 1, "cluster": 0, "tavg": null, "tmin": null, "tmax": null, "prcp_d0": 0.0, "prcp_d1": 0.0, "prcp_d2": 0.0, "prcp_d3": 0.0, "prcp_d4": 0.0, "prcp_d5": 0.0, "prcp_d6": 5.941030502319336, "tmax_d0": 13.6, "tmax_d1": 11.0, "tmax_d2": 10.7, "tmax_d3": 10.8, "tmax_d4": 13.7, "tmax_d5": 14.3, "tmax_d6": 16.7, "tmin_d0": 3.1, "tmin_d1": 0.7, "tmin_d2": 2.5, "tmin_d3": 4.0, "tmin_d4": 6.3, "tmin_d5": 4.3, "tmin_d6": 6.4, "day_of_year": 259, "uuid": "490b35ea-e991-4d37-ba4e-f4ac0b700180", "inat_id": 183551437}}, {"type": "Feature", "geometry": {"type": "Point", "coordinates": [-105.8060672622, 35.7709735034]}, "properties": {"species": "Armillaria ostoyae", "date": "2024-08-11", "location": "Santa Fe County, US-NM, US", "elevation": 3025.0, "land_cover_label": "Tree cover", "water_mask": false, "exclude_reason": "keep", "ndvi": null, "soil_moisture": null, "solar_exposure": null, "wind_exposure": null, "water_retention": null, "slope": null, "aspect": null, "num_identification_agreements": 1, "cluster": 0, "tavg": null, "tmin": 18.9, "tmax": 31.1, "prcp_d0": 0.0, "prcp_d1": 5.929532051086426, "prcp_d2": 11.859064102172852, "prcp_d3": 11.859064102172852, "prcp_d4": 0.0, "prcp_d5": 5.929532051086426, "prcp_d6": 8.402263641357422, "tmax_d0": 20.5, "tmax_d1": 18.4, "tmax_d2": 17.8, "tmax_d3": 21.0, "tmax_d4": 21.9, "tmax_d5": 23.3, "tmax_d6": 22.3, "tmin_d0": 11.8, "tmin_d1": 9.4, "tmin_d2": 8.3, "tmin_d3": 8.6, "tmin_d4": 11.2, "tmin_d5": 9.2, "tmin_d6": 10.5, "day_of_year": 224, "uuid": "490e3d55-4d10-4134-82e7-b7665d89556d", "inat_id": 235375577}}, {"type": "Feature", "geometry": {"type": "Point", "coordinates": [-106.8240047508, 36.0753292761]}, "properties": {"species": "Armillaria ostoyae", "date": "2024-08-12", "location": "Rio Arriba County, NM, USA", "elevation": 3085.0, "land_cover_label": "Tree cover", "water_mask": false, "exclude_reason": "keep", "ndvi": null, "soil_moisture": null, "solar_exposure": null, "wind_exposure": null, "water_retention": null, "slope": null, "aspect": null, "num_identification_agreements": 1, "cluster": 0, "tavg": null, "tmin": null, "tmax": null, "prcp_d0": 0.0, "prcp_d1": 0.0, "prcp_d2": 0.0, "prcp_d3": 0.0, "prcp_d4": 3.3510398864746094, "prcp_d5": 3.3510398864746094, "prcp_d6": 6.702079772949219, "tmax_d0": 20.2, "tmax_d1": 20.1, "tmax_d2": 19.4, "tmax_d3": 18.8, "tmax_d4": 19.1, "tmax_d5": 21.0, "tmax_d6": 22.7, "tmin_d0": 10.7, "tmin_d1": 10.4, "tmin_d2": 8.7, "tmin_d3": 8.4, "tmin_d4": 10.9, "tmin_d5": 10.1, "tmin_d6": 11.3, "day_of_year": 225, "uuid": "964aed1e-ef1f-4f00-978b-f52b0c30bc1e", "inat_id": 235786187}}, {"type": "Feature", "geometry": {"type": "Point", "coordinates": [-109.7902517715, 37.7256903141]}, "properties": {"species": "Armillaria ostoyae", "date": "2024-09-09", "location": "Manti-La Sal National Forest, Monticello, UT, US", "elevation": 2518.0, "land_cover_label": "Tree cover", "water_mask": false, "exclude_reason": "keep", "ndvi": null, "soil_moisture": null, "solar_exposure": null, "wind_exposure": null, "water_retention": null, "slope": null, "aspect": null, "num_identification_agreements": 1, "cluster": 0, "tavg": null, "tmin": 13.5, "tmax": 29.5, "prcp_d0": 0.0, "prcp_d1": 0.0, "prcp_d2": 0.0, "prcp_d3": 0.0, "prcp_d4": 0.0, "prcp_d5": 0.0, "prcp_d6": 0.0, "tmax_d0": 22.7, "tmax_d1": 22.5, "tmax_d2": 22.2, "tmax_d3": 21.1, "tmax_d4": 22.1, "tmax_d5": 23.5, "tmax_d6": 22.6, "tmin_d0": 10.6, "tmin_d1": 10.3, "tmin_d2": 11.0, "tmin_d3": 9.7, "tmin_d4": 9.0, "tmin_d5": 11.7, "tmin_d6": 10.4, "day_of_year": 253, "uuid": "93a835a1-6155-4fe9-ade0-9ed857c2d3e3", "inat_id": 240826416}}, {"type": "Feature", "geometry": {"type": "Point", "coordinates": [-106.621995, 40.6465866667]}, "properties": {"species": "Armillaria ostoyae", "date": "2024-09-18", "location": "Rainbow Lakes Trail, Walden, CO, US", "elevation": 3008.0, "land_cover_label": "Tree cover", "water_mask": false, "exclude_reason": "keep", "ndvi": null, "soil_moisture": null, "solar_exposure": null, "wind_exposure": null, "water_retention": null, "slope": null, "aspect": null, "num_identification_agreements": 1, "cluster": 0, "tavg": null, "tmin": 2.1, "tmax": 19.5, "prcp_d0": 0.0, "prcp_d1": 0.0, "prcp_d2": 0.0, "prcp_d3": 3.4736478328704834, "prcp_d4": 7.594193448312581e-06, "prcp_d5": 0.1877883523702621, "prcp_d6": 2.008496046066284, "tmax_d0": 10.4, "tmax_d1": 12.9, "tmax_d2": 16.1, "tmax_d3": 17.2, "tmax_d4": 16.3, "tmax_d5": 12.6, "tmax_d6": 15.9, "tmin_d0": 0.3, "tmin_d1": 6.1, "tmin_d2": 7.1, "tmin_d3": 6.9, "tmin_d4": 4.7, "tmin_d5": 1.5, "tmin_d6": 7.3, "day_of_year": 262, "uuid": "38efd18c-634a-4105-adaf-49c2912f4fa3", "inat_id": 242602875}}, {"type": "Feature", "geometry": {"type": "Point", "coordinates": [-121.7024533333, 45.3152666667]}, "properties": {"species": "Armillaria ostoyae", "date": "2024-09-18", "location": "Mt. Hood Park Division Recreation Area, Government Camp, OR, US", "elevation": 1615.0, "land_cover_label": "Tree cover", "water_mask": false, "exclude_reason": "keep", "ndvi": null, "soil_moisture": null, "solar_exposure": null, "wind_exposure": null, "water_retention": null, "slope": null, "aspect": null, "num_identification_agreements": 1, "cluster": 0, "tavg": null, "tmin": 13.5, "tmax": 21.8, "prcp_d0": 7.5286383628845215, "prcp_d1": 0.0, "prcp_d2": 0.0, "prcp_d3": 0.0, "prcp_d4": 0.0, "prcp_d5": 0.0, "prcp_d6": 0.0, "tmax_d0": 13.0, "tmax_d1": 14.2, "tmax_d2": 16.5, "tmax_d3": 10.6, "tmax_d4": 14.0, "tmax_d5": 15.5, "tmax_d6": 9.7, "tmin_d0": 5.4, "tmin_d1": 4.0, "tmin_d2": 4.1, "tmin_d3": 1.7, "tmin_d4": 5.6, "tmin_d5": 3.0, "tmin_d6": 4.9, "day_of_year": 262, "uuid": "84bb53d1-c0e1-45c7-b455-d49ef645a6c7", "inat_id": 242696117}}, {"type": "Feature", "geometry": {"type": "Point", "coordinates": [-121.702645, 45.315195]}, "properties": {"species": "Armillaria ostoyae", "date": "2024-09-18", "location": "Mt. Hood Park Division Recreation Area, Government Camp, OR, US", "elevation": 1615.0, "land_cover_label": "Tree cover", "water_mask": false, "exclude_reason": "keep", "ndvi": null, "soil_moisture": null, "solar_exposure": null, "wind_exposure": null, "water_retention": null, "slope": null, "aspect": null, "num_identification_agreements": 1, "cluster": 0, "tavg": null, "tmin": 13.5, "tmax": 21.8, "prcp_d0": 7.5286383628845215, "prcp_d1": 0.0, "prcp_d2": 0.0, "prcp_d3": 0.0, "prcp_d4": 0.0, "prcp_d5": 0.0, "prcp_d6": 0.0, "tmax_d0": 13.0, "tmax_d1": 14.2, "tmax_d2": 16.4, "tmax_d3": 10.6, "tmax_d4": 14.0, "tmax_d5": 15.4, "tmax_d6": 9.6, "tmin_d0": 5.3, "tmin_d1": 4.0, "tmin_d2": 4.0, "tmin_d3": 1.7, "tmin_d4": 5.6, "tmin_d5": 2.9, "tmin_d6": 4.8, "day_of_year": 262, "uuid": "57587c36-5076-4e66-8e27-72ae0ce4b6eb", "inat_id": 243427840}}, {"type": "Feature", "geometry": {"type": "Point", "coordinates": [-121.6565638889, 45.3255527778]}, "properties": {"species": "Armillaria ostoyae", "date": "2024-09-20", "location": "MT HOOD PRKDL, OR 97041, USA", "elevation": 1588.0, "land_cover_label": "Tree cover", "water_mask": false, "exclude_reason": "keep", "ndvi": null, "soil_moisture": null, "solar_exposure": null, "wind_exposure": null, "water_retention": null, "slope": null, "aspect": null, "num_identification_agreements": 1, "cluster": 0, "tavg": null, "tmin": 10.8, "tmax": 19.5, "prcp_d0": 0.0, "prcp_d1": 0.0, "prcp_d2": 6.888818264007568, "prcp_d3": 0.0, "prcp_d4": 0.0, "prcp_d5": 0.0, "prcp_d6": 0.0, "tmax_d0": 11.9, "tmax_d1": 14.9, "tmax_d2": 13.2, "tmax_d3": 14.4, "tmax_d4": 16.6, "tmax_d5": 10.8, "tmax_d6": 14.2, "tmin_d0": 2.1, "tmin_d1": 5.1, "tmin_d2": 5.5, "tmin_d3": 4.2, "tmin_d4": 4.2, "tmin_d5": 1.9, "tmin_d6": 5.8, "day_of_year": 264, "uuid": "1cbb17ad-def5-4b69-b94d-063a5d7dd1c3", "inat_id": 247206555}}, {"type": "Feature", "geometry": {"type": "Point", "coordinates": [-121.9839083333, 44.5819383333]}, "properties": {"species": "Armillaria ostoyae", "date": "2024-10-25", "location": "Willamette National Forest, Idanha, OR, US", "elevation": 848.0, "land_cover_label": "Tree cover", "water_mask": false, "exclude_reason": "keep", "ndvi": null, "soil_moisture": null, "solar_exposure": null, "wind_exposure": null, "water_retention": null, "slope": null, "aspect": null, "num_identification_agreements": 1, "cluster": 1, "tavg": null, "tmin": null, "tmax": null, "prcp_d0": 0.0, "prcp_d1": 0.0, "prcp_d2": 98.36439514160156, "prcp_d3": 0.0, "prcp_d4": 0.0, "prcp_d5": 0.0, "prcp_d6": 0.0, "tmax_d0": 18.1, "tmax_d1": 13.9, "tmax_d2": 12.7, "tmax_d3": 13.9, "tmax_d4": 15.3, "tmax_d5": 19.8, "tmax_d6": 20.0, "tmin_d0": 2.4, "tmin_d1": -2.1, "tmin_d2": 3.4, "tmin_d3": 2.2, "tmin_d4": 7.5, "tmin_d5": 10.8, "tmin_d6": 8.6, "day_of_year": 299, "uuid": "896d9936-337a-4e6f-aae5-71c09873c3ad", "inat_id": 249114389}}]}