{"type": "FeatureCollection", "features": [{"type": "Feature", "geometry": {"type": "Point", "coordinates": [-121.8483333333, 45.3069444444]}, "properties": {"species": "Armillaria sinapina", "date": "2020-10-23", "location": "Rhododendron, OR 97049, USA", "elevation": 733.0, "land_cover_label": "Tree cover", "water_mask": false, "exclude_reason": "keep", "ndvi": null, "soil_moisture": null, "solar_exposure": null, "wind_exposure": null, "water_retention": null, "slope": null, "aspect": null, "num_identification_agreements": 1, "cluster": 0, "tavg": null, "tmin": null, "tmax": null, "prcp_d0": 0.0, "prcp_d1": 0.0, "prcp_d2": 0.0, "prcp_d3": 0.0, "prcp_d4": 0.0, "prcp_d5": 0.0, "prcp_d6": 0.0, "tmax_d0": 8.5, "tmax_d1": 9.9, "tmax_d2": 9.7, "tmax_d3": 10.6, "tmax_d4": 12.1, "tmax_d5": 12.1, "tmax_d6": 13.3, "tmin_d0": 0.4, "tmin_d1": -2.6, "tmin_d2": 4.5, "tmin_d3": 5.2, "tmin_d4": 9.0, "tmin_d5": 7.7, "tmin_d6": 10.3, "day_of_year": 297, "uuid": "efbc3f5b-cdfb-46d1-b617-3b84db18f6c9", "inat_id": 63810139}}, {"type": "Feature", "geometry": {"type": "Point", "coordinates": [-121.9159750778, 45.3394013682]}, "properties": {"species": "Armillaria sinapina", "date": "2020-10-24", "location": "Oregon, US", "elevation": 536.0, "land_cover_label": "Tree cover", "water_mask": false, "exclude_reason": "keep", "ndvi": null, "soil_moisture": null, "solar_exposure": null, "wind_exposure": null, "water_retention": null, "slope": null, "aspect": null, "num_identification_agreements": 1, "cluster": 0, "tavg": null, "tmin": 6.7, "tmax": 14.4, "prcp_d0": 0.0, "prcp_d1": 0.0, "prcp_d2": 0.0, "prcp_d3": 0.0, "prcp_d4": 0.0, "prcp_d5": 0.0, "prcp_d6": 0.0, "tmax_d0": 10.6, "tmax_d1": 9.8, "tmax_d2": 11.0, "tmax_d3": 11.1, "tmax_d4": 11.8, "tmax_d5": 13.1, "tmax_d6": 13.3, "tmin_d0": 5.1, "tmin_d1": 0.4, "tmin_d2": -1.9, "tmin_d3": 6.1, "tmin_d4": 6.2, "tmin_d5": 10.1, "tmin_d6": 9.4, "day_of_year": 298, "uuid": "dc102d86-c375-4bd9-b259-450fa993ef79", "inat_id": 64797784}}, {"type": "Feature", "geometry": {"type": "Point", "coordinates": [-121.9815817667, 45.3315337124]}, "properties": {"species": "Armillaria sinapina", "date": "2020-10-24", "location": "Oregon, US", "elevation": 618.0, "land_cover_label": "Tree cover", "water_mask": false, "exclude_reason": "keep", "ndvi": null, "soil_moisture": null, "solar_exposure": null, "wind_exposure": null, "water_retention": null, "slope": null, "aspect": null, "num_identification_agreements": 1, "cluster": 0, "tavg": null, "tmin": 6.7, "tmax": 14.4, "prcp_d0": 0.0, "prcp_d1": 0.0, "prcp_d2": 0.0, "prcp_d3": 0.0, "prcp_d4": 0.0, "prcp_d5": 0.0, "prcp_d6": 0.0, "tmax_d0": 10.0, "tmax_d1": 9.2, "tmax_d2": 10.4, "tmax_d3": 10.5, "tmax_d4": 11.2, "tmax_d5": 12.5, "tmax_d6": 12.7, "tmin_d0": 4.5, "tmin_d1": -0.2, "tmin_d2": -2.5, "tmin_d3": 5.5, "tmin_d4": 5.6, "tmin_d5": 9.5, "tmin_d6": 8.8, "day_of_year": 298, "uuid": "d2ab4295-544e-4952-8de8-cd9f19bd53c7", "inat_id": 64797832}}, {"type": "Feature", "geometry": {"type": "Point", "coordinates": [-122.4726783495, 45.3901300214]}, "properties": {"species": "Armillaria sinapina", "date": "2022-11-01", "location": "S Stevens Rd, Oregon City, OR, US", "elevation": 35.0, "land_cover_label": "Tree cover", "water_mask": false, "exclude_reason": "keep", "ndvi": null, "soil_moisture": null, "solar_exposure": null, "wind_exposure": null, "water_retention": null, "slope": null, "aspect": null, "num_identification_agreements": 1, "cluster": 2, "tavg": null, "tmin": 7.2, "tmax": 11.7, "prcp_d0": 19.575096130371094, "prcp_d1": 0.0, "prcp_d2": 0.0, "prcp_d3": 0.0, "prcp_d4": 25.42926788330078, "prcp_d5": 25.42926788330078, "prcp_d6": 0.0, "tmax_d0": 10.4, "tmax_d1": 13.7, "tmax_d2": 13.0, "tmax_d3": 15.3, "tmax_d4": 13.7, "tmax_d5": 15.0, "tmax_d6": 11.8, "tmin_d0": 6.4, "tmin_d1": 10.6, "tmin_d2": 9.0, "tmin_d3": 9.5, "tmin_d4": 8.1, "tmin_d5": 3.0, "tmin_d6": 5.7, "day_of_year": 305, "uuid": "29b80ad1-f428-45fd-b0cd-fd0644d32020", "inat_id": 140826186}}, {"type": "Feature", "geometry": {"type": "Point", "coordinates": [-107.87688333, 37.81242778]}, "properties": {"species": "Armillaria sinapina", "date": "2025-08-14", "location": "San Miguel, Colorado, United States", "elevation": 3111.0, "land_cover_label": "Tree cover", "water_mask": false, "exclude_reason": "keep", "ndvi": null, "soil_moisture": null, "solar_exposure": null, "wind_exposure": null, "water_retention": null, "slope": null, "aspect": null, "num_identification_agreements": 2, "cluster": 0, "tavg": null, "tmin": 14.0, "tmax": 23.0, "prcp_d0": 0.0, "prcp_d1": 0.0, "prcp_d2": 0.0, "prcp_d3": 0.0, "prcp_d4": 0.0, "prcp_d5": 0.0, "prcp_d6": 0.0, "tmax_d0": 20.1, "tmax_d1": 20.5, "tmax_d2": 18.4, "tmax_d3": 17.5, "tmax_d4": 18.2, "tmax_d5": 19.7, "tmax_d6": 19.8, "tmin_d0": 8.3, "tmin_d1": 6.2, "tmin_d2": 4.5, "tmin_d3": 2.0, "tmin_d4": 7.5, "tmin_d5": 5.3, "tmin_d6": 10.7, "day_of_year": 226, "uuid": "f62da975-a90f-4594-ae1c-03934e5fe05a", "inat_id": 306480076}}]}