{"type": "FeatureCollection", "features": [{"type": "Feature", "geometry": {"type": "Point", "coordinates": [-106.65335, 39.5138783333]}, "properties": {"species": "Arrhenia epichysium", "date": "2025-08-09", "location": "Main St, Eagle, CO, US", "elevation": 3037.0, "num_identification_agreements": 1, "tavg": null, "tmin": 12.2, "tmax": 29.4, "day_of_year": 221, "uuid": "ed5a0baa-b02f-4836-889b-324c52db0657", "inat_id": 305059941}}, {"type": "Feature", "geometry": {"type": "Point", "coordinates": [-107.9514, 37.8006216667]}, "properties": {"species": "Arrhenia epichysium", "date": "2022-08-20", "location": "San Juan National Forest headquarters, Dolores, CO, US", "elevation": 3268.0, "num_identification_agreements": 1, "tavg": null, "tmin": 10.0, "tmax": 17.0, "day_of_year": 232, "uuid": "60ffd1bd-d465-4d14-b111-0c69e3bf0ca9", "inat_id": 131644358}}, {"type": "Feature", "geometry": {"type": "Point", "coordinates": [-107.950645, 37.8007783333]}, "properties": {"species": "Arrhenia epichysium", "date": "2022-08-19", "location": "San Juan National Forest headquarters, Dolores, CO, US", "elevation": 3268.0, "num_identification_agreements": 1, "tavg": null, "tmin": 10.0, "tmax": 17.0, "day_of_year": 231, "uuid": "53155df3-ac88-4c9c-b949-76e62c6f0898", "inat_id": 131499039}}, {"type": "Feature", "geometry": {"type": "Point", "coordinates": [-108.0075065997, 37.7745516]}, "properties": {"species": "Arrhenia epichysium", "date": "2022-08-18", "location": "Dolores, CO 81323, USA", "elevation": 3062.0, "num_identification_agreements": 1, "tavg": null, "tmin": 9.0, "tmax": 23.0, "day_of_year": 230, "uuid": "5a3b1235-3845-4c79-a0c6-88701c6077bb", "inat_id": 131369961}}]}