{"type": "FeatureCollection", "features": [{"type": "Feature", "geometry": {"type": "Point", "coordinates": [-122.2070976063, 45.3842792639]}, "properties": {"species": "Ascocoryne sarcoides", "date": "2016-11-30", "location": "Oregon, US", "elevation": 293.0, "land_cover_label": "Tree cover", "water_mask": false, "exclude_reason": "keep", "ndvi": null, "soil_moisture": null, "solar_exposure": null, "wind_exposure": null, "water_retention": null, "slope": null, "aspect": null, "num_identification_agreements": 1, "cluster": 2, "tavg": null, "tmin": 6.7, "tmax": 10.0, "prcp_d0": 0.0, "prcp_d1": 0.0, "prcp_d2": 17.24973487854004, "prcp_d3": 17.24973487854004, "prcp_d4": 17.24973487854004, "prcp_d5": 22.16611289978028, "prcp_d6": 29.554819107055664, "tmax_d0": 7.6, "tmax_d1": 8.1, "tmax_d2": 6.7, "tmax_d3": 10.1, "tmax_d4": 10.5, "tmax_d5": 8.9, "tmax_d6": 7.3, "tmin_d0": 2.8, "tmin_d1": 4.1, "tmin_d2": 3.8, "tmin_d3": 3.6, "tmin_d4": 4.4, "tmin_d5": 5.3, "tmin_d6": 4.8, "day_of_year": 335, "uuid": "aa98d69c-815f-487a-8307-a882c01e8368", "inat_id": 34987581}}, {"type": "Feature", "geometry": {"type": "Point", "coordinates": [-122.19923693, 44.83703794]}, "properties": {"species": "Ascocoryne sarcoides", "date": "2017-10-25", "location": "Marion County, US-OR, US", "elevation": 767.0, "land_cover_label": "Tree cover", "water_mask": false, "exclude_reason": "keep", "ndvi": null, "soil_moisture": null, "solar_exposure": null, "wind_exposure": null, "water_retention": null, "slope": null, "aspect": null, "num_identification_agreements": 2, "cluster": 1, "tavg": null, "tmin": null, "tmax": null, "prcp_d0": 0.0, "prcp_d1": 0.0, "prcp_d2": 0.0, "prcp_d3": 126.7493667602539, "prcp_d4": 0.0, "prcp_d5": 23.615673065185547, "prcp_d6": 23.615673065185547, "tmax_d0": 20.7, "tmax_d1": 23.1, "tmax_d2": 19.2, "tmax_d3": 10.6, "tmax_d4": 8.9, "tmax_d5": 7.5, "tmax_d6": 15.0, "tmin_d0": 7.1, "tmin_d1": 6.0, "tmin_d2": 4.2, "tmin_d3": 9.0, "tmin_d4": 2.6, "tmin_d5": 3.7, "tmin_d6": 7.5, "day_of_year": 298, "uuid": "ace8e28e-2fd8-4d41-bb15-c13d82d29cfc", "inat_id": 8566857}}, {"type": "Feature", "geometry": {"type": "Point", "coordinates": [-122.0525331795, 45.2887476286]}, "properties": {"species": "Ascocoryne sarcoides", "date": "2018-12-30", "location": "Sandy, OR 97055, USA", "elevation": 1019.0, "land_cover_label": "Tree cover", "water_mask": false, "exclude_reason": "keep", "ndvi": null, "soil_moisture": null, "solar_exposure": null, "wind_exposure": null, "water_retention": null, "slope": null, "aspect": null, "num_identification_agreements": 1, "cluster": 2, "tavg": null, "tmin": 5.0, "tmax": 9.4, "prcp_d0": 0.0, "prcp_d1": 0.0, "prcp_d2": 0.0, "prcp_d3": 0.0, "prcp_d4": 23.52827835083008, "prcp_d5": 5.84654426574707, "prcp_d6": 23.22674560546875, "tmax_d0": 3.8, "tmax_d1": 4.0, "tmax_d2": 1.1, "tmax_d3": 0.0, "tmax_d4": 1.1, "tmax_d5": 1.4, "tmax_d6": 2.7, "tmin_d0": -1.1, "tmin_d1": -0.6, "tmin_d2": -3.8, "tmin_d3": -1.8, "tmin_d4": -4.5, "tmin_d5": -3.1, "tmin_d6": -0.4, "day_of_year": 364, "uuid": "741ee506-d78c-45dc-ac6a-c4af5492985c", "inat_id": 20807713}}, {"type": "Feature", "geometry": {"type": "Point", "coordinates": [-122.2187419608, 45.5365380622]}, "properties": {"species": "Ascocoryne sarcoides", "date": "2019-01-01", "location": "Latourell Falls Trail, Corbett, OR 97019, USA", "elevation": 163.0, "land_cover_label": "Tree cover", "water_mask": false, "exclude_reason": "keep", "ndvi": null, "soil_moisture": null, "solar_exposure": null, "wind_exposure": null, "water_retention": null, "slope": null, "aspect": null, "num_identification_agreements": 2, "cluster": 0, "tavg": null, "tmin": -1.7, "tmax": 6.1, "prcp_d0": 0.0, "prcp_d1": 0.0, "prcp_d2": 0.0, "prcp_d3": 0.0, "prcp_d4": 0.0, "prcp_d5": 0.0, "prcp_d6": 24.59219741821289, "tmax_d0": 5.3, "tmax_d1": 6.8, "tmax_d2": 9.1, "tmax_d3": 8.8, "tmax_d4": 5.9, "tmax_d5": 5.0, "tmax_d6": 5.3, "tmin_d0": -2.5, "tmin_d1": -1.5, "tmin_d2": 3.7, "tmin_d3": 5.0, "tmin_d4": 2.8, "tmin_d5": 3.0, "tmin_d6": 2.0, "day_of_year": 1, "uuid": "d4a5affb-bcab-4007-a6c6-b16cbb5414f1", "inat_id": 19371282}}, {"type": "Feature", "geometry": {"type": "Point", "coordinates": [-122.51873, 45.3645166667]}, "properties": {"species": "Ascocoryne sarcoides", "date": "2019-01-10", "location": "16671 S Bradley Rd, Oregon City, OR, US", "elevation": 128.0, "land_cover_label": "Tree cover", "water_mask": false, "exclude_reason": "keep", "ndvi": null, "soil_moisture": null, "solar_exposure": null, "wind_exposure": null, "water_retention": null, "slope": null, "aspect": null, "num_identification_agreements": 1, "cluster": 0, "tavg": null, "tmin": 5.0, "tmax": 10.0, "prcp_d0": 0.0, "prcp_d1": 0.0, "prcp_d2": 14.092785835266112, "prcp_d3": 0.0, "prcp_d4": 7.046392917633057, "prcp_d5": 0.0, "prcp_d6": 0.0, "tmax_d0": 15.2, "tmax_d1": 12.1, "tmax_d2": 8.8, "tmax_d3": 6.9, "tmax_d4": 9.5, "tmax_d5": 10.4, "tmax_d6": 10.8, "tmin_d0": 7.0, "tmin_d1": 3.7, "tmin_d2": 2.9, "tmin_d3": 1.2, "tmin_d4": 3.3, "tmin_d5": 2.8, "tmin_d6": 6.7, "day_of_year": 10, "uuid": "46f98fa5-cee6-4b91-a832-a4c4e6119b65", "inat_id": 19562605}}, {"type": "Feature", "geometry": {"type": "Point", "coordinates": [-121.81, 45.31605]}, "properties": {"species": "Ascocoryne sarcoides", "date": "2019-10-20", "location": "SW Mount Hood, Clackamas Co., Oregon, USA", "elevation": 916.0, "land_cover_label": "Tree cover", "water_mask": false, "exclude_reason": "keep", "ndvi": null, "soil_moisture": null, "solar_exposure": null, "wind_exposure": null, "water_retention": null, "slope": null, "aspect": null, "num_identification_agreements": 1, "cluster": 0, "tavg": null, "tmin": null, "tmax": null, "prcp_d0": 0.0, "prcp_d1": 11.04166316986084, "prcp_d2": 0.0, "prcp_d3": 0.0, "prcp_d4": 0.0, "prcp_d5": 0.0, "prcp_d6": 0.0, "tmax_d0": 7.4, "tmax_d1": 4.5, "tmax_d2": 8.0, "tmax_d3": 8.7, "tmax_d4": 13.1, "tmax_d5": 13.7, "tmax_d6": 13.8, "tmin_d0": 2.0, "tmin_d1": 2.7, "tmin_d2": 3.3, "tmin_d3": 4.0, "tmin_d4": 6.9, "tmin_d5": 3.6, "tmin_d6": 0.8, "day_of_year": 293, "uuid": "f0e633d1-e153-4ed7-a9ee-bf2932044f5b", "inat_id": 34881672}}, {"type": "Feature", "geometry": {"type": "Point", "coordinates": [-121.8722337484, 45.3751381942]}, "properties": {"species": "Ascocoryne sarcoides", "date": "2019-11-17", "location": "Zigzag, OR 97049, USA", "elevation": 619.0, "land_cover_label": "Tree cover", "water_mask": false, "exclude_reason": "keep", "ndvi": null, "soil_moisture": null, "solar_exposure": null, "wind_exposure": null, "water_retention": null, "slope": null, "aspect": null, "num_identification_agreements": 2, "cluster": 0, "tavg": null, "tmin": 10.0, "tmax": 12.8, "prcp_d0": 0.0, "prcp_d1": 0.0, "prcp_d2": 14.722734451293944, "prcp_d3": 0.3244291841983795, "prcp_d4": 0.7561398148536682, "prcp_d5": 2.757355213165283, "prcp_d6": 0.8038397431373596, "tmax_d0": 13.5, "tmax_d1": 13.6, "tmax_d2": 13.6, "tmax_d3": 17.0, "tmax_d4": 15.3, "tmax_d5": 12.0, "tmax_d6": 14.5, "tmin_d0": 7.8, "tmin_d1": 3.8, "tmin_d2": 6.1, "tmin_d3": 6.7, "tmin_d4": 1.0, "tmin_d5": 5.7, "tmin_d6": 6.0, "day_of_year": 321, "uuid": "f6a7b37f-5a01-4acd-ac2b-ef3d680b6d78", "inat_id": 37350890}}, {"type": "Feature", "geometry": {"type": "Point", "coordinates": [-121.9359966667, 45.3426083333]}, "properties": {"species": "Ascocoryne sarcoides", "date": "2019-12-10", "location": "E Arthur Hailey Rd, Rhododendron, OR, US", "elevation": 458.0, "land_cover_label": "Tree cover", "water_mask": false, "exclude_reason": "keep", "ndvi": null, "soil_moisture": null, "solar_exposure": null, "wind_exposure": null, "water_retention": null, "slope": null, "aspect": null, "num_identification_agreements": 2, "cluster": 0, "tavg": null, "tmin": 5.0, "tmax": 7.2, "prcp_d0": 0.0, "prcp_d1": 0.0, "prcp_d2": 0.0, "prcp_d3": 29.52511405944824, "prcp_d4": 9.841705322265623, "prcp_d5": 0.0, "prcp_d6": 0.0, "tmax_d0": 10.5, "tmax_d1": 11.3, "tmax_d2": 7.4, "tmax_d3": 7.5, "tmax_d4": 11.0, "tmax_d5": 11.9, "tmax_d6": 12.2, "tmin_d0": 0.8, "tmin_d1": 0.2, "tmin_d2": 4.8, "tmin_d3": 3.6, "tmin_d4": 3.5, "tmin_d5": 0.7, "tmin_d6": 1.5, "day_of_year": 344, "uuid": "8cb80ab8-199a-4656-98ca-545fb09bfa68", "inat_id": 63111760}}, {"type": "Feature", "geometry": {"type": "Point", "coordinates": [-122.3744402112, 45.2448501265]}, "properties": {"species": "Ascocoryne sarcoides", "date": "2020-10-15", "location": "Beavercreek, OR, US", "elevation": 359.0, "land_cover_label": "Tree cover", "water_mask": false, "exclude_reason": "keep", "ndvi": null, "soil_moisture": null, "solar_exposure": null, "wind_exposure": null, "water_retention": null, "slope": null, "aspect": null, "num_identification_agreements": 1, "cluster": 1, "tavg": null, "tmin": 6.1, "tmax": 17.8, "prcp_d0": 0.0, "prcp_d1": 0.0, "prcp_d2": 41.2553939819336, "prcp_d3": 0.0, "prcp_d4": 0.0, "prcp_d5": 24.226110458374023, "prcp_d6": 0.0, "tmax_d0": 15.1, "tmax_d1": 14.1, "tmax_d2": 13.5, "tmax_d3": 13.9, "tmax_d4": 12.7, "tmax_d5": 19.2, "tmax_d6": 19.2, "tmin_d0": 2.6, "tmin_d1": 8.4, "tmin_d2": 9.9, "tmin_d3": 10.4, "tmin_d4": 8.9, "tmin_d5": 11.2, "tmin_d6": 8.9, "day_of_year": 289, "uuid": "5dfe283a-33d9-49b1-b0c6-d1aea4194ae8", "inat_id": 65100410}}, {"type": "Feature", "geometry": {"type": "Point", "coordinates": [-122.3841083333, 45.3112133333]}, "properties": {"species": "Ascocoryne sarcoides", "date": "2020-12-12", "location": "Milo McIver State Park, Eagle Creek, OR, US", "elevation": 122.0, "land_cover_label": "Tree cover", "water_mask": false, "exclude_reason": "keep", "ndvi": null, "soil_moisture": null, "solar_exposure": null, "wind_exposure": null, "water_retention": null, "slope": null, "aspect": null, "num_identification_agreements": 1, "cluster": 2, "tavg": null, "tmin": 1.1, "tmax": 7.8, "prcp_d0": 0.0, "prcp_d1": 0.0, "prcp_d2": 0.0, "prcp_d3": 0.0, "prcp_d4": 0.0, "prcp_d5": 25.893096923828125, "prcp_d6": 0.0, "tmax_d0": 9.4, "tmax_d1": 4.8, "tmax_d2": 8.7, "tmax_d3": 10.9, "tmax_d4": 12.3, "tmax_d5": 10.5, "tmax_d6": 10.3, "tmin_d0": -1.1, "tmin_d1": 3.3, "tmin_d2": 1.0, "tmin_d3": 6.8, "tmin_d4": 2.5, "tmin_d5": 2.8, "tmin_d6": 5.2, "day_of_year": 347, "uuid": "906c9be2-85bc-4814-97f6-2d6c3c894b25", "inat_id": 66550993}}, {"type": "Feature", "geometry": {"type": "Point", "coordinates": [-121.943275, 45.284725]}, "properties": {"species": "Ascocoryne sarcoides", "date": "2021-11-25", "location": "Zigzag Ranger Station, Welches, OR, US", "elevation": 487.0, "land_cover_label": "Tree cover", "water_mask": false, "exclude_reason": "keep", "ndvi": null, "soil_moisture": null, "solar_exposure": null, "wind_exposure": null, "water_retention": null, "slope": null, "aspect": null, "num_identification_agreements": 1, "cluster": 0, "tavg": null, "tmin": 6.1, "tmax": 13.9, "prcp_d0": 0.0, "prcp_d1": 0.0, "prcp_d2": 0.0, "prcp_d3": 0.0, "prcp_d4": 0.0, "prcp_d5": 0.0, "prcp_d6": 0.0, "tmax_d0": 14.0, "tmax_d1": 7.4, "tmax_d2": 11.2, "tmax_d3": 13.8, "tmax_d4": 14.6, "tmax_d5": 6.5, "tmax_d6": 8.4, "tmin_d0": 2.7, "tmin_d1": -4.2, "tmin_d2": 3.3, "tmin_d3": 3.1, "tmin_d4": 0.3, "tmin_d5": 1.9, "tmin_d6": 5.3, "day_of_year": 329, "uuid": "e4220197-6eec-40b7-90ea-6a770fac8c2d", "inat_id": 101911169}}, {"type": "Feature", "geometry": {"type": "Point", "coordinates": [-122.3040387137, 45.4934197783]}, "properties": {"species": "Ascocoryne sarcoides", "date": "2021-11-25", "location": "Oxbow Regional Park, Corbett, OR, US", "elevation": 61.0, "land_cover_label": "Tree cover", "water_mask": false, "exclude_reason": "keep", "ndvi": null, "soil_moisture": null, "solar_exposure": null, "wind_exposure": null, "water_retention": null, "slope": null, "aspect": null, "num_identification_agreements": 1, "cluster": 0, "tavg": null, "tmin": 6.1, "tmax": 13.9, "prcp_d0": 0.0, "prcp_d1": 0.0, "prcp_d2": 0.0, "prcp_d3": 0.0, "prcp_d4": 0.0, "prcp_d5": 0.0, "prcp_d6": 0.0, "tmax_d0": 13.5, "tmax_d1": 10.3, "tmax_d2": 8.8, "tmax_d3": 11.3, "tmax_d4": 11.6, "tmax_d5": 9.5, "tmax_d6": 11.0, "tmin_d0": 1.7, "tmin_d1": 2.0, "tmin_d2": 5.4, "tmin_d3": 0.6, "tmin_d4": 0.5, "tmin_d5": 2.7, "tmin_d6": 6.0, "day_of_year": 329, "uuid": "16301cd8-c52c-4b42-9f7d-dd6bfbaddab9", "inat_id": 101910134}}, {"type": "Feature", "geometry": {"type": "Point", "coordinates": [-121.9942633333, 45.3496883333]}, "properties": {"species": "Ascocoryne sarcoides", "date": "2022-12-29", "location": "Wildwood Recreation Site, Sandy, OR, US", "elevation": 373.0, "land_cover_label": "Tree cover", "water_mask": false, "exclude_reason": "keep", "ndvi": null, "soil_moisture": null, "solar_exposure": null, "wind_exposure": null, "water_retention": null, "slope": null, "aspect": null, "num_identification_agreements": 1, "cluster": 1, "tavg": null, "tmin": 5.6, "tmax": 6.7, "prcp_d0": 0.0, "prcp_d1": 19.121347427368164, "prcp_d2": 47.80337142944336, "prcp_d3": 57.364044189453125, "prcp_d4": 0.0, "prcp_d5": 33.20883560180664, "prcp_d6": 8.30220890045166, "tmax_d0": 6.8, "tmax_d1": 4.4, "tmax_d2": 12.4, "tmax_d3": 9.5, "tmax_d4": 11.7, "tmax_d5": 10.9, "tmax_d6": 6.9, "tmin_d0": 2.7, "tmin_d1": 2.5, "tmin_d2": 4.3, "tmin_d3": 6.3, "tmin_d4": 5.9, "tmin_d5": 5.7, "tmin_d6": -10.3, "day_of_year": 363, "uuid": "5c20fbc6-e016-4c02-8e0c-2c1e3d789251", "inat_id": 145479977}}, {"type": "Feature", "geometry": {"type": "Point", "coordinates": [-122.01290112, 45.3593516525]}, "properties": {"species": "Ascocoryne sarcoides", "date": "2023-01-01", "location": "Oregon, US", "elevation": 342.0, "land_cover_label": "Tree cover", "water_mask": false, "exclude_reason": "keep", "ndvi": null, "soil_moisture": null, "solar_exposure": null, "wind_exposure": null, "water_retention": null, "slope": null, "aspect": null, "num_identification_agreements": 1, "cluster": 2, "tavg": null, "tmin": 3.9, "tmax": 9.4, "prcp_d0": 0.0, "prcp_d1": 0.0, "prcp_d2": 0.0, "prcp_d3": 0.0, "prcp_d4": 28.31553649902344, "prcp_d5": 37.754051208496094, "prcp_d6": 56.63107299804688, "tmax_d0": 8.2, "tmax_d1": 6.5, "tmax_d2": 8.5, "tmax_d3": 7.7, "tmax_d4": 5.1, "tmax_d5": 10.6, "tmax_d6": 11.0, "tmin_d0": 2.9, "tmin_d1": 3.6, "tmin_d2": 5.9, "tmin_d3": 3.1, "tmin_d4": 2.8, "tmin_d5": 4.9, "tmin_d6": 6.7, "day_of_year": 1, "uuid": "6585b2b4-c7ac-41d5-8e15-fd981e8cf5d9", "inat_id": 145631423}}, {"type": "Feature", "geometry": {"type": "Point", "coordinates": [-122.1079166667, 45.5718527778]}, "properties": {"species": "Ascocoryne sarcoides", "date": "2023-12-13", "location": "Corbett, OR 97019, USA", "elevation": 398.0, "land_cover_label": "Tree cover", "water_mask": false, "exclude_reason": "keep", "ndvi": null, "soil_moisture": null, "solar_exposure": null, "wind_exposure": null, "water_retention": null, "slope": null, "aspect": null, "num_identification_agreements": 1, "cluster": 0, "tavg": null, "tmin": 8.9, "tmax": 11.1, "prcp_d0": 0.0, "prcp_d1": 0.0, "prcp_d2": 0.0, "prcp_d3": 39.957122802734375, "prcp_d4": 13.31904125213623, "prcp_d5": 0.0, "prcp_d6": 13.31904125213623, "tmax_d0": 4.1, "tmax_d1": 5.9, "tmax_d2": 8.1, "tmax_d3": 8.1, "tmax_d4": 2.4, "tmax_d5": 2.9, "tmax_d6": 7.2, "tmin_d0": 1.6, "tmin_d1": 2.6, "tmin_d2": 5.1, "tmin_d3": 1.7, "tmin_d4": -1.2, "tmin_d5": 0.3, "tmin_d6": 2.9, "day_of_year": 347, "uuid": "6916e42d-42c5-48d5-b22b-6d3c799ebe5a", "inat_id": 331139953}}, {"type": "Feature", "geometry": {"type": "Point", "coordinates": [-121.9405583333, 45.29622]}, "properties": {"species": "Ascocoryne sarcoides", "date": "2024-10-20", "location": "Zigzag Ranger Station, Welches, OR, US", "elevation": 469.0, "land_cover_label": "Tree cover", "water_mask": false, "exclude_reason": "keep", "ndvi": null, "soil_moisture": null, "solar_exposure": null, "wind_exposure": null, "water_retention": null, "slope": null, "aspect": null, "num_identification_agreements": 1, "cluster": 0, "tavg": null, "tmin": 8.3, "tmax": 21.1, "prcp_d0": 0.0, "prcp_d1": 0.0, "prcp_d2": 0.0, "prcp_d3": 0.0, "prcp_d4": 0.0, "prcp_d5": 0.0, "prcp_d6": 0.0, "tmax_d0": 21.3, "tmax_d1": 20.4, "tmax_d2": 11.9, "tmax_d3": 9.6, "tmax_d4": 13.6, "tmax_d5": 17.8, "tmax_d6": 21.9, "tmin_d0": 10.2, "tmin_d1": 8.2, "tmin_d2": 3.6, "tmin_d3": 5.3, "tmin_d4": 9.4, "tmin_d5": 12.4, "tmin_d6": 10.8, "day_of_year": 294, "uuid": "2f013fbf-937f-41f3-85a2-5bf35a9ae586", "inat_id": 248406155}}, {"type": "Feature", "geometry": {"type": "Point", "coordinates": [-121.8670166667, 45.3033027778]}, "properties": {"species": "Ascocoryne sarcoides", "date": "2024-11-24", "location": "Rhododendron, OR 97049, USA", "elevation": 684.0, "land_cover_label": "Tree cover", "water_mask": false, "exclude_reason": "keep", "ndvi": null, "soil_moisture": null, "solar_exposure": null, "wind_exposure": null, "water_retention": null, "slope": null, "aspect": null, "num_identification_agreements": 1, "cluster": 2, "tavg": null, "tmin": 1.8, "tmax": 5.7, "prcp_d0": 0.0, "prcp_d1": 0.0, "prcp_d2": 36.18930435180664, "prcp_d3": 12.063101768493652, "prcp_d4": 67.61363983154297, "prcp_d5": 33.806819915771484, "prcp_d6": 33.806819915771484, "tmax_d0": 6.7, "tmax_d1": 6.0, "tmax_d2": 9.8, "tmax_d3": 9.1, "tmax_d4": 8.4, "tmax_d5": 4.9, "tmax_d6": 2.3, "tmin_d0": -1.7, "tmin_d1": 0.6, "tmin_d2": 3.0, "tmin_d3": 1.8, "tmin_d4": 2.7, "tmin_d5": -4.8, "tmin_d6": 0.2, "day_of_year": 329, "uuid": "3db68b0f-a5a4-43e5-a84d-d8298335e1e4", "inat_id": 257271442}}, {"type": "Feature", "geometry": {"type": "Point", "coordinates": [-121.9609135, 45.3281745]}, "properties": {"species": "Ascocoryne sarcoides", "date": "2025-11-04", "location": "E Elk Park Rd, Welches, OR, US", "elevation": 407.0, "land_cover_label": "Tree cover", "water_mask": false, "exclude_reason": "keep", "ndvi": null, "soil_moisture": null, "solar_exposure": null, "wind_exposure": null, "water_retention": null, "slope": null, "aspect": null, "num_identification_agreements": 1, "cluster": 0, "tavg": null, "tmin": 8.0, "tmax": 12.0, "prcp_d0": 0.0, "prcp_d1": 0.0, "prcp_d2": 0.0, "prcp_d3": 0.0, "prcp_d4": 0.0, "prcp_d5": 0.0, "prcp_d6": 9.839978218078612, "tmax_d0": 16.4, "tmax_d1": 11.4, "tmax_d2": 12.6, "tmax_d3": 15.5, "tmax_d4": 18.1, "tmax_d5": 13.8, "tmax_d6": 14.4, "tmin_d0": 8.1, "tmin_d1": 5.1, "tmin_d2": 6.6, "tmin_d3": 11.1, "tmin_d4": 5.4, "tmin_d5": 3.5, "tmin_d6": 8.5, "day_of_year": 308, "uuid": "680f2fb7-9719-4dd9-bfa7-42a98dc82f84", "inat_id": 324928535}}, {"type": "Feature", "geometry": {"type": "Point", "coordinates": [-122.3065350205, 45.4903931204]}, "properties": {"species": "Ascocoryne sarcoides", "date": "2025-12-01", "location": "Gresham, OR 97080, USA", "elevation": 25.0, "land_cover_label": "Grassland", "water_mask": false, "exclude_reason": "keep", "ndvi": null, "soil_moisture": null, "solar_exposure": null, "wind_exposure": null, "water_retention": null, "slope": null, "aspect": null, "num_identification_agreements": 1, "cluster": 0, "tavg": null, "tmin": 2.0, "tmax": 8.0, "prcp_d0": 0.0, "prcp_d1": 0.2395658791065216, "prcp_d2": 0.0300467368215322, "prcp_d3": 12.48641300201416, "prcp_d4": 2.203139305114746, "prcp_d5": 9.818227767944336, "prcp_d6": 5.709826469421387, "tmax_d0": 8.6, "tmax_d1": 9.7, "tmax_d2": 9.9, "tmax_d3": 12.7, "tmax_d4": 11.8, "tmax_d5": 10.2, "tmax_d6": 9.4, "tmin_d0": 2.2, "tmin_d1": 4.3, "tmin_d2": 6.1, "tmin_d3": 9.0, "tmin_d4": 7.2, "tmin_d5": 6.8, "tmin_d6": 3.5, "day_of_year": 335, "uuid": "5866224a-5b61-444f-9e3c-de9902563514", "inat_id": 337163812}}]}