{"type": "FeatureCollection", "features": [{"type": "Feature", "geometry": {"type": "Point", "coordinates": [-121.9246041929, 45.2687508566]}, "properties": {"species": "Atheniella adonis", "date": "2016-10-09", "location": "Clackamas County, OR, USA", "elevation": 648.0, "land_cover_label": "Tree cover", "water_mask": false, "exclude_reason": "keep", "ndvi": null, "soil_moisture": null, "solar_exposure": null, "wind_exposure": null, "water_retention": null, "slope": null, "aspect": null, "num_identification_agreements": 1, "cluster": 0, "tavg": null, "tmin": 11.1, "tmax": 16.7, "prcp_d0": 0.0, "prcp_d1": 0.0, "prcp_d2": 0.0, "prcp_d3": 0.0, "prcp_d4": 0.0, "prcp_d5": 0.0, "prcp_d6": 0.0, "tmax_d0": 17.4, "tmax_d1": 18.2, "tmax_d2": 12.2, "tmax_d3": 13.2, "tmax_d4": 10.8, "tmax_d5": 11.6, "tmax_d6": 11.8, "tmin_d0": 12.3, "tmin_d1": 10.0, "tmin_d2": 9.4, "tmin_d3": 8.4, "tmin_d4": 8.0, "tmin_d5": 7.4, "tmin_d6": 3.8, "day_of_year": 283, "uuid": "c068a099-3ffb-4180-8708-c857eb81535e", "inat_id": 16197039}}, {"type": "Feature", "geometry": {"type": "Point", "coordinates": [-121.8133127266, 45.3183588783]}, "properties": {"species": "Atheniella adonis", "date": "2019-10-05", "location": "Clackamas County, OR, USA", "elevation": 1003.0, "land_cover_label": "Tree cover", "water_mask": false, "exclude_reason": "keep", "ndvi": null, "soil_moisture": null, "solar_exposure": null, "wind_exposure": null, "water_retention": null, "slope": null, "aspect": null, "num_identification_agreements": 1, "cluster": 0, "tavg": null, "tmin": null, "tmax": null, "prcp_d0": 0.0, "prcp_d1": 4.169913768768311, "prcp_d2": 9.204296112060549, "prcp_d3": 0.0, "prcp_d4": 0.0, "prcp_d5": 0.0, "prcp_d6": 0.0, "tmax_d0": 11.1, "tmax_d1": 7.8, "tmax_d2": 9.9, "tmax_d3": 11.8, "tmax_d4": 9.2, "tmax_d5": 4.5, "tmax_d6": 4.6, "tmin_d0": 1.2, "tmin_d1": 1.1, "tmin_d2": 4.1, "tmin_d3": -2.4, "tmin_d4": -3.7, "tmin_d5": -1.0, "tmin_d6": -0.3, "day_of_year": 278, "uuid": "57edbc27-cfff-42ae-b01f-4850279d36e0", "inat_id": 34223853}}, {"type": "Feature", "geometry": {"type": "Point", "coordinates": [-121.8721411183, 45.3705542668]}, "properties": {"species": "Atheniella adonis", "date": "2020-11-05", "location": "Oregon, US", "elevation": 844.0, "land_cover_label": "Tree cover", "water_mask": false, "exclude_reason": "keep", "ndvi": null, "soil_moisture": null, "solar_exposure": null, "wind_exposure": null, "water_retention": null, "slope": null, "aspect": null, "num_identification_agreements": 1, "cluster": 0, "tavg": null, "tmin": 10.6, "tmax": 18.9, "prcp_d0": 0.0, "prcp_d1": 0.0, "prcp_d2": 0.0, "prcp_d3": 0.0, "prcp_d4": 0.0, "prcp_d5": 1.3835572004318235, "prcp_d6": 8.554316520690918, "tmax_d0": 13.3, "tmax_d1": 13.3, "tmax_d2": 16.4, "tmax_d3": 20.5, "tmax_d4": 18.7, "tmax_d5": 14.1, "tmax_d6": 14.5, "tmin_d0": 7.8, "tmin_d1": 9.3, "tmin_d2": 3.7, "tmin_d3": 2.9, "tmin_d4": 5.5, "tmin_d5": -2.5, "tmin_d6": 3.7, "day_of_year": 310, "uuid": "f4e2d2f3-b2db-4280-a397-934cdc99d441", "inat_id": 64264783}}, {"type": "Feature", "geometry": {"type": "Point", "coordinates": [-122.0222717997, 45.6312829]}, "properties": {"species": "Atheniella adonis", "date": "2021-10-27", "location": "Stevenson, WA 98648, USA", "elevation": 155.0, "land_cover_label": "Tree cover", "water_mask": false, "exclude_reason": "keep", "ndvi": null, "soil_moisture": null, "solar_exposure": null, "wind_exposure": null, "water_retention": null, "slope": null, "aspect": null, "num_identification_agreements": 1, "cluster": 2, "tavg": null, "tmin": 11.7, "tmax": 15.0, "prcp_d0": 0.0, "prcp_d1": 0.0, "prcp_d2": 0.0, "prcp_d3": 82.60157012939453, "prcp_d4": 0.0, "prcp_d5": 27.53385734558105, "prcp_d6": 27.53385734558105, "tmax_d0": 12.0, "tmax_d1": 11.8, "tmax_d2": 12.5, "tmax_d3": 12.0, "tmax_d4": 11.5, "tmax_d5": 15.2, "tmax_d6": 16.2, "tmin_d0": 8.5, "tmin_d1": 8.6, "tmin_d2": 7.5, "tmin_d3": 8.6, "tmin_d4": 8.1, "tmin_d5": 9.4, "tmin_d6": 7.6, "day_of_year": 300, "uuid": "40476ab3-4a4a-4b30-8111-64e0371b3284", "inat_id": 104315240}}, {"type": "Feature", "geometry": {"type": "Point", "coordinates": [-122.5306383333, 45.2463583333]}, "properties": {"species": "Atheniella adonis", "date": "2021-10-30", "location": "Mulino, OR, US", "elevation": 150.0, "land_cover_label": "Tree cover", "water_mask": false, "exclude_reason": "keep", "ndvi": null, "soil_moisture": null, "solar_exposure": null, "wind_exposure": null, "water_retention": null, "slope": null, "aspect": null, "num_identification_agreements": 1, "cluster": 1, "tavg": null, "tmin": 7.2, "tmax": 16.7, "prcp_d0": 0.0, "prcp_d1": 38.62099456787109, "prcp_d2": 0.0, "prcp_d3": 0.0, "prcp_d4": 0.0, "prcp_d5": 8.955915451049805, "prcp_d6": 8.955915451049805, "tmax_d0": 15.8, "tmax_d1": 18.3, "tmax_d2": 18.9, "tmax_d3": 14.4, "tmax_d4": 13.7, "tmax_d5": 14.3, "tmax_d6": 14.7, "tmin_d0": 5.4, "tmin_d1": 10.0, "tmin_d2": 10.7, "tmin_d3": 9.9, "tmin_d4": 9.2, "tmin_d5": 9.9, "tmin_d6": 9.4, "day_of_year": 303, "uuid": "d46761b1-224e-48b1-be9a-01effd3bfc0a", "inat_id": 99839225}}, {"type": "Feature", "geometry": {"type": "Point", "coordinates": [-121.5394133333, 45.518755]}, "properties": {"species": "Atheniella adonis", "date": "2021-11-28", "location": "Mt. Hood National Forest, Mount Hood Parkdale, OR, US", "elevation": 893.0, "land_cover_label": "Tree cover", "water_mask": false, "exclude_reason": "keep", "ndvi": null, "soil_moisture": null, "solar_exposure": null, "wind_exposure": null, "water_retention": null, "slope": null, "aspect": null, "num_identification_agreements": 3, "cluster": 0, "tavg": null, "tmin": 8.9, "tmax": 18.3, "prcp_d0": 0.0, "prcp_d1": 0.0, "prcp_d2": 0.0, "prcp_d3": 0.0, "prcp_d4": 0.0, "prcp_d5": 20.45899772644043, "prcp_d6": 0.0, "tmax_d0": 11.3, "tmax_d1": 9.5, "tmax_d2": 8.3, "tmax_d3": 11.0, "tmax_d4": 4.7, "tmax_d5": 5.7, "tmax_d6": 7.7, "tmin_d0": 6.0, "tmin_d1": 4.1, "tmin_d2": 0.3, "tmin_d3": 0.0, "tmin_d4": -3.6, "tmin_d5": -1.6, "tmin_d6": -0.7, "day_of_year": 332, "uuid": "08b076ae-f650-422c-ac4c-1c7cf4cd3f90", "inat_id": 102139063}}, {"type": "Feature", "geometry": {"type": "Point", "coordinates": [-122.3760349566, 45.305698465]}, "properties": {"species": "Atheniella adonis", "date": "2022-01-11", "location": "Milo McIver State Park, Eagle Creek, OR, US", "elevation": 127.0, "land_cover_label": "Tree cover", "water_mask": false, "exclude_reason": "keep", "ndvi": null, "soil_moisture": null, "solar_exposure": null, "wind_exposure": null, "water_retention": null, "slope": null, "aspect": null, "num_identification_agreements": 1, "cluster": 2, "tavg": null, "tmin": 4.4, "tmax": 7.2, "prcp_d0": 14.764174461364746, "prcp_d1": 11.455227851867676, "prcp_d2": 0.0, "prcp_d3": 0.0, "prcp_d4": 34.365684509277344, "prcp_d5": 11.455227851867676, "prcp_d6": 0.0, "tmax_d0": 12.8, "tmax_d1": 13.4, "tmax_d2": 12.8, "tmax_d3": 9.3, "tmax_d4": 10.9, "tmax_d5": 11.3, "tmax_d6": 6.0, "tmin_d0": 9.0, "tmin_d1": 5.2, "tmin_d2": 2.2, "tmin_d3": 3.5, "tmin_d4": 4.8, "tmin_d5": 4.0, "tmin_d6": 4.2, "day_of_year": 11, "uuid": "fa1b8907-0d02-42e6-82db-267a5a62fce0", "inat_id": 104786189}}, {"type": "Feature", "geometry": {"type": "Point", "coordinates": [-105.5083316937, 40.0722081523]}, "properties": {"species": "Atheniella adonis", "date": "2023-09-04", "location": "Ward, CO, USA", "elevation": 2781.0, "land_cover_label": "Grassland", "water_mask": false, "exclude_reason": "keep", "ndvi": null, "soil_moisture": 0.3764935011360911, "solar_exposure": 0.873299777507782, "wind_exposure": 0.2641808092594147, "water_retention": 0.3000445663928985, "slope": 8.790327072143555, "aspect": 119.43383026123048, "num_identification_agreements": 1, "cluster": 0, "tavg": null, "tmin": 15.0, "tmax": 30.0, "prcp_d0": 0.0, "prcp_d1": 7.7656474113464355, "prcp_d2": 0.0, "prcp_d3": 0.0, "prcp_d4": 0.0, "prcp_d5": 0.0, "prcp_d6": 0.0, "tmax_d0": 20.3, "tmax_d1": 19.5, "tmax_d2": 21.7, "tmax_d3": 22.7, "tmax_d4": 23.4, "tmax_d5": 23.2, "tmax_d6": 16.1, "tmin_d0": 7.5, "tmin_d1": 8.7, "tmin_d2": 10.4, "tmin_d3": 10.3, "tmin_d4": 7.9, "tmin_d5": 6.6, "tmin_d6": 5.7, "day_of_year": 247, "uuid": "ec4daf40-ab1a-4cb2-a1ac-2a1317a4c119", "inat_id": 181808960}}, {"type": "Feature", "geometry": {"type": "Point", "coordinates": [-121.619475, 44.5629966667]}, "properties": {"species": "Atheniella adonis", "date": "2023-10-18", "location": "Deschutes National Forest, Camp Sherman, OR, US", "elevation": 841.0, "land_cover_label": "Tree cover", "water_mask": false, "exclude_reason": "keep", "ndvi": null, "soil_moisture": null, "solar_exposure": null, "wind_exposure": null, "water_retention": null, "slope": null, "aspect": null, "num_identification_agreements": 1, "cluster": 0, "tavg": null, "tmin": 3.0, "tmax": 23.0, "prcp_d0": 0.0, "prcp_d1": 0.0, "prcp_d2": 7.873444080352783, "prcp_d3": 7.080933570861816, "prcp_d4": 7.080933570861816, "prcp_d5": 0.0, "prcp_d6": 0.0, "tmax_d0": 23.2, "tmax_d1": 18.0, "tmax_d2": 16.5, "tmax_d3": 17.9, "tmax_d4": 17.2, "tmax_d5": 16.2, "tmax_d6": 13.9, "tmin_d0": 8.3, "tmin_d1": 5.6, "tmin_d2": 8.8, "tmin_d3": 8.3, "tmin_d4": 5.5, "tmin_d5": 3.3, "tmin_d6": 7.0, "day_of_year": 291, "uuid": "fc9edae1-5d85-4c7b-8008-90cfd37337d6", "inat_id": 188855973}}, {"type": "Feature", "geometry": {"type": "Point", "coordinates": [-121.6120409076, 44.5849420956]}, "properties": {"species": "Atheniella adonis", "date": "2023-10-20", "location": "Oregon, US", "elevation": 983.0, "land_cover_label": "Tree cover", "water_mask": false, "exclude_reason": "keep", "ndvi": null, "soil_moisture": null, "solar_exposure": null, "wind_exposure": null, "water_retention": null, "slope": null, "aspect": null, "num_identification_agreements": 1, "cluster": 0, "tavg": null, "tmin": 5.0, "tmax": 22.0, "prcp_d0": 0.0, "prcp_d1": 0.0, "prcp_d2": 0.0, "prcp_d3": 0.0, "prcp_d4": 7.873444080352783, "prcp_d5": 7.080933570861816, "prcp_d6": 7.080933570861816, "tmax_d0": 23.3, "tmax_d1": 24.4, "tmax_d2": 22.5, "tmax_d3": 17.3, "tmax_d4": 15.9, "tmax_d5": 17.3, "tmax_d6": 16.5, "tmin_d0": 8.1, "tmin_d1": 9.2, "tmin_d2": 7.6, "tmin_d3": 5.0, "tmin_d4": 8.2, "tmin_d5": 7.6, "tmin_d6": 4.8, "day_of_year": 293, "uuid": "0a6eb6e1-29b1-4625-bc46-0ebad17a249f", "inat_id": 188334359}}, {"type": "Feature", "geometry": {"type": "Point", "coordinates": [-121.8255783333, 44.64033]}, "properties": {"species": "Atheniella adonis", "date": "2023-10-22", "location": "Bosque Nacional De Willamette, Idanha, OR, US", "elevation": 1732.0, "land_cover_label": "Tree cover", "water_mask": false, "exclude_reason": "keep", "ndvi": null, "soil_moisture": null, "solar_exposure": null, "wind_exposure": null, "water_retention": null, "slope": null, "aspect": null, "num_identification_agreements": 1, "cluster": 0, "tavg": null, "tmin": null, "tmax": null, "prcp_d0": 0.0, "prcp_d1": 0.0, "prcp_d2": 0.0, "prcp_d3": 0.0, "prcp_d4": 0.0, "prcp_d5": 0.0, "prcp_d6": 14.34839916229248, "tmax_d0": 11.6, "tmax_d1": 17.5, "tmax_d2": 18.1, "tmax_d3": 19.2, "tmax_d4": 20.3, "tmax_d5": 13.0, "tmax_d6": 12.9, "tmin_d0": 2.9, "tmin_d1": 7.2, "tmin_d2": 11.6, "tmin_d3": 9.5, "tmin_d4": 5.0, "tmin_d5": 0.1, "tmin_d6": 5.7, "day_of_year": 295, "uuid": "7a7110c5-eb50-4438-babd-57b5ca49c985", "inat_id": 188605488}}, {"type": "Feature", "geometry": {"type": "Point", "coordinates": [-121.7368395173, 44.5939065939]}, "properties": {"species": "Atheniella adonis", "date": "2023-11-19", "location": "Oregon, US", "elevation": 1514.0, "land_cover_label": "Tree cover", "water_mask": false, "exclude_reason": "keep", "ndvi": null, "soil_moisture": null, "solar_exposure": null, "wind_exposure": null, "water_retention": null, "slope": null, "aspect": null, "num_identification_agreements": 1, "cluster": 0, "tavg": null, "tmin": -1.0, "tmax": 7.0, "prcp_d0": 0.0, "prcp_d1": 0.0, "prcp_d2": 0.0, "prcp_d3": 0.0, "prcp_d4": 0.0, "prcp_d5": 0.0, "prcp_d6": 0.0, "tmax_d0": 4.3, "tmax_d1": 6.4, "tmax_d2": 6.6, "tmax_d3": 7.6, "tmax_d4": 10.4, "tmax_d5": 8.1, "tmax_d6": 6.7, "tmin_d0": -2.7, "tmin_d1": -0.9, "tmin_d2": 0.1, "tmin_d3": 0.9, "tmin_d4": 1.9, "tmin_d5": -0.9, "tmin_d6": 1.3, "day_of_year": 323, "uuid": "5f7f7091-30e0-49a5-b57b-a4d0f399e2f5", "inat_id": 191519911}}, {"type": "Feature", "geometry": {"type": "Point", "coordinates": [-122.2268066421, 45.3077484254]}, "properties": {"species": "Atheniella adonis", "date": "2024-10-11", "location": "Clackamas County, OR, USA", "elevation": 370.0, "land_cover_label": "Tree cover", "water_mask": false, "exclude_reason": "keep", "ndvi": null, "soil_moisture": null, "solar_exposure": null, "wind_exposure": null, "water_retention": null, "slope": null, "aspect": null, "num_identification_agreements": 1, "cluster": 0, "tavg": null, "tmin": 14.4, "tmax": 21.1, "prcp_d0": 0.0, "prcp_d1": 0.0, "prcp_d2": 0.0, "prcp_d3": 0.0, "prcp_d4": 0.0, "prcp_d5": 0.0, "prcp_d6": 1.0006494522094729, "tmax_d0": 23.0, "tmax_d1": 18.6, "tmax_d2": 18.4, "tmax_d3": 24.4, "tmax_d4": 26.6, "tmax_d5": 20.4, "tmax_d6": 19.8, "tmin_d0": 9.2, "tmin_d1": 2.8, "tmin_d2": 11.4, "tmin_d3": 9.5, "tmin_d4": 8.7, "tmin_d5": 7.9, "tmin_d6": 4.8, "day_of_year": 285, "uuid": "0e14deda-2405-41ed-a799-b2f8a1b7f37b", "inat_id": 247003145}}, {"type": "Feature", "geometry": {"type": "Point", "coordinates": [-122.3027675997, 45.4885317]}, "properties": {"species": "Atheniella adonis", "date": "2024-10-12", "location": "Gresham, OR 97080, USA", "elevation": 72.0, "land_cover_label": "Tree cover", "water_mask": false, "exclude_reason": "keep", "ndvi": null, "soil_moisture": null, "solar_exposure": null, "wind_exposure": null, "water_retention": null, "slope": null, "aspect": null, "num_identification_agreements": 1, "cluster": 0, "tavg": null, "tmin": 8.9, "tmax": 24.4, "prcp_d0": 0.0, "prcp_d1": 19.49992752075196, "prcp_d2": 0.0, "prcp_d3": 0.0, "prcp_d4": 0.0, "prcp_d5": 0.0, "prcp_d6": 0.0, "tmax_d0": 24.2, "tmax_d1": 21.1, "tmax_d2": 20.7, "tmax_d3": 20.3, "tmax_d4": 25.1, "tmax_d5": 27.5, "tmax_d6": 21.6, "tmin_d0": 9.3, "tmin_d1": 10.7, "tmin_d2": 6.1, "tmin_d3": 13.2, "tmin_d4": 10.7, "tmin_d5": 8.1, "tmin_d6": 6.4, "day_of_year": 286, "uuid": "3486c549-a1f9-42d0-8417-addd96fb35be", "inat_id": 247140804}}, {"type": "Feature", "geometry": {"type": "Point", "coordinates": [-122.29477, 45.4928166667]}, "properties": {"species": "Atheniella adonis", "date": "2024-12-15", "location": "Oxbow Regional Park, Gresham, OR, US", "elevation": 50.0, "land_cover_label": "Tree cover", "water_mask": false, "exclude_reason": "keep", "ndvi": null, "soil_moisture": null, "solar_exposure": null, "wind_exposure": null, "water_retention": null, "slope": null, "aspect": null, "num_identification_agreements": 1, "cluster": 1, "tavg": null, "tmin": 5.0, "tmax": 9.4, "prcp_d0": 0.0, "prcp_d1": 15.196280479431152, "prcp_d2": 5.065426826477051, "prcp_d3": 15.196280479431152, "prcp_d4": 5.065426826477051, "prcp_d5": 0.0, "prcp_d6": 0.0, "tmax_d0": 8.2, "tmax_d1": 9.8, "tmax_d2": 5.8, "tmax_d3": 5.0, "tmax_d4": 7.7, "tmax_d5": 8.0, "tmax_d6": 10.2, "tmin_d0": 2.3, "tmin_d1": 4.8, "tmin_d2": 2.6, "tmin_d3": 2.1, "tmin_d4": 2.3, "tmin_d5": 2.5, "tmin_d6": 4.8, "day_of_year": 350, "uuid": "5fb141a3-4ce6-4839-8235-a2b20b9ba14c", "inat_id": 255237882}}, {"type": "Feature", "geometry": {"type": "Point", "coordinates": [-122.2315288962, 45.3116529394]}, "properties": {"species": "Atheniella adonis", "date": "2025-10-31", "location": "Clackamas County, OR, USA", "elevation": 386.0, "land_cover_label": "Tree cover", "water_mask": false, "exclude_reason": "keep", "ndvi": null, "soil_moisture": null, "solar_exposure": null, "wind_exposure": null, "water_retention": null, "slope": null, "aspect": null, "num_identification_agreements": 1, "cluster": 1, "tavg": null, "tmin": 9.0, "tmax": 14.0, "prcp_d0": 0.0, "prcp_d1": 78.9493408203125, "prcp_d2": 0.0, "prcp_d3": 0.0, "prcp_d4": 0.0, "prcp_d5": 0.0, "prcp_d6": 14.676223754882812, "tmax_d0": 14.5, "tmax_d1": 13.6, "tmax_d2": 14.1, "tmax_d3": 15.3, "tmax_d4": 8.9, "tmax_d5": 7.5, "tmax_d6": 10.7, "tmin_d0": 4.8, "tmin_d1": 3.3, "tmin_d2": 7.5, "tmin_d3": 3.0, "tmin_d4": 2.5, "tmin_d5": 4.3, "tmin_d6": 5.0, "day_of_year": 304, "uuid": "da9cc190-f016-45fd-8130-1f3e1bfcb333", "inat_id": 324257413}}]}