{"type": "FeatureCollection", "features": [{"type": "Feature", "geometry": {"type": "Point", "coordinates": [-105.4653466667, 39.68985]}, "properties": {"species": "Atheniella flavoalba", "date": "2023-08-08", "location": "Idaho Springs, CO, US", "elevation": 2750.0, "num_identification_agreements": 1, "tavg": null, "tmin": -0.4, "tmax": 13.3, "day_of_year": 220, "uuid": "84013738-d0fa-497d-9656-4893a533a9d1", "inat_id": 177468012}}, {"type": "Feature", "geometry": {"type": "Point", "coordinates": [-105.7812900786, 39.8094246411]}, "properties": {"species": "Atheniella flavoalba", "date": "2022-08-06", "location": "Grand County, US-CO, US", "elevation": 3362.0, "num_identification_agreements": 1, "tavg": null, "tmin": 5.4, "tmax": 16.7, "day_of_year": 218, "uuid": "7e2123ee-fc65-4b39-a69e-99eeb00de80f", "inat_id": 129734317}}]}