{"type": "FeatureCollection", "features": [{"type": "Feature", "geometry": {"type": "Point", "coordinates": [-105.0548222222, 38.08465]}, "properties": {"species": "Atractosporocybe inornata", "date": "2025-07-07", "location": "Wetmore, CO 81253, USA", "elevation": 2525.0, "land_cover_label": "Tree cover", "water_mask": false, "exclude_reason": "keep", "ndvi": null, "soil_moisture": null, "solar_exposure": null, "wind_exposure": null, "water_retention": null, "slope": null, "aspect": null, "num_identification_agreements": 2, "cluster": 2, "tavg": null, "tmin": 16.0, "tmax": 35.0, "prcp_d0": 0.0, "prcp_d1": 0.0, "prcp_d2": 3.3149831295013428, "prcp_d3": 0.2322688549757003, "prcp_d4": 0.1575367748737335, "prcp_d5": 0.0, "prcp_d6": 0.0, "tmax_d0": 24.7, "tmax_d1": 23.6, "tmax_d2": 24.9, "tmax_d3": 25.2, "tmax_d4": 24.3, "tmax_d5": 23.4, "tmax_d6": 23.8, "tmin_d0": 12.6, "tmin_d1": 12.9, "tmin_d2": 13.0, "tmin_d3": 11.8, "tmin_d4": 13.3, "tmin_d5": 13.0, "tmin_d6": 11.1, "day_of_year": 188, "uuid": "a1a10ddb-2fe6-4a31-bc85-c5f7ae06d7f6", "inat_id": 297918386}}]}