{"type": "FeatureCollection", "features": [{"type": "Feature", "geometry": {"type": "Point", "coordinates": [-104.98057066, 38.74041701]}, "properties": {"species": "Boletus oregonensis", "date": "2026-08-08", "location": "Teller County, US-CO, US", "elevation": 3118.0, "num_identification_agreements": 1, "tavg": null, "tmin": 16.0, "tmax": 33.3, "day_of_year": 220, "uuid": "7f8da707-524d-4fb8-ab7b-2b28ebc986ca", "inat_id": 389476296}}, {"type": "Feature", "geometry": {"type": "Point", "coordinates": [-104.8938361111, 38.7897194444]}, "properties": {"species": "Boletus oregonensis", "date": "2025-10-11", "location": "Colorado Springs, CO 80906, USA", "elevation": 2168.0, "num_identification_agreements": 1, "tavg": null, "tmin": 12.0, "tmax": 21.0, "day_of_year": 284, "uuid": "7bddc346-930c-4a81-aeda-55254607d1b1", "inat_id": 320290134}}, {"type": "Feature", "geometry": {"type": "Point", "coordinates": [-105.79484444, 35.80172222]}, "properties": {"species": "Boletus oregonensis", "date": "2025-09-16", "location": "Santa Fe, New Mexico, United States", "elevation": 3378.0, "num_identification_agreements": 2, "tavg": null, "tmin": 11.0, "tmax": 28.0, "day_of_year": 259, "uuid": "9118aee5-03d1-4e51-8d46-87d5d0b570c4", "inat_id": 314614753}}, {"type": "Feature", "geometry": {"type": "Point", "coordinates": [-104.8877872641, 38.7335323687]}, "properties": {"species": "Boletus oregonensis", "date": "2025-08-22", "location": "Colorado, US", "elevation": 2624.0, "num_identification_agreements": 1, "tavg": null, "tmin": 16.0, "tmax": 28.0, "day_of_year": 234, "uuid": "6f6893f7-50d1-4ab6-bd49-379682482e32", "inat_id": 308360624}}, {"type": "Feature", "geometry": {"type": "Point", "coordinates": [-105.7507313281, 39.4134408457]}, "properties": {"species": "Boletus oregonensis", "date": "2024-09-18", "location": "Park County, US-CO, US", "elevation": 3063.0, "num_identification_agreements": 3, "tavg": null, "tmin": -2.7, "tmax": 9.0, "day_of_year": 262, "uuid": "87bc30dc-cd92-45c7-a68b-8409172cc931", "inat_id": 242805372}}, {"type": "Feature", "geometry": {"type": "Point", "coordinates": [-106.9588849742, 38.2768420897]}, "properties": {"species": "Boletus oregonensis", "date": "2024-09-01", "location": "Gunnison, CO, US", "elevation": 3083.0, "num_identification_agreements": 3, "tavg": null, "tmin": null, "tmax": null, "day_of_year": 245, "uuid": "2f7908bd-bb30-4372-a496-dd1a9c62d2b3", "inat_id": 239235796}}, {"type": "Feature", "geometry": {"type": "Point", "coordinates": [-107.5404283333, 38.2462166667]}, "properties": {"species": "Boletus oregonensis", "date": "2024-07-16", "location": "Grand Mesa Uncompahgre and Gunnison National Forests, Cimarron, CO, US", "elevation": 2708.0, "num_identification_agreements": 2, "tavg": null, "tmin": 16.7, "tmax": 31.7, "day_of_year": 198, "uuid": "dc96cfa1-2a42-4e2b-bb9e-bfe2995bc8a5", "inat_id": 229814751}}, {"type": "Feature", "geometry": {"type": "Point", "coordinates": [-107.5387883333, 38.23265]}, "properties": {"species": "Boletus oregonensis", "date": "2024-07-16", "location": "Grand Mesa Uncompahgre and Gunnison National Forests, Cimarron, CO, US", "elevation": 2784.0, "num_identification_agreements": 2, "tavg": null, "tmin": 16.7, "tmax": 31.7, "day_of_year": 198, "uuid": "099342b4-2408-4e89-a66b-2ab183589de3", "inat_id": 229814581}}, {"type": "Feature", "geometry": {"type": "Point", "coordinates": [-105.5377116667, 40.0307083333]}, "properties": {"species": "Boletus oregonensis", "date": "2023-08-12", "location": "County Road 116, Ward, CO, US", "elevation": 2936.0, "num_identification_agreements": 3, "tavg": null, "tmin": 17.0, "tmax": 28.0, "day_of_year": 224, "uuid": "0f0858aa-86e6-4ce5-8a70-6ce72b5469e6", "inat_id": 178124321}}, {"type": "Feature", "geometry": {"type": "Point", "coordinates": [-105.3779614997, 39.5669371589]}, "properties": {"species": "Boletus oregonensis", "date": "2022-08-02", "location": "Jefferson County, US-CO, US", "elevation": 2542.0, "num_identification_agreements": 2, "tavg": null, "tmin": 4.6, "tmax": 14.5, "day_of_year": 214, "uuid": "88b3f7fd-0e82-4bc8-a862-139e602100ba", "inat_id": 129205764}}, {"type": "Feature", "geometry": {"type": "Point", "coordinates": [-105.1477431959, 36.2736180564]}, "properties": {"species": "Boletus oregonensis", "date": "2016-08-25", "location": "Colfax County, NM, USA", "elevation": 2678.0, "num_identification_agreements": 1, "tavg": null, "tmin": 5.3, "tmax": 18.8, "day_of_year": 238, "uuid": "67fa0490-45dc-4e16-a195-5321d63ee3ce", "inat_id": 4117788}}]}