{"type": "FeatureCollection", "features": [{"type": "Feature", "geometry": {"type": "Point", "coordinates": [-105.5831666667, 40.0520945]}, "properties": {"species": "Boletopsis sp. 'SRM-01'", "date": "2022-08-22", "location": "Arapaho & Roosevelt National Forests Pawnee National Grassland, Ward, CO, US", "elevation": 3475.0, "land_cover_label": "Moss and lichen", "water_mask": false, "exclude_reason": "keep", "ndvi": null, "soil_moisture": 0.3995617227417096, "solar_exposure": 0.917682945728302, "wind_exposure": 0.3807460963726043, "water_retention": 0.2161333411931991, "slope": 10.144049644470217, "aspect": 151.6147918701172, "num_identification_agreements": 5, "cluster": 0, "tavg": null, "tmin": 8.5, "tmax": 22.6, "prcp_d0": 0.0, "prcp_d1": 0.0, "prcp_d2": 0.0, "prcp_d3": 0.0, "prcp_d4": 0.0, "prcp_d5": 0.0, "prcp_d6": 25.513721466064453, "tmax_d0": 13.2, "tmax_d1": 11.9, "tmax_d2": 10.6, "tmax_d3": 13.1, "tmax_d4": 14.9, "tmax_d5": 13.6, "tmax_d6": 9.3, "tmin_d0": 1.5, "tmin_d1": 2.1, "tmin_d2": 3.2, "tmin_d3": 3.3, "tmin_d4": 2.1, "tmin_d5": 1.2, "tmin_d6": 5.1, "day_of_year": 234, "uuid": "a2d61cb1-e262-461d-b49b-7298869d9d0c", "inat_id": 132047122}}]}