{"type": "FeatureCollection", "features": [{"type": "Feature", "geometry": {"type": "Point", "coordinates": [-121.8733079731, 45.2960362699]}, "properties": {"species": "Boletus fibrillosus", "date": "2016-10-09", "location": "Rhododendron, OR 97049", "elevation": 641.0, "land_cover_label": "Tree cover", "water_mask": false, "exclude_reason": "keep", "ndvi": null, "soil_moisture": null, "solar_exposure": null, "wind_exposure": null, "water_retention": null, "slope": null, "aspect": null, "num_identification_agreements": 2, "cluster": 0, "tavg": null, "tmin": 11.1, "tmax": 16.7, "prcp_d0": 0.0, "prcp_d1": 0.0, "prcp_d2": 0.0, "prcp_d3": 0.0, "prcp_d4": 0.0, "prcp_d5": 0.0, "prcp_d6": 0.0, "tmax_d0": 17.3, "tmax_d1": 18.1, "tmax_d2": 12.1, "tmax_d3": 13.1, "tmax_d4": 10.7, "tmax_d5": 11.5, "tmax_d6": 11.7, "tmin_d0": 12.2, "tmin_d1": 9.9, "tmin_d2": 9.3, "tmin_d3": 8.3, "tmin_d4": 7.9, "tmin_d5": 7.3, "tmin_d6": 3.7, "day_of_year": 283, "uuid": "29e31ee4-f53f-4b83-a8a1-d29c9637d8df", "inat_id": 4308341}}, {"type": "Feature", "geometry": {"type": "Point", "coordinates": [-121.81, 45.31605]}, "properties": {"species": "Boletus fibrillosus", "date": "2018-11-04", "location": "SW Mount Hood, Clackamas Co., Oregon, USA", "elevation": 916.0, "land_cover_label": "Tree cover", "water_mask": false, "exclude_reason": "keep", "ndvi": null, "soil_moisture": null, "solar_exposure": null, "wind_exposure": null, "water_retention": null, "slope": null, "aspect": null, "num_identification_agreements": 1, "cluster": 1, "tavg": null, "tmin": null, "tmax": null, "prcp_d0": 14.273877143859863, "prcp_d1": 28.547754287719727, "prcp_d2": 0.0, "prcp_d3": 0.0, "prcp_d4": 0.0, "prcp_d5": 0.0, "prcp_d6": 42.974151611328125, "tmax_d0": 8.4, "tmax_d1": 9.2, "tmax_d2": 10.6, "tmax_d3": 11.6, "tmax_d4": 9.8, "tmax_d5": 8.3, "tmax_d6": 6.4, "tmin_d0": 5.3, "tmin_d1": 5.5, "tmin_d2": 7.8, "tmin_d3": 9.1, "tmin_d4": 4.4, "tmin_d5": 3.4, "tmin_d6": 3.0, "day_of_year": 308, "uuid": "be6c5e07-1c0e-46ad-bf17-c18084d2b18c", "inat_id": 18336067}}, {"type": "Feature", "geometry": {"type": "Point", "coordinates": [-121.81, 45.31605]}, "properties": {"species": "Boletus fibrillosus", "date": "2018-12-08", "location": "SW Mount Hood, Clackamas Co., Oregon, USA", "elevation": 916.0, "land_cover_label": "Tree cover", "water_mask": false, "exclude_reason": "keep", "ndvi": null, "soil_moisture": null, "solar_exposure": null, "wind_exposure": null, "water_retention": null, "slope": null, "aspect": null, "num_identification_agreements": 1, "cluster": 0, "tavg": null, "tmin": null, "tmax": null, "prcp_d0": 0.0, "prcp_d1": 0.0, "prcp_d2": 0.0, "prcp_d3": 0.0, "prcp_d4": 0.0, "prcp_d5": 0.0, "prcp_d6": 0.0, "tmax_d0": 5.2, "tmax_d1": 3.6, "tmax_d2": -0.6, "tmax_d3": -1.5, "tmax_d4": 0.8, "tmax_d5": 2.3, "tmax_d6": 0.2, "tmin_d0": -2.2, "tmin_d1": -6.8, "tmin_d2": -6.2, "tmin_d3": -5.3, "tmin_d4": -3.2, "tmin_d5": -10.9, "tmin_d6": -2.3, "day_of_year": 342, "uuid": "322a7cf3-97bd-4727-8fc5-3266fd5784f3", "inat_id": 18936755}}, {"type": "Feature", "geometry": {"type": "Point", "coordinates": [-122.088904269, 45.5298631193]}, "properties": {"species": "Boletus fibrillosus", "date": "2019-09-23", "location": "Cascade Locks, OR 97014, USA", "elevation": 1200.0, "land_cover_label": "Tree cover", "water_mask": false, "exclude_reason": "keep", "ndvi": null, "soil_moisture": null, "solar_exposure": null, "wind_exposure": null, "water_retention": null, "slope": null, "aspect": null, "num_identification_agreements": 2, "cluster": 0, "tavg": null, "tmin": 13.3, "tmax": 20.6, "prcp_d0": 0.0, "prcp_d1": 0.0, "prcp_d2": 0.0, "prcp_d3": 0.0, "prcp_d4": 0.0, "prcp_d5": 0.0, "prcp_d6": 0.0, "tmax_d0": 10.4, "tmax_d1": 12.0, "tmax_d2": 13.2, "tmax_d3": 9.3, "tmax_d4": 9.1, "tmax_d5": 9.3, "tmax_d6": 10.2, "tmin_d0": 5.3, "tmin_d1": 5.9, "tmin_d2": 6.5, "tmin_d3": 6.5, "tmin_d4": 3.8, "tmin_d5": 4.9, "tmin_d6": 5.1, "day_of_year": 266, "uuid": "ff181f43-90e9-46c3-a83f-0cb2b4288dc7", "inat_id": 33281970}}, {"type": "Feature", "geometry": {"type": "Point", "coordinates": [-122.23033463, 44.85099405]}, "properties": {"species": "Boletus fibrillosus", "date": "2019-10-13", "location": "Marion County, US-OR, US", "elevation": 609.0, "land_cover_label": "Tree cover", "water_mask": false, "exclude_reason": "keep", "ndvi": null, "soil_moisture": null, "solar_exposure": null, "wind_exposure": null, "water_retention": null, "slope": null, "aspect": null, "num_identification_agreements": 4, "cluster": 0, "tavg": null, "tmin": null, "tmax": null, "prcp_d0": 0.0, "prcp_d1": 0.0, "prcp_d2": 0.0, "prcp_d3": 0.0, "prcp_d4": 0.0, "prcp_d5": 0.0, "prcp_d6": 0.0, "tmax_d0": 15.0, "tmax_d1": 17.5, "tmax_d2": 18.3, "tmax_d3": 14.3, "tmax_d4": 10.3, "tmax_d5": 15.7, "tmax_d6": 18.6, "tmin_d0": 6.8, "tmin_d1": 2.4, "tmin_d2": 0.8, "tmin_d3": 0.1, "tmin_d4": 2.6, "tmin_d5": 6.6, "tmin_d6": 6.0, "day_of_year": 286, "uuid": "5bc20950-b702-44af-b852-45e91350c720", "inat_id": 34330333}}, {"type": "Feature", "geometry": {"type": "Point", "coordinates": [-121.9683, 44.769405]}, "properties": {"species": "Boletus fibrillosus", "date": "2019-10-17", "location": "Marion County, US-OR, US", "elevation": 782.0, "land_cover_label": "Tree cover", "water_mask": false, "exclude_reason": "keep", "ndvi": null, "soil_moisture": null, "solar_exposure": null, "wind_exposure": null, "water_retention": null, "slope": null, "aspect": null, "num_identification_agreements": 5, "cluster": 0, "tavg": null, "tmin": null, "tmax": null, "prcp_d0": 0.0, "prcp_d1": 0.0, "prcp_d2": 0.0, "prcp_d3": 0.0, "prcp_d4": 0.0, "prcp_d5": 0.0, "prcp_d6": 0.0, "tmax_d0": 9.2, "tmax_d1": 14.4, "tmax_d2": 14.8, "tmax_d3": 15.7, "tmax_d4": 14.4, "tmax_d5": 16.2, "tmax_d6": 17.6, "tmin_d0": 5.3, "tmin_d1": 7.5, "tmin_d2": 4.1, "tmin_d3": 0.9, "tmin_d4": 7.1, "tmin_d5": 0.9, "tmin_d6": 3.0, "day_of_year": 290, "uuid": "6bf87952-6b4c-4d0c-85ab-745d34a416e1", "inat_id": 34739519}}, {"type": "Feature", "geometry": {"type": "Point", "coordinates": [-121.9308156771, 45.3393545416]}, "properties": {"species": "Boletus fibrillosus", "date": "2020-10-10", "location": "E Thimbleberry St, Rhododendron, OR, US", "elevation": 482.0, "land_cover_label": "Tree cover", "water_mask": false, "exclude_reason": "keep", "ndvi": null, "soil_moisture": null, "solar_exposure": null, "wind_exposure": null, "water_retention": null, "slope": null, "aspect": null, "num_identification_agreements": 3, "cluster": 0, "tavg": null, "tmin": 11.7, "tmax": 17.2, "prcp_d0": 31.941539764404297, "prcp_d1": 0.0, "prcp_d2": 0.0, "prcp_d3": 0.0, "prcp_d4": 0.0, "prcp_d5": 0.0, "prcp_d6": 0.0, "tmax_d0": 18.3, "tmax_d1": 21.0, "tmax_d2": 21.4, "tmax_d3": 25.0, "tmax_d4": 27.1, "tmax_d5": 23.7, "tmax_d6": 23.5, "tmin_d0": 9.8, "tmin_d1": 10.2, "tmin_d2": 11.8, "tmin_d3": 12.6, "tmin_d4": 8.0, "tmin_d5": 11.2, "tmin_d6": 8.3, "day_of_year": 284, "uuid": "f50b30c1-d950-40e5-9090-190d9cf35f89", "inat_id": 62262649}}, {"type": "Feature", "geometry": {"type": "Point", "coordinates": [-121.9074607285, 45.2018385595]}, "properties": {"species": "Boletus fibrillosus", "date": "2020-10-17", "location": "Oregon, US", "elevation": 1142.0, "land_cover_label": "Tree cover", "water_mask": false, "exclude_reason": "keep", "ndvi": null, "soil_moisture": null, "solar_exposure": null, "wind_exposure": null, "water_retention": null, "slope": null, "aspect": null, "num_identification_agreements": 5, "cluster": 0, "tavg": null, "tmin": null, "tmax": null, "prcp_d0": 0.0, "prcp_d1": 0.0, "prcp_d2": 0.0, "prcp_d3": 0.0, "prcp_d4": 47.15666961669922, "prcp_d5": 0.0, "prcp_d6": 0.0, "tmax_d0": 11.6, "tmax_d1": 14.1, "tmax_d2": 13.0, "tmax_d3": 7.2, "tmax_d4": 9.4, "tmax_d5": 8.7, "tmax_d6": 7.2, "tmin_d0": 7.7, "tmin_d1": 4.9, "tmin_d2": -1.4, "tmin_d3": 4.5, "tmin_d4": 4.5, "tmin_d5": 5.2, "tmin_d6": 4.4, "day_of_year": 291, "uuid": "ea3f5e05-e983-4924-bd89-aa81fc1871d4", "inat_id": 63555420}}, {"type": "Feature", "geometry": {"type": "Point", "coordinates": [-121.807215662, 45.2966896879]}, "properties": {"species": "Boletus fibrillosus", "date": "2020-10-18", "location": "Oregon, US", "elevation": 1340.0, "land_cover_label": "Tree cover", "water_mask": false, "exclude_reason": "keep", "ndvi": null, "soil_moisture": null, "solar_exposure": null, "wind_exposure": null, "water_retention": null, "slope": null, "aspect": null, "num_identification_agreements": 2, "cluster": 2, "tavg": null, "tmin": null, "tmax": null, "prcp_d0": 0.0, "prcp_d1": 0.0, "prcp_d2": 0.0, "prcp_d3": 0.0, "prcp_d4": 0.0, "prcp_d5": 45.52465057373047, "prcp_d6": 0.0, "tmax_d0": 8.8, "tmax_d1": 10.3, "tmax_d2": 12.7, "tmax_d3": 12.5, "tmax_d4": 6.2, "tmax_d5": 8.9, "tmax_d6": 7.9, "tmin_d0": 4.4, "tmin_d1": 6.8, "tmin_d2": 4.0, "tmin_d3": -1.1, "tmin_d4": 3.6, "tmin_d5": 3.1, "tmin_d6": 4.5, "day_of_year": 292, "uuid": "0d0876bb-96a5-4c94-8c22-ba9da5349121", "inat_id": 103706854}}, {"type": "Feature", "geometry": {"type": "Point", "coordinates": [-121.9026606005, 45.3286032529]}, "properties": {"species": "Boletus fibrillosus", "date": "2020-10-22", "location": "Oregon, US", "elevation": 542.0, "land_cover_label": "Tree cover", "water_mask": false, "exclude_reason": "keep", "ndvi": null, "soil_moisture": null, "solar_exposure": null, "wind_exposure": null, "water_retention": null, "slope": null, "aspect": null, "num_identification_agreements": 3, "cluster": 0, "tavg": null, "tmin": 2.8, "tmax": 15.0, "prcp_d0": 0.0, "prcp_d1": 0.0, "prcp_d2": 0.0, "prcp_d3": 0.0, "prcp_d4": 0.0, "prcp_d5": 0.0, "prcp_d6": 0.0, "tmax_d0": 11.2, "tmax_d1": 11.0, "tmax_d2": 11.9, "tmax_d3": 13.4, "tmax_d4": 13.4, "tmax_d5": 14.6, "tmax_d6": 16.8, "tmin_d0": -1.3, "tmin_d1": 5.8, "tmin_d2": 6.5, "tmin_d3": 10.3, "tmin_d4": 9.0, "tmin_d5": 11.6, "tmin_d6": 8.4, "day_of_year": 296, "uuid": "30e26f7a-2d36-435a-ac4a-88f2ee9ea466", "inat_id": 63388740}}, {"type": "Feature", "geometry": {"type": "Point", "coordinates": [-121.9787573224, 45.3551427078]}, "properties": {"species": "Boletus fibrillosus", "date": "2020-10-22", "location": "Oregon, US", "elevation": 394.0, "land_cover_label": "Tree cover", "water_mask": false, "exclude_reason": "keep", "ndvi": null, "soil_moisture": null, "solar_exposure": null, "wind_exposure": null, "water_retention": null, "slope": null, "aspect": null, "num_identification_agreements": 3, "cluster": 0, "tavg": null, "tmin": 2.8, "tmax": 15.0, "prcp_d0": 0.0, "prcp_d1": 0.0, "prcp_d2": 0.0, "prcp_d3": 0.0, "prcp_d4": 0.0, "prcp_d5": 0.0, "prcp_d6": 0.0, "tmax_d0": 12.0, "tmax_d1": 12.0, "tmax_d2": 12.8, "tmax_d3": 14.0, "tmax_d4": 14.2, "tmax_d5": 14.9, "tmax_d6": 16.7, "tmin_d0": -0.9, "tmin_d1": 7.1, "tmin_d2": 7.2, "tmin_d3": 11.1, "tmin_d4": 10.3, "tmin_d5": 12.0, "tmin_d6": 7.8, "day_of_year": 296, "uuid": "c5e22978-e03a-4c43-8a1a-4f4008eaaf8d", "inat_id": 63296463}}, {"type": "Feature", "geometry": {"type": "Point", "coordinates": [-121.8403315155, 45.249243309]}, "properties": {"species": "Boletus fibrillosus", "date": "2020-10-22", "location": "Oregon, US", "elevation": 1329.0, "land_cover_label": "Tree cover", "water_mask": false, "exclude_reason": "keep", "ndvi": null, "soil_moisture": null, "solar_exposure": null, "wind_exposure": null, "water_retention": null, "slope": null, "aspect": null, "num_identification_agreements": 3, "cluster": 0, "tavg": null, "tmin": null, "tmax": null, "prcp_d0": 0.0, "prcp_d1": 0.0, "prcp_d2": 0.0, "prcp_d3": 0.0, "prcp_d4": 0.0, "prcp_d5": 0.0, "prcp_d6": 0.0, "tmax_d0": 5.8, "tmax_d1": 6.4, "tmax_d2": 8.1, "tmax_d3": 8.8, "tmax_d4": 9.1, "tmax_d5": 10.7, "tmax_d6": 13.2, "tmin_d0": -5.3, "tmin_d1": 1.6, "tmin_d2": 2.2, "tmin_d3": 5.7, "tmin_d4": 4.5, "tmin_d5": 6.8, "tmin_d6": 3.9, "day_of_year": 296, "uuid": "8c570025-b1f1-482a-8e50-80a432d0beca", "inat_id": 63296374}}, {"type": "Feature", "geometry": {"type": "Point", "coordinates": [-121.8046754905, 45.3189706864]}, "properties": {"species": "Boletus fibrillosus", "date": "2020-10-23", "location": "Oregon, US", "elevation": 1135.0, "land_cover_label": "Tree cover", "water_mask": false, "exclude_reason": "keep", "ndvi": null, "soil_moisture": null, "solar_exposure": null, "wind_exposure": null, "water_retention": null, "slope": null, "aspect": null, "num_identification_agreements": 2, "cluster": 0, "tavg": null, "tmin": null, "tmax": null, "prcp_d0": 0.0, "prcp_d1": 0.0, "prcp_d2": 0.0, "prcp_d3": 0.0, "prcp_d4": 0.0, "prcp_d5": 0.0, "prcp_d6": 0.0, "tmax_d0": 6.3, "tmax_d1": 6.8, "tmax_d2": 7.2, "tmax_d3": 8.3, "tmax_d4": 9.9, "tmax_d5": 9.6, "tmax_d6": 11.2, "tmin_d0": -1.5, "tmin_d1": -3.4, "tmin_d2": 2.3, "tmin_d3": 2.9, "tmin_d4": 6.5, "tmin_d5": 5.3, "tmin_d6": 7.6, "day_of_year": 297, "uuid": "1afad5ff-aea3-4fca-9bf7-b86a68a599b4", "inat_id": 64225492}}, {"type": "Feature", "geometry": {"type": "Point", "coordinates": [-121.8241234722, 45.3954800935]}, "properties": {"species": "Boletus fibrillosus", "date": "2020-10-23", "location": "Oregon, US", "elevation": 925.0, "land_cover_label": "Tree cover", "water_mask": false, "exclude_reason": "keep", "ndvi": null, "soil_moisture": null, "solar_exposure": null, "wind_exposure": null, "water_retention": null, "slope": null, "aspect": null, "num_identification_agreements": 3, "cluster": 0, "tavg": null, "tmin": 5.6, "tmax": 14.4, "prcp_d0": 0.0, "prcp_d1": 0.0, "prcp_d2": 0.0, "prcp_d3": 0.0, "prcp_d4": 0.0, "prcp_d5": 0.0, "prcp_d6": 0.0, "tmax_d0": 7.5, "tmax_d1": 8.1, "tmax_d2": 7.9, "tmax_d3": 9.0, "tmax_d4": 10.3, "tmax_d5": 10.3, "tmax_d6": 11.5, "tmin_d0": -1.8, "tmin_d1": -3.0, "tmin_d2": 2.8, "tmin_d3": 3.2, "tmin_d4": 7.2, "tmin_d5": 6.2, "tmin_d6": 8.2, "day_of_year": 297, "uuid": "ce700a06-f482-4117-a064-5848361ee68d", "inat_id": 63370033}}, {"type": "Feature", "geometry": {"type": "Point", "coordinates": [-121.9077962949, 45.3026549436]}, "properties": {"species": "Boletus fibrillosus", "date": "2020-10-23", "location": "Oregon, US", "elevation": 769.0, "land_cover_label": "Tree cover", "water_mask": false, "exclude_reason": "keep", "ndvi": null, "soil_moisture": null, "solar_exposure": null, "wind_exposure": null, "water_retention": null, "slope": null, "aspect": null, "num_identification_agreements": 4, "cluster": 0, "tavg": null, "tmin": 5.6, "tmax": 14.4, "prcp_d0": 0.0, "prcp_d1": 0.0, "prcp_d2": 0.0, "prcp_d3": 0.0, "prcp_d4": 0.0, "prcp_d5": 0.0, "prcp_d6": 0.0, "tmax_d0": 8.3, "tmax_d1": 9.6, "tmax_d2": 9.5, "tmax_d3": 10.3, "tmax_d4": 11.8, "tmax_d5": 11.9, "tmax_d6": 13.1, "tmin_d0": 0.1, "tmin_d1": -2.9, "tmin_d2": 4.2, "tmin_d3": 4.9, "tmin_d4": 8.7, "tmin_d5": 7.4, "tmin_d6": 10.1, "day_of_year": 297, "uuid": "e21b3be3-7345-4852-b729-a1c520c548c2", "inat_id": 63891724}}, {"type": "Feature", "geometry": {"type": "Point", "coordinates": [-121.816209233, 45.3353563369]}, "properties": {"species": "Boletus fibrillosus", "date": "2020-10-23", "location": "Oregon, US", "elevation": 1329.0, "land_cover_label": "Tree cover", "water_mask": false, "exclude_reason": "keep", "ndvi": null, "soil_moisture": null, "solar_exposure": null, "wind_exposure": null, "water_retention": null, "slope": null, "aspect": null, "num_identification_agreements": 2, "cluster": 0, "tavg": null, "tmin": null, "tmax": null, "prcp_d0": 0.0, "prcp_d1": 0.0, "prcp_d2": 0.0, "prcp_d3": 0.0, "prcp_d4": 0.0, "prcp_d5": 0.0, "prcp_d6": 0.0, "tmax_d0": 5.4, "tmax_d1": 5.9, "tmax_d2": 6.3, "tmax_d3": 7.5, "tmax_d4": 9.1, "tmax_d5": 8.8, "tmax_d6": 10.3, "tmin_d0": -2.4, "tmin_d1": -4.3, "tmin_d2": 1.5, "tmin_d3": 2.0, "tmin_d4": 5.7, "tmin_d5": 4.4, "tmin_d6": 6.8, "day_of_year": 297, "uuid": "7ffb41b3-7522-46ba-8df8-d6d9604558dc", "inat_id": 63774303}}, {"type": "Feature", "geometry": {"type": "Point", "coordinates": [-121.8833811438, 45.3334666767]}, "properties": {"species": "Boletus fibrillosus", "date": "2020-10-24", "location": "Oregon, US", "elevation": 1147.0, "land_cover_label": "Tree cover", "water_mask": false, "exclude_reason": "keep", "ndvi": null, "soil_moisture": null, "solar_exposure": null, "wind_exposure": null, "water_retention": null, "slope": null, "aspect": null, "num_identification_agreements": 4, "cluster": 0, "tavg": null, "tmin": 6.7, "tmax": 14.4, "prcp_d0": 0.0, "prcp_d1": 0.0, "prcp_d2": 0.0, "prcp_d3": 0.0, "prcp_d4": 0.0, "prcp_d5": 0.0, "prcp_d6": 0.0, "tmax_d0": 6.8, "tmax_d1": 6.6, "tmax_d2": 7.2, "tmax_d3": 7.0, "tmax_d4": 8.1, "tmax_d5": 9.4, "tmax_d6": 9.4, "tmin_d0": 0.0, "tmin_d1": -2.7, "tmin_d2": -3.9, "tmin_d3": 1.9, "tmin_d4": 2.3, "tmin_d5": 6.3, "tmin_d6": 5.3, "day_of_year": 298, "uuid": "9e8c46c1-e2a0-44b3-8107-8402620c86d0", "inat_id": 63452102}}, {"type": "Feature", "geometry": {"type": "Point", "coordinates": [-121.9870388778, 45.3365541992]}, "properties": {"species": "Boletus fibrillosus", "date": "2020-10-24", "location": "Oregon, US", "elevation": 670.0, "land_cover_label": "Tree cover", "water_mask": false, "exclude_reason": "keep", "ndvi": null, "soil_moisture": null, "solar_exposure": null, "wind_exposure": null, "water_retention": null, "slope": null, "aspect": null, "num_identification_agreements": 3, "cluster": 0, "tavg": null, "tmin": 6.7, "tmax": 14.4, "prcp_d0": 0.0, "prcp_d1": 0.0, "prcp_d2": 0.0, "prcp_d3": 0.0, "prcp_d4": 0.0, "prcp_d5": 0.0, "prcp_d6": 0.0, "tmax_d0": 9.6, "tmax_d1": 8.8, "tmax_d2": 10.0, "tmax_d3": 10.1, "tmax_d4": 10.8, "tmax_d5": 12.1, "tmax_d6": 12.3, "tmin_d0": 4.1, "tmin_d1": -0.6, "tmin_d2": -2.9, "tmin_d3": 5.1, "tmin_d4": 5.2, "tmin_d5": 9.1, "tmin_d6": 8.4, "day_of_year": 298, "uuid": "325bb818-1ac9-4ba3-a626-f4c25aa32534", "inat_id": 64840671}}, {"type": "Feature", "geometry": {"type": "Point", "coordinates": [-121.9789962482, 45.3209732556]}, "properties": {"species": "Boletus fibrillosus", "date": "2020-10-24", "location": "Oregon, US", "elevation": 837.0, "land_cover_label": "Tree cover", "water_mask": false, "exclude_reason": "keep", "ndvi": null, "soil_moisture": null, "solar_exposure": null, "wind_exposure": null, "water_retention": null, "slope": null, "aspect": null, "num_identification_agreements": 4, "cluster": 0, "tavg": null, "tmin": 6.7, "tmax": 14.4, "prcp_d0": 0.0, "prcp_d1": 0.0, "prcp_d2": 0.0, "prcp_d3": 0.0, "prcp_d4": 0.0, "prcp_d5": 0.0, "prcp_d6": 0.0, "tmax_d0": 8.7, "tmax_d1": 7.9, "tmax_d2": 9.1, "tmax_d3": 9.2, "tmax_d4": 9.9, "tmax_d5": 11.2, "tmax_d6": 11.4, "tmin_d0": 3.2, "tmin_d1": -1.5, "tmin_d2": -3.8, "tmin_d3": 4.2, "tmin_d4": 4.3, "tmin_d5": 8.2, "tmin_d6": 7.5, "day_of_year": 298, "uuid": "52a006d7-db24-4968-a264-4f34cca694f4", "inat_id": 64845043}}, {"type": "Feature", "geometry": {"type": "Point", "coordinates": [-121.980735811, 45.3750246127]}, "properties": {"species": "Boletus fibrillosus", "date": "2020-10-24", "location": "Oregon, US", "elevation": 728.0, "land_cover_label": "Tree cover", "water_mask": false, "exclude_reason": "keep", "ndvi": null, "soil_moisture": null, "solar_exposure": null, "wind_exposure": null, "water_retention": null, "slope": null, "aspect": null, "num_identification_agreements": 2, "cluster": 0, "tavg": null, "tmin": 6.7, "tmax": 14.4, "prcp_d0": 0.0, "prcp_d1": 0.0, "prcp_d2": 0.0, "prcp_d3": 0.0, "prcp_d4": 0.0, "prcp_d5": 0.0, "prcp_d6": 0.0, "tmax_d0": 9.4, "tmax_d1": 8.6, "tmax_d2": 9.8, "tmax_d3": 9.9, "tmax_d4": 10.6, "tmax_d5": 11.9, "tmax_d6": 12.1, "tmin_d0": 3.9, "tmin_d1": -0.8, "tmin_d2": -3.1, "tmin_d3": 4.9, "tmin_d4": 5.0, "tmin_d5": 8.9, "tmin_d6": 8.2, "day_of_year": 298, "uuid": "2b5d5ea3-c746-481c-9804-d75df583fc5b", "inat_id": 63495570}}, {"type": "Feature", "geometry": {"type": "Point", "coordinates": [-121.9429385344, 45.3541097631]}, "properties": {"species": "Boletus fibrillosus", "date": "2020-10-24", "location": "Oregon, US", "elevation": 454.0, "land_cover_label": "Tree cover", "water_mask": false, "exclude_reason": "keep", "ndvi": null, "soil_moisture": null, "solar_exposure": null, "wind_exposure": null, "water_retention": null, "slope": null, "aspect": null, "num_identification_agreements": 1, "cluster": 0, "tavg": null, "tmin": 6.7, "tmax": 14.4, "prcp_d0": 0.0, "prcp_d1": 0.0, "prcp_d2": 0.0, "prcp_d3": 0.0, "prcp_d4": 0.0, "prcp_d5": 0.0, "prcp_d6": 0.0, "tmax_d0": 10.9, "tmax_d1": 10.1, "tmax_d2": 11.3, "tmax_d3": 11.4, "tmax_d4": 12.1, "tmax_d5": 13.4, "tmax_d6": 13.6, "tmin_d0": 5.4, "tmin_d1": 0.7, "tmin_d2": -1.6, "tmin_d3": 6.4, "tmin_d4": 6.5, "tmin_d5": 10.4, "tmin_d6": 9.7, "day_of_year": 298, "uuid": "4a0e2b68-f380-4837-851d-aad68b103d88", "inat_id": 63495569}}, {"type": "Feature", "geometry": {"type": "Point", "coordinates": [-122.1014055556, 45.5404583333]}, "properties": {"species": "Boletus fibrillosus", "date": "2021-09-05", "location": "Cascade Locks, OR 97014, USA", "elevation": 1030.0, "land_cover_label": "Tree cover", "water_mask": false, "exclude_reason": "keep", "ndvi": null, "soil_moisture": null, "solar_exposure": null, "wind_exposure": null, "water_retention": null, "slope": null, "aspect": null, "num_identification_agreements": 1, "cluster": 0, "tavg": null, "tmin": 13.3, "tmax": 30.0, "prcp_d0": 0.0, "prcp_d1": 0.0, "prcp_d2": 0.0, "prcp_d3": 0.0, "prcp_d4": 0.0, "prcp_d5": 0.0, "prcp_d6": 0.0, "tmax_d0": 21.4, "tmax_d1": 21.2, "tmax_d2": 22.2, "tmax_d3": 21.3, "tmax_d4": 18.8, "tmax_d5": 13.0, "tmax_d6": 20.9, "tmin_d0": 10.7, "tmin_d1": 9.2, "tmin_d2": 4.1, "tmin_d3": 2.6, "tmin_d4": 1.9, "tmin_d5": 5.4, "tmin_d6": 5.9, "day_of_year": 248, "uuid": "f2b48a42-f759-4d34-b610-d3f3d03c4165", "inat_id": 94283554}}, {"type": "Feature", "geometry": {"type": "Point", "coordinates": [-121.8971849897, 45.3061161633]}, "properties": {"species": "Boletus fibrillosus", "date": "2021-10-22", "location": "Clackamas County, OR, USA", "elevation": 689.0, "land_cover_label": "Tree cover", "water_mask": false, "exclude_reason": "keep", "ndvi": null, "soil_moisture": null, "solar_exposure": null, "wind_exposure": null, "water_retention": null, "slope": null, "aspect": null, "num_identification_agreements": 2, "cluster": 1, "tavg": null, "tmin": 10.6, "tmax": 15.0, "prcp_d0": 17.949316024780273, "prcp_d1": 17.949316024780273, "prcp_d2": 12.58393096923828, "prcp_d3": 0.0, "prcp_d4": 0.0, "prcp_d5": 25.16786193847656, "prcp_d6": 0.0, "tmax_d0": 15.0, "tmax_d1": 17.1, "tmax_d2": 13.4, "tmax_d3": 14.8, "tmax_d4": 10.8, "tmax_d5": 17.0, "tmax_d6": 19.3, "tmin_d0": 6.1, "tmin_d1": 7.3, "tmin_d2": 7.3, "tmin_d3": 2.9, "tmin_d4": 5.4, "tmin_d5": 7.0, "tmin_d6": 5.1, "day_of_year": 295, "uuid": "f1ac1ea6-dd52-44e9-af7b-3b0c41521758", "inat_id": 103706957}}, {"type": "Feature", "geometry": {"type": "Point", "coordinates": [-122.1173758074, 45.2411151619]}, "properties": {"species": "Boletus fibrillosus", "date": "2023-09-29", "location": "Clackamas County, OR, USA", "elevation": 1030.0, "land_cover_label": "Tree cover", "water_mask": false, "exclude_reason": "keep", "ndvi": null, "soil_moisture": null, "solar_exposure": null, "wind_exposure": null, "water_retention": null, "slope": null, "aspect": null, "num_identification_agreements": 1, "cluster": 2, "tavg": null, "tmin": 13.3, "tmax": 17.2, "prcp_d0": 0.0, "prcp_d1": 0.0, "prcp_d2": 0.0, "prcp_d3": 0.0, "prcp_d4": 40.98500442504883, "prcp_d5": 27.32333755493164, "prcp_d6": 0.0, "tmax_d0": 11.1, "tmax_d1": 10.3, "tmax_d2": 10.3, "tmax_d3": 11.9, "tmax_d4": 11.6, "tmax_d5": 11.2, "tmax_d6": 17.3, "tmin_d0": 6.2, "tmin_d1": 6.0, "tmin_d2": 5.9, "tmin_d3": 6.7, "tmin_d4": 7.7, "tmin_d5": 5.0, "tmin_d6": 6.7, "day_of_year": 272, "uuid": "186b23f7-367f-40bb-9eae-33d160e7b279", "inat_id": 256308335}}, {"type": "Feature", "geometry": {"type": "Point", "coordinates": [-122.0434805, 45.382325]}, "properties": {"species": "Boletus fibrillosus", "date": "2023-10-15", "location": "Sandy River, Sandy, OR, US", "elevation": 308.0, "land_cover_label": "Tree cover", "water_mask": false, "exclude_reason": "keep", "ndvi": null, "soil_moisture": null, "solar_exposure": null, "wind_exposure": null, "water_retention": null, "slope": null, "aspect": null, "num_identification_agreements": 1, "cluster": 0, "tavg": null, "tmin": 14.4, "tmax": 22.2, "prcp_d0": 0.0, "prcp_d1": 0.0, "prcp_d2": 0.0, "prcp_d3": 0.0, "prcp_d4": 0.0, "prcp_d5": 0.0, "prcp_d6": 26.96180534362793, "tmax_d0": 22.0, "tmax_d1": 17.0, "tmax_d2": 21.7, "tmax_d3": 19.8, "tmax_d4": 14.7, "tmax_d5": 15.3, "tmax_d6": 23.0, "tmin_d0": 10.6, "tmin_d1": 10.0, "tmin_d2": 12.2, "tmin_d3": 10.0, "tmin_d4": 9.1, "tmin_d5": 10.3, "tmin_d6": 12.0, "day_of_year": 288, "uuid": "f12e9603-490a-497c-88e5-95dcfd3ef159", "inat_id": 187711904}}, {"type": "Feature", "geometry": {"type": "Point", "coordinates": [-122.0257952672, 45.3499085901]}, "properties": {"species": "Boletus fibrillosus", "date": "2023-10-19", "location": "Oregon, US", "elevation": 578.0, "land_cover_label": "Tree cover", "water_mask": false, "exclude_reason": "keep", "ndvi": null, "soil_moisture": null, "solar_exposure": null, "wind_exposure": null, "water_retention": null, "slope": null, "aspect": null, "num_identification_agreements": 1, "cluster": 2, "tavg": null, "tmin": 8.3, "tmax": 22.2, "prcp_d0": 0.0, "prcp_d1": 0.0, "prcp_d2": 0.0, "prcp_d3": 0.0, "prcp_d4": 0.0, "prcp_d5": 41.281288146972656, "prcp_d6": 0.0, "tmax_d0": 20.8, "tmax_d1": 24.2, "tmax_d2": 17.3, "tmax_d3": 19.4, "tmax_d4": 20.9, "tmax_d5": 15.8, "tmax_d6": 19.0, "tmin_d0": 6.7, "tmin_d1": 8.1, "tmin_d2": 7.9, "tmin_d3": 12.0, "tmin_d4": 9.2, "tmin_d5": 8.3, "tmin_d6": 9.9, "day_of_year": 292, "uuid": "b65c2999-f9c0-41b0-8d5f-84b690127690", "inat_id": 188480718}}, {"type": "Feature", "geometry": {"type": "Point", "coordinates": [-121.9215611111, 45.263175]}, "properties": {"species": "Boletus fibrillosus", "date": "2023-10-22", "location": "Clackamas County, OR, USA", "elevation": 555.0, "land_cover_label": "Tree cover", "water_mask": false, "exclude_reason": "keep", "ndvi": null, "soil_moisture": null, "solar_exposure": null, "wind_exposure": null, "water_retention": null, "slope": null, "aspect": null, "num_identification_agreements": 2, "cluster": 0, "tavg": null, "tmin": 12.8, "tmax": 17.2, "prcp_d0": 0.0, "prcp_d1": 0.0, "prcp_d2": 0.0, "prcp_d3": 0.0, "prcp_d4": 0.0, "prcp_d5": 0.0, "prcp_d6": 20.32076835632324, "tmax_d0": 14.3, "tmax_d1": 21.3, "tmax_d2": 22.7, "tmax_d3": 23.3, "tmax_d4": 26.5, "tmax_d5": 18.1, "tmax_d6": 19.1, "tmin_d0": 9.3, "tmin_d1": 9.5, "tmin_d2": 12.2, "tmin_d3": 10.3, "tmin_d4": 9.2, "tmin_d5": 8.5, "tmin_d6": 12.9, "day_of_year": 295, "uuid": "669bff94-6c95-47cd-8e97-114b94157e45", "inat_id": 189279578}}, {"type": "Feature", "geometry": {"type": "Point", "coordinates": [-122.2304541513, 45.3113922023]}, "properties": {"species": "Boletus fibrillosus", "date": "2023-10-22", "location": "Clackamas County, OR, USA", "elevation": 395.0, "land_cover_label": "Tree cover", "water_mask": false, "exclude_reason": "keep", "ndvi": null, "soil_moisture": null, "solar_exposure": null, "wind_exposure": null, "water_retention": null, "slope": null, "aspect": null, "num_identification_agreements": 1, "cluster": 0, "tavg": null, "tmin": 12.8, "tmax": 17.2, "prcp_d0": 0.0, "prcp_d1": 0.0, "prcp_d2": 0.0, "prcp_d3": 0.0, "prcp_d4": 0.0, "prcp_d5": 0.0, "prcp_d6": 26.743125915527344, "tmax_d0": 15.0, "tmax_d1": 16.5, "tmax_d2": 18.3, "tmax_d3": 19.2, "tmax_d4": 21.3, "tmax_d5": 17.4, "tmax_d6": 19.0, "tmin_d0": 9.1, "tmin_d1": 6.7, "tmin_d2": 8.3, "tmin_d3": 6.4, "tmin_d4": 7.6, "tmin_d5": 8.0, "tmin_d6": 12.1, "day_of_year": 295, "uuid": "e2552d9d-e400-481f-93fd-cc613e3dd3e1", "inat_id": 232899208}}, {"type": "Feature", "geometry": {"type": "Point", "coordinates": [-122.1129305, 45.54338]}, "properties": {"species": "Boletus fibrillosus", "date": "2023-10-22", "location": "Zigzag Ranger Station, Corbett, OR, US", "elevation": 831.0, "land_cover_label": "Tree cover", "water_mask": false, "exclude_reason": "keep", "ndvi": null, "soil_moisture": null, "solar_exposure": null, "wind_exposure": null, "water_retention": null, "slope": null, "aspect": null, "num_identification_agreements": 1, "cluster": 0, "tavg": null, "tmin": 12.8, "tmax": 17.2, "prcp_d0": 0.0, "prcp_d1": 0.0, "prcp_d2": 0.0, "prcp_d3": 0.0, "prcp_d4": 0.0, "prcp_d5": 0.0, "prcp_d6": 31.94695281982422, "tmax_d0": 12.5, "tmax_d1": 15.1, "tmax_d2": 17.2, "tmax_d3": 18.5, "tmax_d4": 21.1, "tmax_d5": 14.8, "tmax_d6": 14.4, "tmin_d0": 7.6, "tmin_d1": 6.3, "tmin_d2": 7.5, "tmin_d3": 8.9, "tmin_d4": 3.8, "tmin_d5": 7.6, "tmin_d6": 9.3, "day_of_year": 295, "uuid": "4b222058-e0c0-4a64-bb6b-95362bddbefa", "inat_id": 188680039}}, {"type": "Feature", "geometry": {"type": "Point", "coordinates": [-122.0214753932, 45.337883983]}, "properties": {"species": "Boletus fibrillosus", "date": "2023-10-26", "location": "Oregon, US", "elevation": 595.0, "land_cover_label": "Tree cover", "water_mask": false, "exclude_reason": "keep", "ndvi": null, "soil_moisture": null, "solar_exposure": null, "wind_exposure": null, "water_retention": null, "slope": null, "aspect": null, "num_identification_agreements": 2, "cluster": 1, "tavg": null, "tmin": 5.6, "tmax": 11.7, "prcp_d0": 0.0, "prcp_d1": 19.4156436920166, "prcp_d2": 19.4156436920166, "prcp_d3": 0.0, "prcp_d4": 0.0, "prcp_d5": 0.0, "prcp_d6": 0.0, "tmax_d0": 6.8, "tmax_d1": 5.2, "tmax_d2": 7.7, "tmax_d3": 11.3, "tmax_d4": 14.1, "tmax_d5": 17.9, "tmax_d6": 20.3, "tmin_d0": 2.9, "tmin_d1": 3.2, "tmin_d2": 4.6, "tmin_d3": 8.0, "tmin_d4": 8.7, "tmin_d5": 7.4, "tmin_d6": 8.7, "day_of_year": 299, "uuid": "8560f581-056c-4719-bd78-7eea04d7641d", "inat_id": 190637945}}, {"type": "Feature", "geometry": {"type": "Point", "coordinates": [-122.1886762102, 45.2270051514]}, "properties": {"species": "Boletus fibrillosus", "date": "2023-10-28", "location": "Oregon, US", "elevation": 559.0, "land_cover_label": "Tree cover", "water_mask": false, "exclude_reason": "keep", "ndvi": null, "soil_moisture": null, "solar_exposure": null, "wind_exposure": null, "water_retention": null, "slope": null, "aspect": null, "num_identification_agreements": 1, "cluster": 0, "tavg": null, "tmin": 3.9, "tmax": 12.2, "prcp_d0": 0.0, "prcp_d1": 0.0, "prcp_d2": 0.0, "prcp_d3": 15.771772384643556, "prcp_d4": 15.771772384643556, "prcp_d5": 0.0, "prcp_d6": 0.0, "tmax_d0": 8.5, "tmax_d1": 8.2, "tmax_d2": 7.3, "tmax_d3": 5.5, "tmax_d4": 8.0, "tmax_d5": 11.7, "tmax_d6": 14.2, "tmin_d0": -0.3, "tmin_d1": -1.9, "tmin_d2": 1.8, "tmin_d3": 3.1, "tmin_d4": 4.2, "tmin_d5": 8.5, "tmin_d6": 8.7, "day_of_year": 301, "uuid": "870e5ed9-e505-45f1-81a8-14ea58e1bb19", "inat_id": 189295924}}, {"type": "Feature", "geometry": {"type": "Point", "coordinates": [-122.1885423818, 45.3861768453]}, "properties": {"species": "Boletus fibrillosus", "date": "2023-10-28", "location": "Oregon, US", "elevation": 360.0, "land_cover_label": "Grassland", "water_mask": false, "exclude_reason": "keep", "ndvi": null, "soil_moisture": null, "solar_exposure": null, "wind_exposure": null, "water_retention": null, "slope": null, "aspect": null, "num_identification_agreements": 2, "cluster": 0, "tavg": null, "tmin": 3.9, "tmax": 12.2, "prcp_d0": 0.0, "prcp_d1": 0.0, "prcp_d2": 0.0, "prcp_d3": 12.224393844604492, "prcp_d4": 24.448787689208984, "prcp_d5": 0.0, "prcp_d6": 0.0, "tmax_d0": 12.0, "tmax_d1": 11.4, "tmax_d2": 9.3, "tmax_d3": 7.5, "tmax_d4": 11.6, "tmax_d5": 14.1, "tmax_d6": 16.5, "tmin_d0": -1.3, "tmin_d1": -0.4, "tmin_d2": 4.6, "tmin_d3": 4.6, "tmin_d4": 7.2, "tmin_d5": 8.8, "tmin_d6": 10.2, "day_of_year": 301, "uuid": "32d6bd36-7cb4-483e-a92e-abcee0332c5e", "inat_id": 189322636}}, {"type": "Feature", "geometry": {"type": "Point", "coordinates": [-122.1824031833, 45.2977865206]}, "properties": {"species": "Boletus fibrillosus", "date": "2023-10-28", "location": "Oregon, US", "elevation": 549.0, "land_cover_label": "Tree cover", "water_mask": false, "exclude_reason": "keep", "ndvi": null, "soil_moisture": null, "solar_exposure": null, "wind_exposure": null, "water_retention": null, "slope": null, "aspect": null, "num_identification_agreements": 2, "cluster": 0, "tavg": null, "tmin": 3.9, "tmax": 12.2, "prcp_d0": 0.0, "prcp_d1": 0.0, "prcp_d2": 0.0, "prcp_d3": 16.009706497192383, "prcp_d4": 16.009706497192383, "prcp_d5": 0.0, "prcp_d6": 0.0, "tmax_d0": 10.5, "tmax_d1": 10.0, "tmax_d2": 7.9, "tmax_d3": 6.2, "tmax_d4": 9.3, "tmax_d5": 12.4, "tmax_d6": 15.0, "tmin_d0": -0.4, "tmin_d1": -1.7, "tmin_d2": 3.6, "tmin_d3": 3.9, "tmin_d4": 5.5, "tmin_d5": 8.7, "tmin_d6": 9.1, "day_of_year": 301, "uuid": "f882331b-6f2e-49cc-b2c6-523a31c60fea", "inat_id": 189294550}}, {"type": "Feature", "geometry": {"type": "Point", "coordinates": [-121.8849671982, 45.2762894129]}, "properties": {"species": "Boletus fibrillosus", "date": "2023-11-04", "location": "Clackamas County, US-OR, US", "elevation": 1157.0, "land_cover_label": "Tree cover", "water_mask": false, "exclude_reason": "keep", "ndvi": null, "soil_moisture": null, "solar_exposure": null, "wind_exposure": null, "water_retention": null, "slope": null, "aspect": null, "num_identification_agreements": 2, "cluster": 1, "tavg": null, "tmin": null, "tmax": null, "prcp_d0": 82.64054107666016, "prcp_d1": 0.0, "prcp_d2": 33.05621719360352, "prcp_d3": 0.0, "prcp_d4": 0.0, "prcp_d5": 0.0, "prcp_d6": 0.0, "tmax_d0": 11.4, "tmax_d1": 12.7, "tmax_d2": 9.8, "tmax_d3": 9.4, "tmax_d4": 12.5, "tmax_d5": 7.3, "tmax_d6": 6.4, "tmin_d0": 9.0, "tmin_d1": 4.7, "tmin_d2": 6.5, "tmin_d3": 5.3, "tmin_d4": 0.2, "tmin_d5": -0.9, "tmin_d6": -3.0, "day_of_year": 308, "uuid": "260473b8-7f6e-488c-bbae-35565435c2c8", "inat_id": 190012896}}, {"type": "Feature", "geometry": {"type": "Point", "coordinates": [-121.8620777778, 45.3026805556]}, "properties": {"species": "Boletus fibrillosus", "date": "2023-11-17", "location": "Rhododendron, OR 97049, USA", "elevation": 690.0, "land_cover_label": "Tree cover", "water_mask": false, "exclude_reason": "keep", "ndvi": null, "soil_moisture": null, "solar_exposure": null, "wind_exposure": null, "water_retention": null, "slope": null, "aspect": null, "num_identification_agreements": 2, "cluster": 0, "tavg": null, "tmin": 1.1, "tmax": 6.5, "prcp_d0": 0.0, "prcp_d1": 0.0, "prcp_d2": 0.0, "prcp_d3": 0.0, "prcp_d4": 0.0, "prcp_d5": 0.0, "prcp_d6": 0.0, "tmax_d0": 12.7, "tmax_d1": 12.2, "tmax_d2": 12.5, "tmax_d3": 13.9, "tmax_d4": 10.9, "tmax_d5": 12.2, "tmax_d6": 7.5, "tmin_d0": 4.6, "tmin_d1": 6.0, "tmin_d2": 7.2, "tmin_d3": 0.2, "tmin_d4": 5.3, "tmin_d5": 4.6, "tmin_d6": 4.1, "day_of_year": 321, "uuid": "9b78d96c-8d82-4346-8652-56cb25e5feda", "inat_id": 191556229}}, {"type": "Feature", "geometry": {"type": "Point", "coordinates": [-121.747183098, 45.3552144463]}, "properties": {"species": "Boletus fibrillosus", "date": "2024-08-18", "location": "Oregon, US", "elevation": 1792.0, "land_cover_label": "Grassland", "water_mask": false, "exclude_reason": "keep", "ndvi": null, "soil_moisture": null, "solar_exposure": null, "wind_exposure": null, "water_retention": null, "slope": null, "aspect": null, "num_identification_agreements": 2, "cluster": 0, "tavg": null, "tmin": 14.3, "tmax": 24.4, "prcp_d0": 18.01407241821289, "prcp_d1": 0.0, "prcp_d2": 0.0, "prcp_d3": 0.0, "prcp_d4": 0.0, "prcp_d5": 0.0, "prcp_d6": 0.0, "tmax_d0": 18.9, "tmax_d1": 21.4, "tmax_d2": 15.8, "tmax_d3": 14.3, "tmax_d4": 16.6, "tmax_d5": 12.8, "tmax_d6": 16.5, "tmin_d0": 3.8, "tmin_d1": 7.9, "tmin_d2": 4.9, "tmin_d3": 5.1, "tmin_d4": 1.9, "tmin_d5": 3.7, "tmin_d6": 5.9, "day_of_year": 231, "uuid": "b7b680bd-8b1e-4e55-8aca-d02927bc5d29", "inat_id": 236654709}}, {"type": "Feature", "geometry": {"type": "Point", "coordinates": [-121.879529, 45.32002145]}, "properties": {"species": "Boletus fibrillosus", "date": "2024-10-08", "location": "Mt. Hood Park Division Recreation Area, Rhododendron, OR, US", "elevation": 807.0, "land_cover_label": "Tree cover", "water_mask": false, "exclude_reason": "keep", "ndvi": null, "soil_moisture": null, "solar_exposure": null, "wind_exposure": null, "water_retention": null, "slope": null, "aspect": null, "num_identification_agreements": 1, "cluster": 0, "tavg": null, "tmin": 10.5, "tmax": 21.8, "prcp_d0": 0.0, "prcp_d1": 0.0, "prcp_d2": 0.0, "prcp_d3": 1.5528892278671265, "prcp_d4": 33.16910934448242, "prcp_d5": 0.0, "prcp_d6": 1.97260856628418, "tmax_d0": 22.6, "tmax_d1": 24.2, "tmax_d2": 20.1, "tmax_d3": 20.9, "tmax_d4": 17.9, "tmax_d5": 18.9, "tmax_d6": 18.8, "tmin_d0": 10.7, "tmin_d1": 9.2, "tmin_d2": 6.3, "tmin_d3": 2.5, "tmin_d4": 7.6, "tmin_d5": 3.4, "tmin_d6": 6.4, "day_of_year": 282, "uuid": "c0dd8e16-f8e1-43d7-91df-35327bab2d69", "inat_id": 246408229}}, {"type": "Feature", "geometry": {"type": "Point", "coordinates": [-121.9385561668, 45.2885021166]}, "properties": {"species": "Boletus fibrillosus", "date": "2024-10-11", "location": "Zigzag Ranger Station, Welches, OR, US", "elevation": 534.0, "land_cover_label": "Tree cover", "water_mask": false, "exclude_reason": "keep", "ndvi": null, "soil_moisture": null, "solar_exposure": null, "wind_exposure": null, "water_retention": null, "slope": null, "aspect": null, "num_identification_agreements": 2, "cluster": 0, "tavg": null, "tmin": 14.4, "tmax": 21.1, "prcp_d0": 16.696866989135742, "prcp_d1": 0.0, "prcp_d2": 0.0, "prcp_d3": 0.0, "prcp_d4": 0.0, "prcp_d5": 0.0, "prcp_d6": 1.3455387353897097, "tmax_d0": 23.6, "tmax_d1": 19.4, "tmax_d2": 18.0, "tmax_d3": 24.6, "tmax_d4": 26.2, "tmax_d5": 22.1, "tmax_d6": 22.9, "tmin_d0": 9.5, "tmin_d1": 2.3, "tmin_d2": 11.2, "tmin_d3": 12.7, "tmin_d4": 11.2, "tmin_d5": 8.3, "tmin_d6": 4.5, "day_of_year": 285, "uuid": "704546ec-1237-406f-a4e3-873747f7f95c", "inat_id": 246817357}}, {"type": "Feature", "geometry": {"type": "Point", "coordinates": [-122.1213201061, 45.257402547]}, "properties": {"species": "Boletus fibrillosus", "date": "2024-10-13", "location": "Estacada, OR 97023, USA", "elevation": 910.0, "land_cover_label": "Tree cover", "water_mask": false, "exclude_reason": "keep", "ndvi": null, "soil_moisture": null, "solar_exposure": null, "wind_exposure": null, "water_retention": null, "slope": null, "aspect": null, "num_identification_agreements": 1, "cluster": 0, "tavg": null, "tmin": 8.9, "tmax": 23.9, "prcp_d0": 0.0, "prcp_d1": 0.0, "prcp_d2": 0.0, "prcp_d3": 0.0, "prcp_d4": 0.0, "prcp_d5": 0.0, "prcp_d6": 0.0, "tmax_d0": 20.0, "tmax_d1": 19.8, "tmax_d2": 20.4, "tmax_d3": 15.7, "tmax_d4": 14.9, "tmax_d5": 21.3, "tmax_d6": 24.2, "tmin_d0": 5.2, "tmin_d1": 8.0, "tmin_d2": 5.2, "tmin_d3": -0.4, "tmin_d4": 8.0, "tmin_d5": 7.1, "tmin_d6": 6.5, "day_of_year": 287, "uuid": "66d08939-e664-4cdb-a0dd-4ed14573f3cf", "inat_id": 247585605}}, {"type": "Feature", "geometry": {"type": "Point", "coordinates": [-122.0903630555, 45.5309512776]}, "properties": {"species": "Boletus fibrillosus", "date": "2024-10-13", "location": "Cascade Locks, OR 97014, USA", "elevation": 1212.0, "land_cover_label": "Tree cover", "water_mask": false, "exclude_reason": "keep", "ndvi": null, "soil_moisture": null, "solar_exposure": null, "wind_exposure": null, "water_retention": null, "slope": null, "aspect": null, "num_identification_agreements": 2, "cluster": 0, "tavg": null, "tmin": 8.9, "tmax": 23.9, "prcp_d0": 0.0, "prcp_d1": 0.0, "prcp_d2": 13.189251899719238, "prcp_d3": 0.0, "prcp_d4": 0.0, "prcp_d5": 0.0, "prcp_d6": 0.0, "tmax_d0": 18.0, "tmax_d1": 17.2, "tmax_d2": 15.1, "tmax_d3": 13.1, "tmax_d4": 12.5, "tmax_d5": 18.8, "tmax_d6": 20.7, "tmin_d0": 3.7, "tmin_d1": 4.4, "tmin_d2": 3.1, "tmin_d3": 0.0, "tmin_d4": 6.4, "tmin_d5": 6.5, "tmin_d6": 2.5, "day_of_year": 287, "uuid": "5425abbd-ae81-40c4-8f3f-f796ed951556", "inat_id": 247487068}}, {"type": "Feature", "geometry": {"type": "Point", "coordinates": [-122.1225914732, 45.2657037774]}, "properties": {"species": "Boletus fibrillosus", "date": "2024-10-13", "location": "Estacada, OR 97023, USA", "elevation": 726.0, "land_cover_label": "Tree cover", "water_mask": false, "exclude_reason": "keep", "ndvi": null, "soil_moisture": null, "solar_exposure": null, "wind_exposure": null, "water_retention": null, "slope": null, "aspect": null, "num_identification_agreements": 3, "cluster": 0, "tavg": null, "tmin": 8.9, "tmax": 23.9, "prcp_d0": 0.0, "prcp_d1": 0.0, "prcp_d2": 0.0, "prcp_d3": 0.0, "prcp_d4": 0.0, "prcp_d5": 0.0, "prcp_d6": 0.0, "tmax_d0": 21.2, "tmax_d1": 21.0, "tmax_d2": 21.6, "tmax_d3": 16.9, "tmax_d4": 16.1, "tmax_d5": 22.5, "tmax_d6": 25.4, "tmin_d0": 6.4, "tmin_d1": 9.2, "tmin_d2": 6.4, "tmin_d3": 0.8, "tmin_d4": 9.2, "tmin_d5": 8.3, "tmin_d6": 7.7, "day_of_year": 287, "uuid": "6a9129bc-de13-4f9d-a211-98cdcf426fe7", "inat_id": 247533515}}, {"type": "Feature", "geometry": {"type": "Point", "coordinates": [-121.9410305556, 45.2739638889]}, "properties": {"species": "Boletus fibrillosus", "date": "2024-10-14", "location": "Rhododendron, OR 97049, USA", "elevation": 515.0, "land_cover_label": "Tree cover", "water_mask": false, "exclude_reason": "keep", "ndvi": null, "soil_moisture": null, "solar_exposure": null, "wind_exposure": null, "water_retention": null, "slope": null, "aspect": null, "num_identification_agreements": 2, "cluster": 0, "tavg": null, "tmin": 10.6, "tmax": 23.9, "prcp_d0": 0.0, "prcp_d1": 0.0, "prcp_d2": 0.0, "prcp_d3": 16.696866989135742, "prcp_d4": 0.0, "prcp_d5": 0.0, "prcp_d6": 0.0, "tmax_d0": 21.7, "tmax_d1": 24.6, "tmax_d2": 23.7, "tmax_d3": 23.8, "tmax_d4": 19.6, "tmax_d5": 18.1, "tmax_d6": 24.8, "tmin_d0": 10.6, "tmin_d1": 7.8, "tmin_d2": 12.0, "tmin_d3": 9.6, "tmin_d4": 2.5, "tmin_d5": 11.4, "tmin_d6": 12.9, "day_of_year": 288, "uuid": "7981c101-aa4b-4822-9b95-98f26deeab5a", "inat_id": 247426262}}, {"type": "Feature", "geometry": {"type": "Point", "coordinates": [-122.1912457281, 45.361029172]}, "properties": {"species": "Boletus fibrillosus", "date": "2024-10-16", "location": "Clackamas County, US-OR, US", "elevation": 457.0, "land_cover_label": "Tree cover", "water_mask": false, "exclude_reason": "keep", "ndvi": null, "soil_moisture": null, "solar_exposure": null, "wind_exposure": null, "water_retention": null, "slope": null, "aspect": null, "num_identification_agreements": 1, "cluster": 2, "tavg": null, "tmin": 12.2, "tmax": 17.2, "prcp_d0": 0.0, "prcp_d1": 0.0, "prcp_d2": 0.0, "prcp_d3": 0.0, "prcp_d4": 0.0, "prcp_d5": 28.33236694335937, "prcp_d6": 0.0, "tmax_d0": 13.2, "tmax_d1": 17.6, "tmax_d2": 19.3, "tmax_d3": 20.6, "tmax_d4": 21.5, "tmax_d5": 22.3, "tmax_d6": 17.9, "tmin_d0": 9.4, "tmin_d1": 11.0, "tmin_d2": 5.6, "tmin_d3": 7.9, "tmin_d4": 9.1, "tmin_d5": 8.5, "tmin_d6": 2.1, "day_of_year": 290, "uuid": "90e1ccb9-f14f-43ee-9dff-d631a5ca6833", "inat_id": 247720290}}, {"type": "Feature", "geometry": {"type": "Point", "coordinates": [-121.8100432533, 45.1183393042]}, "properties": {"species": "Boletus fibrillosus", "date": "2024-10-22", "location": "Oregon, US", "elevation": 1033.0, "land_cover_label": "Tree cover", "water_mask": false, "exclude_reason": "keep", "ndvi": null, "soil_moisture": null, "solar_exposure": null, "wind_exposure": null, "water_retention": null, "slope": null, "aspect": null, "num_identification_agreements": 2, "cluster": 1, "tavg": null, "tmin": null, "tmax": null, "prcp_d0": 0.0, "prcp_d1": 73.07886505126953, "prcp_d2": 0.0, "prcp_d3": 0.0, "prcp_d4": 0.0, "prcp_d5": 0.0, "prcp_d6": 0.0, "tmax_d0": 8.2, "tmax_d1": 13.1, "tmax_d2": 17.3, "tmax_d3": 16.7, "tmax_d4": 8.1, "tmax_d5": 5.6, "tmax_d6": 11.1, "tmin_d0": -0.2, "tmin_d1": 5.2, "tmin_d2": 7.7, "tmin_d3": 5.8, "tmin_d4": -1.5, "tmin_d5": 1.5, "tmin_d6": 5.7, "day_of_year": 296, "uuid": "ae6490c4-83cc-47f6-864e-f8d597a363c6", "inat_id": 311265708}}, {"type": "Feature", "geometry": {"type": "Point", "coordinates": [-122.3128939, 45.2245515997]}, "properties": {"species": "Boletus fibrillosus", "date": "2024-10-24", "location": "Estacada, OR 97023, USA", "elevation": 372.0, "land_cover_label": "Tree cover", "water_mask": false, "exclude_reason": "keep", "ndvi": null, "soil_moisture": null, "solar_exposure": null, "wind_exposure": null, "water_retention": null, "slope": null, "aspect": null, "num_identification_agreements": 1, "cluster": 1, "tavg": null, "tmin": 1.1, "tmax": 13.9, "prcp_d0": 0.0, "prcp_d1": 0.0, "prcp_d2": 0.0, "prcp_d3": 106.20720672607422, "prcp_d4": 0.0, "prcp_d5": 0.0, "prcp_d6": 0.0, "tmax_d0": 13.6, "tmax_d1": 11.8, "tmax_d2": 13.0, "tmax_d3": 18.2, "tmax_d4": 19.9, "tmax_d5": 19.4, "tmax_d6": 13.0, "tmin_d0": 0.7, "tmin_d1": 4.5, "tmin_d2": 4.9, "tmin_d3": 9.4, "tmin_d4": 8.4, "tmin_d5": 9.8, "tmin_d6": 4.3, "day_of_year": 298, "uuid": "43f68310-752b-4162-a1e2-68f0ddb055a2", "inat_id": 249300999}}, {"type": "Feature", "geometry": {"type": "Point", "coordinates": [-122.0928805556, 45.5491138889]}, "properties": {"species": "Boletus fibrillosus", "date": "2024-11-03", "location": "Multnomah County, OR, USA", "elevation": 959.0, "land_cover_label": "Tree cover", "water_mask": false, "exclude_reason": "keep", "ndvi": null, "soil_moisture": null, "solar_exposure": null, "wind_exposure": null, "water_retention": null, "slope": null, "aspect": null, "num_identification_agreements": 1, "cluster": 0, "tavg": null, "tmin": 10.0, "tmax": 14.4, "prcp_d0": 0.0, "prcp_d1": 0.0, "prcp_d2": 0.0, "prcp_d3": 0.0, "prcp_d4": 0.0, "prcp_d5": 0.0, "prcp_d6": 0.0, "tmax_d0": 4.3, "tmax_d1": 5.2, "tmax_d2": 5.7, "tmax_d3": 2.9, "tmax_d4": 6.4, "tmax_d5": 4.6, "tmax_d6": 4.9, "tmin_d0": 2.1, "tmin_d1": 2.0, "tmin_d2": 1.6, "tmin_d3": -0.6, "tmin_d4": -0.9, "tmin_d5": 2.0, "tmin_d6": 2.9, "day_of_year": 308, "uuid": "c5194f03-68c5-4c38-b548-0202d72a5d9b", "inat_id": 263021366}}, {"type": "Feature", "geometry": {"type": "Point", "coordinates": [-122.0888444444, 45.5303805556]}, "properties": {"species": "Boletus fibrillosus", "date": "2024-11-03", "location": "Multnomah County, OR, USA", "elevation": 1200.0, "land_cover_label": "Tree cover", "water_mask": false, "exclude_reason": "keep", "ndvi": null, "soil_moisture": null, "solar_exposure": null, "wind_exposure": null, "water_retention": null, "slope": null, "aspect": null, "num_identification_agreements": 1, "cluster": 0, "tavg": null, "tmin": 10.0, "tmax": 14.4, "prcp_d0": 0.0, "prcp_d1": 0.0, "prcp_d2": 0.0, "prcp_d3": 0.0, "prcp_d4": 0.0, "prcp_d5": 0.0, "prcp_d6": 0.0, "tmax_d0": 2.6, "tmax_d1": 3.5, "tmax_d2": 4.0, "tmax_d3": 1.2, "tmax_d4": 4.7, "tmax_d5": 2.9, "tmax_d6": 3.2, "tmin_d0": 0.4, "tmin_d1": 0.3, "tmin_d2": -0.1, "tmin_d3": -2.3, "tmin_d4": -2.6, "tmin_d5": 0.3, "tmin_d6": 1.2, "day_of_year": 308, "uuid": "441c3b79-18a9-4695-b0f4-272c86b1678f", "inat_id": 262236831}}, {"type": "Feature", "geometry": {"type": "Point", "coordinates": [-121.879529, 45.32002145]}, "properties": {"species": "Boletus fibrillosus", "date": "2024-11-06", "location": "Mt. Hood Park Division Recreation Area, Rhododendron, OR, US", "elevation": 807.0, "land_cover_label": "Tree cover", "water_mask": false, "exclude_reason": "keep", "ndvi": null, "soil_moisture": null, "solar_exposure": null, "wind_exposure": null, "water_retention": null, "slope": null, "aspect": null, "num_identification_agreements": 1, "cluster": 1, "tavg": null, "tmin": 2.0, "tmax": 10.7, "prcp_d0": 0.0, "prcp_d1": 77.13678741455078, "prcp_d2": 0.0, "prcp_d3": 0.0, "prcp_d4": 0.0, "prcp_d5": 0.0, "prcp_d6": 0.0, "tmax_d0": 10.3, "tmax_d1": 5.4, "tmax_d2": 6.5, "tmax_d3": 5.5, "tmax_d4": 6.4, "tmax_d5": 7.0, "tmax_d6": 3.8, "tmin_d0": -0.7, "tmin_d1": 2.9, "tmin_d2": 0.9, "tmin_d3": 3.0, "tmin_d4": 3.2, "tmin_d5": 2.7, "tmin_d6": 1.7, "day_of_year": 311, "uuid": "3083b1e7-26c0-43a5-8800-4857f299d865", "inat_id": 250738169}}, {"type": "Feature", "geometry": {"type": "Point", "coordinates": [-121.882203529, 45.3170871872]}, "properties": {"species": "Boletus fibrillosus", "date": "2024-11-10", "location": "Oregon, US", "elevation": 852.0, "land_cover_label": "Tree cover", "water_mask": false, "exclude_reason": "keep", "ndvi": null, "soil_moisture": null, "solar_exposure": null, "wind_exposure": null, "water_retention": null, "slope": null, "aspect": null, "num_identification_agreements": 1, "cluster": 2, "tavg": null, "tmin": 6.9, "tmax": 10.3, "prcp_d0": 9.634977340698242, "prcp_d1": 0.0, "prcp_d2": 0.0, "prcp_d3": 0.0, "prcp_d4": 0.0, "prcp_d5": 77.13678741455078, "prcp_d6": 0.0, "tmax_d0": 10.9, "tmax_d1": 11.6, "tmax_d2": 16.2, "tmax_d3": 14.7, "tmax_d4": 10.1, "tmax_d5": 5.2, "tmax_d6": 6.3, "tmin_d0": 5.2, "tmin_d1": 5.5, "tmin_d2": 3.1, "tmin_d3": 3.9, "tmin_d4": -0.8, "tmin_d5": 2.8, "tmin_d6": 0.7, "day_of_year": 315, "uuid": "83ca19af-e140-4005-b43b-38c6fd203f04", "inat_id": 251265848}}, {"type": "Feature", "geometry": {"type": "Point", "coordinates": [-121.9065348642, 45.3020936714]}, "properties": {"species": "Boletus fibrillosus", "date": "2024-11-29", "location": "Clackamas County, US-OR, US", "elevation": 769.0, "land_cover_label": "Tree cover", "water_mask": false, "exclude_reason": "keep", "ndvi": null, "soil_moisture": null, "solar_exposure": null, "wind_exposure": null, "water_retention": null, "slope": null, "aspect": null, "num_identification_agreements": 1, "cluster": 0, "tavg": null, "tmin": 4.4, "tmax": 6.1, "prcp_d0": 0.0, "prcp_d1": 0.0, "prcp_d2": 0.0, "prcp_d3": 0.0, "prcp_d4": 31.52062225341797, "prcp_d5": 0.0, "prcp_d6": 0.0, "tmax_d0": 6.0, "tmax_d1": 10.0, "tmax_d2": 4.3, "tmax_d3": 4.2, "tmax_d4": 6.2, "tmax_d5": 6.4, "tmax_d6": 5.7, "tmin_d0": -5.2, "tmin_d1": -7.3, "tmin_d2": -0.0, "tmin_d3": -5.8, "tmin_d4": 1.8, "tmin_d5": -2.0, "tmin_d6": 0.3, "day_of_year": 334, "uuid": "165250c0-9d12-4c97-9f4e-6307e6c1a125", "inat_id": 253572231}}, {"type": "Feature", "geometry": {"type": "Point", "coordinates": [-122.226035346, 45.3053946219]}, "properties": {"species": "Boletus fibrillosus", "date": "2024-12-16", "location": "Clackamas County, OR, USA", "elevation": 383.0, "land_cover_label": "Tree cover", "water_mask": false, "exclude_reason": "keep", "ndvi": null, "soil_moisture": null, "solar_exposure": null, "wind_exposure": null, "water_retention": null, "slope": null, "aspect": null, "num_identification_agreements": 1, "cluster": 1, "tavg": null, "tmin": 6.1, "tmax": 7.8, "prcp_d0": 15.339841842651367, "prcp_d1": 0.0, "prcp_d2": 13.697214126586914, "prcp_d3": 9.131476402282717, "prcp_d4": 13.697214126586914, "prcp_d5": 4.565738201141357, "prcp_d6": 0.0, "tmax_d0": 9.6, "tmax_d1": 5.6, "tmax_d2": 7.9, "tmax_d3": 5.0, "tmax_d4": 7.2, "tmax_d5": 12.1, "tmax_d6": 12.1, "tmin_d0": 3.1, "tmin_d1": 0.7, "tmin_d2": 4.2, "tmin_d3": 1.5, "tmin_d4": 1.7, "tmin_d5": 2.1, "tmin_d6": -1.0, "day_of_year": 351, "uuid": "a07ed39a-a5b0-4442-85bd-3ce19a5236bf", "inat_id": 255341247}}, {"type": "Feature", "geometry": {"type": "Point", "coordinates": [-122.2333538213, 45.3100661815]}, "properties": {"species": "Boletus fibrillosus", "date": "2024-12-19", "location": "Clackamas County, OR, USA", "elevation": 371.0, "land_cover_label": "Tree cover", "water_mask": false, "exclude_reason": "keep", "ndvi": null, "soil_moisture": null, "solar_exposure": null, "wind_exposure": null, "water_retention": null, "slope": null, "aspect": null, "num_identification_agreements": 1, "cluster": 1, "tavg": null, "tmin": 10.0, "tmax": 11.7, "prcp_d0": 0.0, "prcp_d1": 7.669920921325684, "prcp_d2": 15.339841842651367, "prcp_d3": 15.339841842651367, "prcp_d4": 0.0, "prcp_d5": 13.697214126586914, "prcp_d6": 9.131476402282717, "tmax_d0": 15.5, "tmax_d1": 11.1, "tmax_d2": 8.5, "tmax_d3": 10.3, "tmax_d4": 6.3, "tmax_d5": 8.6, "tmax_d6": 5.7, "tmin_d0": 5.3, "tmin_d1": 7.9, "tmin_d2": 5.3, "tmin_d3": 3.8, "tmin_d4": 1.4, "tmin_d5": 4.9, "tmin_d6": 2.2, "day_of_year": 354, "uuid": "c4b2360a-e000-4da6-b9f4-344214df4c02", "inat_id": 257397939}}, {"type": "Feature", "geometry": {"type": "Point", "coordinates": [-121.7970737671, 45.7993010891]}, "properties": {"species": "Boletus fibrillosus", "date": "2025-08-25", "location": "Carson, WA, US", "elevation": 404.0, "land_cover_label": "Tree cover", "water_mask": false, "exclude_reason": "keep", "ndvi": null, "soil_moisture": null, "solar_exposure": null, "wind_exposure": null, "water_retention": null, "slope": null, "aspect": null, "num_identification_agreements": 1, "cluster": 0, "tavg": null, "tmin": 17.0, "tmax": 33.7, "prcp_d0": 0.0, "prcp_d1": 0.0, "prcp_d2": 0.0, "prcp_d3": 0.0, "prcp_d4": 0.0, "prcp_d5": 0.0, "prcp_d6": 0.0, "tmax_d0": 33.6, "tmax_d1": 34.2, "tmax_d2": 32.8, "tmax_d3": 30.8, "tmax_d4": 28.5, "tmax_d5": 23.7, "tmax_d6": 22.9, "tmin_d0": 19.1, "tmin_d1": 19.6, "tmin_d2": 18.7, "tmin_d3": 16.4, "tmin_d4": 9.7, "tmin_d5": 12.1, "tmin_d6": 9.6, "day_of_year": 237, "uuid": "1f755776-682c-4b02-8090-4e9f9e0263e9", "inat_id": 318099883}}, {"type": "Feature", "geometry": {"type": "Point", "coordinates": [-121.737595, 45.3968283333]}, "properties": {"species": "Boletus fibrillosus", "date": "2025-08-30", "location": "Timberline Trail, Mount Hood Parkdale, OR, US", "elevation": 1588.0, "land_cover_label": "Tree cover", "water_mask": false, "exclude_reason": "keep", "ndvi": null, "soil_moisture": null, "solar_exposure": null, "wind_exposure": null, "water_retention": null, "slope": null, "aspect": null, "num_identification_agreements": 1, "cluster": 0, "tavg": null, "tmin": 12.0, "tmax": 30.0, "prcp_d0": 0.0, "prcp_d1": 0.0, "prcp_d2": 0.0, "prcp_d3": 3.950567960739136, "prcp_d4": 9.454224586486816, "prcp_d5": 8.20710563659668, "prcp_d6": 0.0, "tmax_d0": 22.3, "tmax_d1": 24.0, "tmax_d2": 22.4, "tmax_d3": 21.5, "tmax_d4": 25.2, "tmax_d5": 27.1, "tmax_d6": 28.1, "tmin_d0": 11.1, "tmin_d1": 12.0, "tmin_d2": 11.1, "tmin_d3": 12.5, "tmin_d4": 14.3, "tmin_d5": 16.6, "tmin_d6": 15.0, "day_of_year": 242, "uuid": "512fcdf4-a53c-4a6b-bb39-a73aa93f3dc5", "inat_id": 310404887}}, {"type": "Feature", "geometry": {"type": "Point", "coordinates": [-121.7222268507, 45.3064329089]}, "properties": {"species": "Boletus fibrillosus", "date": "2025-09-01", "location": "TIMBERLINE LODGE, OR 97028, USA", "elevation": 1392.0, "land_cover_label": "Tree cover", "water_mask": false, "exclude_reason": "keep", "ndvi": null, "soil_moisture": null, "solar_exposure": null, "wind_exposure": null, "water_retention": null, "slope": null, "aspect": null, "num_identification_agreements": 1, "cluster": 0, "tavg": null, "tmin": 16.0, "tmax": 30.3, "prcp_d0": 0.0, "prcp_d1": 0.0, "prcp_d2": 0.0, "prcp_d3": 0.0, "prcp_d4": 0.0, "prcp_d5": 0.0, "prcp_d6": 6.636567115783691, "tmax_d0": 24.7, "tmax_d1": 23.6, "tmax_d2": 23.7, "tmax_d3": 25.5, "tmax_d4": 23.9, "tmax_d5": 22.9, "tmax_d6": 26.7, "tmin_d0": 12.0, "tmin_d1": 14.4, "tmin_d2": 12.6, "tmin_d3": 13.5, "tmin_d4": 12.5, "tmin_d5": 13.9, "tmin_d6": 15.7, "day_of_year": 244, "uuid": "29886ba5-ec5d-4963-ab5d-dfd36739f776", "inat_id": 310972872}}, {"type": "Feature", "geometry": {"type": "Point", "coordinates": [-122.114717746, 45.2353542245]}, "properties": {"species": "Boletus fibrillosus", "date": "2025-09-28", "location": "Clackamas County, OR, USA", "elevation": 1006.0, "land_cover_label": "Tree cover", "water_mask": false, "exclude_reason": "keep", "ndvi": null, "soil_moisture": null, "solar_exposure": null, "wind_exposure": null, "water_retention": null, "slope": null, "aspect": null, "num_identification_agreements": 1, "cluster": 0, "tavg": null, "tmin": 8.0, "tmax": 24.0, "prcp_d0": 0.0, "prcp_d1": 0.0, "prcp_d2": 0.0, "prcp_d3": 0.0, "prcp_d4": 0.0, "prcp_d5": 0.0, "prcp_d6": 0.0, "tmax_d0": 21.3, "tmax_d1": 23.7, "tmax_d2": 17.2, "tmax_d3": 21.6, "tmax_d4": 25.8, "tmax_d5": 24.1, "tmax_d6": 21.4, "tmin_d0": 5.2, "tmin_d1": 6.7, "tmin_d2": 1.3, "tmin_d3": 8.0, "tmin_d4": 7.8, "tmin_d5": 8.4, "tmin_d6": 1.7, "day_of_year": 271, "uuid": "0d6ad96c-538e-48d3-a951-2a6f5ff8980d", "inat_id": 317424556}}, {"type": "Feature", "geometry": {"type": "Point", "coordinates": [-122.0743471667, 45.237445]}, "properties": {"species": "Boletus fibrillosus", "date": "2025-10-12", "location": "Mt. Hood National Forest, Government Camp, OR, US", "elevation": 1101.0, "land_cover_label": "Tree cover", "water_mask": false, "exclude_reason": "keep", "ndvi": null, "soil_moisture": null, "solar_exposure": null, "wind_exposure": null, "water_retention": null, "slope": null, "aspect": null, "num_identification_agreements": 1, "cluster": 0, "tavg": null, "tmin": 7.0, "tmax": 13.0, "prcp_d0": 9.532966613769531, "prcp_d1": 0.0, "prcp_d2": 5.950563907623291, "prcp_d3": 10.183390617370604, "prcp_d4": 0.0, "prcp_d5": 0.0, "prcp_d6": 0.0, "tmax_d0": 5.9, "tmax_d1": 7.5, "tmax_d2": 13.3, "tmax_d3": 14.6, "tmax_d4": 17.6, "tmax_d5": 20.5, "tmax_d6": 15.1, "tmin_d0": 2.9, "tmin_d1": 3.4, "tmin_d2": 4.1, "tmin_d3": 3.5, "tmin_d4": 3.4, "tmin_d5": 9.0, "tmin_d6": 5.1, "day_of_year": 285, "uuid": "41352331-f99f-4978-bcb7-af2e20fa133c", "inat_id": 320525384}}, {"type": "Feature", "geometry": {"type": "Point", "coordinates": [-122.2309292182, 45.3083745553]}, "properties": {"species": "Boletus fibrillosus", "date": "2025-10-28", "location": "Clackamas County, OR, USA", "elevation": 385.0, "land_cover_label": "Tree cover", "water_mask": false, "exclude_reason": "keep", "ndvi": null, "soil_moisture": null, "solar_exposure": null, "wind_exposure": null, "water_retention": null, "slope": null, "aspect": null, "num_identification_agreements": 1, "cluster": 0, "tavg": null, "tmin": 9.0, "tmax": 13.0, "prcp_d0": 0.0, "prcp_d1": 0.0, "prcp_d2": 0.0, "prcp_d3": 14.676223754882812, "prcp_d4": 14.676223754882812, "prcp_d5": 14.676223754882812, "prcp_d6": 0.0, "tmax_d0": 15.9, "tmax_d1": 9.5, "tmax_d2": 8.1, "tmax_d3": 11.4, "tmax_d4": 15.5, "tmax_d5": 17.5, "tmax_d6": 16.2, "tmin_d0": 3.6, "tmin_d1": 3.1, "tmin_d2": 5.0, "tmin_d3": 5.6, "tmin_d4": 6.7, "tmin_d5": 7.6, "tmin_d6": 7.7, "day_of_year": 301, "uuid": "2c911990-b811-49a9-9269-c5b84fb79916", "inat_id": 323756717}}, {"type": "Feature", "geometry": {"type": "Point", "coordinates": [-122.1619846929, 45.5383810919]}, "properties": {"species": "Boletus fibrillosus", "date": "2025-11-15", "location": "Columbia River Gorge National Scenic Area, Corbett, OR, US", "elevation": 530.0, "land_cover_label": "Tree cover", "water_mask": false, "exclude_reason": "keep", "ndvi": null, "soil_moisture": null, "solar_exposure": null, "wind_exposure": null, "water_retention": null, "slope": null, "aspect": null, "num_identification_agreements": 1, "cluster": 0, "tavg": null, "tmin": 9.0, "tmax": 16.0, "prcp_d0": 0.0, "prcp_d1": 0.0, "prcp_d2": 0.0, "prcp_d3": 0.0, "prcp_d4": 0.0, "prcp_d5": 0.0, "prcp_d6": 0.0, "tmax_d0": 13.8, "tmax_d1": 10.4, "tmax_d2": 12.5, "tmax_d3": 12.5, "tmax_d4": 13.3, "tmax_d5": 12.0, "tmax_d6": 9.9, "tmin_d0": 8.3, "tmin_d1": 7.0, "tmin_d2": 6.6, "tmin_d3": 6.0, "tmin_d4": 6.0, "tmin_d5": 5.1, "tmin_d6": 3.5, "day_of_year": 319, "uuid": "087cde96-d33f-4797-acf6-a059d0f96196", "inat_id": 326716629}}, {"type": "Feature", "geometry": {"type": "Point", "coordinates": [-122.0150884726, 45.3773051019]}, "properties": {"species": "Boletus fibrillosus", "date": "2025-11-19", "location": "E Brightwood Bridge Rd, Brightwood, OR, US", "elevation": 344.0, "land_cover_label": "Tree cover", "water_mask": false, "exclude_reason": "keep", "ndvi": null, "soil_moisture": null, "solar_exposure": null, "wind_exposure": null, "water_retention": null, "slope": null, "aspect": null, "num_identification_agreements": 1, "cluster": 0, "tavg": null, "tmin": 2.0, "tmax": 12.0, "prcp_d0": 0.0, "prcp_d1": 0.0, "prcp_d2": 0.0, "prcp_d3": 0.0, "prcp_d4": 0.0, "prcp_d5": 0.0, "prcp_d6": 0.0, "tmax_d0": 12.7, "tmax_d1": 7.4, "tmax_d2": 11.2, "tmax_d3": 13.8, "tmax_d4": 15.3, "tmax_d5": 12.6, "tmax_d6": 20.1, "tmin_d0": -0.0, "tmin_d1": 0.6, "tmin_d2": 7.0, "tmin_d3": 7.7, "tmin_d4": 10.5, "tmin_d5": 8.2, "tmin_d6": 9.9, "day_of_year": 323, "uuid": "c5eada9e-6ee4-4931-8f68-99ae44a7cecb", "inat_id": 327318520}}, {"type": "Feature", "geometry": {"type": "Point", "coordinates": [-121.9415541029, 45.3927682621]}, "properties": {"species": "Boletus fibrillosus", "date": "2025-11-22", "location": "Clackamas County, US-OR, US", "elevation": 1037.0, "land_cover_label": "Tree cover", "water_mask": false, "exclude_reason": "keep", "ndvi": null, "soil_moisture": null, "solar_exposure": null, "wind_exposure": null, "water_retention": null, "slope": null, "aspect": null, "num_identification_agreements": 1, "cluster": 0, "tavg": null, "tmin": 1.0, "tmax": 7.0, "prcp_d0": 0.0002374231844441, "prcp_d1": 0.0257739406079053, "prcp_d2": 27.7811279296875, "prcp_d3": 0.0, "prcp_d4": 0.0, "prcp_d5": 0.0, "prcp_d6": 0.0, "tmax_d0": 10.0, "tmax_d1": 7.5, "tmax_d2": 6.0, "tmax_d3": 6.8, "tmax_d4": 2.6, "tmax_d5": 7.3, "tmax_d6": 10.2, "tmin_d0": -0.4, "tmin_d1": -3.8, "tmin_d2": 0.9, "tmin_d3": -3.7, "tmin_d4": -3.0, "tmin_d5": 2.6, "tmin_d6": 3.2, "day_of_year": 326, "uuid": "b3428efb-25ca-4ba4-ab49-5715413a3a1f", "inat_id": 327908693}}, {"type": "Feature", "geometry": {"type": "Point", "coordinates": [-122.0167482, 45.3762302]}, "properties": {"species": "Boletus fibrillosus", "date": "2026-07-02", "location": "E Rufus Ridge Ln, Brightwood, OR, US", "elevation": 356.0, "land_cover_label": "Tree cover", "water_mask": false, "exclude_reason": "keep", "ndvi": null, "soil_moisture": null, "solar_exposure": null, "wind_exposure": null, "water_retention": null, "slope": null, "aspect": null, "num_identification_agreements": 1, "cluster": 0, "tavg": null, "tmin": 12.8, "tmax": 22.8, "prcp_d0": 0.0, "prcp_d1": 0.0, "prcp_d2": 0.0, "prcp_d3": 0.0, "prcp_d4": 0.0, "prcp_d5": 5.01247501373291, "prcp_d6": 3.402804374694824, "tmax_d0": 18.5, "tmax_d1": 14.8, "tmax_d2": 14.5, "tmax_d3": 15.6, "tmax_d4": 15.7, "tmax_d5": 16.6, "tmax_d6": 18.2, "tmin_d0": 9.8, "tmin_d1": 9.1, "tmin_d2": 9.8, "tmin_d3": 9.7, "tmin_d4": 10.2, "tmin_d5": 9.3, "tmin_d6": 11.5, "day_of_year": 183, "uuid": "e1bbcf4f-dbcd-4bad-b2dd-cb868c6d0bb1", "inat_id": 377566152}}]}