{"type": "FeatureCollection", "features": [{"type": "Feature", "geometry": {"type": "Point", "coordinates": [-121.5789188757, 45.0450346812]}, "properties": {"species": "Boletus subalpinus", "date": "2024-06-19", "location": "Wasco County, US-OR, US", "elevation": 1056.0, "land_cover_label": "Tree cover", "water_mask": false, "exclude_reason": "keep", "ndvi": null, "soil_moisture": null, "solar_exposure": null, "wind_exposure": null, "water_retention": null, "slope": null, "aspect": null, "num_identification_agreements": 1, "cluster": 2, "tavg": null, "tmin": null, "tmax": null, "prcp_d0": 0.0, "prcp_d1": 0.0, "prcp_d2": 0.0, "prcp_d3": 0.0, "prcp_d4": 7.814122676849365, "prcp_d5": 0.070245124399662, "prcp_d6": 0.0, "tmax_d0": 21.5, "tmax_d1": 18.7, "tmax_d2": 11.2, "tmax_d3": 12.0, "tmax_d4": 14.7, "tmax_d5": 18.9, "tmax_d6": 23.0, "tmin_d0": 6.8, "tmin_d1": 3.5, "tmin_d2": 3.6, "tmin_d3": 2.6, "tmin_d4": 4.4, "tmin_d5": 4.3, "tmin_d6": 4.1, "day_of_year": 171, "uuid": "36c05016-ca85-4e64-8a79-16e26a149646", "inat_id": 224090161}}, {"type": "Feature", "geometry": {"type": "Point", "coordinates": [-122.1197573349, 45.2420986904]}, "properties": {"species": "Boletus subalpinus", "date": "2025-08-08", "location": "Clackamas County, OR, USA", "elevation": 964.0, "land_cover_label": "Tree cover", "water_mask": false, "exclude_reason": "keep", "ndvi": null, "soil_moisture": null, "solar_exposure": null, "wind_exposure": null, "water_retention": null, "slope": null, "aspect": null, "num_identification_agreements": 1, "cluster": 2, "tavg": null, "tmin": 11.1, "tmax": 27.2, "prcp_d0": 0.0, "prcp_d1": 0.0, "prcp_d2": 0.0, "prcp_d3": 0.0, "prcp_d4": 0.0, "prcp_d5": 0.0, "prcp_d6": 0.0, "tmax_d0": 18.9, "tmax_d1": 15.4, "tmax_d2": 19.5, "tmax_d3": 19.7, "tmax_d4": 16.9, "tmax_d5": 20.2, "tmax_d6": 21.7, "tmin_d0": 3.4, "tmin_d1": 9.7, "tmin_d2": 10.3, "tmin_d3": 4.7, "tmin_d4": 7.1, "tmin_d5": 7.9, "tmin_d6": 8.5, "day_of_year": 220, "uuid": "12dc2b02-fd58-4018-9b8e-33f0e036e694", "inat_id": 304845651}}]}