{"type": "FeatureCollection", "features": [{"type": "Feature", "geometry": {"type": "Point", "coordinates": [-121.6555399104, 45.4017562262]}, "properties": {"species": "Boletus edulis grandedulis", "date": "2007-08-09", "location": "Hood River County, OR, USA", "elevation": 1815.0, "land_cover_label": "Tree cover", "water_mask": false, "exclude_reason": "keep", "ndvi": null, "soil_moisture": null, "solar_exposure": null, "wind_exposure": null, "water_retention": null, "slope": null, "aspect": null, "num_identification_agreements": 1, "cluster": 2, "tavg": null, "tmin": 13.9, "tmax": 24.4, "prcp_d0": 0.0, "prcp_d1": 0.0, "prcp_d2": 0.0, "prcp_d3": 0.0, "prcp_d4": 0.0, "prcp_d5": 0.0, "prcp_d6": 0.0, "tmax_d0": 15.5, "tmax_d1": 15.8, "tmax_d2": 15.3, "tmax_d3": 18.0, "tmax_d4": 18.7, "tmax_d5": 17.2, "tmax_d6": 21.2, "tmin_d0": 3.7, "tmin_d1": 6.9, "tmin_d2": 7.1, "tmin_d3": 5.6, "tmin_d4": 4.9, "tmin_d5": 4.8, "tmin_d6": 6.2, "day_of_year": 221, "uuid": "06e7bee1-a20f-4206-8d0f-090d9bc850a1", "inat_id": 11190539}}, {"type": "Feature", "geometry": {"type": "Point", "coordinates": [-121.7369166667, 45.2684366667]}, "properties": {"species": "Boletus edulis grandedulis", "date": "2019-07-28", "location": "Mt. Hood National Forest, Government Camp, OR, US", "elevation": 1112.0, "land_cover_label": "Tree cover", "water_mask": false, "exclude_reason": "keep", "ndvi": null, "soil_moisture": null, "solar_exposure": null, "wind_exposure": null, "water_retention": null, "slope": null, "aspect": null, "num_identification_agreements": 1, "cluster": 2, "tavg": null, "tmin": null, "tmax": null, "prcp_d0": 0.0, "prcp_d1": 0.0, "prcp_d2": 0.0, "prcp_d3": 0.0, "prcp_d4": 0.0, "prcp_d5": 0.0, "prcp_d6": 0.0, "tmax_d0": 23.6, "tmax_d1": 22.9, "tmax_d2": 26.0, "tmax_d3": 27.1, "tmax_d4": 21.3, "tmax_d5": 21.3, "tmax_d6": 25.5, "tmin_d0": 7.2, "tmin_d1": 11.3, "tmin_d2": 14.1, "tmin_d3": 9.9, "tmin_d4": 6.6, "tmin_d5": 12.8, "tmin_d6": 12.5, "day_of_year": 209, "uuid": "325be64b-b735-42da-8a3d-254c0fbba728", "inat_id": 29761677}}, {"type": "Feature", "geometry": {"type": "Point", "coordinates": [-121.7390966667, 45.2671466667]}, "properties": {"species": "Boletus edulis grandedulis", "date": "2019-08-05", "location": "Mt. Hood National Forest, Government Camp, OR, US", "elevation": 1112.0, "land_cover_label": "Tree cover", "water_mask": false, "exclude_reason": "keep", "ndvi": null, "soil_moisture": null, "solar_exposure": null, "wind_exposure": null, "water_retention": null, "slope": null, "aspect": null, "num_identification_agreements": 1, "cluster": 2, "tavg": null, "tmin": null, "tmax": null, "prcp_d0": 0.0, "prcp_d1": 0.0, "prcp_d2": 0.0, "prcp_d3": 0.0, "prcp_d4": 0.0, "prcp_d5": 0.0, "prcp_d6": 5.118167400360107, "tmax_d0": 29.2, "tmax_d1": 28.4, "tmax_d2": 26.0, "tmax_d3": 24.3, "tmax_d4": 25.3, "tmax_d5": 22.1, "tmax_d6": 20.2, "tmin_d0": 16.4, "tmin_d1": 15.7, "tmin_d2": 10.2, "tmin_d3": 10.5, "tmin_d4": 11.5, "tmin_d5": 9.5, "tmin_d6": 10.0, "day_of_year": 217, "uuid": "a01a5707-9945-4124-ad75-fdd0a0df00f5", "inat_id": 30272832}}, {"type": "Feature", "geometry": {"type": "Point", "coordinates": [-121.80971333, 45.31440833]}, "properties": {"species": "Boletus edulis grandedulis", "date": "2020-10-30", "location": "Mt. Hood Park Division Recreation Area, Government Camp, OR, US", "elevation": 942.0, "land_cover_label": "Tree cover", "water_mask": false, "exclude_reason": "keep", "ndvi": null, "soil_moisture": null, "solar_exposure": null, "wind_exposure": null, "water_retention": null, "slope": null, "aspect": null, "num_identification_agreements": 2, "cluster": 2, "tavg": null, "tmin": null, "tmax": null, "prcp_d0": 8.237228393554688, "prcp_d1": 0.0, "prcp_d2": 0.0, "prcp_d3": 0.0, "prcp_d4": 0.1984629184007644, "prcp_d5": 0.0, "prcp_d6": 0.0, "tmax_d0": 13.6, "tmax_d1": 16.5, "tmax_d2": 17.4, "tmax_d3": 12.2, "tmax_d4": 9.1, "tmax_d5": 2.1, "tmax_d6": 8.4, "tmin_d0": 3.9, "tmin_d1": 4.6, "tmin_d2": 4.4, "tmin_d3": 0.8, "tmin_d4": -3.4, "tmin_d5": -6.6, "tmin_d6": 1.6, "day_of_year": 304, "uuid": "5adf0dd2-f318-4137-b4fc-26b726d709fd", "inat_id": 63852168}}, {"type": "Feature", "geometry": {"type": "Point", "coordinates": [-121.758995, 45.3661283333]}, "properties": {"species": "Boletus edulis grandedulis", "date": "2021-07-31", "location": "Mt. Hood National Forest, Rhododendron, OR, US", "elevation": 1477.0, "land_cover_label": "Tree cover", "water_mask": false, "exclude_reason": "keep", "ndvi": null, "soil_moisture": null, "solar_exposure": null, "wind_exposure": null, "water_retention": null, "slope": null, "aspect": null, "num_identification_agreements": 1, "cluster": 2, "tavg": null, "tmin": null, "tmax": null, "prcp_d0": 6.542205333709717, "prcp_d1": 0.0, "prcp_d2": 0.0, "prcp_d3": 0.0, "prcp_d4": 0.0, "prcp_d5": 0.0, "prcp_d6": 0.0, "tmax_d0": 29.5, "tmax_d1": 31.2, "tmax_d2": 28.9, "tmax_d3": 26.6, "tmax_d4": 22.1, "tmax_d5": 25.6, "tmax_d6": 24.6, "tmin_d0": 19.1, "tmin_d1": 15.5, "tmin_d2": 12.5, "tmin_d3": 9.1, "tmin_d4": 13.0, "tmin_d5": 12.8, "tmin_d6": 12.4, "day_of_year": 212, "uuid": "e05097df-5ebd-4123-be6b-6f9a039771e3", "inat_id": 89405867}}, {"type": "Feature", "geometry": {"type": "Point", "coordinates": [-109.090335935, 42.7317322097]}, "properties": {"species": "Boletus edulis grandedulis", "date": "2022-08-17", "location": "Fremont County, US-WY, US", "elevation": 3222.0, "land_cover_label": "Tree cover", "water_mask": false, "exclude_reason": "keep", "ndvi": null, "soil_moisture": null, "solar_exposure": null, "wind_exposure": null, "water_retention": null, "slope": null, "aspect": null, "num_identification_agreements": 1, "cluster": 2, "tavg": null, "tmin": 13.9, "tmax": 33.9, "prcp_d0": 0.0, "prcp_d1": 0.0, "prcp_d2": 0.0, "prcp_d3": 0.0, "prcp_d4": 0.0, "prcp_d5": 0.0, "prcp_d6": 0.0, "tmax_d0": 18.1, "tmax_d1": 17.1, "tmax_d2": 15.5, "tmax_d3": 14.7, "tmax_d4": 17.5, "tmax_d5": 18.2, "tmax_d6": 19.1, "tmin_d0": 3.8, "tmin_d1": 4.4, "tmin_d2": 3.7, "tmin_d3": 5.5, "tmin_d4": 7.7, "tmin_d5": 7.4, "tmin_d6": 8.2, "day_of_year": 229, "uuid": "e40139d6-aee7-46d7-bef0-d8bb1f23bffe", "inat_id": 131413652}}, {"type": "Feature", "geometry": {"type": "Point", "coordinates": [-121.6250954277, 45.3194913618]}, "properties": {"species": "Boletus edulis grandedulis", "date": "2022-09-26", "location": "Hood River County, US-OR, US", "elevation": 1338.0, "land_cover_label": "Tree cover", "water_mask": false, "exclude_reason": "keep", "ndvi": null, "soil_moisture": null, "solar_exposure": null, "wind_exposure": null, "water_retention": null, "slope": null, "aspect": null, "num_identification_agreements": 2, "cluster": 2, "tavg": null, "tmin": 12.9, "tmax": 30.0, "prcp_d0": 0.0, "prcp_d1": 0.0, "prcp_d2": 0.0, "prcp_d3": 0.0, "prcp_d4": 0.0, "prcp_d5": 0.0, "prcp_d6": 0.0, "tmax_d0": 24.4, "tmax_d1": 21.9, "tmax_d2": 21.9, "tmax_d3": 18.1, "tmax_d4": 12.5, "tmax_d5": 16.1, "tmax_d6": 18.7, "tmin_d0": 12.7, "tmin_d1": 10.6, "tmin_d2": 7.3, "tmin_d3": 5.8, "tmin_d4": 7.4, "tmin_d5": 8.6, "tmin_d6": 8.8, "day_of_year": 269, "uuid": "d1221edf-6fa3-4f22-86bb-a90d77dd93d2", "inat_id": 136662465}}, {"type": "Feature", "geometry": {"type": "Point", "coordinates": [-121.6223225719, 45.3189821318]}, "properties": {"species": "Boletus edulis grandedulis", "date": "2022-09-28", "location": "Hood River County, US-OR, US", "elevation": 1324.0, "land_cover_label": "Tree cover", "water_mask": false, "exclude_reason": "keep", "ndvi": null, "soil_moisture": null, "solar_exposure": null, "wind_exposure": null, "water_retention": null, "slope": null, "aspect": null, "num_identification_agreements": 1, "cluster": 2, "tavg": null, "tmin": 14.1, "tmax": 22.9, "prcp_d0": 0.2914353311061859, "prcp_d1": 0.0, "prcp_d2": 0.0, "prcp_d3": 0.0, "prcp_d4": 0.0, "prcp_d5": 0.0, "prcp_d6": 0.0, "tmax_d0": 19.8, "tmax_d1": 23.9, "tmax_d2": 24.4, "tmax_d3": 22.0, "tmax_d4": 22.0, "tmax_d5": 18.2, "tmax_d6": 12.5, "tmin_d0": 10.4, "tmin_d1": 11.8, "tmin_d2": 12.8, "tmin_d3": 10.6, "tmin_d4": 7.4, "tmin_d5": 5.8, "tmin_d6": 7.4, "day_of_year": 271, "uuid": "c5fbfd84-c4e6-47e7-85a6-5269a0943b3e", "inat_id": 137153484}}, {"type": "Feature", "geometry": {"type": "Point", "coordinates": [-121.621947231, 45.3197674357]}, "properties": {"species": "Boletus edulis grandedulis", "date": "2022-09-28", "location": "Hood River County, US-OR, US", "elevation": 1324.0, "land_cover_label": "Tree cover", "water_mask": false, "exclude_reason": "keep", "ndvi": null, "soil_moisture": null, "solar_exposure": null, "wind_exposure": null, "water_retention": null, "slope": null, "aspect": null, "num_identification_agreements": 1, "cluster": 2, "tavg": null, "tmin": 14.1, "tmax": 22.9, "prcp_d0": 0.2914353311061859, "prcp_d1": 0.0, "prcp_d2": 0.0, "prcp_d3": 0.0, "prcp_d4": 0.0, "prcp_d5": 0.0, "prcp_d6": 0.0, "tmax_d0": 19.8, "tmax_d1": 23.9, "tmax_d2": 24.4, "tmax_d3": 22.0, "tmax_d4": 22.0, "tmax_d5": 18.2, "tmax_d6": 12.5, "tmin_d0": 10.4, "tmin_d1": 11.8, "tmin_d2": 12.8, "tmin_d3": 10.6, "tmin_d4": 7.4, "tmin_d5": 5.8, "tmin_d6": 7.4, "day_of_year": 271, "uuid": "c3fabf79-6756-444d-b089-23a40d9dc822", "inat_id": 137152308}}, {"type": "Feature", "geometry": {"type": "Point", "coordinates": [-121.5747638889, 45.3373027778]}, "properties": {"species": "Boletus edulis grandedulis", "date": "2022-10-08", "location": "MT HOOD PRKDL, OR 97041, USA", "elevation": 1116.0, "land_cover_label": "Tree cover", "water_mask": false, "exclude_reason": "keep", "ndvi": null, "soil_moisture": null, "solar_exposure": null, "wind_exposure": null, "water_retention": null, "slope": null, "aspect": null, "num_identification_agreements": 1, "cluster": 2, "tavg": null, "tmin": 12.7, "tmax": 26.1, "prcp_d0": 0.0, "prcp_d1": 0.0, "prcp_d2": 0.0, "prcp_d3": 0.0, "prcp_d4": 0.0, "prcp_d5": 0.0, "prcp_d6": 0.0, "tmax_d0": 21.5, "tmax_d1": 21.7, "tmax_d2": 22.3, "tmax_d3": 23.4, "tmax_d4": 22.7, "tmax_d5": 21.7, "tmax_d6": 19.8, "tmin_d0": 10.6, "tmin_d1": 11.2, "tmin_d2": 10.7, "tmin_d3": 13.2, "tmin_d4": 11.4, "tmin_d5": 10.0, "tmin_d6": 8.6, "day_of_year": 281, "uuid": "95699f6a-343c-4fae-8da8-98054be5d193", "inat_id": 138034711}}, {"type": "Feature", "geometry": {"type": "Point", "coordinates": [-121.7066277778, 45.3247111111]}, "properties": {"species": "Boletus edulis grandedulis", "date": "2023-10-06", "location": "MT HOOD PRKDL, OR 97041, USA", "elevation": 1683.0, "land_cover_label": "Tree cover", "water_mask": false, "exclude_reason": "keep", "ndvi": null, "soil_moisture": null, "solar_exposure": null, "wind_exposure": null, "water_retention": null, "slope": null, "aspect": null, "num_identification_agreements": 1, "cluster": 2, "tavg": null, "tmin": 10.5, "tmax": 23.6, "prcp_d0": 0.0, "prcp_d1": 0.0, "prcp_d2": 0.0, "prcp_d3": 0.0, "prcp_d4": 0.0, "prcp_d5": 0.0, "prcp_d6": 0.0, "tmax_d0": 15.0, "tmax_d1": 17.2, "tmax_d2": 14.6, "tmax_d3": 7.7, "tmax_d4": 8.5, "tmax_d5": 9.8, "tmax_d6": 8.5, "tmin_d0": 7.4, "tmin_d1": 7.3, "tmin_d2": 2.6, "tmin_d3": 4.9, "tmin_d4": 0.4, "tmin_d5": -0.5, "tmin_d6": -0.9, "day_of_year": 279, "uuid": "018c27ea-6543-4b71-8a8e-a9955167015a", "inat_id": 186606061}}, {"type": "Feature", "geometry": {"type": "Point", "coordinates": [-121.5268805556, 45.4149916667]}, "properties": {"species": "Boletus edulis grandedulis", "date": "2024-09-28", "location": "MT HOOD PRKDL, OR 97041, USA", "elevation": 1308.0, "land_cover_label": "Tree cover", "water_mask": false, "exclude_reason": "keep", "ndvi": null, "soil_moisture": null, "solar_exposure": null, "wind_exposure": null, "water_retention": null, "slope": null, "aspect": null, "num_identification_agreements": 1, "cluster": 2, "tavg": null, "tmin": 11.8, "tmax": 26.0, "prcp_d0": 0.0, "prcp_d1": 0.0, "prcp_d2": 0.0, "prcp_d3": 0.0, "prcp_d4": 0.0, "prcp_d5": 0.0, "prcp_d6": 0.0, "tmax_d0": 23.0, "tmax_d1": 19.4, "tmax_d2": 18.3, "tmax_d3": 25.0, "tmax_d4": 25.3, "tmax_d5": 22.3, "tmax_d6": 20.5, "tmin_d0": 10.2, "tmin_d1": 8.4, "tmin_d2": 1.2, "tmin_d3": 9.8, "tmin_d4": 14.8, "tmin_d5": 9.4, "tmin_d6": 9.3, "day_of_year": 272, "uuid": "58470c17-2b87-4bbb-bbeb-7fcc9f5ec2c0", "inat_id": 244617237}}]}