{"type": "FeatureCollection", "features": [{"type": "Feature", "geometry": {"type": "Point", "coordinates": [-105.9377788036, 39.7188012683]}, "properties": {"species": "Boletopsis grisea", "date": "2024-08-21", "location": "Keystone, CO 80435, USA", "elevation": 3658.0, "land_cover_label": "Moss and lichen", "water_mask": false, "exclude_reason": "keep", "ndvi": null, "soil_moisture": 0.2934867168237818, "solar_exposure": 0.8377136588096619, "wind_exposure": 0.3649477064609527, "water_retention": 0.1501845121383667, "slope": 13.382269859313965, "aspect": 100.51669311523438, "num_identification_agreements": 1, "cluster": 0, "tavg": null, "tmin": 2.7, "tmax": 14.6, "prcp_d0": 2.3278517723083496, "prcp_d1": 0.0, "prcp_d2": 0.0, "prcp_d3": 0.0, "prcp_d4": 0.0, "prcp_d5": 0.0, "prcp_d6": 0.0, "tmax_d0": 15.9, "tmax_d1": 17.0, "tmax_d2": 15.0, "tmax_d3": 16.4, "tmax_d4": 17.7, "tmax_d5": 16.0, "tmax_d6": 14.1, "tmin_d0": 4.9, "tmin_d1": 3.8, "tmin_d2": 3.3, "tmin_d3": 3.0, "tmin_d4": 3.5, "tmin_d5": 2.1, "tmin_d6": -0.1, "day_of_year": 234, "uuid": "ec8b3aae-7421-4807-aca4-485721033657", "inat_id": 237191717}}, {"type": "Feature", "geometry": {"type": "Point", "coordinates": [-105.0843671519, 39.117822083]}, "properties": {"species": "Boletopsis grisea", "date": "2024-09-07", "location": "Colorado, US", "elevation": 2411.0, "land_cover_label": "Tree cover", "water_mask": false, "exclude_reason": "keep", "ndvi": null, "soil_moisture": 0.1686267800140714, "solar_exposure": 0.8216812610626221, "wind_exposure": 0.3299505710601806, "water_retention": 0.3139968514442444, "slope": 3.5971920490264893, "aspect": 295.57598876953125, "num_identification_agreements": 2, "cluster": 0, "tavg": null, "tmin": 8.4, "tmax": 26.9, "prcp_d0": 0.0, "prcp_d1": 0.0, "prcp_d2": 11.243013381958008, "prcp_d3": 0.0, "prcp_d4": 0.0, "prcp_d5": 0.0, "prcp_d6": 0.0, "tmax_d0": 22.9, "tmax_d1": 21.1, "tmax_d2": 16.4, "tmax_d3": 23.3, "tmax_d4": 26.5, "tmax_d5": 24.7, "tmax_d6": 23.2, "tmin_d0": 9.3, "tmin_d1": 6.7, "tmin_d2": 8.3, "tmin_d3": 12.5, "tmin_d4": 12.2, "tmin_d5": 10.8, "tmin_d6": 11.5, "day_of_year": 251, "uuid": "12f53893-6e78-40d8-85cb-e02ff7996bec", "inat_id": 240490124}}, {"type": "Feature", "geometry": {"type": "Point", "coordinates": [-105.0511901501, 39.1911306466]}, "properties": {"species": "Boletopsis grisea", "date": "2024-09-07", "location": "Pike and San Isabel National Forests, Sedalia, CO, US", "elevation": 2760.0, "land_cover_label": "Tree cover", "water_mask": false, "exclude_reason": "keep", "ndvi": null, "soil_moisture": 0.1598101364902553, "solar_exposure": 0.8499363660812378, "wind_exposure": 0.405957818031311, "water_retention": 0.3119844198226928, "slope": 1.2368242740631104, "aspect": 138.9575958251953, "num_identification_agreements": 1, "cluster": 0, "tavg": null, "tmin": 8.4, "tmax": 26.9, "prcp_d0": 0.0, "prcp_d1": 0.0, "prcp_d2": 13.242464065551758, "prcp_d3": 0.0, "prcp_d4": 0.0, "prcp_d5": 0.0, "prcp_d6": 0.0, "tmax_d0": 20.5, "tmax_d1": 18.8, "tmax_d2": 14.0, "tmax_d3": 20.9, "tmax_d4": 24.2, "tmax_d5": 22.4, "tmax_d6": 20.8, "tmin_d0": 7.0, "tmin_d1": 4.3, "tmin_d2": 5.9, "tmin_d3": 10.1, "tmin_d4": 9.9, "tmin_d5": 8.5, "tmin_d6": 9.1, "day_of_year": 251, "uuid": "95b97985-ada6-42b1-8302-40d074b2d6d7", "inat_id": 241350640}}, {"type": "Feature", "geometry": {"type": "Point", "coordinates": [-121.7707133333, 45.30703]}, "properties": {"species": "Boletopsis grisea", "date": "2024-10-05", "location": "Mt. Hood Park Division Recreation Area, Government Camp, OR, US", "elevation": 1163.0, "land_cover_label": "Tree cover", "water_mask": false, "exclude_reason": "keep", "ndvi": null, "soil_moisture": null, "solar_exposure": null, "wind_exposure": null, "water_retention": null, "slope": null, "aspect": null, "num_identification_agreements": 1, "cluster": 1, "tavg": null, "tmin": 6.7, "tmax": 20.1, "prcp_d0": 1.4578303098678589, "prcp_d1": 27.943130493164062, "prcp_d2": 0.0, "prcp_d3": 1.8416904211044312, "prcp_d4": 0.0, "prcp_d5": 0.0, "prcp_d6": 0.0, "tmax_d0": 17.6, "tmax_d1": 15.1, "tmax_d2": 16.1, "tmax_d3": 16.3, "tmax_d4": 19.9, "tmax_d5": 14.4, "tmax_d6": 15.4, "tmin_d0": 0.9, "tmin_d1": 4.9, "tmin_d2": 4.1, "tmin_d3": 3.2, "tmin_d4": 7.8, "tmin_d5": 1.5, "tmin_d6": 1.9, "day_of_year": 279, "uuid": "47cdf7ba-bae2-4db1-867f-9967c79c95b5", "inat_id": 245851167}}, {"type": "Feature", "geometry": {"type": "Point", "coordinates": [-121.879529, 45.32002145]}, "properties": {"species": "Boletopsis grisea", "date": "2024-10-07", "location": "Mt. Hood Park Division Recreation Area, Rhododendron, OR, US", "elevation": 807.0, "land_cover_label": "Tree cover", "water_mask": false, "exclude_reason": "keep", "ndvi": null, "soil_moisture": null, "solar_exposure": null, "wind_exposure": null, "water_retention": null, "slope": null, "aspect": null, "num_identification_agreements": 1, "cluster": 0, "tavg": null, "tmin": 8.3, "tmax": 23.4, "prcp_d0": 0.0, "prcp_d1": 0.0, "prcp_d2": 1.5528892278671265, "prcp_d3": 33.16910934448242, "prcp_d4": 0.0, "prcp_d5": 1.97260856628418, "prcp_d6": 0.0, "tmax_d0": 24.2, "tmax_d1": 20.1, "tmax_d2": 20.9, "tmax_d3": 17.9, "tmax_d4": 18.9, "tmax_d5": 18.8, "tmax_d6": 22.6, "tmin_d0": 9.2, "tmin_d1": 6.3, "tmin_d2": 2.5, "tmin_d3": 7.6, "tmin_d4": 3.4, "tmin_d5": 6.4, "tmin_d6": 8.0, "day_of_year": 281, "uuid": "699367da-29b3-47f6-acc0-131576b9c7b7", "inat_id": 246200654}}, {"type": "Feature", "geometry": {"type": "Point", "coordinates": [-121.944017, 45.0027759722]}, "properties": {"species": "Boletopsis grisea", "date": "2024-10-25", "location": "Clackamas County, OR, USA", "elevation": 1154.0, "land_cover_label": "Tree cover", "water_mask": false, "exclude_reason": "keep", "ndvi": null, "soil_moisture": null, "solar_exposure": null, "wind_exposure": null, "water_retention": null, "slope": null, "aspect": null, "num_identification_agreements": 1, "cluster": 2, "tavg": null, "tmin": null, "tmax": null, "prcp_d0": 0.0, "prcp_d1": 0.0, "prcp_d2": 0.0, "prcp_d3": 0.0, "prcp_d4": 69.18305969238281, "prcp_d5": 0.0, "prcp_d6": 0.0, "tmax_d0": 13.3, "tmax_d1": 10.5, "tmax_d2": 8.6, "tmax_d3": 10.2, "tmax_d4": 13.5, "tmax_d5": 17.0, "tmax_d6": 17.2, "tmin_d0": -2.6, "tmin_d1": -3.9, "tmin_d2": 0.1, "tmin_d3": 0.5, "tmin_d4": 5.8, "tmin_d5": 6.6, "tmin_d6": 6.2, "day_of_year": 299, "uuid": "bf0c13ec-fbeb-40f3-ac06-d5c7d75e353e", "inat_id": 249264815}}, {"type": "Feature", "geometry": {"type": "Point", "coordinates": [-121.7976268, 45.3082855]}, "properties": {"species": "Boletopsis grisea", "date": "2024-10-25", "location": "Rhododendron, OR 97049, USA", "elevation": 1026.0, "land_cover_label": "Tree cover", "water_mask": false, "exclude_reason": "keep", "ndvi": null, "soil_moisture": null, "solar_exposure": null, "wind_exposure": null, "water_retention": null, "slope": null, "aspect": null, "num_identification_agreements": 1, "cluster": 0, "tavg": null, "tmin": 3.5, "tmax": 13.0, "prcp_d0": 0.0, "prcp_d1": 0.0, "prcp_d2": 0.0, "prcp_d3": 3.578210592269897, "prcp_d4": 39.902320861816406, "prcp_d5": 0.0, "prcp_d6": 4.433897495269775, "tmax_d0": 13.6, "tmax_d1": 9.8, "tmax_d2": 9.5, "tmax_d3": 10.4, "tmax_d4": 13.7, "tmax_d5": 17.4, "tmax_d6": 16.4, "tmin_d0": 3.3, "tmin_d1": -2.4, "tmin_d2": 3.1, "tmin_d3": 0.7, "tmin_d4": 6.0, "tmin_d5": 8.9, "tmin_d6": 4.6, "day_of_year": 299, "uuid": "ce2e823d-a435-4f2c-84ca-f5797124e088", "inat_id": 249084787}}, {"type": "Feature", "geometry": {"type": "Point", "coordinates": [-121.7870182697, 45.6698491338]}, "properties": {"species": "Boletopsis grisea", "date": "2024-11-05", "location": "Washington, US", "elevation": 977.0, "land_cover_label": "Tree cover", "water_mask": false, "exclude_reason": "keep", "ndvi": null, "soil_moisture": null, "solar_exposure": null, "wind_exposure": null, "water_retention": null, "slope": null, "aspect": null, "num_identification_agreements": 1, "cluster": 1, "tavg": null, "tmin": 4.3, "tmax": 9.8, "prcp_d0": 34.45186996459961, "prcp_d1": 34.45186996459961, "prcp_d2": 0.0, "prcp_d3": 0.0, "prcp_d4": 0.0, "prcp_d5": 10.918645858764648, "prcp_d6": 3.664447069168091, "tmax_d0": 4.5, "tmax_d1": 5.3, "tmax_d2": 4.6, "tmax_d3": 5.3, "tmax_d4": 5.4, "tmax_d5": 2.8, "tmax_d6": 4.8, "tmin_d0": 1.8, "tmin_d1": 2.5, "tmin_d2": 1.9, "tmin_d3": 2.5, "tmin_d4": 1.7, "tmin_d5": 0.3, "tmin_d6": -0.5, "day_of_year": 310, "uuid": "3ed4c681-0e94-4161-963d-9a516ed90dab", "inat_id": 250695617}}, {"type": "Feature", "geometry": {"type": "Point", "coordinates": [-121.7820474878, 45.3297053542]}, "properties": {"species": "Boletopsis grisea", "date": "2025-09-28", "location": "Mt Hood, OR 97041, USA", "elevation": 1254.0, "land_cover_label": "Tree cover", "water_mask": false, "exclude_reason": "keep", "ndvi": null, "soil_moisture": null, "solar_exposure": null, "wind_exposure": null, "water_retention": null, "slope": null, "aspect": null, "num_identification_agreements": 1, "cluster": 0, "tavg": null, "tmin": 7.0, "tmax": 25.0, "prcp_d0": 0.0, "prcp_d1": 0.0, "prcp_d2": 0.0, "prcp_d3": 0.0, "prcp_d4": 0.0, "prcp_d5": 0.0, "prcp_d6": 0.0, "tmax_d0": 19.9, "tmax_d1": 23.1, "tmax_d2": 16.3, "tmax_d3": 21.9, "tmax_d4": 26.0, "tmax_d5": 21.5, "tmax_d6": 19.5, "tmin_d0": 10.8, "tmin_d1": 8.8, "tmin_d2": 2.9, "tmin_d3": 9.9, "tmin_d4": 10.6, "tmin_d5": 10.2, "tmin_d6": 2.4, "day_of_year": 271, "uuid": "5e1b2ca0-78cb-4329-95d1-0a7fa8003ef2", "inat_id": 317473664}}]}