{"type": "FeatureCollection", "features": [{"type": "Feature", "geometry": {"type": "Point", "coordinates": [-122.5156933355, 45.1786748009]}, "properties": {"species": "Buchwaldoboletus sphaerocephalus", "date": "2023-09-06", "location": "Clackamas County, US-OR, US", "elevation": 127.0, "land_cover_label": "Grassland", "water_mask": false, "exclude_reason": "keep", "ndvi": null, "soil_moisture": null, "solar_exposure": null, "wind_exposure": null, "water_retention": null, "slope": null, "aspect": null, "num_identification_agreements": 2, "cluster": 0, "tavg": null, "tmin": 10.0, "tmax": 25.0, "prcp_d0": 0.0, "prcp_d1": 0.0, "prcp_d2": 0.0, "prcp_d3": 0.0, "prcp_d4": 0.0, "prcp_d5": 0.0, "prcp_d6": 8.169615745544434, "tmax_d0": 23.4, "tmax_d1": 21.1, "tmax_d2": 21.2, "tmax_d3": 22.7, "tmax_d4": 27.3, "tmax_d5": 26.7, "tmax_d6": 23.9, "tmin_d0": 8.4, "tmin_d1": 11.4, "tmin_d2": 13.6, "tmin_d3": 14.9, "tmin_d4": 13.5, "tmin_d5": 14.8, "tmin_d6": 14.2, "day_of_year": 249, "uuid": "bbc10ca9-d8de-4def-b2fc-92ab2e4ed01c", "inat_id": 182118683}}]}