{"type": "FeatureCollection", "features": [{"type": "Feature", "geometry": {"type": "Point", "coordinates": [-105.5358045316, 40.0319052816]}, "properties": {"species": "Calonarius metarius", "date": "2023-08-12", "location": "County Road 116, Ward, CO, US", "elevation": 2911.0, "land_cover_label": "Tree cover", "water_mask": false, "exclude_reason": "keep", "ndvi": null, "soil_moisture": 0.2786852064797741, "solar_exposure": 0.9266594648361206, "wind_exposure": 0.2951700389385223, "water_retention": 0.2991878390312195, "slope": 10.35456657409668, "aspect": 161.91969299316406, "num_identification_agreements": 4, "cluster": 2, "tavg": null, "tmin": 17.0, "tmax": 28.0, "prcp_d0": 0.0, "prcp_d1": 0.0, "prcp_d2": 0.0, "prcp_d3": 0.0, "prcp_d4": 0.0, "prcp_d5": 8.656059265136719, "prcp_d6": 0.0, "tmax_d0": 18.1, "tmax_d1": 20.5, "tmax_d2": 18.8, "tmax_d3": 17.6, "tmax_d4": 18.0, "tmax_d5": 16.5, "tmax_d6": 15.3, "tmin_d0": 9.1, "tmin_d1": 8.1, "tmin_d2": 6.9, "tmin_d3": 3.0, "tmin_d4": 6.3, "tmin_d5": 4.0, "tmin_d6": 6.1, "day_of_year": 224, "uuid": "d1d5ac89-74a7-4905-8bc1-4ac37953d3b6", "inat_id": 178107027}}]}