{"type": "FeatureCollection", "features": [{"type": "Feature", "geometry": {"type": "Point", "coordinates": [-121.8155, 45.48885]}, "properties": {"species": "Caloboletus conifericola", "date": "2018-08-11", "location": "Pacific Crest Trail on Mount Hood from Timberline Lodge to Cascade Locks, Zigzag Ranger District & Hood River Ranger District, Mount Hood National Forest, Clackamas Co. & Multnomah Co., Oregon, USA", "elevation": 992.0, "land_cover_label": "Tree cover", "water_mask": false, "exclude_reason": "keep", "ndvi": null, "soil_moisture": null, "solar_exposure": null, "wind_exposure": null, "water_retention": null, "slope": null, "aspect": null, "num_identification_agreements": 1, "cluster": 2, "tavg": null, "tmin": 18.3, "tmax": 24.4, "prcp_d0": 0.0, "prcp_d1": 0.0, "prcp_d2": 0.0, "prcp_d3": 0.0, "prcp_d4": 0.0, "prcp_d5": 0.0, "prcp_d6": 0.0, "tmax_d0": 25.3, "tmax_d1": 29.8, "tmax_d2": 32.0, "tmax_d3": 34.0, "tmax_d4": 32.3, "tmax_d5": 29.0, "tmax_d6": 26.1, "tmin_d0": 10.9, "tmin_d1": 17.7, "tmin_d2": 18.2, "tmin_d3": 17.7, "tmin_d4": 16.3, "tmin_d5": 12.9, "tmin_d6": 10.8, "day_of_year": 223, "uuid": "8354c8ab-0164-49bb-9635-e33705dd6f39", "inat_id": 17712539}}, {"type": "Feature", "geometry": {"type": "Point", "coordinates": [-121.8155, 45.48885]}, "properties": {"species": "Caloboletus conifericola", "date": "2018-08-12", "location": "Pacific Crest Trail on Mount Hood from Timberline Lodge to Cascade Locks, Zigzag Ranger District & Hood River Ranger District, Mount Hood National Forest, Clackamas Co. & Multnomah Co., Oregon, USA", "elevation": 992.0, "land_cover_label": "Tree cover", "water_mask": false, "exclude_reason": "keep", "ndvi": null, "soil_moisture": null, "solar_exposure": null, "wind_exposure": null, "water_retention": null, "slope": null, "aspect": null, "num_identification_agreements": 1, "cluster": 2, "tavg": null, "tmin": 16.7, "tmax": 25.6, "prcp_d0": 0.0, "prcp_d1": 0.0, "prcp_d2": 0.0, "prcp_d3": 0.0, "prcp_d4": 0.0, "prcp_d5": 0.0, "prcp_d6": 0.0, "tmax_d0": 22.1, "tmax_d1": 25.3, "tmax_d2": 29.8, "tmax_d3": 32.0, "tmax_d4": 34.0, "tmax_d5": 32.3, "tmax_d6": 29.0, "tmin_d0": 9.1, "tmin_d1": 10.9, "tmin_d2": 17.7, "tmin_d3": 18.2, "tmin_d4": 17.7, "tmin_d5": 16.3, "tmin_d6": 12.9, "day_of_year": 224, "uuid": "1c19c41a-3417-4aaa-8685-b4dabf3b6c29", "inat_id": 17712666}}, {"type": "Feature", "geometry": {"type": "Point", "coordinates": [-121.8440958183, 45.5800599838]}, "properties": {"species": "Caloboletus conifericola", "date": "2020-10-03", "location": "Oregon, US", "elevation": 724.0, "land_cover_label": "Tree cover", "water_mask": false, "exclude_reason": "keep", "ndvi": null, "soil_moisture": null, "solar_exposure": null, "wind_exposure": null, "water_retention": null, "slope": null, "aspect": null, "num_identification_agreements": 1, "cluster": 2, "tavg": null, "tmin": 12.8, "tmax": 25.0, "prcp_d0": 0.0, "prcp_d1": 0.0, "prcp_d2": 0.0, "prcp_d3": 0.0, "prcp_d4": 0.0, "prcp_d5": 0.0, "prcp_d6": 0.0, "tmax_d0": 23.0, "tmax_d1": 24.0, "tmax_d2": 24.4, "tmax_d3": 22.8, "tmax_d4": 21.3, "tmax_d5": 18.2, "tmax_d6": 16.6, "tmin_d0": 11.6, "tmin_d1": 11.8, "tmin_d2": 11.6, "tmin_d3": 11.0, "tmin_d4": 9.2, "tmin_d5": 8.8, "tmin_d6": 8.4, "day_of_year": 277, "uuid": "030b729c-82ad-46ad-b5e4-a8ba79711a36", "inat_id": 61751809}}, {"type": "Feature", "geometry": {"type": "Point", "coordinates": [-121.6766183961, 45.4079345307]}, "properties": {"species": "Caloboletus conifericola", "date": "2020-10-18", "location": "Oregon, US", "elevation": 1568.0, "land_cover_label": "Grassland", "water_mask": false, "exclude_reason": "keep", "ndvi": null, "soil_moisture": null, "solar_exposure": null, "wind_exposure": null, "water_retention": null, "slope": null, "aspect": null, "num_identification_agreements": 1, "cluster": 2, "tavg": null, "tmin": 14.4, "tmax": 18.3, "prcp_d0": 0.0, "prcp_d1": 0.0, "prcp_d2": 0.0, "prcp_d3": 0.0, "prcp_d4": 0.0, "prcp_d5": 48.40975189208984, "prcp_d6": 0.0, "tmax_d0": 7.2, "tmax_d1": 8.9, "tmax_d2": 11.0, "tmax_d3": 10.8, "tmax_d4": 4.2, "tmax_d5": 7.2, "tmax_d6": 6.3, "tmin_d0": 2.8, "tmin_d1": 4.9, "tmin_d2": 2.2, "tmin_d3": -1.2, "tmin_d4": 1.5, "tmin_d5": 1.3, "tmin_d6": 2.7, "day_of_year": 292, "uuid": "2b50b28f-637a-4d48-a5d8-1268fbb6e037", "inat_id": 63865877}}, {"type": "Feature", "geometry": {"type": "Point", "coordinates": [-121.6760966739, 45.2346535765]}, "properties": {"species": "Caloboletus conifericola", "date": "2021-08-31", "location": "Oregon, US", "elevation": 1359.0, "land_cover_label": "Tree cover", "water_mask": false, "exclude_reason": "keep", "ndvi": null, "soil_moisture": null, "solar_exposure": null, "wind_exposure": null, "water_retention": null, "slope": null, "aspect": null, "num_identification_agreements": 4, "cluster": 2, "tavg": null, "tmin": null, "tmax": null, "prcp_d0": 0.0, "prcp_d1": 0.0, "prcp_d2": 0.0, "prcp_d3": 0.0, "prcp_d4": 8.109944343566895, "prcp_d5": 0.0, "prcp_d6": 0.0, "tmax_d0": 12.5, "tmax_d1": 20.7, "tmax_d2": 24.4, "tmax_d3": 23.0, "tmax_d4": 15.1, "tmax_d5": 15.7, "tmax_d6": 19.3, "tmin_d0": 3.7, "tmin_d1": 7.6, "tmin_d2": 12.2, "tmin_d3": 6.9, "tmin_d4": 6.4, "tmin_d5": 7.8, "tmin_d6": 7.6, "day_of_year": 243, "uuid": "675f6f2c-b25e-4324-af27-4b58167c2c8c", "inat_id": 93224267}}, {"type": "Feature", "geometry": {"type": "Point", "coordinates": [-122.0412910283, 45.2946351067]}, "properties": {"species": "Caloboletus conifericola", "date": "2022-09-27", "location": "Clackamas County, OR, USA", "elevation": 1324.0, "land_cover_label": "Tree cover", "water_mask": false, "exclude_reason": "keep", "ndvi": null, "soil_moisture": null, "solar_exposure": null, "wind_exposure": null, "water_retention": null, "slope": null, "aspect": null, "num_identification_agreements": 1, "cluster": 2, "tavg": null, "tmin": 12.8, "tmax": 28.9, "prcp_d0": 6.1185744471004e-07, "prcp_d1": 0.0, "prcp_d2": 0.0, "prcp_d3": 0.0, "prcp_d4": 0.0, "prcp_d5": 4.420780181884766, "prcp_d6": 0.0, "tmax_d0": 21.9, "tmax_d1": 24.9, "tmax_d2": 23.2, "tmax_d3": 19.5, "tmax_d4": 15.9, "tmax_d5": 12.3, "tmax_d6": 17.8, "tmin_d0": 7.6, "tmin_d1": 12.9, "tmin_d2": 8.7, "tmin_d3": 3.3, "tmin_d4": 2.1, "tmin_d5": 7.1, "tmin_d6": 5.3, "day_of_year": 270, "uuid": "e76e2194-3269-4ee9-a3b8-5f6b9ef70fc4", "inat_id": 136777855}}, {"type": "Feature", "geometry": {"type": "Point", "coordinates": [-121.7524848189, 45.3031490914]}, "properties": {"species": "Caloboletus conifericola", "date": "2023-08-09", "location": "Mt. Hood Park Division Recreation Area, Government Camp, OR, US", "elevation": 1196.0, "land_cover_label": "Bare / sparse vegetation", "water_mask": false, "exclude_reason": "keep", "ndvi": null, "soil_moisture": null, "solar_exposure": null, "wind_exposure": null, "water_retention": null, "slope": null, "aspect": null, "num_identification_agreements": 1, "cluster": 2, "tavg": null, "tmin": 15.2, "tmax": 28.7, "prcp_d0": 0.0, "prcp_d1": 0.0, "prcp_d2": 0.0, "prcp_d3": 0.0, "prcp_d4": 0.0, "prcp_d5": 0.0, "prcp_d6": 0.0, "tmax_d0": 20.5, "tmax_d1": 21.8, "tmax_d2": 18.7, "tmax_d3": 17.0, "tmax_d4": 21.3, "tmax_d5": 21.5, "tmax_d6": 21.7, "tmin_d0": 10.6, "tmin_d1": 8.4, "tmin_d2": 10.3, "tmin_d3": 11.0, "tmin_d4": 11.7, "tmin_d5": 10.2, "tmin_d6": 10.0, "day_of_year": 221, "uuid": "16d61e72-0478-415e-8227-2c075117fff8", "inat_id": 177613835}}, {"type": "Feature", "geometry": {"type": "Point", "coordinates": [-121.7707221697, 45.3833527554]}, "properties": {"species": "Caloboletus conifericola", "date": "2023-08-19", "location": "Zigzag Ranger Station, Rhododendron, OR, US", "elevation": 1385.0, "land_cover_label": "Tree cover", "water_mask": false, "exclude_reason": "keep", "ndvi": null, "soil_moisture": null, "solar_exposure": null, "wind_exposure": null, "water_retention": null, "slope": null, "aspect": null, "num_identification_agreements": 1, "cluster": 2, "tavg": null, "tmin": 11.6, "tmax": 31.7, "prcp_d0": 0.0, "prcp_d1": 0.0, "prcp_d2": 0.0, "prcp_d3": 0.0, "prcp_d4": 0.0, "prcp_d5": 0.0, "prcp_d6": 0.0, "tmax_d0": 24.3, "tmax_d1": 23.0, "tmax_d2": 28.9, "tmax_d3": 31.4, "tmax_d4": 31.6, "tmax_d5": 30.9, "tmax_d6": 27.0, "tmin_d0": 9.8, "tmin_d1": 9.5, "tmin_d2": 16.3, "tmin_d3": 15.2, "tmin_d4": 17.0, "tmin_d5": 15.1, "tmin_d6": 13.3, "day_of_year": 231, "uuid": "5a6d4413-85d0-4360-a179-763513c37ddb", "inat_id": 179412101}}, {"type": "Feature", "geometry": {"type": "Point", "coordinates": [-121.6267930399, 45.4519609077]}, "properties": {"species": "Caloboletus conifericola", "date": "2023-09-24", "location": "Oregon, US", "elevation": 941.0, "land_cover_label": "Tree cover", "water_mask": false, "exclude_reason": "keep", "ndvi": null, "soil_moisture": null, "solar_exposure": null, "wind_exposure": null, "water_retention": null, "slope": null, "aspect": null, "num_identification_agreements": 1, "cluster": 1, "tavg": null, "tmin": 10.2, "tmax": 15.1, "prcp_d0": 67.1967544555664, "prcp_d1": 0.0, "prcp_d2": 0.0, "prcp_d3": 0.0, "prcp_d4": 0.0, "prcp_d5": 0.0, "prcp_d6": 0.0, "tmax_d0": 12.2, "tmax_d1": 17.4, "tmax_d2": 17.9, "tmax_d3": 17.3, "tmax_d4": 12.4, "tmax_d5": 14.6, "tmax_d6": 19.1, "tmin_d0": 5.3, "tmin_d1": 6.7, "tmin_d2": 3.9, "tmin_d3": 3.7, "tmin_d4": 6.0, "tmin_d5": 6.0, "tmin_d6": 11.5, "day_of_year": 267, "uuid": "cb6c936a-7e12-4a9b-b9b8-9cb5fb266f5b", "inat_id": 184773460}}, {"type": "Feature", "geometry": {"type": "Point", "coordinates": [-121.940248, 45.2973522222]}, "properties": {"species": "Caloboletus conifericola", "date": "2023-10-13", "location": "Clackamas County, OR, USA", "elevation": 469.0, "land_cover_label": "Tree cover", "water_mask": false, "exclude_reason": "keep", "ndvi": null, "soil_moisture": null, "solar_exposure": null, "wind_exposure": null, "water_retention": null, "slope": null, "aspect": null, "num_identification_agreements": 1, "cluster": 2, "tavg": null, "tmin": 13.9, "tmax": 19.4, "prcp_d0": 0.0, "prcp_d1": 0.0, "prcp_d2": 0.0, "prcp_d3": 0.0, "prcp_d4": 17.56292724609375, "prcp_d5": 0.0, "prcp_d6": 0.0, "tmax_d0": 19.0, "tmax_d1": 16.8, "tmax_d2": 12.9, "tmax_d3": 14.3, "tmax_d4": 23.3, "tmax_d5": 26.1, "tmax_d6": 26.7, "tmin_d0": 9.9, "tmin_d1": 7.8, "tmin_d2": 8.1, "tmin_d3": 9.7, "tmin_d4": 11.6, "tmin_d5": 13.1, "tmin_d6": 15.8, "day_of_year": 286, "uuid": "789b2283-818e-458e-a388-dc3b2e2ceeef", "inat_id": 187412253}}, {"type": "Feature", "geometry": {"type": "Point", "coordinates": [-122.0533460997, 45.2488205]}, "properties": {"species": "Caloboletus conifericola", "date": "2024-07-30", "location": "Estacada, OR 97023, USA", "elevation": 1274.0, "land_cover_label": "Tree cover", "water_mask": false, "exclude_reason": "keep", "ndvi": null, "soil_moisture": null, "solar_exposure": null, "wind_exposure": null, "water_retention": null, "slope": null, "aspect": null, "num_identification_agreements": 1, "cluster": 2, "tavg": null, "tmin": 19.4, "tmax": 27.8, "prcp_d0": 0.0, "prcp_d1": 0.0, "prcp_d2": 0.0, "prcp_d3": 0.0, "prcp_d4": 0.0, "prcp_d5": 0.0, "prcp_d6": 0.0, "tmax_d0": 17.3, "tmax_d1": 17.4, "tmax_d2": 18.1, "tmax_d3": 19.1, "tmax_d4": 19.6, "tmax_d5": 18.6, "tmax_d6": 19.4, "tmin_d0": 9.8, "tmin_d1": 6.9, "tmin_d2": 5.9, "tmin_d3": 5.1, "tmin_d4": 1.7, "tmin_d5": 5.9, "tmin_d6": 6.2, "day_of_year": 212, "uuid": "73166f24-39bf-4451-971f-8ac31201e0a5", "inat_id": 234399636}}, {"type": "Feature", "geometry": {"type": "Point", "coordinates": [-121.7888856071, 45.265970254]}, "properties": {"species": "Caloboletus conifericola", "date": "2024-08-17", "location": "Oregon, US", "elevation": 1065.0, "land_cover_label": "Tree cover", "water_mask": false, "exclude_reason": "keep", "ndvi": null, "soil_moisture": null, "solar_exposure": null, "wind_exposure": null, "water_retention": null, "slope": null, "aspect": null, "num_identification_agreements": 2, "cluster": 2, "tavg": null, "tmin": 13.1, "tmax": 32.8, "prcp_d0": 0.0, "prcp_d1": 0.0, "prcp_d2": 0.0, "prcp_d3": 0.0, "prcp_d4": 0.0, "prcp_d5": 0.0, "prcp_d6": 0.0, "tmax_d0": 26.3, "tmax_d1": 20.0, "tmax_d2": 18.8, "tmax_d3": 20.2, "tmax_d4": 17.1, "tmax_d5": 21.1, "tmax_d6": 23.2, "tmin_d0": 11.7, "tmin_d1": 9.8, "tmin_d2": 10.1, "tmin_d3": 8.0, "tmin_d4": 8.6, "tmin_d5": 10.1, "tmin_d6": 13.2, "day_of_year": 230, "uuid": "343ad48d-1336-4941-b7b7-4a7de07dd01c", "inat_id": 236404388}}, {"type": "Feature", "geometry": {"type": "Point", "coordinates": [-121.7875833333, 45.40338]}, "properties": {"species": "Caloboletus conifericola", "date": "2024-08-27", "location": "Mt. Hood National Forest, Government Camp, OR, US", "elevation": 1243.0, "land_cover_label": "Tree cover", "water_mask": false, "exclude_reason": "keep", "ndvi": null, "soil_moisture": null, "solar_exposure": null, "wind_exposure": null, "water_retention": null, "slope": null, "aspect": null, "num_identification_agreements": 1, "cluster": 2, "tavg": null, "tmin": null, "tmax": null, "prcp_d0": 4.198416709899902, "prcp_d1": 5.093811068945797e-06, "prcp_d2": 0.1028913706541061, "prcp_d3": 0.1579484939575195, "prcp_d4": 10.78467082977295, "prcp_d5": 0.2247644364833831, "prcp_d6": 0.3944473266601562, "tmax_d0": 19.8, "tmax_d1": 21.6, "tmax_d2": 18.2, "tmax_d3": 12.1, "tmax_d4": 12.0, "tmax_d5": 15.9, "tmax_d6": 16.8, "tmin_d0": 7.5, "tmin_d1": 7.1, "tmin_d2": 5.2, "tmin_d3": 2.4, "tmin_d4": 7.0, "tmin_d5": 7.5, "tmin_d6": 7.4, "day_of_year": 240, "uuid": "27b9e1f1-2f0e-49f3-989f-a239636b9324", "inat_id": 238787415}}, {"type": "Feature", "geometry": {"type": "Point", "coordinates": [-121.7118083333, 45.2714533333]}, "properties": {"species": "Caloboletus conifericola", "date": "2024-09-12", "location": "Mt. Hood Park Division Recreation Area, Government Camp, OR, US", "elevation": 1196.0, "land_cover_label": "Tree cover", "water_mask": false, "exclude_reason": "keep", "ndvi": null, "soil_moisture": null, "solar_exposure": null, "wind_exposure": null, "water_retention": null, "slope": null, "aspect": null, "num_identification_agreements": 2, "cluster": 2, "tavg": null, "tmin": 13.6, "tmax": 20.2, "prcp_d0": 0.0, "prcp_d1": 9.45176887512207, "prcp_d2": 0.0, "prcp_d3": 0.0, "prcp_d4": 9.244536399841309, "prcp_d5": 8.307758331298828, "prcp_d6": 0.0, "tmax_d0": 11.9, "tmax_d1": 17.4, "tmax_d2": 20.3, "tmax_d3": 23.0, "tmax_d4": 27.7, "tmax_d5": 28.6, "tmax_d6": 30.1, "tmin_d0": 7.2, "tmin_d1": 6.9, "tmin_d2": 10.3, "tmin_d3": 13.3, "tmin_d4": 14.5, "tmin_d5": 18.2, "tmin_d6": 20.2, "day_of_year": 256, "uuid": "864d3024-ef70-4bf1-af43-00d65dc92ade", "inat_id": 241413720}}, {"type": "Feature", "geometry": {"type": "Point", "coordinates": [-121.8160055556, 45.4815694444]}, "properties": {"species": "Caloboletus conifericola", "date": "2024-09-14", "location": "Cascade Locks, OR 97014, USA", "elevation": 968.0, "land_cover_label": "Tree cover", "water_mask": false, "exclude_reason": "keep", "ndvi": null, "soil_moisture": null, "solar_exposure": null, "wind_exposure": null, "water_retention": null, "slope": null, "aspect": null, "num_identification_agreements": 1, "cluster": 2, "tavg": null, "tmin": 12.6, "tmax": 21.9, "prcp_d0": 0.2367761731147766, "prcp_d1": 0.7110084891319275, "prcp_d2": 4.931663990020752, "prcp_d3": 16.195899963378906, "prcp_d4": 0.0, "prcp_d5": 0.0, "prcp_d6": 7.040209770202637, "tmax_d0": 15.9, "tmax_d1": 17.4, "tmax_d2": 13.2, "tmax_d3": 18.1, "tmax_d4": 20.5, "tmax_d5": 22.9, "tmax_d6": 27.4, "tmin_d0": 8.7, "tmin_d1": 6.7, "tmin_d2": 8.5, "tmin_d3": 8.0, "tmin_d4": 12.2, "tmin_d5": 13.5, "tmin_d6": 15.6, "day_of_year": 258, "uuid": "4683828f-fe11-4eb9-a7b7-de0aec71dee2", "inat_id": 242308247}}, {"type": "Feature", "geometry": {"type": "Point", "coordinates": [-121.8172, 45.482005]}, "properties": {"species": "Caloboletus conifericola", "date": "2024-09-21", "location": "Mt. Hood National Forest, Mount Hood Parkdale, OR, US", "elevation": 1013.0, "land_cover_label": "Tree cover", "water_mask": false, "exclude_reason": "keep", "ndvi": null, "soil_moisture": null, "solar_exposure": null, "wind_exposure": null, "water_retention": null, "slope": null, "aspect": null, "num_identification_agreements": 1, "cluster": 2, "tavg": null, "tmin": 8.4, "tmax": 23.7, "prcp_d0": 0.0, "prcp_d1": 0.0, "prcp_d2": 0.0, "prcp_d3": 0.0, "prcp_d4": 0.0, "prcp_d5": 0.0, "prcp_d6": 2.8671252727508545, "tmax_d0": 18.9, "tmax_d1": 14.7, "tmax_d2": 16.6, "tmax_d3": 15.1, "tmax_d4": 16.9, "tmax_d5": 19.4, "tmax_d6": 14.4, "tmin_d0": 4.8, "tmin_d1": 6.1, "tmin_d2": 7.4, "tmin_d3": 9.0, "tmin_d4": 7.3, "tmin_d5": 6.1, "tmin_d6": 5.5, "day_of_year": 265, "uuid": "88934dfd-97c2-4c69-8292-c021a59891fc", "inat_id": 244525894}}, {"type": "Feature", "geometry": {"type": "Point", "coordinates": [-121.7949666667, 45.418205]}, "properties": {"species": "Caloboletus conifericola", "date": "2025-08-07", "location": "Pacific Crest Trail, Rhododendron, OR, US", "elevation": 1270.0, "land_cover_label": "Tree cover", "water_mask": false, "exclude_reason": "keep", "ndvi": null, "soil_moisture": null, "solar_exposure": null, "wind_exposure": null, "water_retention": null, "slope": null, "aspect": null, "num_identification_agreements": 1, "cluster": 2, "tavg": null, "tmin": 15.0, "tmax": 22.0, "prcp_d0": 0.0, "prcp_d1": 0.0, "prcp_d2": 0.0, "prcp_d3": 0.0, "prcp_d4": 0.0, "prcp_d5": 0.0, "prcp_d6": 0.0, "tmax_d0": 13.2, "tmax_d1": 16.9, "tmax_d2": 18.5, "tmax_d3": 15.1, "tmax_d4": 18.8, "tmax_d5": 20.3, "tmax_d6": 21.4, "tmin_d0": 8.7, "tmin_d1": 9.7, "tmin_d2": 6.3, "tmin_d3": 6.1, "tmin_d4": 8.1, "tmin_d5": 9.3, "tmin_d6": 10.7, "day_of_year": 219, "uuid": "fdd8a650-b377-488a-a1f0-11be4c0ecbff", "inat_id": 305007064}}, {"type": "Feature", "geometry": {"type": "Point", "coordinates": [-121.7420416667, 45.4149033333]}, "properties": {"species": "Caloboletus conifericola", "date": "2025-09-07", "location": "Mazama Trail, Mount Hood Parkdale, OR, US", "elevation": 1592.0, "land_cover_label": "Tree cover", "water_mask": false, "exclude_reason": "keep", "ndvi": null, "soil_moisture": null, "solar_exposure": null, "wind_exposure": null, "water_retention": null, "slope": null, "aspect": null, "num_identification_agreements": 1, "cluster": 1, "tavg": null, "tmin": 15.3, "tmax": 23.9, "prcp_d0": 11.895488739013672, "prcp_d1": 0.0, "prcp_d2": 0.0, "prcp_d3": 27.27841186523437, "prcp_d4": 0.0, "prcp_d5": 0.0, "prcp_d6": 0.0, "tmax_d0": 16.7, "tmax_d1": 21.9, "tmax_d2": 24.5, "tmax_d3": 25.5, "tmax_d4": 28.8, "tmax_d5": 28.2, "tmax_d6": 23.2, "tmin_d0": 8.7, "tmin_d1": 13.9, "tmin_d2": 14.2, "tmin_d3": 14.4, "tmin_d4": 15.7, "tmin_d5": 13.2, "tmin_d6": 10.5, "day_of_year": 250, "uuid": "60bb0221-3936-4af2-89a4-c93062f51038", "inat_id": 312549661}}]}