{"type": "FeatureCollection", "features": [{"type": "Feature", "geometry": {"type": "Point", "coordinates": [-121.31667, 45.71532]}, "properties": {"species": "Calonarius anetholens", "date": "2013-11-18", "location": "Klickitat County, WA, USA", "elevation": 178.0, "land_cover_label": "Tree cover", "water_mask": false, "exclude_reason": "keep", "ndvi": null, "soil_moisture": null, "solar_exposure": null, "wind_exposure": null, "water_retention": null, "slope": null, "aspect": null, "num_identification_agreements": 2, "cluster": 1, "tavg": null, "tmin": 3.9, "tmax": 9.4, "prcp_d0": 0.0, "prcp_d1": 0.0, "prcp_d2": 11.908069610595703, "prcp_d3": 7.064428329467773, "prcp_d4": 3.5322141647338867, "prcp_d5": 0.0, "prcp_d6": 17.66107177734375, "tmax_d0": 10.4, "tmax_d1": 8.8, "tmax_d2": 8.0, "tmax_d3": 8.7, "tmax_d4": 11.4, "tmax_d5": 12.6, "tmax_d6": 10.9, "tmin_d0": 7.8, "tmin_d1": 5.2, "tmin_d2": 5.0, "tmin_d3": 4.1, "tmin_d4": 3.2, "tmin_d5": 6.9, "tmin_d6": 6.4, "day_of_year": 322, "uuid": "24ccdd68-fe49-4e71-b66e-2ec9e5158257", "inat_id": 192017178}}]}