{"type": "FeatureCollection", "features": [{"type": "Feature", "geometry": {"type": "Point", "coordinates": [-105.5713244, 39.5106183]}, "properties": {"species": "Calonarius calojanthinus", "date": "2022-08-12", "location": "Deer Creek Trail, , Colorado", "elevation": 2881.0, "land_cover_label": "Tree cover", "water_mask": false, "exclude_reason": "keep", "ndvi": null, "soil_moisture": 0.3070556250450816, "solar_exposure": 0.5447474122047424, "wind_exposure": 0.2517698109149933, "water_retention": 0.5388615727424622, "slope": 24.407331466674805, "aspect": 33.14213562011719, "num_identification_agreements": 1, "cluster": 0, "tavg": null, "tmin": 5.6, "tmax": 16.4, "prcp_d0": 0.0, "prcp_d1": 0.0, "prcp_d2": 0.0, "prcp_d3": 0.0, "prcp_d4": 13.66179084777832, "prcp_d5": 13.66179084777832, "prcp_d6": 0.0, "tmax_d0": 22.6, "tmax_d1": 23.8, "tmax_d2": 22.3, "tmax_d3": 21.8, "tmax_d4": 20.7, "tmax_d5": 21.3, "tmax_d6": 23.8, "tmin_d0": 8.7, "tmin_d1": 8.5, "tmin_d2": 9.0, "tmin_d3": 8.1, "tmin_d4": 7.1, "tmin_d5": 9.6, "tmin_d6": 9.6, "day_of_year": 224, "uuid": "6c582a03-ee71-4777-a904-a620068abd36", "inat_id": 145670627}}, {"type": "Feature", "geometry": {"type": "Point", "coordinates": [-107.8998781, 37.9216631]}, "properties": {"species": "Calonarius calojanthinus", "date": "2024-08-14", "location": "San Miguel River South Fork Preserve, 37 921612 #107.899833, Mountain Village, CO 81435, USA", "elevation": 2536.0, "land_cover_label": "Grassland", "water_mask": false, "exclude_reason": "keep", "ndvi": null, "soil_moisture": null, "solar_exposure": null, "wind_exposure": null, "water_retention": null, "slope": null, "aspect": null, "num_identification_agreements": 7, "cluster": 3, "tavg": null, "tmin": 9.0, "tmax": 20.0, "prcp_d0": 0.0, "prcp_d1": 23.053241729736328, "prcp_d2": 11.526620864868164, "prcp_d3": 0.0, "prcp_d4": 0.0, "prcp_d5": 0.0, "prcp_d6": 7.814668655395508, "tmax_d0": 21.7, "tmax_d1": 21.2, "tmax_d2": 22.4, "tmax_d3": 23.6, "tmax_d4": 21.8, "tmax_d5": 23.7, "tmax_d6": 27.1, "tmin_d0": 7.5, "tmin_d1": 9.4, "tmin_d2": 9.4, "tmin_d3": 10.2, "tmin_d4": 10.2, "tmin_d5": 13.4, "tmin_d6": 8.8, "day_of_year": 227, "uuid": "2e04a23b-17d4-4efb-9e94-2303e9eeea1c", "inat_id": 235777555}}, {"type": "Feature", "geometry": {"type": "Point", "coordinates": [-105.801025, 35.79801667]}, "properties": {"species": "Calonarius calojanthinus", "date": "2025-08-22", "location": "Santa Fe, New Mexico, United States", "elevation": 3208.0, "land_cover_label": "Tree cover", "water_mask": false, "exclude_reason": "keep", "ndvi": null, "soil_moisture": null, "solar_exposure": null, "wind_exposure": null, "water_retention": null, "slope": null, "aspect": null, "num_identification_agreements": 1, "cluster": 2, "tavg": null, "tmin": 15.0, "tmax": 31.7, "prcp_d0": 0.0, "prcp_d1": 4.452316284179688, "prcp_d2": 0.0, "prcp_d3": 11.7296724319458, "prcp_d4": 0.0, "prcp_d5": 0.0, "prcp_d6": 0.0, "tmax_d0": 21.3, "tmax_d1": 21.3, "tmax_d2": 19.5, "tmax_d3": 19.5, "tmax_d4": 21.0, "tmax_d5": 20.2, "tmax_d6": 17.8, "tmin_d0": 6.2, "tmin_d1": 5.7, "tmin_d2": 5.2, "tmin_d3": 5.9, "tmin_d4": 8.4, "tmin_d5": 7.8, "tmin_d6": 7.0, "day_of_year": 234, "uuid": "46fd1f4a-b47c-435f-b605-4b26254f87d0", "inat_id": 308556091}}, {"type": "Feature", "geometry": {"type": "Point", "coordinates": [-107.0181387089, 38.7726564097]}, "properties": {"species": "Calonarius calojanthinus", "date": "2025-09-28", "location": "Gunnison County, US-CO, US", "elevation": 2669.0, "land_cover_label": "Tree cover", "water_mask": false, "exclude_reason": "keep", "ndvi": null, "soil_moisture": null, "solar_exposure": null, "wind_exposure": null, "water_retention": null, "slope": null, "aspect": null, "num_identification_agreements": 2, "cluster": 2, "tavg": null, "tmin": 8.0, "tmax": 18.0, "prcp_d0": 0.0, "prcp_d1": 0.0, "prcp_d2": 0.0, "prcp_d3": 0.0, "prcp_d4": 0.0, "prcp_d5": 0.0, "prcp_d6": 0.0, "tmax_d0": 16.0, "tmax_d1": 19.5, "tmax_d2": 18.0, "tmax_d3": 18.4, "tmax_d4": 17.3, "tmax_d5": 12.0, "tmax_d6": 17.4, "tmin_d0": 1.6, "tmin_d1": 0.0, "tmin_d2": -0.1, "tmin_d3": -3.0, "tmin_d4": -1.5, "tmin_d5": -0.3, "tmin_d6": 2.3, "day_of_year": 271, "uuid": "842d4808-eac6-4b03-ade2-7b6d50bf2aee", "inat_id": 317415332}}]}