{"type": "FeatureCollection", "features": [{"type": "Feature", "geometry": {"type": "Point", "coordinates": [-121.84709232, 45.116059864]}, "properties": {"species": "Calonarius aureofulvus", "date": "2025-10-29", "location": "Clackamas County, OR, USA", "elevation": 1095.0, "land_cover_label": "Tree cover", "water_mask": false, "exclude_reason": "keep", "ndvi": null, "soil_moisture": null, "solar_exposure": null, "wind_exposure": null, "water_retention": null, "slope": null, "aspect": null, "num_identification_agreements": 2, "cluster": 2, "tavg": null, "tmin": null, "tmax": null, "prcp_d0": 0.0, "prcp_d1": 0.0, "prcp_d2": 0.0, "prcp_d3": 0.0, "prcp_d4": 0.0, "prcp_d5": 16.38886070251465, "prcp_d6": 0.0, "tmax_d0": 8.5, "tmax_d1": 8.1, "tmax_d2": 5.1, "tmax_d3": 2.3, "tmax_d4": 7.4, "tmax_d5": 12.0, "tmax_d6": 14.5, "tmin_d0": 3.7, "tmin_d1": -0.5, "tmin_d2": -0.1, "tmin_d3": -0.7, "tmin_d4": 0.4, "tmin_d5": 5.1, "tmin_d6": 4.0, "day_of_year": 302, "uuid": "318bd60e-3844-4504-9a5f-181bd22a6e87", "inat_id": 324062137}}]}