{"type": "FeatureCollection", "features": [{"type": "Feature", "geometry": {"type": "Point", "coordinates": [-121.8686506526, 45.3793993034]}, "properties": {"species": "Cantharellula umbonata", "date": "2024-10-29", "location": "Clackamas County, US-OR, US", "elevation": 627.0, "land_cover_label": "Tree cover", "water_mask": false, "exclude_reason": "keep", "ndvi": null, "soil_moisture": null, "solar_exposure": null, "wind_exposure": null, "water_retention": null, "slope": null, "aspect": null, "num_identification_agreements": 1, "cluster": 0, "tavg": null, "tmin": 3.1, "tmax": 11.8, "prcp_d0": 0.0, "prcp_d1": 0.0, "prcp_d2": 0.0, "prcp_d3": 0.0, "prcp_d4": 0.0, "prcp_d5": 0.0, "prcp_d6": 0.0, "tmax_d0": 7.1, "tmax_d1": 8.0, "tmax_d2": 15.7, "tmax_d3": 17.3, "tmax_d4": 17.5, "tmax_d5": 13.8, "tmax_d6": 11.6, "tmin_d0": 4.5, "tmin_d1": 3.8, "tmin_d2": 7.4, "tmin_d3": 9.4, "tmin_d4": 4.4, "tmin_d5": -2.2, "tmin_d6": 1.0, "day_of_year": 303, "uuid": "2fb35db6-8c8a-4077-987f-cad7042a3895", "inat_id": 249703669}}]}