{"type": "FeatureCollection", "features": [{"type": "Feature", "geometry": {"type": "Point", "coordinates": [-107.836, 37.9421]}, "properties": {"species": "Catathelasma imperiale", "date": "2018-08-16", "location": "Telluride, Colorado, USA", "elevation": 2652.0, "land_cover_label": "Grassland", "water_mask": false, "exclude_reason": "keep", "ndvi": null, "soil_moisture": null, "solar_exposure": null, "wind_exposure": null, "water_retention": null, "slope": null, "aspect": null, "num_identification_agreements": 2, "cluster": 0, "tavg": null, "tmin": 11.0, "tmax": 23.0, "prcp_d0": 7.511468410491943, "prcp_d1": 0.0, "prcp_d2": 0.0, "prcp_d3": 0.0, "prcp_d4": 0.0, "prcp_d5": 0.0, "prcp_d6": 0.0, "tmax_d0": 22.4, "tmax_d1": 21.7, "tmax_d2": 23.5, "tmax_d3": 24.1, "tmax_d4": 24.9, "tmax_d5": 24.4, "tmax_d6": 23.5, "tmin_d0": 8.2, "tmin_d1": 9.0, "tmin_d2": 10.1, "tmin_d3": 7.7, "tmin_d4": 8.4, "tmin_d5": 6.2, "tmin_d6": 9.3, "day_of_year": 228, "uuid": "4ca2e703-6e37-4a28-a270-e0affee7b05f", "inat_id": 40349207}}, {"type": "Feature", "geometry": {"type": "Point", "coordinates": [-121.73005, 45.2789777778]}, "properties": {"species": "Catathelasma imperiale", "date": "2022-10-09", "location": "Clackamas, Oregon, United States", "elevation": 1110.0, "land_cover_label": "Tree cover", "water_mask": false, "exclude_reason": "keep", "ndvi": null, "soil_moisture": null, "solar_exposure": null, "wind_exposure": null, "water_retention": null, "slope": null, "aspect": null, "num_identification_agreements": 1, "cluster": 0, "tavg": null, "tmin": 12.2, "tmax": 26.5, "prcp_d0": 0.0, "prcp_d1": 0.0, "prcp_d2": 0.0, "prcp_d3": 0.0, "prcp_d4": 0.0, "prcp_d5": 0.0, "prcp_d6": 0.0, "tmax_d0": 22.7, "tmax_d1": 22.4, "tmax_d2": 22.3, "tmax_d3": 23.2, "tmax_d4": 24.7, "tmax_d5": 24.1, "tmax_d6": 22.8, "tmin_d0": 13.9, "tmin_d1": 14.0, "tmin_d2": 15.0, "tmin_d3": 14.9, "tmin_d4": 10.7, "tmin_d5": 13.6, "tmin_d6": 13.5, "day_of_year": 282, "uuid": "57015eb5-87e3-43d5-aac4-faa5bf953c88", "inat_id": 138206289}}]}