{"type": "FeatureCollection", "features": [{"type": "Feature", "geometry": {"type": "Point", "coordinates": [-105.5102833879, 39.5283808132]}, "properties": {"species": "Cheimonophyllum haedinum", "date": "2020-08-30", "location": "Colorado, US", "elevation": 2825.0, "land_cover_label": "Tree cover", "water_mask": false, "exclude_reason": "keep", "ndvi": null, "soil_moisture": 0.2633240945788848, "solar_exposure": 0.9340921640396118, "wind_exposure": 0.4044208526611328, "water_retention": 0.1592869609594345, "slope": 11.742470741271973, "aspect": 199.9379730224609, "num_identification_agreements": 1, "cluster": 0, "tavg": null, "tmin": null, "tmax": null, "prcp_d0": 0.0, "prcp_d1": 0.0, "prcp_d2": 0.0, "prcp_d3": 0.0, "prcp_d4": 6.970977306365967, "prcp_d5": 6.77424955368042, "prcp_d6": 0.0, "tmax_d0": 19.8, "tmax_d1": 16.9, "tmax_d2": 19.0, "tmax_d3": 24.3, "tmax_d4": 21.5, "tmax_d5": 23.7, "tmax_d6": 25.1, "tmin_d0": 6.2, "tmin_d1": 7.4, "tmin_d2": 11.5, "tmin_d3": 8.2, "tmin_d4": 11.7, "tmin_d5": 12.3, "tmin_d6": 10.7, "day_of_year": 243, "uuid": "a6f1c1a6-6777-4751-b713-76457377701b", "inat_id": 58125750}}, {"type": "Feature", "geometry": {"type": "Point", "coordinates": [-107.8259711336, 37.85451717]}, "properties": {"species": "Cheimonophyllum haedinum", "date": "2022-08-19", "location": "San Miguel County, US-CO, US", "elevation": 2981.0, "land_cover_label": "Tree cover", "water_mask": false, "exclude_reason": "keep", "ndvi": null, "soil_moisture": null, "solar_exposure": null, "wind_exposure": null, "water_retention": null, "slope": null, "aspect": null, "num_identification_agreements": 2, "cluster": 0, "tavg": null, "tmin": 10.0, "tmax": 17.0, "prcp_d0": 0.0, "prcp_d1": 0.0, "prcp_d2": 0.0, "prcp_d3": 0.0, "prcp_d4": 0.0, "prcp_d5": 0.0, "prcp_d6": 0.0, "tmax_d0": 17.5, "tmax_d1": 21.3, "tmax_d2": 16.9, "tmax_d3": 17.4, "tmax_d4": 18.9, "tmax_d5": 19.5, "tmax_d6": 19.2, "tmin_d0": 7.0, "tmin_d1": 6.2, "tmin_d2": 6.1, "tmin_d3": 6.5, "tmin_d4": 6.4, "tmin_d5": 6.7, "tmin_d6": 7.3, "day_of_year": 231, "uuid": "38f3e0c9-c53e-4db6-8a30-848d1c3581cd", "inat_id": 131519942}}, {"type": "Feature", "geometry": {"type": "Point", "coordinates": [-107.8258027007, 37.8546202464]}, "properties": {"species": "Cheimonophyllum haedinum", "date": "2024-08-18", "location": "San Miguel County, US-CO, US", "elevation": 2981.0, "land_cover_label": "Tree cover", "water_mask": false, "exclude_reason": "keep", "ndvi": null, "soil_moisture": null, "solar_exposure": null, "wind_exposure": null, "water_retention": null, "slope": null, "aspect": null, "num_identification_agreements": 1, "cluster": 2, "tavg": null, "tmin": 11.0, "tmax": 20.0, "prcp_d0": 0.0, "prcp_d1": 12.986563682556152, "prcp_d2": 0.0, "prcp_d3": 0.0, "prcp_d4": 0.0, "prcp_d5": 43.08270263671875, "prcp_d6": 0.0, "tmax_d0": 19.0, "tmax_d1": 21.4, "tmax_d2": 21.1, "tmax_d3": 20.0, "tmax_d4": 18.0, "tmax_d5": 16.6, "tmax_d6": 19.3, "tmin_d0": 7.9, "tmin_d1": 7.5, "tmin_d2": 8.0, "tmin_d3": 5.5, "tmin_d4": 4.6, "tmin_d5": 7.9, "tmin_d6": 8.3, "day_of_year": 231, "uuid": "bbb841a0-025e-47be-8a44-d5a48fbf2d77", "inat_id": 236620981}}, {"type": "Feature", "geometry": {"type": "Point", "coordinates": [-107.997345, 39.0089388833]}, "properties": {"species": "Cheimonophyllum haedinum", "date": "2024-08-28", "location": "Grand Mesa Uncompahgre and Gunnison National Forests, Cedaredge, CO, US", "elevation": 2965.0, "land_cover_label": "Tree cover", "water_mask": false, "exclude_reason": "keep", "ndvi": null, "soil_moisture": null, "solar_exposure": null, "wind_exposure": null, "water_retention": null, "slope": null, "aspect": null, "num_identification_agreements": 2, "cluster": 0, "tavg": null, "tmin": 15.0, "tmax": 33.9, "prcp_d0": 0.3442613482475281, "prcp_d1": 0.1114295721054077, "prcp_d2": 6.305863380432129, "prcp_d3": 3.4414708614349365, "prcp_d4": 9.606788635253906, "prcp_d5": 0.8710917830467224, "prcp_d6": 3.106403589248657, "tmax_d0": 19.1, "tmax_d1": 18.4, "tmax_d2": 16.8, "tmax_d3": 14.2, "tmax_d4": 16.1, "tmax_d5": 15.6, "tmax_d6": 15.0, "tmin_d0": 8.2, "tmin_d1": 6.9, "tmin_d2": 6.1, "tmin_d3": 6.6, "tmin_d4": 7.5, "tmin_d5": 8.4, "tmin_d6": 8.6, "day_of_year": 241, "uuid": "a80fb6ea-adad-49d6-853b-604815d88cba", "inat_id": 238527118}}, {"type": "Feature", "geometry": {"type": "Point", "coordinates": [-105.7580678266, 39.9142678183]}, "properties": {"species": "Cheimonophyllum haedinum", "date": "2024-09-22", "location": "Colorado, US", "elevation": 2951.0, "land_cover_label": "Grassland", "water_mask": false, "exclude_reason": "keep", "ndvi": null, "soil_moisture": 0.2519604645836985, "solar_exposure": 0.8837018609046936, "wind_exposure": 0.4072058200836181, "water_retention": 0.1612819880247116, "slope": 11.409231185913086, "aspect": 237.4564666748047, "num_identification_agreements": 1, "cluster": 0, "tavg": null, "tmin": -4.0, "tmax": 5.2, "prcp_d0": 20.85416984558105, "prcp_d1": 0.0, "prcp_d2": 0.0, "prcp_d3": 0.0, "prcp_d4": 0.0, "prcp_d5": 0.0, "prcp_d6": 0.0, "tmax_d0": 11.5, "tmax_d1": 15.8, "tmax_d2": 18.5, "tmax_d3": 16.5, "tmax_d4": 14.8, "tmax_d5": 16.8, "tmax_d6": 17.0, "tmin_d0": 1.3, "tmin_d1": 0.4, "tmin_d2": 3.3, "tmin_d3": 1.3, "tmin_d4": -1.8, "tmin_d5": 2.0, "tmin_d6": 0.5, "day_of_year": 266, "uuid": "52e65fb2-21bd-45a5-bf88-109cb68317ea", "inat_id": 243505986}}, {"type": "Feature", "geometry": {"type": "Point", "coordinates": [-105.5407457778, 40.1572132258]}, "properties": {"species": "Cheimonophyllum haedinum", "date": "2025-09-25", "location": "Colorado, US", "elevation": 2949.0, "land_cover_label": "Tree cover", "water_mask": false, "exclude_reason": "keep", "ndvi": null, "soil_moisture": 0.4039681799489646, "solar_exposure": 0.6622755527496338, "wind_exposure": 0.3012087643146515, "water_retention": 0.2173339277505874, "slope": 14.769617080688477, "aspect": 22.110626220703125, "num_identification_agreements": 1, "cluster": 0, "tavg": null, "tmin": 8.0, "tmax": 26.0, "prcp_d0": 0.0, "prcp_d1": 0.0, "prcp_d2": 0.0, "prcp_d3": 0.0, "prcp_d4": 0.0, "prcp_d5": 0.0, "prcp_d6": 0.0, "tmax_d0": 15.8, "tmax_d1": 11.5, "tmax_d2": 8.0, "tmax_d3": 13.8, "tmax_d4": 11.8, "tmax_d5": 14.9, "tmax_d6": 15.7, "tmin_d0": 0.2, "tmin_d1": -3.9, "tmin_d2": 0.9, "tmin_d3": 3.0, "tmin_d4": 3.1, "tmin_d5": 3.1, "tmin_d6": 1.3, "day_of_year": 268, "uuid": "60b7a1d6-fb26-4c44-9add-289b02d8690c", "inat_id": 316866036}}, {"type": "Feature", "geometry": {"type": "Point", "coordinates": [-105.7930367846, 35.7956688596]}, "properties": {"species": "Cheimonophyllum haedinum", "date": "2025-10-10", "location": "Tererro, NM, US", "elevation": 3365.0, "land_cover_label": "Tree cover", "water_mask": false, "exclude_reason": "keep", "ndvi": null, "soil_moisture": null, "solar_exposure": null, "wind_exposure": null, "water_retention": null, "slope": null, "aspect": null, "num_identification_agreements": 1, "cluster": 0, "tavg": null, "tmin": 11.7, "tmax": 22.2, "prcp_d0": 0.8173100352287292, "prcp_d1": 4.517036437988281, "prcp_d2": 8.455785751342773, "prcp_d3": 2.8945207595825195, "prcp_d4": 0.0, "prcp_d5": 0.0, "prcp_d6": 0.0, "tmax_d0": 11.6, "tmax_d1": 13.4, "tmax_d2": 9.6, "tmax_d3": 11.4, "tmax_d4": 11.4, "tmax_d5": 10.3, "tmax_d6": 10.1, "tmin_d0": 2.3, "tmin_d1": 2.9, "tmin_d2": 1.6, "tmin_d3": 1.2, "tmin_d4": 0.5, "tmin_d5": 0.5, "tmin_d6": 1.4, "day_of_year": 283, "uuid": "1b77442b-6feb-4583-9750-519f48d8dfc2", "inat_id": 320022416}}, {"type": "Feature", "geometry": {"type": "Point", "coordinates": [-105.6591836, 39.6770683]}, "properties": {"species": "Cheimonophyllum haedinum", "date": "2026-07-22", "location": "Golden, CO 80439, USA", "elevation": 2950.0, "land_cover_label": "Tree cover", "water_mask": false, "exclude_reason": "keep", "ndvi": null, "soil_moisture": 0.2688892303222394, "solar_exposure": 0.6873306035995483, "wind_exposure": 0.2249464839696884, "water_retention": 0.3960393071174621, "slope": 12.256038665771484, "aspect": 358.130126953125, "num_identification_agreements": 2, "cluster": 3, "tavg": null, "tmin": 6.0, "tmax": 13.0, "prcp_d0": 0.0, "prcp_d1": 0.0, "prcp_d2": 0.0, "prcp_d3": 0.0, "prcp_d4": 0.0, "prcp_d5": 0.0, "prcp_d6": 0.0, "tmax_d0": 23.7, "tmax_d1": 23.7, "tmax_d2": 26.8, "tmax_d3": 25.1, "tmax_d4": 22.4, "tmax_d5": 21.3, "tmax_d6": 20.9, "tmin_d0": 10.6, "tmin_d1": 11.0, "tmin_d2": 11.2, "tmin_d3": 9.4, "tmin_d4": 7.6, "tmin_d5": 8.5, "tmin_d6": 8.9, "day_of_year": 203, "uuid": "0440b207-db08-4d63-8c18-79f350346ba0", "inat_id": 384064824}}]}