{"type": "FeatureCollection", "features": [{"type": "Feature", "geometry": {"type": "Point", "coordinates": [-104.9093578968, 39.68295347]}, "properties": {"species": "Chlorophyllum hortense", "date": "2023-08-20", "location": "Virginia Village, Denver, CO, USA", "elevation": 1662.0, "land_cover_label": "Tree cover", "water_mask": false, "exclude_reason": "keep", "ndvi": null, "soil_moisture": 0.1333836934917583, "solar_exposure": 0.8369662761688232, "wind_exposure": 0.3270332217216491, "water_retention": 0.4050787985324859, "slope": 0.3109926879405975, "aspect": 0.0, "num_identification_agreements": 1, "cluster": 2, "tavg": null, "tmin": 19.3, "tmax": 34.6, "prcp_d0": 0.0, "prcp_d1": 9.360222816467283, "prcp_d2": 0.0, "prcp_d3": 0.0, "prcp_d4": 0.0, "prcp_d5": 0.0, "prcp_d6": 0.0, "tmax_d0": 35.1, "tmax_d1": 34.6, "tmax_d2": 34.5, "tmax_d3": 35.0, "tmax_d4": 34.2, "tmax_d5": 32.2, "tmax_d6": 25.8, "tmin_d0": 16.8, "tmin_d1": 17.0, "tmin_d2": 19.5, "tmin_d3": 15.8, "tmin_d4": 16.3, "tmin_d5": 12.7, "tmin_d6": 14.3, "day_of_year": 232, "uuid": "b2f7b10e-24b6-473f-b889-50014d13f85d", "inat_id": 179527594}}]}