{"type": "FeatureCollection", "features": [{"type": "Feature", "geometry": {"type": "Point", "coordinates": [-105.536595, 40.035367]}, "properties": {"species": "Clitocybe diatreta", "date": "2022-09-17", "location": "Denver Botanic Gardens, Denver, CO, US", "elevation": 2970.0, "land_cover_label": "Tree cover", "water_mask": false, "exclude_reason": "keep", "ndvi": null, "soil_moisture": 0.2964075166007435, "solar_exposure": 0.8479024767875671, "wind_exposure": 0.3634287416934967, "water_retention": 0.2075652778148651, "slope": 5.800324440002441, "aspect": 102.34130096435548, "num_identification_agreements": 2, "cluster": 2, "tavg": null, "tmin": 12.0, "tmax": 26.0, "prcp_d0": 0.0, "prcp_d1": 0.0, "prcp_d2": 0.0, "prcp_d3": 0.0, "prcp_d4": 0.0, "prcp_d5": 0.0, "prcp_d6": 0.0, "tmax_d0": 13.1, "tmax_d1": 14.3, "tmax_d2": 12.8, "tmax_d3": 15.2, "tmax_d4": 16.5, "tmax_d5": 17.9, "tmax_d6": 15.1, "tmin_d0": 3.6, "tmin_d1": 3.4, "tmin_d2": 4.6, "tmin_d3": 6.9, "tmin_d4": 6.8, "tmin_d5": 4.0, "tmin_d6": -1.3, "day_of_year": 260, "uuid": "9c8e1d32-6c6e-4954-8bd6-c31028389a3a", "inat_id": 152865158}}]}