{"type": "FeatureCollection", "features": [{"type": "Feature", "geometry": {"type": "Point", "coordinates": [-122.2273416066, 45.3070594808]}, "properties": {"species": "Clitocybe odora pacifica", "date": "2024-10-11", "location": "Clackamas County, US-OR, US", "elevation": 413.0, "land_cover_label": "Tree cover", "water_mask": false, "exclude_reason": "keep", "ndvi": null, "soil_moisture": null, "solar_exposure": null, "wind_exposure": null, "water_retention": null, "slope": null, "aspect": null, "num_identification_agreements": 1, "cluster": 2, "tavg": null, "tmin": 14.4, "tmax": 21.1, "prcp_d0": 0.0, "prcp_d1": 0.0, "prcp_d2": 0.0, "prcp_d3": 0.0, "prcp_d4": 0.0, "prcp_d5": 0.0, "prcp_d6": 1.0006494522094729, "tmax_d0": 22.3, "tmax_d1": 17.9, "tmax_d2": 17.7, "tmax_d3": 23.7, "tmax_d4": 25.9, "tmax_d5": 19.7, "tmax_d6": 19.1, "tmin_d0": 8.5, "tmin_d1": 2.1, "tmin_d2": 10.7, "tmin_d3": 8.8, "tmin_d4": 8.0, "tmin_d5": 7.2, "tmin_d6": 4.1, "day_of_year": 285, "uuid": "9d8c5a16-1194-4c4a-905d-f3b5a22956de", "inat_id": 252529706}}]}