{"type": "FeatureCollection", "features": [{"type": "Feature", "geometry": {"type": "Point", "coordinates": [-108.0259555, 37.7924416667]}, "properties": {"species": "Clitopilus prunulus", "date": "2022-08-16", "location": "San Juan National Forest headquarters, Dolores, CO, US", "elevation": 3093.0, "land_cover_label": "Tree cover", "water_mask": false, "exclude_reason": "keep", "ndvi": null, "soil_moisture": null, "solar_exposure": null, "wind_exposure": null, "water_retention": null, "slope": null, "aspect": null, "num_identification_agreements": 2, "cluster": 1, "tavg": null, "tmin": 11.0, "tmax": 17.0, "prcp_d0": 35.71166229248047, "prcp_d1": 0.0, "prcp_d2": 21.37931060791016, "prcp_d3": 0.0, "prcp_d4": 0.0, "prcp_d5": 0.0, "prcp_d6": 0.0, "tmax_d0": 16.9, "tmax_d1": 18.2, "tmax_d2": 18.9, "tmax_d3": 17.7, "tmax_d4": 18.5, "tmax_d5": 18.6, "tmax_d6": 18.8, "tmin_d0": 8.0, "tmin_d1": 5.2, "tmin_d2": 7.0, "tmin_d3": 5.1, "tmin_d4": 5.4, "tmin_d5": 7.3, "tmin_d6": 9.1, "day_of_year": 228, "uuid": "8be35644-76ba-48a7-a38b-6b0cae8de38d", "inat_id": 131164264}}]}