{"type": "FeatureCollection", "features": [{"type": "Feature", "geometry": {"type": "Point", "coordinates": [-122.0342591598, 45.2791113806]}, "properties": {"species": "Clitocybe nebularis", "date": "2020-12-05", "location": "Oregon, US", "elevation": 980.0, "land_cover_label": "Tree cover", "water_mask": false, "exclude_reason": "keep", "ndvi": null, "soil_moisture": null, "solar_exposure": null, "wind_exposure": null, "water_retention": null, "slope": null, "aspect": null, "num_identification_agreements": 1, "cluster": 0, "tavg": null, "tmin": 3.9, "tmax": 5.6, "prcp_d0": 0.0, "prcp_d1": 0.0, "prcp_d2": 0.0, "prcp_d3": 0.0, "prcp_d4": 0.0, "prcp_d5": 0.0, "prcp_d6": 0.0, "tmax_d0": 5.4, "tmax_d1": 9.1, "tmax_d2": 8.7, "tmax_d3": 4.7, "tmax_d4": 4.3, "tmax_d5": 3.5, "tmax_d6": 8.4, "tmin_d0": -0.4, "tmin_d1": -2.9, "tmin_d2": -0.8, "tmin_d3": 0.7, "tmin_d4": -3.2, "tmin_d5": -2.0, "tmin_d6": -0.0, "day_of_year": 340, "uuid": "7b919275-16b2-4f70-944f-55d2b2a167ee", "inat_id": 66163981}}, {"type": "Feature", "geometry": {"type": "Point", "coordinates": [-122.3037618997, 45.2108787]}, "properties": {"species": "Clitocybe nebularis", "date": "2020-12-06", "location": "Estacada, OR 97023, USA", "elevation": 423.0, "land_cover_label": "Tree cover", "water_mask": false, "exclude_reason": "keep", "ndvi": null, "soil_moisture": null, "solar_exposure": null, "wind_exposure": null, "water_retention": null, "slope": null, "aspect": null, "num_identification_agreements": 1, "cluster": 0, "tavg": null, "tmin": 5.0, "tmax": 11.1, "prcp_d0": 0.0, "prcp_d1": 0.0, "prcp_d2": 0.0, "prcp_d3": 0.0, "prcp_d4": 0.0, "prcp_d5": 0.0, "prcp_d6": 0.0, "tmax_d0": null, "tmax_d1": null, "tmax_d2": null, "tmax_d3": null, "tmax_d4": null, "tmax_d5": null, "tmax_d6": null, "tmin_d0": null, "tmin_d1": null, "tmin_d2": null, "tmin_d3": null, "tmin_d4": null, "tmin_d5": null, "tmin_d6": null, "day_of_year": 341, "uuid": "91a6307d-3a98-473a-8591-21b40ddba2c2", "inat_id": 66224877}}, {"type": "Feature", "geometry": {"type": "Point", "coordinates": [-122.3576883333, 45.2988133333]}, "properties": {"species": "Clitocybe nebularis", "date": "2020-12-12", "location": "Milo McIver State Park, Estacada, OR, US", "elevation": 119.0, "land_cover_label": "Tree cover", "water_mask": false, "exclude_reason": "keep", "ndvi": null, "soil_moisture": null, "solar_exposure": null, "wind_exposure": null, "water_retention": null, "slope": null, "aspect": null, "num_identification_agreements": 1, "cluster": 2, "tavg": null, "tmin": 1.1, "tmax": 7.8, "prcp_d0": 0.0, "prcp_d1": 0.0, "prcp_d2": 0.0, "prcp_d3": 0.0, "prcp_d4": 0.0, "prcp_d5": 30.50965118408203, "prcp_d6": 0.0, "tmax_d0": null, "tmax_d1": null, "tmax_d2": null, "tmax_d3": null, "tmax_d4": null, "tmax_d5": null, "tmax_d6": null, "tmin_d0": null, "tmin_d1": null, "tmin_d2": null, "tmin_d3": null, "tmin_d4": null, "tmin_d5": null, "tmin_d6": null, "day_of_year": 347, "uuid": "1fc76897-b56e-4d6a-9842-f980c55bf763", "inat_id": 66550703}}, {"type": "Feature", "geometry": {"type": "Point", "coordinates": [-105.5381, 40.0309555]}, "properties": {"species": "Clitocybe nebularis", "date": "2023-08-12", "location": "County Road 116, Ward, CO, US", "elevation": 2936.0, "land_cover_label": "Tree cover", "water_mask": false, "exclude_reason": "keep", "ndvi": null, "soil_moisture": 0.2791611531403299, "solar_exposure": 0.8006788492202759, "wind_exposure": 0.2757991850376129, "water_retention": 0.2680265605449676, "slope": 13.961824417114258, "aspect": 86.2446517944336, "num_identification_agreements": 4, "cluster": 0, "tavg": null, "tmin": 17.0, "tmax": 28.0, "prcp_d0": 0.0, "prcp_d1": 0.0, "prcp_d2": 0.0, "prcp_d3": 0.0, "prcp_d4": 0.0, "prcp_d5": 8.656059265136719, "prcp_d6": 0.0, "tmax_d0": 18.0, "tmax_d1": 20.4, "tmax_d2": 18.7, "tmax_d3": 17.5, "tmax_d4": 17.9, "tmax_d5": 16.4, "tmax_d6": 15.2, "tmin_d0": 9.0, "tmin_d1": 8.0, "tmin_d2": 6.8, "tmin_d3": 2.9, "tmin_d4": 6.2, "tmin_d5": 3.9, "tmin_d6": 6.0, "day_of_year": 224, "uuid": "4bfadafd-e354-415b-8900-eef329678ca6", "inat_id": 178119499}}, {"type": "Feature", "geometry": {"type": "Point", "coordinates": [-122.3059762, 45.2110879]}, "properties": {"species": "Clitocybe nebularis", "date": "2023-11-30", "location": "Estacada, OR 97023, USA", "elevation": 405.0, "land_cover_label": "Tree cover", "water_mask": false, "exclude_reason": "keep", "ndvi": null, "soil_moisture": null, "solar_exposure": null, "wind_exposure": null, "water_retention": null, "slope": null, "aspect": null, "num_identification_agreements": 1, "cluster": 0, "tavg": null, "tmin": 1.1, "tmax": 3.3, "prcp_d0": 0.0, "prcp_d1": 0.0, "prcp_d2": 0.0, "prcp_d3": 0.0, "prcp_d4": 0.0, "prcp_d5": 0.0, "prcp_d6": 0.0, "tmax_d0": null, "tmax_d1": null, "tmax_d2": null, "tmax_d3": null, "tmax_d4": null, "tmax_d5": null, "tmax_d6": null, "tmin_d0": null, "tmin_d1": null, "tmin_d2": null, "tmin_d3": null, "tmin_d4": null, "tmin_d5": null, "tmin_d6": null, "day_of_year": 334, "uuid": "2cca4654-9dd9-47b0-8982-764e1d45dc5a", "inat_id": 192792758}}, {"type": "Feature", "geometry": {"type": "Point", "coordinates": [-108.0028158151, 39.0172025425]}, "properties": {"species": "Clitocybe nebularis", "date": "2024-08-05", "location": "Grand Mesa Uncompahgre and Gunnison National Forests, Cedaredge, CO, US", "elevation": 3037.0, "land_cover_label": "Tree cover", "water_mask": false, "exclude_reason": "keep", "ndvi": null, "soil_moisture": null, "solar_exposure": null, "wind_exposure": null, "water_retention": null, "slope": null, "aspect": null, "num_identification_agreements": 2, "cluster": 0, "tavg": null, "tmin": 18.6, "tmax": 33.8, "prcp_d0": 0.0, "prcp_d1": 0.0, "prcp_d2": 0.0, "prcp_d3": 0.0, "prcp_d4": 0.0, "prcp_d5": 0.0, "prcp_d6": 0.0, "tmax_d0": 21.6, "tmax_d1": 22.3, "tmax_d2": 24.0, "tmax_d3": 22.8, "tmax_d4": 24.2, "tmax_d5": 22.0, "tmax_d6": 22.0, "tmin_d0": 9.5, "tmin_d1": 9.1, "tmin_d2": 11.3, "tmin_d3": 11.0, "tmin_d4": 9.6, "tmin_d5": 9.0, "tmin_d6": 8.9, "day_of_year": 218, "uuid": "4096d066-0df9-4743-bce9-337249415bff", "inat_id": 234132350}}, {"type": "Feature", "geometry": {"type": "Point", "coordinates": [-107.98040833, 37.76799444]}, "properties": {"species": "Clitocybe nebularis", "date": "2025-08-12", "location": "Dolores, Colorado, United States", "elevation": 2863.0, "land_cover_label": "Tree cover", "water_mask": false, "exclude_reason": "keep", "ndvi": null, "soil_moisture": null, "solar_exposure": null, "wind_exposure": null, "water_retention": null, "slope": null, "aspect": null, "num_identification_agreements": 2, "cluster": 0, "tavg": null, "tmin": 10.0, "tmax": 24.0, "prcp_d0": 0.0, "prcp_d1": 0.0, "prcp_d2": 0.0, "prcp_d3": 0.0, "prcp_d4": 0.0, "prcp_d5": 0.0, "prcp_d6": 0.0, "tmax_d0": 21.0, "tmax_d1": 20.4, "tmax_d2": 20.9, "tmax_d3": 22.2, "tmax_d4": 21.9, "tmax_d5": 23.4, "tmax_d6": 20.9, "tmin_d0": 6.5, "tmin_d1": 6.1, "tmin_d2": 10.9, "tmin_d3": 10.8, "tmin_d4": 12.6, "tmin_d5": 10.9, "tmin_d6": 12.8, "day_of_year": 224, "uuid": "521f4b11-1ee2-4a23-b830-63fe5419ff3e", "inat_id": 306011600}}]}