{"type": "FeatureCollection", "features": [{"type": "Feature", "geometry": {"type": "Point", "coordinates": [-107.8548583333, 37.8838833333]}, "properties": {"species": "Clitocybe fragrans", "date": "2024-08-17", "location": "Grand Mesa Uncompahgre and Gunnison National Forests, Ophir, CO, US", "elevation": 3338.0, "land_cover_label": "Tree cover", "water_mask": false, "exclude_reason": "keep", "ndvi": null, "soil_moisture": null, "solar_exposure": null, "wind_exposure": null, "water_retention": null, "slope": null, "aspect": null, "num_identification_agreements": 1, "cluster": 1, "tavg": null, "tmin": 12.0, "tmax": 23.0, "prcp_d0": 14.800861358642578, "prcp_d1": 0.0, "prcp_d2": 0.0, "prcp_d3": 0.0, "prcp_d4": 43.863800048828125, "prcp_d5": 0.0, "prcp_d6": 0.0, "tmax_d0": 18.5, "tmax_d1": 18.2, "tmax_d2": 17.1, "tmax_d3": 15.1, "tmax_d4": 13.7, "tmax_d5": 16.4, "tmax_d6": 17.0, "tmin_d0": 4.6, "tmin_d1": 5.1, "tmin_d2": 2.6, "tmin_d3": 1.7, "tmin_d4": 5.0, "tmin_d5": 5.4, "tmin_d6": 4.7, "day_of_year": 230, "uuid": "dbf621bf-de66-4f83-bf79-6c555b4c5834", "inat_id": 236400497}}, {"type": "Feature", "geometry": {"type": "Point", "coordinates": [-105.1764317028, 39.2727727565]}, "properties": {"species": "Clitocybe fragrans", "date": "2024-09-07", "location": "Colorado, US", "elevation": 2360.0, "land_cover_label": "Tree cover", "water_mask": false, "exclude_reason": "keep", "ndvi": null, "soil_moisture": 0.1629740857316497, "solar_exposure": 0.8516361117362976, "wind_exposure": 0.3806379437446594, "water_retention": 0.2677491903305053, "slope": 7.115010738372803, "aspect": 254.8759765625, "num_identification_agreements": 1, "cluster": 0, "tavg": null, "tmin": 1.8, "tmax": 16.3, "prcp_d0": 0.0, "prcp_d1": 0.0, "prcp_d2": 14.332594871520996, "prcp_d3": 0.0, "prcp_d4": 0.0, "prcp_d5": 0.0, "prcp_d6": 0.0, "tmax_d0": 23.8, "tmax_d1": 22.2, "tmax_d2": 17.5, "tmax_d3": 25.3, "tmax_d4": 28.2, "tmax_d5": 27.2, "tmax_d6": 24.9, "tmin_d0": 9.9, "tmin_d1": 7.7, "tmin_d2": 8.2, "tmin_d3": 13.4, "tmin_d4": 12.2, "tmin_d5": 12.3, "tmin_d6": 11.9, "day_of_year": 251, "uuid": "ebbb1124-794a-44e9-91ff-8ee2123a97c7", "inat_id": 240471950}}, {"type": "Feature", "geometry": {"type": "Point", "coordinates": [-104.9056792259, 38.728135548]}, "properties": {"species": "Clitocybe fragrans", "date": "2025-08-30", "location": "Rock Creek, Colorado Springs, CO, USA", "elevation": 2711.0, "land_cover_label": "Tree cover", "water_mask": false, "exclude_reason": "keep", "ndvi": null, "soil_moisture": null, "solar_exposure": null, "wind_exposure": null, "water_retention": null, "slope": null, "aspect": null, "num_identification_agreements": 1, "cluster": 1, "tavg": null, "tmin": 11.3, "tmax": 19.3, "prcp_d0": 0.0, "prcp_d1": 0.0, "prcp_d2": 0.0, "prcp_d3": 0.0, "prcp_d4": 0.0, "prcp_d5": 23.10459327697754, "prcp_d6": 23.10459327697754, "tmax_d0": 14.3, "tmax_d1": 19.0, "tmax_d2": 16.7, "tmax_d3": 19.1, "tmax_d4": 14.6, "tmax_d5": 15.0, "tmax_d6": 18.7, "tmin_d0": 8.1, "tmin_d1": 8.9, "tmin_d2": 9.1, "tmin_d3": 9.4, "tmin_d4": 9.1, "tmin_d5": 8.5, "tmin_d6": 9.3, "day_of_year": 242, "uuid": "ac4da6cc-ca12-4043-95f9-4fbb3d0b2213", "inat_id": 310329149}}, {"type": "Feature", "geometry": {"type": "Point", "coordinates": [-105.7046283333, 35.7884]}, "properties": {"species": "Clitocybe fragrans", "date": "2025-09-16", "location": "Holy Ghost Trail, Tererro, NM, US", "elevation": 2609.0, "land_cover_label": "Tree cover", "water_mask": false, "exclude_reason": "keep", "ndvi": null, "soil_moisture": null, "solar_exposure": null, "wind_exposure": null, "water_retention": null, "slope": null, "aspect": null, "num_identification_agreements": 1, "cluster": 0, "tavg": null, "tmin": 11.0, "tmax": 28.0, "prcp_d0": 0.0, "prcp_d1": 0.0, "prcp_d2": 0.0, "prcp_d3": 10.450904846191406, "prcp_d4": 0.0, "prcp_d5": 0.0, "prcp_d6": 11.606491088867188, "tmax_d0": 19.7, "tmax_d1": 19.2, "tmax_d2": 16.6, "tmax_d3": 18.4, "tmax_d4": 20.0, "tmax_d5": 20.6, "tmax_d6": 22.2, "tmin_d0": 7.0, "tmin_d1": 5.7, "tmin_d2": 5.3, "tmin_d3": 8.3, "tmin_d4": 8.2, "tmin_d5": 9.9, "tmin_d6": 10.9, "day_of_year": 259, "uuid": "ae6d096f-025d-452d-8a62-7690b345f0d0", "inat_id": 315323481}}]}