{"type": "FeatureCollection", "features": [{"type": "Feature", "geometry": {"type": "Point", "coordinates": [-106.9142550432, 38.9510724739]}, "properties": {"species": "Clitocybe violaceifolia", "date": "2025-09-21", "location": "Gunnison County, US-CO, US", "elevation": 3681.0, "num_identification_agreements": 1, "tavg": null, "tmin": 7.0, "tmax": 21.0, "day_of_year": 264, "uuid": "6194b11a-728c-4fa8-8902-93d34cfb64b9", "inat_id": 315687920}}, {"type": "Feature", "geometry": {"type": "Point", "coordinates": [-106.2130282751, 35.9963771145]}, "properties": {"species": "Clitocybe violaceifolia", "date": "2025-09-12", "location": "New Mexico, US", "elevation": 2073.0, "num_identification_agreements": 1, "tavg": null, "tmin": 13.0, "tmax": 25.0, "day_of_year": 255, "uuid": "1e113789-f5a4-49b8-97a1-8d3bbc4d697d", "inat_id": 313431000}}, {"type": "Feature", "geometry": {"type": "Point", "coordinates": [-105.65489167, 35.84157222]}, "properties": {"species": "Clitocybe violaceifolia", "date": "2025-08-30", "location": "San Miguel, New Mexico, United States", "elevation": 2723.0, "num_identification_agreements": 1, "tavg": null, "tmin": 12.0, "tmax": 28.0, "day_of_year": 242, "uuid": "9e075fb6-9c2c-440c-8b8d-a2a8e1078cfd", "inat_id": 310333417}}, {"type": "Feature", "geometry": {"type": "Point", "coordinates": [-107.844735, 37.94306]}, "properties": {"species": "Clitocybe violaceifolia", "date": "2024-08-21", "location": "Mountain Village, CO 81435, USA", "elevation": 2720.0, "num_identification_agreements": 2, "tavg": null, "tmin": 11.0, "tmax": 22.0, "day_of_year": 234, "uuid": "dd35abe2-3468-45fe-b46d-5a584e944129", "inat_id": 237106094}}, {"type": "Feature", "geometry": {"type": "Point", "coordinates": [-107.8039767221, 37.9346937458]}, "properties": {"species": "Clitocybe violaceifolia", "date": "2024-08-17", "location": "Telluride, CO 81435, USA", "elevation": 2678.0, "num_identification_agreements": 1, "tavg": null, "tmin": 12.0, "tmax": 23.0, "day_of_year": 230, "uuid": "7a94fe15-ff23-4dfd-ab74-cbd1bdf7571b", "inat_id": 236404935}}, {"type": "Feature", "geometry": {"type": "Point", "coordinates": [-107.8045966667, 37.92918]}, "properties": {"species": "Clitocybe violaceifolia", "date": "2024-08-14", "location": "Grand Mesa Uncompahgre and Gunnison National Forests, Telluride, CO, US", "elevation": 2751.0, "num_identification_agreements": 1, "tavg": null, "tmin": 9.0, "tmax": 20.0, "day_of_year": 227, "uuid": "d001a2ab-a6c2-4ad8-a803-77b96c7c2a22", "inat_id": 236097923}}, {"type": "Feature", "geometry": {"type": "Point", "coordinates": [-107.8100366667, 37.9338583333]}, "properties": {"species": "Clitocybe violaceifolia", "date": "2024-08-14", "location": "Grand Mesa Uncompahgre and Gunnison National Forests, Telluride, CO, US", "elevation": 2667.0, "num_identification_agreements": 1, "tavg": null, "tmin": 9.0, "tmax": 20.0, "day_of_year": 227, "uuid": "d3e64561-8736-4cff-94de-dec45d94c564", "inat_id": 235892868}}, {"type": "Feature", "geometry": {"type": "Point", "coordinates": [-107.8049383333, 37.9345633333]}, "properties": {"species": "Clitocybe violaceifolia", "date": "2024-08-14", "location": "Grand Mesa Uncompahgre and Gunnison National Forests, Telluride, CO, US", "elevation": 2682.0, "num_identification_agreements": 1, "tavg": null, "tmin": 9.0, "tmax": 20.0, "day_of_year": 227, "uuid": "deeb6c34-959e-4925-bdd1-1e3ef2b1f2fc", "inat_id": 235850682}}, {"type": "Feature", "geometry": {"type": "Point", "coordinates": [-105.1631365073, 38.0477746905]}, "properties": {"species": "Clitocybe violaceifolia", "date": "2024-08-02", "location": "Colorado, US", "elevation": 3142.0, "num_identification_agreements": 2, "tavg": null, "tmin": 20.2, "tmax": 36.1, "day_of_year": 215, "uuid": "e620673f-64e3-4432-8b07-741817426906", "inat_id": 233880069}}]}