{"type": "FeatureCollection", "features": [{"type": "Feature", "geometry": {"type": "Point", "coordinates": [-107.9075616667, 37.8297583333]}, "properties": {"species": "Clitocybe glacialis", "date": "2026-06-06", "location": "Lizard Head Trail, Telluride, CO, US", "elevation": 3461.0, "num_identification_agreements": 1, "tavg": null, "tmin": 10.0, "tmax": 22.0, "day_of_year": 157, "uuid": "585a8066-18f4-43b5-9ea3-afdaf9332b4c", "inat_id": 372700625}}, {"type": "Feature", "geometry": {"type": "Point", "coordinates": [-107.9069055556, 37.8302333333]}, "properties": {"species": "Clitocybe glacialis", "date": "2026-06-06", "location": "San Miguel County, CO, USA", "elevation": 3461.0, "num_identification_agreements": 2, "tavg": null, "tmin": 10.0, "tmax": 22.0, "day_of_year": 157, "uuid": "3e4eca9e-ddbb-4485-8754-f0a74329ed59", "inat_id": 370337973}}, {"type": "Feature", "geometry": {"type": "Point", "coordinates": [-106.3106583333, 41.3359361111]}, "properties": {"species": "Clitocybe glacialis", "date": "2026-06-06", "location": "Centennial, WY 82055, USA", "elevation": 3200.0, "num_identification_agreements": 1, "tavg": null, "tmin": 9.0, "tmax": 31.0, "day_of_year": 157, "uuid": "ab3ec4bc-43b7-4bf8-ad39-2e6b5c7b5272", "inat_id": 369159860}}, {"type": "Feature", "geometry": {"type": "Point", "coordinates": [-105.5643680022, 40.0381198038]}, "properties": {"species": "Clitocybe glacialis", "date": "2026-06-04", "location": "Boulder County, US-CO, US", "elevation": 3189.0, "num_identification_agreements": 1, "tavg": null, "tmin": 12.0, "tmax": 32.0, "day_of_year": 155, "uuid": "2c3cb944-afb7-4fc0-b1ed-5e226db130e2", "inat_id": 368743335}}, {"type": "Feature", "geometry": {"type": "Point", "coordinates": [-107.1123257762, 38.8203217033]}, "properties": {"species": "Clitocybe glacialis", "date": "2026-05-31", "location": "Gunnison County, US-CO, US", "elevation": 3580.0, "num_identification_agreements": 1, "tavg": null, "tmin": 0.6, "tmax": 21.7, "day_of_year": 151, "uuid": "70eef124-81ef-47b4-8fb7-9820541ce045", "inat_id": 367237447}}, {"type": "Feature", "geometry": {"type": "Point", "coordinates": [-105.5346908794, 40.0798548271]}, "properties": {"species": "Clitocybe glacialis", "date": "2026-05-30", "location": "Sourdough Trail, Ward, CO, US", "elevation": 3074.0, "num_identification_agreements": 1, "tavg": null, "tmin": 12.0, "tmax": 24.0, "day_of_year": 150, "uuid": "812b9acd-89c7-4919-ab94-edc14363990b", "inat_id": 366900696}}, {"type": "Feature", "geometry": {"type": "Point", "coordinates": [-107.72642, 37.7657033333]}, "properties": {"species": "Clitocybe glacialis", "date": "2026-05-24", "location": "San Juan National Forest - Headquarters, Silverton, CO, US", "elevation": 3514.0, "num_identification_agreements": 1, "tavg": null, "tmin": 4.0, "tmax": 16.0, "day_of_year": 144, "uuid": "bd3608ed-5eca-4646-98b6-8d94772f3bdb", "inat_id": 364867092}}, {"type": "Feature", "geometry": {"type": "Point", "coordinates": [-107.7673866667, 37.7572666667]}, "properties": {"species": "Clitocybe glacialis", "date": "2026-05-11", "location": "San Juan National Forest - Headquarters, Silverton, CO, US", "elevation": 3197.0, "num_identification_agreements": 1, "tavg": null, "tmin": 3.0, "tmax": 20.0, "day_of_year": 131, "uuid": "c0233d9f-cc60-47cb-9025-b5fff49ab9e4", "inat_id": 361526550}}, {"type": "Feature", "geometry": {"type": "Point", "coordinates": [-106.6138937, 40.5784520997]}, "properties": {"species": "Clitocybe glacialis", "date": "2026-04-25", "location": "Walden, CO 80430, USA", "elevation": 2721.0, "num_identification_agreements": 1, "tavg": null, "tmin": 0.6, "tmax": 13.2, "day_of_year": 115, "uuid": "02887616-0097-4249-bad8-488b0804e2f5", "inat_id": 356858557}}, {"type": "Feature", "geometry": {"type": "Point", "coordinates": [-104.9904132335, 38.7791054581]}, "properties": {"species": "Clitocybe glacialis", "date": "2025-09-05", "location": "Colorado, US", "elevation": 3628.0, "num_identification_agreements": 1, "tavg": null, "tmin": 7.0, "tmax": 17.0, "day_of_year": 248, "uuid": "c823f8bf-15f7-4cfb-afe1-c80fb5c1691f", "inat_id": 311838445}}]}