{"type": "FeatureCollection", "features": [{"type": "Feature", "geometry": {"type": "Point", "coordinates": [-105.79956111, 35.79956944]}, "properties": {"species": "Clitocybe amarescens", "date": "2025-09-11", "location": "Santa Fe, New Mexico, United States", "elevation": 3249.0, "num_identification_agreements": 2, "tavg": null, "tmin": 13.0, "tmax": 28.0, "day_of_year": 254, "uuid": "0afd68e2-f8f8-4bf9-95c7-12de31aae068", "inat_id": 313335308}}, {"type": "Feature", "geometry": {"type": "Point", "coordinates": [-105.80177222, 35.79785556]}, "properties": {"species": "Clitocybe amarescens", "date": "2025-09-08", "location": "Santa Fe, New Mexico, United States", "elevation": 3166.0, "num_identification_agreements": 1, "tavg": null, "tmin": 9.0, "tmax": 28.0, "day_of_year": 251, "uuid": "a19f712d-851f-4fe0-8c86-8821f971ce27", "inat_id": 312804009}}]}