{"type": "FeatureCollection", "features": [{"type": "Feature", "geometry": {"type": "Point", "coordinates": [-108.0625968832, 37.6350495991]}, "properties": {"species": "Collybia irina", "date": "2024-08-17", "location": "Montezuma County, US-CO, US", "elevation": 2643.0, "land_cover_label": "Tree cover", "water_mask": false, "exclude_reason": "keep", "ndvi": null, "soil_moisture": null, "solar_exposure": null, "wind_exposure": null, "water_retention": null, "slope": null, "aspect": null, "num_identification_agreements": 2, "cluster": 0, "tavg": null, "tmin": 12.0, "tmax": 23.0, "prcp_d0": 0.0, "prcp_d1": 0.0, "prcp_d2": 0.0, "prcp_d3": 0.0, "prcp_d4": 0.0, "prcp_d5": 0.0, "prcp_d6": 0.0, "tmax_d0": null, "tmax_d1": null, "tmax_d2": null, "tmax_d3": null, "tmax_d4": null, "tmax_d5": null, "tmax_d6": null, "tmin_d0": null, "tmin_d1": null, "tmin_d2": null, "tmin_d3": null, "tmin_d4": null, "tmin_d5": null, "tmin_d6": null, "day_of_year": 230, "uuid": "3905a4a2-c089-40fc-8542-83584909763f", "inat_id": 236336858}}, {"type": "Feature", "geometry": {"type": "Point", "coordinates": [-104.9155242741, 38.6696882642]}, "properties": {"species": "Collybia irina", "date": "2025-08-30", "location": "Rock Creek, Colorado Springs, CO, USA", "elevation": 2323.0, "land_cover_label": "Tree cover", "water_mask": false, "exclude_reason": "keep", "ndvi": null, "soil_moisture": null, "solar_exposure": null, "wind_exposure": null, "water_retention": null, "slope": null, "aspect": null, "num_identification_agreements": 1, "cluster": 1, "tavg": null, "tmin": 11.3, "tmax": 19.3, "prcp_d0": 0.0, "prcp_d1": 0.0, "prcp_d2": 0.0, "prcp_d3": 0.0, "prcp_d4": 38.88398742675781, "prcp_d5": 6.936223030090332, "prcp_d6": 13.872446060180664, "tmax_d0": null, "tmax_d1": null, "tmax_d2": null, "tmax_d3": null, "tmax_d4": null, "tmax_d5": null, "tmax_d6": null, "tmin_d0": null, "tmin_d1": null, "tmin_d2": null, "tmin_d3": null, "tmin_d4": null, "tmin_d5": null, "tmin_d6": null, "day_of_year": 242, "uuid": "b6d444dd-53dd-4cf0-bf12-bd9298c84426", "inat_id": 310393710}}, {"type": "Feature", "geometry": {"type": "Point", "coordinates": [-105.5019073333, 39.4061355556]}, "properties": {"species": "Collybia irina", "date": "2025-09-07", "location": "Bailey, CO 80421, USA", "elevation": 2440.0, "land_cover_label": "Tree cover", "water_mask": false, "exclude_reason": "keep", "ndvi": null, "soil_moisture": 0.3662916317739935, "solar_exposure": 0.809290885925293, "wind_exposure": 0.2598201930522918, "water_retention": 0.2562251389026642, "slope": 2.8259780406951904, "aspect": 351.7441101074219, "num_identification_agreements": 2, "cluster": 0, "tavg": null, "tmin": 1.8, "tmax": 15.6, "prcp_d0": 0.0, "prcp_d1": 0.0, "prcp_d2": 0.0, "prcp_d3": 0.0, "prcp_d4": 0.0, "prcp_d5": 0.0, "prcp_d6": 0.0, "tmax_d0": null, "tmax_d1": null, "tmax_d2": null, "tmax_d3": null, "tmax_d4": null, "tmax_d5": null, "tmax_d6": null, "tmin_d0": null, "tmin_d1": null, "tmin_d2": null, "tmin_d3": null, "tmin_d4": null, "tmin_d5": null, "tmin_d6": null, "day_of_year": 250, "uuid": "f8f723f4-65d0-46a3-acb1-e7c7c7f735ff", "inat_id": 312307550}}, {"type": "Feature", "geometry": {"type": "Point", "coordinates": [-105.5024871667, 39.4052314722]}, "properties": {"species": "Collybia irina", "date": "2025-09-07", "location": "Bailey, CO 80421, USA", "elevation": 2444.0, "land_cover_label": "Tree cover", "water_mask": false, "exclude_reason": "keep", "ndvi": null, "soil_moisture": 0.3661397629604452, "solar_exposure": 0.7894493341445923, "wind_exposure": 0.2621654570102691, "water_retention": 0.5660014748573303, "slope": 5.416367530822754, "aspect": 36.73094177246094, "num_identification_agreements": 1, "cluster": 2, "tavg": null, "tmin": 1.8, "tmax": 15.6, "prcp_d0": 0.0, "prcp_d1": 0.0, "prcp_d2": 0.0, "prcp_d3": 0.0, "prcp_d4": 0.0, "prcp_d5": 0.0, "prcp_d6": 0.0, "tmax_d0": null, "tmax_d1": null, "tmax_d2": null, "tmax_d3": null, "tmax_d4": null, "tmax_d5": null, "tmax_d6": null, "tmin_d0": null, "tmin_d1": null, "tmin_d2": null, "tmin_d3": null, "tmin_d4": null, "tmin_d5": null, "tmin_d6": null, "day_of_year": 250, "uuid": "6b940238-5a3c-43c0-8a45-ace77c728bba", "inat_id": 312292501}}, {"type": "Feature", "geometry": {"type": "Point", "coordinates": [-105.5290611111, 36.1305777778]}, "properties": {"species": "Collybia irina", "date": "2026-07-31", "location": "Taos County, NM, USA", "elevation": 2623.0, "land_cover_label": "Tree cover", "water_mask": false, "exclude_reason": "keep", "ndvi": null, "soil_moisture": null, "solar_exposure": null, "wind_exposure": null, "water_retention": null, "slope": null, "aspect": null, "num_identification_agreements": 1, "cluster": 0, "tavg": null, "tmin": 16.8, "tmax": 31.6, "prcp_d0": 0.0, "prcp_d1": 0.0, "prcp_d2": 8.403246879577637, "prcp_d3": 8.403246879577637, "prcp_d4": 4.201623439788818, "prcp_d5": 0.0, "prcp_d6": 18.635093688964844, "tmax_d0": null, "tmax_d1": null, "tmax_d2": null, "tmax_d3": null, "tmax_d4": null, "tmax_d5": null, "tmax_d6": null, "tmin_d0": null, "tmin_d1": null, "tmin_d2": null, "tmin_d3": null, "tmin_d4": null, "tmin_d5": null, "tmin_d6": null, "day_of_year": 212, "uuid": "be362eea-b425-483d-9323-21da8184ee47", "inat_id": 386981300}}]}