{"type": "FeatureCollection", "features": [{"type": "Feature", "geometry": {"type": "Point", "coordinates": [-105.8078405634, 39.4836822654]}, "properties": {"species": "Coltricia perennis", "date": "2020-07-30", "location": "Montezuma, CO 80435, USA", "elevation": 3036.0, "land_cover_label": "Tree cover", "water_mask": false, "exclude_reason": "keep", "ndvi": null, "soil_moisture": 0.3792022398853588, "solar_exposure": 0.8794224262237549, "wind_exposure": 0.15607950091362, "water_retention": 0.468707263469696, "slope": 4.709860324859619, "aspect": 148.9220428466797, "num_identification_agreements": 1, "cluster": 2, "tavg": null, "tmin": null, "tmax": null, "prcp_d0": 0.0, "prcp_d1": 0.0, "prcp_d2": 0.0, "prcp_d3": 0.0, "prcp_d4": 28.583158493041992, "prcp_d5": 0.0, "prcp_d6": 0.0, "tmax_d0": null, "tmax_d1": null, "tmax_d2": null, "tmax_d3": null, "tmax_d4": null, "tmax_d5": null, "tmax_d6": null, "tmin_d0": null, "tmin_d1": null, "tmin_d2": null, "tmin_d3": null, "tmin_d4": null, "tmin_d5": null, "tmin_d6": null, "day_of_year": 212, "uuid": "13cdd223-5970-4e26-bdee-e358b3e8e5ea", "inat_id": 55003999}}, {"type": "Feature", "geometry": {"type": "Point", "coordinates": [-106.5723716667, 35.7743633333]}, "properties": {"species": "Coltricia perennis", "date": "2024-08-10", "location": "Santa Fe National Forest, Jemez Springs, NM, US", "elevation": 2625.0, "land_cover_label": "Tree cover", "water_mask": false, "exclude_reason": "keep", "ndvi": null, "soil_moisture": null, "solar_exposure": null, "wind_exposure": null, "water_retention": null, "slope": null, "aspect": null, "num_identification_agreements": 1, "cluster": 0, "tavg": null, "tmin": 15.5, "tmax": 22.0, "prcp_d0": 0.0, "prcp_d1": 2.8633973598480225, "prcp_d2": 8.590191841125488, "prcp_d3": 0.0, "prcp_d4": 0.0, "prcp_d5": 0.0, "prcp_d6": 6.97019100189209, "tmax_d0": null, "tmax_d1": null, "tmax_d2": null, "tmax_d3": null, "tmax_d4": null, "tmax_d5": null, "tmax_d6": null, "tmin_d0": null, "tmin_d1": null, "tmin_d2": null, "tmin_d3": null, "tmin_d4": null, "tmin_d5": null, "tmin_d6": null, "day_of_year": 223, "uuid": "e6c32f31-7dee-4528-873c-6af662a8ffce", "inat_id": 235021851}}]}