{"type": "FeatureCollection", "features": [{"type": "Feature", "geometry": {"type": "Point", "coordinates": [-104.8966533333, 38.734045]}, "properties": {"species": "Coprinellus disseminatus", "date": "2026-05-17", "location": "Old Stage Rd, Colorado Springs, CO, US", "elevation": 2616.0, "num_identification_agreements": 1, "tavg": null, "tmin": 9.0, "tmax": 19.0, "day_of_year": 137, "uuid": "c6c0500e-b0cd-46bb-998f-8a6c5a49641a", "inat_id": 363884036}}, {"type": "Feature", "geometry": {"type": "Point", "coordinates": [-105.0252311087, 39.5109914534]}, "properties": {"species": "Coprinellus disseminatus", "date": "2025-05-10", "location": "Littleton, CO, US", "elevation": 1685.0, "num_identification_agreements": 1, "tavg": null, "tmin": 6.7, "tmax": 23.9, "day_of_year": 130, "uuid": "9801155e-8ad7-4cbe-929f-58c11fb67c52", "inat_id": 286629632}}, {"type": "Feature", "geometry": {"type": "Point", "coordinates": [-105.0338856706, 39.5218387923]}, "properties": {"species": "Coprinellus disseminatus", "date": "2025-05-11", "location": "Chatfield State Park, Littleton, CO, US", "elevation": 1679.0, "num_identification_agreements": 1, "tavg": null, "tmin": 10.0, "tmax": 26.7, "day_of_year": 131, "uuid": "f95975b5-1612-47b2-ba78-c2d4a3d58d26", "inat_id": 282151802}}, {"type": "Feature", "geometry": {"type": "Point", "coordinates": [-105.0805666667, 40.5799966667]}, "properties": {"species": "Coprinellus disseminatus", "date": "2023-09-18", "location": "S Howes St, Fort Collins, CO, US", "elevation": 1528.0, "num_identification_agreements": 1, "tavg": null, "tmin": 12.8, "tmax": 28.9, "day_of_year": 261, "uuid": "5e5381e4-a3c3-4ace-a3c5-387ebe8e9e52", "inat_id": 186920690}}, {"type": "Feature", "geometry": {"type": "Point", "coordinates": [-104.9998397827, 39.7221679688]}, "properties": {"species": "Coprinellus disseminatus", "date": "2023-06-06", "location": "Denver", "elevation": 1604.0, "num_identification_agreements": 1, "tavg": null, "tmin": 11.4, "tmax": 23.7, "day_of_year": 157, "uuid": "ea8ab403-51d7-4aac-a773-2472b3cd3c28", "inat_id": 165987601}}]}