{"type": "FeatureCollection", "features": [{"type": "Feature", "geometry": {"type": "Point", "coordinates": [-121.965788193, 45.6365594019]}, "properties": {"species": "Coprinopsis friesii", "date": "2021-05-25", "location": "North Bonneville, WA, USA", "elevation": 10.0, "land_cover_label": "Tree cover", "water_mask": false, "exclude_reason": "keep", "ndvi": null, "soil_moisture": null, "solar_exposure": null, "wind_exposure": null, "water_retention": null, "slope": null, "aspect": null, "num_identification_agreements": 1, "cluster": 0, "tavg": null, "tmin": 13.3, "tmax": 16.1, "prcp_d0": 6.305562496185303, "prcp_d1": 0.0, "prcp_d2": 0.0, "prcp_d3": 0.0, "prcp_d4": 0.0, "prcp_d5": 6.549310207366943, "prcp_d6": 0.0, "tmax_d0": 17.9, "tmax_d1": 16.0, "tmax_d2": 16.7, "tmax_d3": 20.2, "tmax_d4": 18.8, "tmax_d5": 14.8, "tmax_d6": 16.0, "tmin_d0": 11.1, "tmin_d1": 10.4, "tmin_d2": 7.9, "tmin_d3": 8.8, "tmin_d4": 8.4, "tmin_d5": 6.3, "tmin_d6": 4.9, "day_of_year": 145, "uuid": "2441882e-2932-40b5-a398-618f68782bc1", "inat_id": 80216077}}]}