{"type": "FeatureCollection", "features": [{"type": "Feature", "geometry": {"type": "Point", "coordinates": [-104.8950416667, 39.6286916667]}, "properties": {"species": "Coprinopsis atramentaria", "date": "2026-05-21", "location": "E Union Ave, Denver, CO, US", "elevation": 1717.0, "num_identification_agreements": 1, "tavg": null, "tmin": 4.4, "tmax": 20.0, "day_of_year": 141, "uuid": "f8267899-2142-4edc-822a-cd94f04f1b7f", "inat_id": 367619675}}, {"type": "Feature", "geometry": {"type": "Point", "coordinates": [-110.1482199335, 39.752948483]}, "properties": {"species": "Coprinopsis atramentaria", "date": "2026-05-19", "location": "Utah, US", "elevation": 2096.0, "num_identification_agreements": 1, "tavg": null, "tmin": null, "tmax": null, "day_of_year": 139, "uuid": "4007528f-a312-4b8e-a236-e0727f608a99", "inat_id": 365296499}}, {"type": "Feature", "geometry": {"type": "Point", "coordinates": [-105.1073058721, 40.546288054]}, "properties": {"species": "Coprinopsis atramentaria", "date": "2026-05-22", "location": "Dunbar Ave, Fort Collins, CO, US", "elevation": 1552.0, "num_identification_agreements": 1, "tavg": null, "tmin": 3.3, "tmax": 20.6, "day_of_year": 142, "uuid": "68c86e06-e97f-40fb-9aba-5de8182c0ea3", "inat_id": 364145509}}, {"type": "Feature", "geometry": {"type": "Point", "coordinates": [-104.8253466667, 38.8537366667]}, "properties": {"species": "Coprinopsis atramentaria", "date": "2025-10-11", "location": "Wood Ave, Colorado Springs, CO, US", "elevation": 1856.0, "num_identification_agreements": 1, "tavg": null, "tmin": 11.0, "tmax": 24.0, "day_of_year": 284, "uuid": "c609cf44-c42b-45f6-a91c-03480a913d9a", "inat_id": 363748113}}, {"type": "Feature", "geometry": {"type": "Point", "coordinates": [-105.1054221667, 40.1379805]}, "properties": {"species": "Coprinopsis atramentaria", "date": "2026-05-09", "location": "Pike Rd, Longmont, CO, US", "elevation": 1524.0, "num_identification_agreements": 1, "tavg": null, "tmin": 6.6, "tmax": 24.1, "day_of_year": 129, "uuid": "c54582f4-a765-4efd-97ae-02c436270d8f", "inat_id": 360031567}}, {"type": "Feature", "geometry": {"type": "Point", "coordinates": [-104.830785, 41.1579666667]}, "properties": {"species": "Coprinopsis atramentaria", "date": "2026-05-03", "location": "Cheyenne, WY, USA", "elevation": 1872.0, "num_identification_agreements": 1, "tavg": null, "tmin": 3.9, "tmax": 20.6, "day_of_year": 123, "uuid": "ea00219f-ce5c-4654-8590-6672f8bf9182", "inat_id": 358103542}}, {"type": "Feature", "geometry": {"type": "Point", "coordinates": [-105.1367945, 39.55022]}, "properties": {"species": "Coprinopsis atramentaria", "date": "2026-05-03", "location": "W Deer Creek Canyon Rd, Littleton, CO, US", "elevation": 1766.0, "num_identification_agreements": 1, "tavg": null, "tmin": 4.5, "tmax": 21.1, "day_of_year": 123, "uuid": "b92f5874-c899-401d-bd1f-c5cf81f82caf", "inat_id": 358081300}}, {"type": "Feature", "geometry": {"type": "Point", "coordinates": [-105.0874843821, 39.8027317912]}, "properties": {"species": "Coprinopsis atramentaria", "date": "2026-05-02", "location": "W 58th Ave & Allison St, Arvada, CO 80004, USA", "elevation": 1630.0, "num_identification_agreements": 1, "tavg": null, "tmin": 2.2, "tmax": 21.0, "day_of_year": 122, "uuid": "a02d7314-fdd2-4574-9763-e36244a35d10", "inat_id": 357715719}}, {"type": "Feature", "geometry": {"type": "Point", "coordinates": [-105.0561523438, 40.5403022766]}, "properties": {"species": "Coprinopsis atramentaria", "date": "2026-04-29", "location": "Fort Collins", "elevation": 1520.0, "num_identification_agreements": 1, "tavg": null, "tmin": 3.0, "tmax": 15.0, "day_of_year": 119, "uuid": "ad4d6948-ae4a-4272-9cd0-03ac7e0537d9", "inat_id": 356652052}}, {"type": "Feature", "geometry": {"type": "Point", "coordinates": [-105.0770333333, 40.565445]}, "properties": {"species": "Coprinopsis atramentaria", "date": "2025-11-18", "location": "S College Ave, Fort Collins, CO, US", "elevation": 1526.0, "num_identification_agreements": 1, "tavg": null, "tmin": 4.0, "tmax": 18.0, "day_of_year": 322, "uuid": "254965de-2638-4805-ad97-b6655b328c92", "inat_id": 327157856}}, {"type": "Feature", "geometry": {"type": "Point", "coordinates": [-109.5864116667, 38.5536616667]}, "properties": {"species": "Coprinopsis atramentaria", "date": "2025-11-09", "location": "Grand County, US-UT, US", "elevation": 1261.0, "num_identification_agreements": 1, "tavg": null, "tmin": 1.0, "tmax": 16.0, "day_of_year": 313, "uuid": "4dd7c740-0364-4f35-8292-e9d45e8d4043", "inat_id": 325993711}}, {"type": "Feature", "geometry": {"type": "Point", "coordinates": [-105.0833055, 40.5709833333]}, "properties": {"species": "Coprinopsis atramentaria", "date": "2025-09-19", "location": "Colorado State University, Fort Collins, CO, US", "elevation": 1531.0, "num_identification_agreements": 1, "tavg": null, "tmin": 8.0, "tmax": 27.0, "day_of_year": 262, "uuid": "fd631bc2-85cf-4c18-98c9-fa5d4d82324f", "inat_id": 315078123}}, {"type": "Feature", "geometry": {"type": "Point", "coordinates": [-105.8345777778, 35.7466944444]}, "properties": {"species": "Coprinopsis atramentaria", "date": "2025-09-14", "location": "Santa Fe, NM 87501, USA", "elevation": 2709.0, "num_identification_agreements": 1, "tavg": null, "tmin": 7.0, "tmax": 24.0, "day_of_year": 257, "uuid": "4ef93a8b-e6e0-4b95-a4f1-3e4ea92f7fcf", "inat_id": 314034463}}, {"type": "Feature", "geometry": {"type": "Point", "coordinates": [-105.0963897705, 39.6876907349]}, "properties": {"species": "Coprinopsis atramentaria", "date": "2025-08-27", "location": "Lakewood", "elevation": 1708.0, "num_identification_agreements": 1, "tavg": null, "tmin": 14.8, "tmax": 24.1, "day_of_year": 239, "uuid": "58ff1177-cb4e-4599-9833-300ab09647de", "inat_id": 309625900}}, {"type": "Feature", "geometry": {"type": "Point", "coordinates": [-107.7527083333, 38.0608721667]}, "properties": {"species": "Coprinopsis atramentaria", "date": "2025-07-31", "location": "Ridgway, CO, US", "elevation": 2844.0, "num_identification_agreements": 1, "tavg": null, "tmin": 12.0, "tmax": 22.0, "day_of_year": 212, "uuid": "087fd35d-b910-4d9e-bbed-29d0074d0b44", "inat_id": 302715515}}, {"type": "Feature", "geometry": {"type": "Point", "coordinates": [-105.1021196489, 39.6303165764]}, "properties": {"species": "Coprinopsis atramentaria", "date": "2025-05-26", "location": "Marston, Denver, CO, USA", "elevation": 1720.0, "num_identification_agreements": 2, "tavg": null, "tmin": 7.2, "tmax": 15.6, "day_of_year": 146, "uuid": "17af0ebb-e338-42ee-8b54-8a3a665e4459", "inat_id": 284467004}}, {"type": "Feature", "geometry": {"type": "Point", "coordinates": [-105.0923471667, 40.5696833333]}, "properties": {"species": "Coprinopsis atramentaria", "date": "2025-04-24", "location": "W Lake St, Fort Collins, CO, US", "elevation": 1532.0, "num_identification_agreements": 1, "tavg": null, "tmin": 6.1, "tmax": 17.2, "day_of_year": 114, "uuid": "dbaacdca-9254-4bcb-ab11-9a19b9f20d0c", "inat_id": 279228263}}, {"type": "Feature", "geometry": {"type": "Point", "coordinates": [-105.1478926, 40.1697231997]}, "properties": {"species": "Coprinopsis atramentaria", "date": "2025-05-01", "location": "Longmont, CO, USA", "elevation": 1533.0, "num_identification_agreements": 1, "tavg": null, "tmin": 6.6, "tmax": 18.2, "day_of_year": 121, "uuid": "cd617053-79e5-4a50-b041-5c29a5325171", "inat_id": 277749484}}, {"type": "Feature", "geometry": {"type": "Point", "coordinates": [-107.4921303225, 38.9366927198]}, "properties": {"species": "Coprinopsis atramentaria", "date": "2025-04-29", "location": "Colorado, US", "elevation": 2007.0, "num_identification_agreements": 1, "tavg": null, "tmin": null, "tmax": null, "day_of_year": 119, "uuid": "04a1ad95-89a8-4987-b1ac-7b0ab2ffac3b", "inat_id": 277360724}}, {"type": "Feature", "geometry": {"type": "Point", "coordinates": [-105.1139277778, 39.9886777778]}, "properties": {"species": "Coprinopsis atramentaria", "date": "2025-04-12", "location": "Lafayette, CO, USA", "elevation": 1616.0, "num_identification_agreements": 1, "tavg": null, "tmin": 6.6, "tmax": 28.8, "day_of_year": 102, "uuid": "f7688f22-9213-497a-8f1b-5452d284b82e", "inat_id": 270272150}}, {"type": "Feature", "geometry": {"type": "Point", "coordinates": [-103.2249984741, 44.0872497559]}, "properties": {"species": "Coprinopsis atramentaria", "date": "2024-11-13", "location": "Rapid City", "elevation": 984.0, "num_identification_agreements": 1, "tavg": null, "tmin": 3.0, "tmax": 12.0, "day_of_year": 318, "uuid": "64a2a5b1-be12-4041-8ca2-088dbce92158", "inat_id": 251596060}}, {"type": "Feature", "geometry": {"type": "Point", "coordinates": [-105.0192267997, 40.4113449]}, "properties": {"species": "Coprinopsis atramentaria", "date": "2024-10-19", "location": "Centerra, Loveland, CO, USA", "elevation": 1517.0, "num_identification_agreements": 1, "tavg": null, "tmin": 6.1, "tmax": 15.6, "day_of_year": 293, "uuid": "7dc72240-1660-46d5-bc09-be941414b3a0", "inat_id": 249411376}}, {"type": "Feature", "geometry": {"type": "Point", "coordinates": [-105.9389401042, 35.7213920501]}, "properties": {"species": "Coprinopsis atramentaria", "date": "2024-09-29", "location": "New Mexico, US", "elevation": 2212.0, "num_identification_agreements": 1, "tavg": null, "tmin": 12.8, "tmax": 29.4, "day_of_year": 273, "uuid": "7bf4e927-8909-4b4e-9226-8f15b298ab1c", "inat_id": 245011658}}, {"type": "Feature", "geometry": {"type": "Point", "coordinates": [-105.0714861667, 40.0393471667]}, "properties": {"species": "Coprinopsis atramentaria", "date": "2024-09-13", "location": "Gordon Dr, Erie, CO, US", "elevation": 1567.0, "num_identification_agreements": 1, "tavg": null, "tmin": 8.9, "tmax": 27.5, "day_of_year": 257, "uuid": "b66948b1-a4c8-4f51-bf5c-3423feda2e08", "inat_id": 241663822}}, {"type": "Feature", "geometry": {"type": "Point", "coordinates": [-106.3739866667, 42.808425]}, "properties": {"species": "Coprinopsis atramentaria", "date": "2024-09-12", "location": "Fox, Casper, WY, US", "elevation": 1607.0, "num_identification_agreements": 1, "tavg": null, "tmin": 10.0, "tmax": 26.1, "day_of_year": 256, "uuid": "a49e510d-e7f1-4ce0-be05-0cd121055f7e", "inat_id": 241304925}}, {"type": "Feature", "geometry": {"type": "Point", "coordinates": [-104.8791116667, 39.5789916667]}, "properties": {"species": "Coprinopsis atramentaria", "date": "2024-08-28", "location": "E Panorama Cir, Centennial, CO, US", "elevation": 1779.0, "num_identification_agreements": 1, "tavg": null, "tmin": 15.0, "tmax": 31.7, "day_of_year": 241, "uuid": "8d08be6c-d5b4-4753-a584-23aec1c8af04", "inat_id": 238538458}}, {"type": "Feature", "geometry": {"type": "Point", "coordinates": [-106.3555557747, 37.6862835512]}, "properties": {"species": "Coprinopsis atramentaria", "date": "2024-08-23", "location": "Alder St, Del Norte, CO, US", "elevation": 2407.0, "num_identification_agreements": 1, "tavg": null, "tmin": 12.0, "tmax": 25.0, "day_of_year": 236, "uuid": "4762261f-07dd-4f3c-b1d8-c18eb56a7b14", "inat_id": 237525394}}, {"type": "Feature", "geometry": {"type": "Point", "coordinates": [-107.8125833333, 37.8575883333]}, "properties": {"species": "Coprinopsis atramentaria", "date": "2024-08-14", "location": "San Miguel County, US-CO, US", "elevation": 3061.0, "num_identification_agreements": 1, "tavg": null, "tmin": 9.0, "tmax": 20.0, "day_of_year": 227, "uuid": "e271d133-bfe2-45a0-a0f7-97188cc4f382", "inat_id": 235815519}}, {"type": "Feature", "geometry": {"type": "Point", "coordinates": [-105.51630316, 36.67454733]}, "properties": {"species": "Coprinopsis atramentaria", "date": "2024-07-16", "location": "Red River, NM 87558, USA", "elevation": 2443.0, "num_identification_agreements": 1, "tavg": null, "tmin": 12.2, "tmax": 31.7, "day_of_year": 198, "uuid": "fa101daf-3938-4914-9b73-70cfe4d5b5c5", "inat_id": 229830187}}, {"type": "Feature", "geometry": {"type": "Point", "coordinates": [-105.0974095613, 39.8263045346]}, "properties": {"species": "Coprinopsis atramentaria", "date": "2024-05-11", "location": "Scenic Heights, Arvada, CO, USA", "elevation": 1693.0, "num_identification_agreements": 1, "tavg": null, "tmin": 5.0, "tmax": 17.0, "day_of_year": 132, "uuid": "cb9ea8f6-50e8-4b47-887f-eed804241599", "inat_id": 215169911}}, {"type": "Feature", "geometry": {"type": "Point", "coordinates": [-105.2192527154, 39.8084391021]}, "properties": {"species": "Coprinopsis atramentaria", "date": "2024-04-27", "location": "Colorado, US", "elevation": 1810.0, "num_identification_agreements": 2, "tavg": null, "tmin": 1.0, "tmax": 7.0, "day_of_year": 118, "uuid": "45c0f064-5496-439e-a50d-5512cac3d9df", "inat_id": 210562945}}, {"type": "Feature", "geometry": {"type": "Point", "coordinates": [-104.9496342, 39.9283564997]}, "properties": {"species": "Coprinopsis atramentaria", "date": "2024-04-27", "location": "Westminster, CO 80241, USA", "elevation": 1601.0, "num_identification_agreements": 1, "tavg": null, "tmin": 2.9, "tmax": 7.1, "day_of_year": 118, "uuid": "2e8b08dc-7719-4de4-8d46-79fcb3b054fd", "inat_id": 210508695}}, {"type": "Feature", "geometry": {"type": "Point", "coordinates": [-106.5770033333, 36.9081383333]}, "properties": {"species": "Coprinopsis atramentaria", "date": "2023-10-07", "location": "NM-17, Chama, NM, US", "elevation": 2406.0, "num_identification_agreements": 1, "tavg": null, "tmin": null, "tmax": null, "day_of_year": 280, "uuid": "cb181f4e-708d-4c24-8316-f5bf0e00427d", "inat_id": 208495375}}, {"type": "Feature", "geometry": {"type": "Point", "coordinates": [-105.1256632997, 39.5717873997]}, "properties": {"species": "Coprinopsis atramentaria", "date": "2023-07-09", "location": "Ken Caryl, CO, USA", "elevation": 1774.0, "num_identification_agreements": 1, "tavg": null, "tmin": 13.3, "tmax": 26.1, "day_of_year": 190, "uuid": "8aadef40-b10a-4fc7-9641-f374ecbdf8de", "inat_id": 172087542}}, {"type": "Feature", "geometry": {"type": "Point", "coordinates": [-105.4432525635, 36.5861473083]}, "properties": {"species": "Coprinopsis atramentaria", "date": "2022-08-27", "location": "Taos Ski Valley", "elevation": 2997.0, "num_identification_agreements": 1, "tavg": null, "tmin": 7.4, "tmax": 21.3, "day_of_year": 239, "uuid": "c288c9d9-6191-4523-8760-629de31a2821", "inat_id": 171278822}}, {"type": "Feature", "geometry": {"type": "Point", "coordinates": [-104.7387865, 40.4164904]}, "properties": {"species": "Coprinopsis atramentaria", "date": "2023-06-19", "location": "Bittersweet Park, 35th Ave & 16th St, Greeley, CO 80634, USA", "elevation": 1457.0, "num_identification_agreements": 1, "tavg": null, "tmin": 11.1, "tmax": 32.8, "day_of_year": 170, "uuid": "3747ee30-69fa-458b-9f3e-1b44c2ccc2e5", "inat_id": 168390097}}, {"type": "Feature", "geometry": {"type": "Point", "coordinates": [-104.753876, 38.8876287]}, "properties": {"species": "Coprinopsis atramentaria", "date": "2023-06-14", "location": "Colorado Springs, CO 80917, USA", "elevation": 1964.0, "num_identification_agreements": 1, "tavg": null, "tmin": 7.2, "tmax": 22.2, "day_of_year": 165, "uuid": "a93ed759-d5e5-4639-8202-f2248d11f48f", "inat_id": 167456950}}, {"type": "Feature", "geometry": {"type": "Point", "coordinates": [-104.6354630962, 38.5001802059]}, "properties": {"species": "Coprinopsis atramentaria", "date": "2022-06-02", "location": "81008", "elevation": 1600.0, "num_identification_agreements": 1, "tavg": null, "tmin": 7.6, "tmax": 18.2, "day_of_year": 153, "uuid": "f1ace209-9156-425a-bedc-2829d6bc0581", "inat_id": 166956287}}, {"type": "Feature", "geometry": {"type": "Point", "coordinates": [-104.99623, 39.6588966667]}, "properties": {"species": "Coprinopsis atramentaria", "date": "2023-05-12", "location": "W Eastman Ave, Englewood, CO, US", "elevation": 1614.0, "num_identification_agreements": 1, "tavg": null, "tmin": 7.2, "tmax": 14.4, "day_of_year": 132, "uuid": "c76015c6-26d5-4387-9d49-adbac0b78fcb", "inat_id": 161350736}}, {"type": "Feature", "geometry": {"type": "Point", "coordinates": [-105.0814328, 40.4213898]}, "properties": {"species": "Coprinopsis atramentaria", "date": "2022-10-13", "location": "Loveland, CO, USA", "elevation": 1532.0, "num_identification_agreements": 1, "tavg": null, "tmin": 2.2, "tmax": 20.0, "day_of_year": 286, "uuid": "53acf0c6-4bcc-44a3-b904-5c987673ea7d", "inat_id": 138645156}}, {"type": "Feature", "geometry": {"type": "Point", "coordinates": [-108.2721251336, 37.466787107]}, "properties": {"species": "Coprinopsis atramentaria", "date": "2022-10-04", "location": "Colorado, US", "elevation": 2573.0, "num_identification_agreements": 1, "tavg": null, "tmin": 4.0, "tmax": 22.0, "day_of_year": 277, "uuid": "e337ecb7-20c4-41af-8fd2-6294e64719bd", "inat_id": 137593554}}, {"type": "Feature", "geometry": {"type": "Point", "coordinates": [-107.811425, 37.9346166667]}, "properties": {"species": "Coprinopsis atramentaria", "date": "2022-08-18", "location": "near Beaver Pond, Telluride, CO 81435, USA", "elevation": 2674.0, "num_identification_agreements": 1, "tavg": null, "tmin": 9.0, "tmax": 23.0, "day_of_year": 230, "uuid": "b86f843a-cd26-4bc9-bcd4-a261fdbdbf94", "inat_id": 133166521}}, {"type": "Feature", "geometry": {"type": "Point", "coordinates": [-107.8114305556, 37.934625]}, "properties": {"species": "Coprinopsis atramentaria", "date": "2022-08-18", "location": "near Beaver Pond, Telluride, CO 81435, USA", "elevation": 2674.0, "num_identification_agreements": 1, "tavg": null, "tmin": 9.0, "tmax": 23.0, "day_of_year": 230, "uuid": "3821a709-9fa9-47da-b1ef-eb12a6ed194c", "inat_id": 133166520}}, {"type": "Feature", "geometry": {"type": "Point", "coordinates": [-105.1046916667, 39.983945]}, "properties": {"species": "Coprinopsis atramentaria", "date": "2022-08-28", "location": "Bacchus Dr, Lafayette, CO, US", "elevation": 1605.0, "num_identification_agreements": 1, "tavg": null, "tmin": 12.8, "tmax": 34.2, "day_of_year": 240, "uuid": "cccc7bbd-c1ed-478f-ba0c-b4d5e377dec3", "inat_id": 132595726}}, {"type": "Feature", "geometry": {"type": "Point", "coordinates": [-108.0644695, 37.7974666667]}, "properties": {"species": "Coprinopsis atramentaria", "date": "2022-08-16", "location": "San Juan National Forest headquarters, Dolores, CO, US", "elevation": 2847.0, "num_identification_agreements": 1, "tavg": null, "tmin": 11.0, "tmax": 17.0, "day_of_year": 228, "uuid": "4b0c344b-1540-4228-9ed8-afb2c173511a", "inat_id": 131164122}}, {"type": "Feature", "geometry": {"type": "Point", "coordinates": [-109.2695541382, 38.5141220093]}, "properties": {"species": "Coprinopsis atramentaria", "date": "2022-08-01", "location": "Grand County, US-UT, US", "elevation": 2904.0, "num_identification_agreements": 1, "tavg": null, "tmin": 21.1, "tmax": 34.4, "day_of_year": 213, "uuid": "0eded9a1-465d-4039-a580-285132392076", "inat_id": 129060826}}, {"type": "Feature", "geometry": {"type": "Point", "coordinates": [-106.3729083333, 39.73452]}, "properties": {"species": "Coprinopsis atramentaria", "date": "2022-07-30", "location": "White River National Forest, Vail, CO, US", "elevation": 2959.0, "num_identification_agreements": 1, "tavg": null, "tmin": 10.0, "tmax": 17.0, "day_of_year": 211, "uuid": "d006f87b-41d2-4cc9-9ac3-b81589569e53", "inat_id": 128810067}}, {"type": "Feature", "geometry": {"type": "Point", "coordinates": [-104.8853451632, 39.7872779985]}, "properties": {"species": "Coprinopsis atramentaria", "date": "2022-05-28", "location": "Yosemite St, Denver, CO, US", "elevation": 1605.0, "num_identification_agreements": 1, "tavg": null, "tmin": 10.7, "tmax": 29.8, "day_of_year": 148, "uuid": "10eb95bf-f876-4593-ac33-6270d52a489f", "inat_id": 119070407}}, {"type": "Feature", "geometry": {"type": "Point", "coordinates": [-105.0794743002, 40.5689599459]}, "properties": {"species": "Coprinopsis atramentaria", "date": "2022-05-17", "location": "Colorado State University, Fort Collins, CO, US", "elevation": 1529.0, "num_identification_agreements": 1, "tavg": null, "tmin": 10.0, "tmax": 28.3, "day_of_year": 137, "uuid": "8b4c7d1b-b1d2-41d1-934f-bb90108a2724", "inat_id": 117462273}}, {"type": "Feature", "geometry": {"type": "Point", "coordinates": [-104.9377580334, 40.1039613293]}, "properties": {"species": "Coprinopsis atramentaria", "date": "2021-11-01", "location": "Johnson St, Frederick, CO, US", "elevation": 1518.0, "num_identification_agreements": 1, "tavg": null, "tmin": 1.6, "tmax": 3.6, "day_of_year": 305, "uuid": "8775b5aa-988f-4a7f-9b19-e924da9bf90c", "inat_id": 99990724}}, {"type": "Feature", "geometry": {"type": "Point", "coordinates": [-105.0840372863, 40.5838152495]}, "properties": {"species": "Coprinopsis atramentaria", "date": "2021-06-08", "location": "Colorado, US", "elevation": 1531.0, "num_identification_agreements": 1, "tavg": null, "tmin": 12.2, "tmax": 34.4, "day_of_year": 159, "uuid": "94047a00-1244-464e-ad4f-6376be746c67", "inat_id": 83376659}}, {"type": "Feature", "geometry": {"type": "Point", "coordinates": [-104.6995527778, 38.6785055556]}, "properties": {"species": "Coprinopsis atramentaria", "date": "2021-05-30", "location": "Fountain, CO, USA", "elevation": 1684.0, "num_identification_agreements": 1, "tavg": null, "tmin": 9.7, "tmax": 16.6, "day_of_year": 150, "uuid": "3e739654-8770-40a2-9b9c-f513ca42ede3", "inat_id": 80927505}}, {"type": "Feature", "geometry": {"type": "Point", "coordinates": [-101.929755, 43.6923133333]}, "properties": {"species": "Coprinopsis atramentaria", "date": "2021-05-25", "location": "Long Valley, SD, US", "elevation": 702.0, "num_identification_agreements": 2, "tavg": null, "tmin": 9.4, "tmax": 24.4, "day_of_year": 145, "uuid": "cf089b45-5e83-43c2-9609-057b0cf647a0", "inat_id": 80323407}}, {"type": "Feature", "geometry": {"type": "Point", "coordinates": [-105.19558, 39.7743116667]}, "properties": {"species": "Coprinopsis atramentaria", "date": "2021-05-16", "location": "Ulysses Way, Golden, CO, US", "elevation": 1750.0, "num_identification_agreements": 1, "tavg": null, "tmin": 11.0, "tmax": 15.0, "day_of_year": 136, "uuid": "af3d7750-2c73-412d-afc3-564d0b0ecba7", "inat_id": 80027503}}, {"type": "Feature", "geometry": {"type": "Point", "coordinates": [-105.1297388333, 39.7770366667]}, "properties": {"species": "Coprinopsis atramentaria", "date": "2021-05-21", "location": "W 44th Ave, Wheat Ridge, CO, US", "elevation": 1655.0, "num_identification_agreements": 1, "tavg": null, "tmin": 14.0, "tmax": 24.0, "day_of_year": 141, "uuid": "efcdb2a6-c450-4373-a513-630544b33aa6", "inat_id": 79721485}}, {"type": "Feature", "geometry": {"type": "Point", "coordinates": [-105.1303166667, 39.7770583333]}, "properties": {"species": "Coprinopsis atramentaria", "date": "2021-05-21", "location": "W 44th Ave, Wheat Ridge, CO, US", "elevation": 1655.0, "num_identification_agreements": 1, "tavg": null, "tmin": 14.0, "tmax": 24.0, "day_of_year": 141, "uuid": "f366f05a-2910-400e-a345-799d9a0b4bca", "inat_id": 79721474}}, {"type": "Feature", "geometry": {"type": "Point", "coordinates": [-105.0786055, 39.52043]}, "properties": {"species": "Coprinopsis atramentaria", "date": "2021-05-19", "location": "Chatfield State Park, Littleton, CO, US", "elevation": 1666.0, "num_identification_agreements": 1, "tavg": null, "tmin": 7.2, "tmax": 21.1, "day_of_year": 139, "uuid": "4c8d8fee-ea21-471e-bcf6-b7fc0260b79a", "inat_id": 79565668}}, {"type": "Feature", "geometry": {"type": "Point", "coordinates": [-104.6958166667, 40.4080916667]}, "properties": {"species": "Coprinopsis atramentaria", "date": "2021-05-18", "location": "19th St, Greeley, CO, US", "elevation": 1451.0, "num_identification_agreements": 1, "tavg": null, "tmin": 8.9, "tmax": 18.9, "day_of_year": 138, "uuid": "1774177d-48b7-45f3-bb0d-9f26dd7083a9", "inat_id": 79326251}}, {"type": "Feature", "geometry": {"type": "Point", "coordinates": [-104.036775, 44.3609883333]}, "properties": {"species": "Coprinopsis atramentaria", "date": "2020-05-14", "location": "Black Hills National Forest, Spearfish, SD, US", "elevation": 1845.0, "num_identification_agreements": 1, "tavg": null, "tmin": 4.0, "tmax": 15.0, "day_of_year": 135, "uuid": "ef38e087-cad5-4f63-bdcf-0087bbd7757f", "inat_id": 69792122}}, {"type": "Feature", "geometry": {"type": "Point", "coordinates": [-105.697005, 39.56862167]}, "properties": {"species": "Coprinopsis atramentaria", "date": "2020-09-04", "location": "Pike and San Isabel National Forests, Idaho Springs, CO, US", "elevation": 3454.0, "num_identification_agreements": 1, "tavg": null, "tmin": null, "tmax": null, "day_of_year": 248, "uuid": "da77479b-b25f-43b0-bfec-9bd6cc8d2e89", "inat_id": 59408539}}, {"type": "Feature", "geometry": {"type": "Point", "coordinates": [-105.2755440253, 40.0249112212]}, "properties": {"species": "Coprinopsis atramentaria", "date": "2020-05-23", "location": "Central Boulder, Boulder, CO, USA", "elevation": 1652.0, "num_identification_agreements": 1, "tavg": null, "tmin": 11.0, "tmax": 24.0, "day_of_year": 144, "uuid": "d8fbb2db-8acd-4bfb-8099-827007a72495", "inat_id": 47055905}}, {"type": "Feature", "geometry": {"type": "Point", "coordinates": [-107.836, 37.9421]}, "properties": {"species": "Coprinopsis atramentaria", "date": "2018-08-16", "location": "Telluride, Colorado, USA", "elevation": 2652.0, "num_identification_agreements": 1, "tavg": null, "tmin": 11.0, "tmax": 23.0, "day_of_year": 228, "uuid": "adc9319e-56c6-45b5-b46d-799af0656341", "inat_id": 40349143}}, {"type": "Feature", "geometry": {"type": "Point", "coordinates": [-107.4752883911, 39.0290641785]}, "properties": {"species": "Coprinopsis atramentaria", "date": "2019-09-23", "location": "Somerset, CO 81434, USA", "elevation": 2654.0, "num_identification_agreements": 1, "tavg": null, "tmin": null, "tmax": null, "day_of_year": 266, "uuid": "85b2104c-f3c5-4ea5-83a6-ef114cf80dcf", "inat_id": 33506002}}, {"type": "Feature", "geometry": {"type": "Point", "coordinates": [-106.82251, 39.18718]}, "properties": {"species": "Coprinopsis atramentaria", "date": "2019-09-22", "location": "Willoughby Park, Aspen", "elevation": 2438.0, "num_identification_agreements": 1, "tavg": null, "tmin": 0.0, "tmax": 20.0, "day_of_year": 265, "uuid": "69a6793d-8bee-49fd-90b5-768bc459303c", "inat_id": 33450138}}, {"type": "Feature", "geometry": {"type": "Point", "coordinates": [-105.26738, 40.0008972217]}, "properties": {"species": "Coprinopsis atramentaria", "date": "2019-05-14", "location": "700 20th St, Boulder, CO, US", "elevation": 1660.0, "num_identification_agreements": 1, "tavg": null, "tmin": 12.0, "tmax": 26.0, "day_of_year": 134, "uuid": "6577755a-4235-4bf9-8b1b-13f7ead927ca", "inat_id": 25171586}}, {"type": "Feature", "geometry": {"type": "Point", "coordinates": [-108.41774425, 43.02387583]}, "properties": {"species": "Coprinopsis atramentaria", "date": "2018-09-05", "location": "149 Davis Ln, Riverton, WY 82501, USA", "elevation": 1533.0, "num_identification_agreements": 2, "tavg": null, "tmin": 8.9, "tmax": 27.8, "day_of_year": 248, "uuid": "dc8ec68b-b66a-46d8-8d82-5ef7aceff348", "inat_id": 16243519}}, {"type": "Feature", "geometry": {"type": "Point", "coordinates": [-106.303345, 37.4661366667]}, "properties": {"species": "Coprinopsis atramentaria", "date": "2018-08-28", "location": "Rio Grande National Forest, Monte Vista, CO, US", "elevation": 2866.0, "num_identification_agreements": 1, "tavg": null, "tmin": 2.2, "tmax": 27.8, "day_of_year": 240, "uuid": "0f2714bf-89c0-4ee6-838f-0f55a96bbe4a", "inat_id": 16214641}}, {"type": "Feature", "geometry": {"type": "Point", "coordinates": [-105.27247, 40.0226833333]}, "properties": {"species": "Coprinopsis atramentaria", "date": "2018-04-30", "location": "1829 Mapleton Ave, Boulder, CO, US", "elevation": 1630.0, "num_identification_agreements": 2, "tavg": null, "tmin": 8.0, "tmax": 20.0, "day_of_year": 120, "uuid": "de007aac-bccb-40eb-9b60-c4023afcb174", "inat_id": 11971023}}]}