{"type": "FeatureCollection", "features": [{"type": "Feature", "geometry": {"type": "Point", "coordinates": [-105.6342746, 39.66484593]}, "properties": {"species": "Coprinopsis pseudoradiata", "date": "2022-09-28", "location": "Clear Creek County, US-CO, US", "elevation": 3093.0, "land_cover_label": "Tree cover", "water_mask": false, "exclude_reason": "keep", "ndvi": null, "soil_moisture": 0.3457980342284965, "solar_exposure": 0.9362107515335084, "wind_exposure": 0.2001556605100631, "water_retention": 0.3768463134765625, "slope": 15.230443954467772, "aspect": 146.8578643798828, "num_identification_agreements": 3, "cluster": 3, "tavg": null, "tmin": -3.4, "tmax": 9.9, "prcp_d0": 1.117879867553711, "prcp_d1": 1.0956140756607056, "prcp_d2": 2.8925951482960954e-06, "prcp_d3": 0.0, "prcp_d4": 0.0, "prcp_d5": 0.0, "prcp_d6": 0.0, "tmax_d0": null, "tmax_d1": null, "tmax_d2": null, "tmax_d3": null, "tmax_d4": null, "tmax_d5": null, "tmax_d6": null, "tmin_d0": null, "tmin_d1": null, "tmin_d2": null, "tmin_d3": null, "tmin_d4": null, "tmin_d5": null, "tmin_d6": null, "day_of_year": 271, "uuid": "8efe998f-4488-4c17-bbbd-4a98dfe24223", "inat_id": 136861669}}]}