{"type": "FeatureCollection", "features": [{"type": "Feature", "geometry": {"type": "Point", "coordinates": [-105.9171138889, 35.6805888889]}, "properties": {"species": "Coprinopsis depressiceps", "date": "2025-11-29", "location": "Santa Fe, NM, USA", "elevation": 2174.0, "land_cover_label": "Tree cover", "water_mask": false, "exclude_reason": "keep", "ndvi": null, "soil_moisture": null, "solar_exposure": null, "wind_exposure": null, "water_retention": null, "slope": null, "aspect": null, "num_identification_agreements": 1, "cluster": 0, "tavg": null, "tmin": -1.0, "tmax": 12.0, "prcp_d0": 0.0, "prcp_d1": 0.0, "prcp_d2": 1.6761316061019895, "prcp_d3": 0.0, "prcp_d4": 0.040030088275671, "prcp_d5": 0.6572691798210144, "prcp_d6": 7.080877780914307, "tmax_d0": null, "tmax_d1": null, "tmax_d2": null, "tmax_d3": null, "tmax_d4": null, "tmax_d5": null, "tmax_d6": null, "tmin_d0": null, "tmin_d1": null, "tmin_d2": null, "tmin_d3": null, "tmin_d4": null, "tmin_d5": null, "tmin_d6": null, "day_of_year": 333, "uuid": "0c4c7900-3f9f-4b0c-8293-66370be4fc9c", "inat_id": 328944363}}]}