{"type": "FeatureCollection", "features": [{"type": "Feature", "geometry": {"type": "Point", "coordinates": [-106.3713591, 35.8407513]}, "properties": {"species": "Coprinus colosseus", "date": "2025-10-11", "location": "Los Alamos County, NM, USA", "elevation": 2379.0, "land_cover_label": "Tree cover", "water_mask": false, "exclude_reason": "keep", "ndvi": null, "soil_moisture": null, "solar_exposure": null, "wind_exposure": null, "water_retention": null, "slope": null, "aspect": null, "num_identification_agreements": 2, "cluster": 2, "tavg": null, "tmin": 12.0, "tmax": 17.0, "prcp_d0": 0.0, "prcp_d1": 1.1383728981018066, "prcp_d2": 3.874072313308716, "prcp_d3": 9.67420768737793, "prcp_d4": 1.5753744840621948, "prcp_d5": 0.0, "prcp_d6": 0.0, "tmax_d0": 15.1, "tmax_d1": 17.4, "tmax_d2": 18.6, "tmax_d3": 16.7, "tmax_d4": 16.6, "tmax_d5": 19.1, "tmax_d6": 17.9, "tmin_d0": 10.3, "tmin_d1": 9.3, "tmin_d2": 6.2, "tmin_d3": 8.4, "tmin_d4": 8.0, "tmin_d5": 4.7, "tmin_d6": 3.0, "day_of_year": 284, "uuid": "3d71ff7f-3f90-45dc-bccd-20c2d856e374", "inat_id": 320259008}}]}