{"type": "FeatureCollection", "features": [{"type": "Feature", "geometry": {"type": "Point", "coordinates": [-104.9311159249, 39.6035620708]}, "properties": {"species": "Coprinopsis lagopus", "date": "2026-08-17", "location": "Greenwood Village, CO 80121, USA", "elevation": 1686.0, "num_identification_agreements": 1, "tavg": null, "tmin": 14.8, "tmax": 30.4, "day_of_year": 229, "uuid": "9bc5cd95-bbe4-42e7-ad8a-da4646ec9c52", "inat_id": 392097638}}, {"type": "Feature", "geometry": {"type": "Point", "coordinates": [-104.8481616667, 39.5488583333]}, "properties": {"species": "Coprinopsis lagopus", "date": "2026-06-04", "location": "Belford Ave, Englewood, CO, US", "elevation": 1809.0, "num_identification_agreements": 1, "tavg": null, "tmin": 11.1, "tmax": 30.0, "day_of_year": 155, "uuid": "f1199e37-1df0-4d2a-b65a-29f7c541a0f0", "inat_id": 369536691}}, {"type": "Feature", "geometry": {"type": "Point", "coordinates": [-105.1375111667, 39.7656883333]}, "properties": {"species": "Coprinopsis lagopus", "date": "2026-05-27", "location": "N Ward Rd, Wheat Ridge, CO, US", "elevation": 1682.0, "num_identification_agreements": 1, "tavg": null, "tmin": 13.0, "tmax": 21.0, "day_of_year": 147, "uuid": "192dc880-994c-4aef-9101-1cf2b189181f", "inat_id": 366636166}}, {"type": "Feature", "geometry": {"type": "Point", "coordinates": [-105.44387538, 39.61066142]}, "properties": {"species": "Coprinopsis lagopus", "date": "2025-08-23", "location": "Clear Creek County, US-CO, US", "elevation": 2485.0, "num_identification_agreements": 1, "tavg": null, "tmin": 0.5, "tmax": 14.1, "day_of_year": 235, "uuid": "6a915b8e-10bc-47e3-a617-aa61f2a7bcc3", "inat_id": 308928857}}, {"type": "Feature", "geometry": {"type": "Point", "coordinates": [-105.4438559, 39.6107353]}, "properties": {"species": "Coprinopsis lagopus", "date": "2025-08-23", "location": "Golden, CO 80439, USA", "elevation": 2485.0, "num_identification_agreements": 1, "tavg": null, "tmin": 0.5, "tmax": 14.1, "day_of_year": 235, "uuid": "4f429aa7-5041-477c-8395-8f3e6f509af6", "inat_id": 308837843}}, {"type": "Feature", "geometry": {"type": "Point", "coordinates": [-105.0364472222, 38.9362388889]}, "properties": {"species": "Coprinopsis lagopus", "date": "2025-06-04", "location": "Green Mountain Falls, CO, USA", "elevation": 2588.0, "num_identification_agreements": 1, "tavg": null, "tmin": 7.4, "tmax": 13.3, "day_of_year": 155, "uuid": "d29f8809-1396-4651-a89f-d0f088459cdd", "inat_id": 287105505}}, {"type": "Feature", "geometry": {"type": "Point", "coordinates": [-105.3502282266, 35.9220677212]}, "properties": {"species": "Coprinopsis lagopus", "date": "2023-08-18", "location": "Mora County, NM, USA", "elevation": 2242.0, "num_identification_agreements": 1, "tavg": null, "tmin": 15.6, "tmax": 33.9, "day_of_year": 230, "uuid": "c260e101-b320-4d92-9025-391cc602c3a6", "inat_id": 257398767}}, {"type": "Feature", "geometry": {"type": "Point", "coordinates": [-106.5726166667, 36.0563055]}, "properties": {"species": "Coprinopsis lagopus", "date": "2021-09-05", "location": "Santa Fe National Forest, Coyote, NM, US", "elevation": 3009.0, "num_identification_agreements": 1, "tavg": null, "tmin": 13.5, "tmax": 26.9, "day_of_year": 248, "uuid": "9aa57975-7668-4643-b2c0-7d1a77115c74", "inat_id": 244010611}}, {"type": "Feature", "geometry": {"type": "Point", "coordinates": [-104.8417789489, 38.9394972974]}, "properties": {"species": "Coprinopsis lagopus", "date": "2024-08-09", "location": "Briargate, Colorado Springs, CO, USA", "elevation": 2002.0, "num_identification_agreements": 1, "tavg": null, "tmin": 13.3, "tmax": 15.2, "day_of_year": 222, "uuid": "b4601cdf-f9ca-4aec-8ac0-490557204c24", "inat_id": 234730524}}, {"type": "Feature", "geometry": {"type": "Point", "coordinates": [-105.9386270029, 35.706581413]}, "properties": {"species": "Coprinopsis lagopus", "date": "2023-09-14", "location": "Calle Loma Norte, Santa Fe, NM, US", "elevation": 2198.0, "num_identification_agreements": 2, "tavg": null, "tmin": 10.6, "tmax": 22.8, "day_of_year": 257, "uuid": "faab03de-9cf7-4040-9831-d5a25f0f2634", "inat_id": 184188045}}, {"type": "Feature", "geometry": {"type": "Point", "coordinates": [-105.2567129266, 40.0302959771]}, "properties": {"species": "Coprinopsis lagopus", "date": "2023-08-26", "location": "29th St, Boulder, CO, US", "elevation": 1620.0, "num_identification_agreements": 1, "tavg": null, "tmin": 15.0, "tmax": 24.0, "day_of_year": 238, "uuid": "218eb55c-5955-441d-9627-7f43c5f9f362", "inat_id": 180280136}}, {"type": "Feature", "geometry": {"type": "Point", "coordinates": [-104.9081688211, 39.7426073611]}, "properties": {"species": "Coprinopsis lagopus", "date": "2023-06-17", "location": "Colorado, US", "elevation": 1635.0, "num_identification_agreements": 1, "tavg": null, "tmin": 9.3, "tmax": 19.0, "day_of_year": 168, "uuid": "fbbacc28-00c3-470b-a9e4-2a98dee5b924", "inat_id": 167902509}}, {"type": "Feature", "geometry": {"type": "Point", "coordinates": [-105.1249132678, 40.5711325434]}, "properties": {"species": "Coprinopsis lagopus", "date": "2020-08-06", "location": "2600 Flintridge Place", "elevation": 1555.0, "num_identification_agreements": 1, "tavg": null, "tmin": 15.0, "tmax": 32.8, "day_of_year": 219, "uuid": "8c185191-c239-4f40-bb0b-4531ba0cb425", "inat_id": 58299165}}, {"type": "Feature", "geometry": {"type": "Point", "coordinates": [-108.7135473258, 39.1560676745]}, "properties": {"species": "Coprinopsis lagopus", "date": "2020-07-10", "location": "Ribbon Ct, Fruita, CO, US", "elevation": 1384.0, "num_identification_agreements": 2, "tavg": null, "tmin": 15.6, "tmax": 36.7, "day_of_year": 192, "uuid": "74576385-18b4-4417-b273-fbbda1c1dc64", "inat_id": 52635440}}, {"type": "Feature", "geometry": {"type": "Point", "coordinates": [-105.603374429, 36.6171479338]}, "properties": {"species": "Coprinopsis lagopus", "date": "2019-07-17", "location": "Taos County, US-NM, US", "elevation": 2545.0, "num_identification_agreements": 1, "tavg": null, "tmin": 11.7, "tmax": 31.7, "day_of_year": 198, "uuid": "d3c4b033-e07a-4c6a-a62e-faa857794074", "inat_id": 29033821}}, {"type": "Feature", "geometry": {"type": "Point", "coordinates": [-105.9958633333, 38.542195]}, "properties": {"species": "Coprinopsis lagopus", "date": "2017-08-04", "location": "904 W 1st St, Salida, CO, US", "elevation": 2152.0, "num_identification_agreements": 1, "tavg": null, "tmin": 9.7, "tmax": 27.5, "day_of_year": 216, "uuid": "ae32f13b-2e13-4014-a912-bd7dfaa57442", "inat_id": 7347584}}]}