{"type": "FeatureCollection", "features": [{"type": "Feature", "geometry": {"type": "Point", "coordinates": [-105.53838864, 40.03123671]}, "properties": {"species": "Coprinopsis striata", "date": "2022-09-17", "location": "Boulder County, US-CO, US", "elevation": 2936.0, "land_cover_label": "Tree cover", "water_mask": false, "exclude_reason": "keep", "ndvi": null, "soil_moisture": 0.2965124089628647, "solar_exposure": 0.8006788492202759, "wind_exposure": 0.2757991850376129, "water_retention": 0.2680265605449676, "slope": 13.961824417114258, "aspect": 86.2446517944336, "num_identification_agreements": 6, "cluster": 0, "tavg": null, "tmin": 12.0, "tmax": 26.0, "prcp_d0": 0.0, "prcp_d1": 0.0, "prcp_d2": 0.0, "prcp_d3": 0.0, "prcp_d4": 0.0, "prcp_d5": 0.0, "prcp_d6": 0.0, "tmax_d0": null, "tmax_d1": null, "tmax_d2": null, "tmax_d3": null, "tmax_d4": null, "tmax_d5": null, "tmax_d6": null, "tmin_d0": null, "tmin_d1": null, "tmin_d2": null, "tmin_d3": null, "tmin_d4": null, "tmin_d5": null, "tmin_d6": null, "day_of_year": 260, "uuid": "606850f3-250e-4789-865b-cf2c54953ab7", "inat_id": 135615540}}, {"type": "Feature", "geometry": {"type": "Point", "coordinates": [-105.0288722222, 39.1211194444]}, "properties": {"species": "Coprinopsis striata", "date": "2025-09-06", "location": "Woodland Park, CO 80863, USA", "elevation": 2813.0, "land_cover_label": "Tree cover", "water_mask": false, "exclude_reason": "keep", "ndvi": null, "soil_moisture": 0.3026143178516716, "solar_exposure": 0.8231437802314758, "wind_exposure": 0.3383632898330688, "water_retention": 0.2804226577281952, "slope": 1.9746628999710083, "aspect": 38.07970428466797, "num_identification_agreements": 2, "cluster": 0, "tavg": null, "tmin": 8.0, "tmax": 22.0, "prcp_d0": 0.0, "prcp_d1": 0.0, "prcp_d2": 0.0, "prcp_d3": 0.0, "prcp_d4": 0.0, "prcp_d5": 0.0, "prcp_d6": 0.0, "tmax_d0": null, "tmax_d1": null, "tmax_d2": null, "tmax_d3": null, "tmax_d4": null, "tmax_d5": null, "tmax_d6": null, "tmin_d0": null, "tmin_d1": null, "tmin_d2": null, "tmin_d3": null, "tmin_d4": null, "tmin_d5": null, "tmin_d6": null, "day_of_year": 249, "uuid": "a4389545-a74e-47f4-b1c9-cfb52c3df4a3", "inat_id": 312121454}}]}