{"type": "FeatureCollection", "features": [{"type": "Feature", "geometry": {"type": "Point", "coordinates": [-121.8415237125, 45.2320085722]}, "properties": {"species": "Cortinarius solis-occasus", "date": "2020-10-21", "location": "Oregon, US", "elevation": 981.0, "land_cover_label": "Tree cover", "water_mask": false, "exclude_reason": "keep", "ndvi": null, "soil_moisture": null, "solar_exposure": null, "wind_exposure": null, "water_retention": null, "slope": null, "aspect": null, "num_identification_agreements": 1, "cluster": 2, "tavg": null, "tmin": null, "tmax": null, "prcp_d0": 0.0, "prcp_d1": 0.0, "prcp_d2": 0.0, "prcp_d3": 0.0, "prcp_d4": 0.0, "prcp_d5": 0.0, "prcp_d6": 0.0, "tmax_d0": 8.3, "tmax_d1": 10.1, "tmax_d2": 10.7, "tmax_d3": 11.0, "tmax_d4": 12.6, "tmax_d5": 15.1, "tmax_d6": 14.0, "tmin_d0": 3.5, "tmin_d1": 4.2, "tmin_d2": 7.7, "tmin_d3": 6.5, "tmin_d4": 8.7, "tmin_d5": 5.9, "tmin_d6": -0.3, "day_of_year": 295, "uuid": "95b2e93b-a249-42a3-b60f-4c700b9d5414", "inat_id": 63222413}}]}