{"type": "FeatureCollection", "features": [{"type": "Feature", "geometry": {"type": "Point", "coordinates": [-122.1161685328, 45.2416712795]}, "properties": {"species": "Cortinarius sp. 'PNW97'", "date": "2024-05-08", "location": "Clackamas County, OR, USA", "elevation": 984.0, "land_cover_label": "Tree cover", "water_mask": false, "exclude_reason": "keep", "ndvi": null, "soil_moisture": null, "solar_exposure": null, "wind_exposure": null, "water_retention": null, "slope": null, "aspect": null, "num_identification_agreements": 2, "cluster": 3, "tavg": null, "tmin": 4.4, "tmax": 21.7, "prcp_d0": 0.0, "prcp_d1": 0.0, "prcp_d2": 0.0, "prcp_d3": 0.0, "prcp_d4": 124.44732666015624, "prcp_d5": 0.0, "prcp_d6": 0.0, "tmax_d0": 11.6, "tmax_d1": 5.3, "tmax_d2": 4.6, "tmax_d3": 2.8, "tmax_d4": 8.9, "tmax_d5": 13.8, "tmax_d6": 8.6, "tmin_d0": -0.9, "tmin_d1": -0.8, "tmin_d2": 1.6, "tmin_d3": 0.4, "tmin_d4": 1.3, "tmin_d5": -1.9, "tmin_d6": 0.5, "day_of_year": 129, "uuid": "fd167bcf-7102-4ff9-a562-b2fd3b929cf6", "inat_id": 231213513}}]}