{"type": "FeatureCollection", "features": [{"type": "Feature", "geometry": {"type": "Point", "coordinates": [-105.0210571289, 38.732772798]}, "properties": {"species": "Cortinarius sp. 'CO01'", "date": "2024-06-29", "location": "Manitou Springs, CO 80829, USA", "elevation": 2876.0, "land_cover_label": "Tree cover", "water_mask": false, "exclude_reason": "keep", "ndvi": null, "soil_moisture": null, "solar_exposure": null, "wind_exposure": null, "water_retention": null, "slope": null, "aspect": null, "num_identification_agreements": 2, "cluster": 2, "tavg": null, "tmin": 15.0, "tmax": 25.0, "prcp_d0": 0.0, "prcp_d1": 0.0, "prcp_d2": 0.0, "prcp_d3": 0.0, "prcp_d4": 0.0, "prcp_d5": 0.0, "prcp_d6": 0.0, "tmax_d0": 19.3, "tmax_d1": 23.0, "tmax_d2": 23.2, "tmax_d3": 22.8, "tmax_d4": 23.8, "tmax_d5": 22.3, "tmax_d6": 21.6, "tmin_d0": 9.8, "tmin_d1": 11.0, "tmin_d2": 11.3, "tmin_d3": 13.9, "tmin_d4": 12.0, "tmin_d5": 13.4, "tmin_d6": 10.3, "day_of_year": 181, "uuid": "9155bc1b-8894-46f7-8b76-a19daec6d045", "inat_id": 226016008}}]}