{"type": "FeatureCollection", "features": [{"type": "Feature", "geometry": {"type": "Point", "coordinates": [-105.800925, 35.79804722]}, "properties": {"species": "Cortinarius caninus", "date": "2025-07-08", "location": "Santa Fe, New Mexico, United States", "elevation": 3208.0, "land_cover_label": "Tree cover", "water_mask": false, "exclude_reason": "keep", "ndvi": null, "soil_moisture": null, "solar_exposure": null, "wind_exposure": null, "water_retention": null, "slope": null, "aspect": null, "num_identification_agreements": 2, "cluster": 2, "tavg": null, "tmin": 16.1, "tmax": 34.4, "prcp_d0": 0.0, "prcp_d1": 0.0, "prcp_d2": 0.0, "prcp_d3": 0.0352656170725822, "prcp_d4": 0.3068093657493591, "prcp_d5": 6.446969985961914, "prcp_d6": 1.6422553062438965, "tmax_d0": null, "tmax_d1": null, "tmax_d2": null, "tmax_d3": null, "tmax_d4": null, "tmax_d5": null, "tmax_d6": null, "tmin_d0": null, "tmin_d1": null, "tmin_d2": null, "tmin_d3": null, "tmin_d4": null, "tmin_d5": null, "tmin_d6": null, "day_of_year": 189, "uuid": "56cbb409-19fa-4605-9db1-8283275103a2", "inat_id": 296559840}}, {"type": "Feature", "geometry": {"type": "Point", "coordinates": [-107.1462534, 38.8543210997]}, "properties": {"species": "Cortinarius caninus", "date": "2025-07-19", "location": "Gunnison, CO 81230, USA", "elevation": 2722.0, "land_cover_label": "Tree cover", "water_mask": false, "exclude_reason": "keep", "ndvi": null, "soil_moisture": null, "solar_exposure": null, "wind_exposure": null, "water_retention": null, "slope": null, "aspect": null, "num_identification_agreements": 1, "cluster": 2, "tavg": null, "tmin": 10.6, "tmax": 26.7, "prcp_d0": 0.0, "prcp_d1": 0.0, "prcp_d2": 0.0, "prcp_d3": 0.0, "prcp_d4": 0.0, "prcp_d5": 3.558845281600952, "prcp_d6": 0.0, "tmax_d0": null, "tmax_d1": null, "tmax_d2": null, "tmax_d3": null, "tmax_d4": null, "tmax_d5": null, "tmax_d6": null, "tmin_d0": null, "tmin_d1": null, "tmin_d2": null, "tmin_d3": null, "tmin_d4": null, "tmin_d5": null, "tmin_d6": null, "day_of_year": 200, "uuid": "2e9b673b-09c6-496e-90c6-5b63aa336798", "inat_id": 299345283}}]}