{"type": "FeatureCollection", "features": [{"type": "Feature", "geometry": {"type": "Point", "coordinates": [-107.9463211932, 37.949957701]}, "properties": {"species": "Cortinarius aptecohaerens", "date": "2023-08-19", "location": "Colorado, US", "elevation": 2731.0, "land_cover_label": "Tree cover", "water_mask": false, "exclude_reason": "keep", "ndvi": null, "soil_moisture": null, "solar_exposure": null, "wind_exposure": null, "water_retention": null, "slope": null, "aspect": null, "num_identification_agreements": 3, "cluster": 0, "tavg": null, "tmin": 12.0, "tmax": 26.0, "prcp_d0": 0.0, "prcp_d1": 0.0, "prcp_d2": 0.0, "prcp_d3": 0.0, "prcp_d4": 10.92684268951416, "prcp_d5": 10.92684268951416, "prcp_d6": 0.0, "tmax_d0": 24.3, "tmax_d1": 22.9, "tmax_d2": 24.2, "tmax_d3": 23.3, "tmax_d4": 21.6, "tmax_d5": 20.6, "tmax_d6": 22.3, "tmin_d0": 6.8, "tmin_d1": 6.9, "tmin_d2": 5.8, "tmin_d3": 6.3, "tmin_d4": 6.7, "tmin_d5": 7.7, "tmin_d6": 4.8, "day_of_year": 231, "uuid": "1a2b3f51-b78b-4def-973c-02cfdd2d7a83", "inat_id": 191737386}}, {"type": "Feature", "geometry": {"type": "Point", "coordinates": [-107.0541396657, 38.7417568511]}, "properties": {"species": "Cortinarius aptecohaerens", "date": "2025-09-28", "location": "Gunnison County, US-CO, US", "elevation": 2611.0, "land_cover_label": "Grassland", "water_mask": false, "exclude_reason": "keep", "ndvi": null, "soil_moisture": null, "solar_exposure": null, "wind_exposure": null, "water_retention": null, "slope": null, "aspect": null, "num_identification_agreements": 2, "cluster": 0, "tavg": null, "tmin": 8.0, "tmax": 18.0, "prcp_d0": 0.0, "prcp_d1": 0.0, "prcp_d2": 0.0, "prcp_d3": 0.0, "prcp_d4": 0.0, "prcp_d5": 5.975761413574219, "prcp_d6": 0.0, "tmax_d0": 16.4, "tmax_d1": 19.8, "tmax_d2": 18.7, "tmax_d3": 18.8, "tmax_d4": 17.0, "tmax_d5": 12.9, "tmax_d6": 17.9, "tmin_d0": 4.2, "tmin_d1": 4.0, "tmin_d2": 2.2, "tmin_d3": 2.0, "tmin_d4": 0.4, "tmin_d5": 0.9, "tmin_d6": 4.2, "day_of_year": 271, "uuid": "5e1c7808-6c9e-47a0-8889-577381af53d9", "inat_id": 317414692}}]}