{"type": "FeatureCollection", "features": [{"type": "Feature", "geometry": {"type": "Point", "coordinates": [-122.116134, 45.241395]}, "properties": {"species": "Cortinarius sp. 'PNW51'", "date": "2024-06-14", "location": "Clackamas County, OR, USA", "elevation": 1033.0, "land_cover_label": "Tree cover", "water_mask": false, "exclude_reason": "keep", "ndvi": null, "soil_moisture": null, "solar_exposure": null, "wind_exposure": null, "water_retention": null, "slope": null, "aspect": null, "num_identification_agreements": 2, "cluster": 2, "tavg": null, "tmin": 8.9, "tmax": 21.7, "prcp_d0": 0.013080770149827, "prcp_d1": 0.0, "prcp_d2": 0.1415929496288299, "prcp_d3": 0.0, "prcp_d4": 0.0, "prcp_d5": 9.687562942504885, "prcp_d6": 0.0, "tmax_d0": 15.4, "tmax_d1": 16.4, "tmax_d2": 14.7, "tmax_d3": 18.5, "tmax_d4": 19.0, "tmax_d5": 17.7, "tmax_d6": 22.5, "tmin_d0": 1.5, "tmin_d1": 0.6, "tmin_d2": 3.6, "tmin_d3": 7.8, "tmin_d4": 6.1, "tmin_d5": 9.6, "tmin_d6": 8.2, "day_of_year": 166, "uuid": "3520a4a7-b95f-4bc2-a5a1-6d06549776b2", "inat_id": 231217063}}]}