{"type": "FeatureCollection", "features": [{"type": "Feature", "geometry": {"type": "Point", "coordinates": [-122.0440510564, 45.6189017494]}, "properties": {"species": "Cortinarius piceidisjungendus", "date": "2023-10-20", "location": "United States", "elevation": 38.0, "land_cover_label": "Tree cover", "water_mask": false, "exclude_reason": "keep", "ndvi": null, "soil_moisture": null, "solar_exposure": null, "wind_exposure": null, "water_retention": null, "slope": null, "aspect": null, "num_identification_agreements": 2, "cluster": 2, "tavg": null, "tmin": 11.7, "tmax": 20.6, "prcp_d0": 0.0, "prcp_d1": 0.0, "prcp_d2": 0.0, "prcp_d3": 0.0, "prcp_d4": 30.93226623535156, "prcp_d5": 0.0, "prcp_d6": 36.88224411010742, "tmax_d0": 23.4, "tmax_d1": 23.8, "tmax_d2": 22.6, "tmax_d3": 19.4, "tmax_d4": 18.0, "tmax_d5": 19.2, "tmax_d6": 18.2, "tmin_d0": 11.0, "tmin_d1": 10.6, "tmin_d2": 9.5, "tmin_d3": 12.3, "tmin_d4": 12.7, "tmin_d5": 11.9, "tmin_d6": 11.0, "day_of_year": 293, "uuid": "a0dffc85-37d3-414f-8f48-619dfc0193b1", "inat_id": 192525269}}]}