{"type": "FeatureCollection", "features": [{"type": "Feature", "geometry": {"type": "Point", "coordinates": [-107.1420229451, 38.8327652134]}, "properties": {"species": "Cortinarius imbutus", "date": "2025-09-21", "location": "Gunnison County, US-CO, US", "elevation": 3125.0, "land_cover_label": "Tree cover", "water_mask": false, "exclude_reason": "keep", "ndvi": null, "soil_moisture": null, "solar_exposure": null, "wind_exposure": null, "water_retention": null, "slope": null, "aspect": null, "num_identification_agreements": 1, "cluster": 2, "tavg": null, "tmin": 7.0, "tmax": 22.0, "prcp_d0": 0.0, "prcp_d1": 0.0, "prcp_d2": 0.0, "prcp_d3": 0.0, "prcp_d4": 0.0, "prcp_d5": 0.0, "prcp_d6": 0.0, "tmax_d0": 14.8, "tmax_d1": 13.2, "tmax_d2": 16.0, "tmax_d3": 14.6, "tmax_d4": 14.0, "tmax_d5": 13.7, "tmax_d6": 16.6, "tmin_d0": 1.7, "tmin_d1": 2.2, "tmin_d2": 0.9, "tmin_d3": -2.0, "tmin_d4": -0.8, "tmin_d5": 1.5, "tmin_d6": -0.4, "day_of_year": 264, "uuid": "78b222a2-847c-4aba-b2c5-75300b795dd0", "inat_id": 315671756}}]}