{"type": "FeatureCollection", "features": [{"type": "Feature", "geometry": {"type": "Point", "coordinates": [-105.5724031, 40.043854]}, "properties": {"species": "Cortinarius fagetorum", "date": "2022-09-17", "location": "Boulder County, US-CO, US", "elevation": 3303.0, "land_cover_label": "Tree cover", "water_mask": false, "exclude_reason": "keep", "ndvi": null, "soil_moisture": 0.3050477354303924, "solar_exposure": 0.9072219729423524, "wind_exposure": 0.3257124423980713, "water_retention": 0.3484866619110107, "slope": 7.161344528198242, "aspect": 173.52154541015625, "num_identification_agreements": 3, "cluster": 2, "tavg": null, "tmin": 12.0, "tmax": 26.0, "prcp_d0": 0.0, "prcp_d1": 0.0, "prcp_d2": 0.0, "prcp_d3": 0.0, "prcp_d4": 0.0, "prcp_d5": 0.0, "prcp_d6": 0.0, "tmax_d0": null, "tmax_d1": null, "tmax_d2": null, "tmax_d3": null, "tmax_d4": null, "tmax_d5": null, "tmax_d6": null, "tmin_d0": null, "tmin_d1": null, "tmin_d2": null, "tmin_d3": null, "tmin_d4": null, "tmin_d5": null, "tmin_d6": null, "day_of_year": 260, "uuid": "97861ce8-b491-48a3-82e7-f66f5d9651b6", "inat_id": 135804851}}]}