{"type": "FeatureCollection", "features": [{"type": "Feature", "geometry": {"type": "Point", "coordinates": [-121.8080722913, 45.7313278028]}, "properties": {"species": "Deconica inquilina", "date": "2021-05-11", "location": "Carson, WA, USA", "elevation": 163.0, "land_cover_label": "Grassland", "water_mask": false, "exclude_reason": "keep", "ndvi": null, "soil_moisture": null, "solar_exposure": null, "wind_exposure": null, "water_retention": null, "slope": null, "aspect": null, "num_identification_agreements": 1, "cluster": 2, "tavg": null, "tmin": null, "tmax": null, "prcp_d0": 5.076242446899414, "prcp_d1": 0.0, "prcp_d2": 0.0, "prcp_d3": 0.0, "prcp_d4": 11.662002563476562, "prcp_d5": 0.0, "prcp_d6": 0.0, "tmax_d0": 22.9, "tmax_d1": 20.5, "tmax_d2": 16.5, "tmax_d3": 14.6, "tmax_d4": 14.4, "tmax_d5": 23.3, "tmax_d6": 24.4, "tmin_d0": 5.0, "tmin_d1": 5.2, "tmin_d2": 7.6, "tmin_d3": 5.8, "tmin_d4": 6.5, "tmin_d5": 9.1, "tmin_d6": 6.9, "day_of_year": 131, "uuid": "7cee7182-ee6d-4201-85d3-132535e4acb3", "inat_id": 80216453}}]}