{"type": "FeatureCollection", "features": [{"type": "Feature", "geometry": {"type": "Point", "coordinates": [-105.7514148082, 39.4142735992]}, "properties": {"species": "Fomitopsis sp. 'serialis-MI01'", "date": "2024-09-18", "location": "Park County, US-CO, US", "elevation": 3063.0, "land_cover_label": "Tree cover", "water_mask": false, "exclude_reason": "keep", "ndvi": null, "soil_moisture": 0.3200464734035835, "solar_exposure": 0.7565910816192627, "wind_exposure": 0.3372511863708496, "water_retention": 0.2402912974357605, "slope": 7.12742805480957, "aspect": 356.7503967285156, "num_identification_agreements": 2, "cluster": 0, "tavg": null, "tmin": -2.7, "tmax": 9.0, "prcp_d0": 0.0, "prcp_d1": 0.0, "prcp_d2": 0.0, "prcp_d3": 0.0, "prcp_d4": 0.0, "prcp_d5": 0.0, "prcp_d6": 0.0, "tmax_d0": 15.5, "tmax_d1": 13.7, "tmax_d2": 13.6, "tmax_d3": 17.0, "tmax_d4": 17.5, "tmax_d5": 17.6, "tmax_d6": 17.3, "tmin_d0": -4.7, "tmin_d1": 0.8, "tmin_d2": 3.5, "tmin_d3": 0.8, "tmin_d4": -1.4, "tmin_d5": 2.6, "tmin_d6": 2.9, "day_of_year": 262, "uuid": "61e70192-bf39-42ef-a452-0696c13031c8", "inat_id": 242804592}}]}