{"type": "FeatureCollection", "features": [{"type": "Feature", "geometry": {"type": "Point", "coordinates": [-122.7734489, 45.563442]}, "properties": {"species": "Fomitopsis mounceae", "date": "2026-08-26", "location": "Linnton, Portland, OR, USA", "elevation": 271.0, "land_cover_label": "Tree cover", "water_mask": false, "exclude_reason": "keep", "ndvi": null, "soil_moisture": null, "solar_exposure": null, "wind_exposure": null, "water_retention": null, "slope": null, "aspect": null, "num_identification_agreements": 1, "cluster": null, "tavg": null, "tmin": 13.9, "tmax": 27.2, "prcp_d0": null, "prcp_d1": null, "prcp_d2": null, "prcp_d3": null, "prcp_d4": null, "prcp_d5": null, "prcp_d6": null, "tmax_d0": 29.8, "tmax_d1": 32.7, "tmax_d2": 32.1, "tmax_d3": 23.8, "tmax_d4": 24.0, "tmax_d5": 31.2, "tmax_d6": 30.1, "tmin_d0": 13.2, "tmin_d1": 16.7, "tmin_d2": 12.8, "tmin_d3": 15.3, "tmin_d4": 12.6, "tmin_d5": 16.8, "tmin_d6": 14.4, "day_of_year": 238, "uuid": "f48dcb1d-9ebf-4726-9361-e69a4401a845", "inat_id": 394827815}}]}