{"type": "FeatureCollection", "features": [{"type": "Feature", "geometry": {"type": "Point", "coordinates": [-104.886095, 38.9490283333]}, "properties": {"species": "Fomitopsis cajanderi", "date": "2017-06-16", "location": "3786\u20133798 W Woodmen Rd, Colorado Springs, CO, US", "elevation": 2162.0, "land_cover_label": "Grassland", "water_mask": false, "exclude_reason": "keep", "ndvi": null, "soil_moisture": null, "solar_exposure": null, "wind_exposure": null, "water_retention": null, "slope": null, "aspect": null, "num_identification_agreements": 1, "cluster": 0, "tavg": null, "tmin": 8.4, "tmax": 32.3, "prcp_d0": 0.0, "prcp_d1": 0.0, "prcp_d2": 0.0, "prcp_d3": 0.0, "prcp_d4": 0.0, "prcp_d5": 0.0, "prcp_d6": 0.0, "tmax_d0": 29.9, "tmax_d1": 26.9, "tmax_d2": 24.3, "tmax_d3": 25.8, "tmax_d4": 27.4, "tmax_d5": 26.4, "tmax_d6": 28.6, "tmin_d0": 12.1, "tmin_d1": 11.5, "tmin_d2": 7.3, "tmin_d3": 8.5, "tmin_d4": 13.0, "tmin_d5": 10.3, "tmin_d6": 12.7, "day_of_year": 167, "uuid": "729a74a8-0d2a-4a18-bfee-2337f882208b", "inat_id": 6685003}}, {"type": "Feature", "geometry": {"type": "Point", "coordinates": [-121.903827523, 44.7230892613]}, "properties": {"species": "Fomitopsis cajanderi", "date": "2017-11-08", "location": "Oregon, US", "elevation": 1376.0, "land_cover_label": "Tree cover", "water_mask": false, "exclude_reason": "keep", "ndvi": null, "soil_moisture": null, "solar_exposure": null, "wind_exposure": null, "water_retention": null, "slope": null, "aspect": null, "num_identification_agreements": 1, "cluster": 1, "tavg": null, "tmin": null, "tmax": null, "prcp_d0": 34.60550308227539, "prcp_d1": 17.302751541137695, "prcp_d2": 0.0, "prcp_d3": 0.0, "prcp_d4": 0.0, "prcp_d5": 0.0, "prcp_d6": 0.0, "tmax_d0": 3.0, "tmax_d1": 1.5, "tmax_d2": 0.2, "tmax_d3": -0.2, "tmax_d4": -1.6, "tmax_d5": 1.1, "tmax_d6": 3.4, "tmin_d0": -2.1, "tmin_d1": -7.3, "tmin_d2": -4.3, "tmin_d3": -3.0, "tmin_d4": -5.5, "tmin_d5": -3.6, "tmin_d6": 0.6, "day_of_year": 312, "uuid": "a999a336-ab60-4cc8-82ac-c48e8b4891a7", "inat_id": 35777161}}, {"type": "Feature", "geometry": {"type": "Point", "coordinates": [-122.56398018, 45.23800967]}, "properties": {"species": "Fomitopsis cajanderi", "date": "2018-10-13", "location": "14761 S Buckner Creek Rd, Mulino, OR 97042, USA", "elevation": 174.0, "land_cover_label": "Tree cover", "water_mask": false, "exclude_reason": "keep", "ndvi": null, "soil_moisture": null, "solar_exposure": null, "wind_exposure": null, "water_retention": null, "slope": null, "aspect": null, "num_identification_agreements": 1, "cluster": 0, "tavg": null, "tmin": 7.2, "tmax": 21.7, "prcp_d0": 0.0, "prcp_d1": 0.0, "prcp_d2": 0.0, "prcp_d3": 0.0, "prcp_d4": 0.0, "prcp_d5": 0.0, "prcp_d6": 0.0, "tmax_d0": 20.9, "tmax_d1": 19.5, "tmax_d2": 19.4, "tmax_d3": 18.6, "tmax_d4": 17.0, "tmax_d5": 13.9, "tmax_d6": 15.5, "tmin_d0": 7.9, "tmin_d1": 4.3, "tmin_d2": 5.8, "tmin_d3": 8.8, "tmin_d4": 11.3, "tmin_d5": 10.4, "tmin_d6": 5.0, "day_of_year": 286, "uuid": "a19b5d2e-46c9-48bf-8fec-84f436171cc1", "inat_id": 17477441}}, {"type": "Feature", "geometry": {"type": "Point", "coordinates": [-122.1396485329, 45.1906486723]}, "properties": {"species": "Fomitopsis cajanderi", "date": "2018-11-03", "location": "Clackamas County, OR, USA", "elevation": 784.0, "land_cover_label": "Tree cover", "water_mask": false, "exclude_reason": "keep", "ndvi": null, "soil_moisture": null, "solar_exposure": null, "wind_exposure": null, "water_retention": null, "slope": null, "aspect": null, "num_identification_agreements": 1, "cluster": 2, "tavg": null, "tmin": 10.6, "tmax": 15.6, "prcp_d0": 0.0, "prcp_d1": 0.0, "prcp_d2": 0.0, "prcp_d3": 0.0, "prcp_d4": 0.0, "prcp_d5": 27.189985275268555, "prcp_d6": 54.37997055053711, "tmax_d0": 10.7, "tmax_d1": 11.8, "tmax_d2": 12.4, "tmax_d3": 10.0, "tmax_d4": 10.0, "tmax_d5": 7.6, "tmax_d6": 12.0, "tmin_d0": 5.5, "tmin_d1": 8.7, "tmin_d2": 9.8, "tmin_d3": 5.7, "tmin_d4": 3.7, "tmin_d5": 4.0, "tmin_d6": 7.4, "day_of_year": 307, "uuid": "a275a607-2003-4aea-8be2-0bab2e1716d8", "inat_id": 18084599}}, {"type": "Feature", "geometry": {"type": "Point", "coordinates": [-121.81, 45.31605]}, "properties": {"species": "Fomitopsis cajanderi", "date": "2019-02-02", "location": "SW Mount Hood, Clackamas Co., Oregon, USA", "elevation": 916.0, "land_cover_label": "Tree cover", "water_mask": false, "exclude_reason": "keep", "ndvi": null, "soil_moisture": null, "solar_exposure": null, "wind_exposure": null, "water_retention": null, "slope": null, "aspect": null, "num_identification_agreements": 1, "cluster": 1, "tavg": null, "tmin": null, "tmax": null, "prcp_d0": 0.0, "prcp_d1": 33.11867141723633, "prcp_d2": 0.0, "prcp_d3": 0.0, "prcp_d4": 0.0, "prcp_d5": 0.0, "prcp_d6": 0.0, "tmax_d0": 9.3, "tmax_d1": 10.8, "tmax_d2": 11.6, "tmax_d3": 12.3, "tmax_d4": 5.9, "tmax_d5": 9.0, "tmax_d6": 12.2, "tmin_d0": -1.0, "tmin_d1": 2.4, "tmin_d2": 0.9, "tmin_d3": -2.8, "tmin_d4": -2.8, "tmin_d5": -0.4, "tmin_d6": 2.8, "day_of_year": 33, "uuid": "f4aee0e4-c8f6-46e6-9ab5-71687968314c", "inat_id": 20069037}}, {"type": "Feature", "geometry": {"type": "Point", "coordinates": [-122.3061450943, 45.5011467383]}, "properties": {"species": "Fomitopsis cajanderi", "date": "2019-10-09", "location": "Oxbow Regional Park", "elevation": 48.0, "land_cover_label": "Tree cover", "water_mask": false, "exclude_reason": "keep", "ndvi": null, "soil_moisture": null, "solar_exposure": null, "wind_exposure": null, "water_retention": null, "slope": null, "aspect": null, "num_identification_agreements": 1, "cluster": 0, "tavg": null, "tmin": 2.2, "tmax": 13.9, "prcp_d0": 0.0, "prcp_d1": 0.0, "prcp_d2": 0.0, "prcp_d3": 0.0, "prcp_d4": 0.0, "prcp_d5": 0.0, "prcp_d6": 0.0, "tmax_d0": 11.6, "tmax_d1": 17.6, "tmax_d2": 19.1, "tmax_d3": 19.9, "tmax_d4": 16.9, "tmax_d5": 14.7, "tmax_d6": 15.0, "tmin_d0": 3.1, "tmin_d1": 8.4, "tmin_d2": 4.9, "tmin_d3": 5.6, "tmin_d4": 7.2, "tmin_d5": 7.2, "tmin_d6": 8.2, "day_of_year": 282, "uuid": "235a1339-5ae9-4c58-90b3-c475835b1b4b", "inat_id": 132289527}}, {"type": "Feature", "geometry": {"type": "Point", "coordinates": [-121.8045408452, 45.3313879317]}, "properties": {"species": "Fomitopsis cajanderi", "date": "2020-10-23", "location": "Oregon, US", "elevation": 1180.0, "land_cover_label": "Tree cover", "water_mask": false, "exclude_reason": "keep", "ndvi": null, "soil_moisture": null, "solar_exposure": null, "wind_exposure": null, "water_retention": null, "slope": null, "aspect": null, "num_identification_agreements": 2, "cluster": 0, "tavg": null, "tmin": null, "tmax": null, "prcp_d0": 0.0, "prcp_d1": 0.0, "prcp_d2": 0.0, "prcp_d3": 0.0, "prcp_d4": 0.0, "prcp_d5": 0.0, "prcp_d6": 0.0, "tmax_d0": 6.6, "tmax_d1": 7.2, "tmax_d2": 7.0, "tmax_d3": 8.1, "tmax_d4": 9.4, "tmax_d5": 9.4, "tmax_d6": 10.6, "tmin_d0": -2.7, "tmin_d1": -3.9, "tmin_d2": 1.9, "tmin_d3": 2.3, "tmin_d4": 6.3, "tmin_d5": 5.3, "tmin_d6": 7.3, "day_of_year": 297, "uuid": "cdd1283b-2db9-4b85-a68d-5bf777c3bd1b", "inat_id": 63774329}}, {"type": "Feature", "geometry": {"type": "Point", "coordinates": [-121.8008878591, 45.2598112953]}, "properties": {"species": "Fomitopsis cajanderi", "date": "2020-10-23", "location": "Oregon, US", "elevation": 1359.0, "land_cover_label": "Tree cover", "water_mask": false, "exclude_reason": "keep", "ndvi": null, "soil_moisture": null, "solar_exposure": null, "wind_exposure": null, "water_retention": null, "slope": null, "aspect": null, "num_identification_agreements": 1, "cluster": 0, "tavg": null, "tmin": null, "tmax": null, "prcp_d0": 0.0, "prcp_d1": 0.0, "prcp_d2": 0.0, "prcp_d3": 0.0, "prcp_d4": 0.0, "prcp_d5": 0.0, "prcp_d6": 0.0, "tmax_d0": 5.4, "tmax_d1": 5.9, "tmax_d2": 6.3, "tmax_d3": 7.5, "tmax_d4": 9.1, "tmax_d5": 8.8, "tmax_d6": 10.3, "tmin_d0": -2.4, "tmin_d1": -4.3, "tmin_d2": 1.5, "tmin_d3": 2.0, "tmin_d4": 5.7, "tmin_d5": 4.4, "tmin_d6": 6.8, "day_of_year": 297, "uuid": "de332066-1ab8-4dd7-8982-844c0cac979a", "inat_id": 64790922}}, {"type": "Feature", "geometry": {"type": "Point", "coordinates": [-121.8803105566, 45.2305829368]}, "properties": {"species": "Fomitopsis cajanderi", "date": "2020-10-23", "location": "Oregon, US", "elevation": 828.0, "land_cover_label": "Tree cover", "water_mask": false, "exclude_reason": "keep", "ndvi": null, "soil_moisture": null, "solar_exposure": null, "wind_exposure": null, "water_retention": null, "slope": null, "aspect": null, "num_identification_agreements": 2, "cluster": 0, "tavg": null, "tmin": null, "tmax": null, "prcp_d0": 0.0, "prcp_d1": 0.0, "prcp_d2": 0.0, "prcp_d3": 0.0, "prcp_d4": 0.0, "prcp_d5": 0.0, "prcp_d6": 0.0, "tmax_d0": 8.1, "tmax_d1": 8.8, "tmax_d2": 9.3, "tmax_d3": 11.1, "tmax_d4": 11.7, "tmax_d5": 12.0, "tmax_d6": 13.6, "tmin_d0": 0.5, "tmin_d1": -2.3, "tmin_d2": 4.5, "tmin_d3": 5.2, "tmin_d4": 8.7, "tmin_d5": 7.5, "tmin_d6": 9.7, "day_of_year": 297, "uuid": "083bd6a5-38d5-4001-a5f7-beeb40d829ac", "inat_id": 63349248}}, {"type": "Feature", "geometry": {"type": "Point", "coordinates": [-122.484475, 45.0713666667]}, "properties": {"species": "Fomitopsis cajanderi", "date": "2020-11-13", "location": "Molalla, OR, US", "elevation": 239.0, "land_cover_label": "Tree cover", "water_mask": false, "exclude_reason": "keep", "ndvi": null, "soil_moisture": null, "solar_exposure": null, "wind_exposure": null, "water_retention": null, "slope": null, "aspect": null, "num_identification_agreements": 1, "cluster": 1, "tavg": null, "tmin": 5.6, "tmax": 12.2, "prcp_d0": 69.5111312866211, "prcp_d1": 0.0, "prcp_d2": 0.0, "prcp_d3": 0.0, "prcp_d4": 0.0, "prcp_d5": 0.0, "prcp_d6": 0.0, "tmax_d0": 8.8, "tmax_d1": 9.3, "tmax_d2": 8.7, "tmax_d3": 7.3, "tmax_d4": 6.2, "tmax_d5": 6.6, "tmax_d6": 7.6, "tmin_d0": 5.4, "tmin_d1": 0.6, "tmin_d2": 3.8, "tmin_d3": 4.3, "tmin_d4": -2.1, "tmin_d5": -0.0, "tmin_d6": 2.8, "day_of_year": 318, "uuid": "2c5515e5-e95e-459e-b0d4-c71cc18d10ad", "inat_id": 65716359}}, {"type": "Feature", "geometry": {"type": "Point", "coordinates": [-122.3556966667, 45.5162883333]}, "properties": {"species": "Fomitopsis cajanderi", "date": "2020-11-29", "location": "Troutdale, OR, US", "elevation": 12.0, "land_cover_label": "Tree cover", "water_mask": false, "exclude_reason": "keep", "ndvi": null, "soil_moisture": null, "solar_exposure": null, "wind_exposure": null, "water_retention": null, "slope": null, "aspect": null, "num_identification_agreements": 1, "cluster": 0, "tavg": null, "tmin": 4.4, "tmax": 11.1, "prcp_d0": 0.0, "prcp_d1": 0.0, "prcp_d2": 0.0, "prcp_d3": 0.0, "prcp_d4": 0.0, "prcp_d5": 0.0, "prcp_d6": 0.0, "tmax_d0": 10.5, "tmax_d1": 7.6, "tmax_d2": 10.3, "tmax_d3": 9.2, "tmax_d4": 9.9, "tmax_d5": 12.1, "tmax_d6": 8.8, "tmin_d0": 3.9, "tmin_d1": 0.4, "tmin_d2": -0.7, "tmin_d3": 6.1, "tmin_d4": 4.5, "tmin_d5": 5.3, "tmin_d6": 4.9, "day_of_year": 334, "uuid": "ee96f473-610e-43a1-956a-0faa594a7860", "inat_id": 65845006}}, {"type": "Feature", "geometry": {"type": "Point", "coordinates": [-122.3556966667, 45.5163083333]}, "properties": {"species": "Fomitopsis cajanderi", "date": "2020-11-29", "location": "Troutdale, OR, US", "elevation": 12.0, "land_cover_label": "Tree cover", "water_mask": false, "exclude_reason": "keep", "ndvi": null, "soil_moisture": null, "solar_exposure": null, "wind_exposure": null, "water_retention": null, "slope": null, "aspect": null, "num_identification_agreements": 1, "cluster": 0, "tavg": null, "tmin": 4.4, "tmax": 11.1, "prcp_d0": 0.0, "prcp_d1": 0.0, "prcp_d2": 0.0, "prcp_d3": 0.0, "prcp_d4": 0.0, "prcp_d5": 0.0, "prcp_d6": 0.0, "tmax_d0": 10.5, "tmax_d1": 7.6, "tmax_d2": 10.3, "tmax_d3": 9.2, "tmax_d4": 9.9, "tmax_d5": 12.1, "tmax_d6": 8.8, "tmin_d0": 3.9, "tmin_d1": 0.4, "tmin_d2": -0.7, "tmin_d3": 6.1, "tmin_d4": 4.5, "tmin_d5": 5.3, "tmin_d6": 4.9, "day_of_year": 334, "uuid": "449dfe15-a89d-41fa-927b-88cac3c99ca9", "inat_id": 65845227}}, {"type": "Feature", "geometry": {"type": "Point", "coordinates": [-122.3054317693, 45.4972013686]}, "properties": {"species": "Fomitopsis cajanderi", "date": "2020-12-18", "location": "SE Hosner Terr, Gresham, OR, US", "elevation": 38.0, "land_cover_label": "Tree cover", "water_mask": false, "exclude_reason": "keep", "ndvi": null, "soil_moisture": null, "solar_exposure": null, "wind_exposure": null, "water_retention": null, "slope": null, "aspect": null, "num_identification_agreements": 1, "cluster": 1, "tavg": null, "tmin": 6.1, "tmax": 11.7, "prcp_d0": 0.0, "prcp_d1": 18.482044219970703, "prcp_d2": 27.723064422607425, "prcp_d3": 0.0, "prcp_d4": 0.0, "prcp_d5": 0.0, "prcp_d6": 0.0, "tmax_d0": 10.9, "tmax_d1": 10.0, "tmax_d2": 9.8, "tmax_d3": 8.9, "tmax_d4": 8.2, "tmax_d5": 7.8, "tmax_d6": 8.5, "tmin_d0": 4.6, "tmin_d1": 5.0, "tmin_d2": 5.9, "tmin_d3": 4.5, "tmin_d4": 4.4, "tmin_d5": 2.9, "tmin_d6": -2.2, "day_of_year": 353, "uuid": "63ecf0c8-2208-427a-8da8-969b465ac229", "inat_id": 66752362}}, {"type": "Feature", "geometry": {"type": "Point", "coordinates": [-122.22052, 45.5308533333]}, "properties": {"species": "Fomitopsis cajanderi", "date": "2020-12-27", "location": "Latourell Creek, Corbett, OR, US", "elevation": 265.0, "land_cover_label": "Tree cover", "water_mask": false, "exclude_reason": "keep", "ndvi": null, "soil_moisture": null, "solar_exposure": null, "wind_exposure": null, "water_retention": null, "slope": null, "aspect": null, "num_identification_agreements": 1, "cluster": 1, "tavg": null, "tmin": 5.0, "tmax": 9.4, "prcp_d0": 11.764674186706545, "prcp_d1": 0.0, "prcp_d2": 33.45135498046875, "prcp_d3": 0.0, "prcp_d4": 0.0, "prcp_d5": 0.0, "prcp_d6": 16.725677490234375, "tmax_d0": 8.1, "tmax_d1": 6.7, "tmax_d2": 3.9, "tmax_d3": 7.3, "tmax_d4": 7.5, "tmax_d5": 11.9, "tmax_d6": 13.5, "tmin_d0": 2.1, "tmin_d1": 1.9, "tmin_d2": 0.3, "tmin_d3": -0.7, "tmin_d4": -1.5, "tmin_d5": 2.6, "tmin_d6": 7.7, "day_of_year": 362, "uuid": "48b8b95e-4eff-4998-a5e0-62d9f59842ea", "inat_id": 67232029}}, {"type": "Feature", "geometry": {"type": "Point", "coordinates": [-122.3054669907, 45.489705569]}, "properties": {"species": "Fomitopsis cajanderi", "date": "2021-03-06", "location": "Oxbow Regional Park, Gresham, OR, US", "elevation": 28.0, "land_cover_label": "Tree cover", "water_mask": false, "exclude_reason": "keep", "ndvi": null, "soil_moisture": null, "solar_exposure": null, "wind_exposure": null, "water_retention": null, "slope": null, "aspect": null, "num_identification_agreements": 1, "cluster": 0, "tavg": null, "tmin": 5.0, "tmax": 12.2, "prcp_d0": 0.0, "prcp_d1": 0.0, "prcp_d2": 0.0, "prcp_d3": 0.0, "prcp_d4": 0.0, "prcp_d5": 0.0, "prcp_d6": 0.0, "tmax_d0": 10.8, "tmax_d1": 13.2, "tmax_d2": 16.7, "tmax_d3": 13.8, "tmax_d4": 13.9, "tmax_d5": 13.9, "tmax_d6": 12.2, "tmin_d0": 3.8, "tmin_d1": 3.5, "tmin_d2": 1.6, "tmin_d3": -0.4, "tmin_d4": 2.6, "tmin_d5": 1.9, "tmin_d6": 4.6, "day_of_year": 65, "uuid": "6d3e0ea1-e511-4525-a8a7-7a73e6c3c5e8", "inat_id": 70713767}}, {"type": "Feature", "geometry": {"type": "Point", "coordinates": [-122.3032833333, 45.48878]}, "properties": {"species": "Fomitopsis cajanderi", "date": "2021-05-11", "location": "Oxbow Regional Park, Gresham, OR, US", "elevation": 72.0, "land_cover_label": "Tree cover", "water_mask": false, "exclude_reason": "keep", "ndvi": null, "soil_moisture": null, "solar_exposure": null, "wind_exposure": null, "water_retention": null, "slope": null, "aspect": null, "num_identification_agreements": 1, "cluster": 0, "tavg": null, "tmin": 6.7, "tmax": 24.4, "prcp_d0": 0.0, "prcp_d1": 0.0, "prcp_d2": 0.0, "prcp_d3": 0.0, "prcp_d4": 9.79460620880127, "prcp_d5": 0.0, "prcp_d6": 0.0, "tmax_d0": 22.2, "tmax_d1": 19.8, "tmax_d2": 17.0, "tmax_d3": 14.9, "tmax_d4": 14.2, "tmax_d5": 23.6, "tmax_d6": 27.3, "tmin_d0": 6.1, "tmin_d1": 7.4, "tmin_d2": 9.0, "tmin_d3": 4.7, "tmin_d4": 6.7, "tmin_d5": 10.1, "tmin_d6": 6.4, "day_of_year": 131, "uuid": "1ac02457-f872-45c4-b0c3-3e3055d374e3", "inat_id": 78391692}}, {"type": "Feature", "geometry": {"type": "Point", "coordinates": [-121.816575, 45.495125]}, "properties": {"species": "Fomitopsis cajanderi", "date": "2021-06-16", "location": "Lost Lake Resort & Campground, Mount Hood Parkdale, OR, US", "elevation": 1024.0, "land_cover_label": "Tree cover", "water_mask": false, "exclude_reason": "keep", "ndvi": null, "soil_moisture": null, "solar_exposure": null, "wind_exposure": null, "water_retention": null, "slope": null, "aspect": null, "num_identification_agreements": 1, "cluster": 1, "tavg": null, "tmin": 12.2, "tmax": 27.2, "prcp_d0": 0.0, "prcp_d1": 0.0, "prcp_d2": 51.84137725830078, "prcp_d3": 0.0, "prcp_d4": 0.0, "prcp_d5": 0.0, "prcp_d6": 0.0, "tmax_d0": 18.9, "tmax_d1": 13.3, "tmax_d2": 13.2, "tmax_d3": 20.7, "tmax_d4": 20.2, "tmax_d5": 11.7, "tmax_d6": 11.6, "tmin_d0": 3.4, "tmin_d1": 7.0, "tmin_d2": 9.4, "tmin_d3": 11.4, "tmin_d4": 7.6, "tmin_d5": 5.1, "tmin_d6": 3.1, "day_of_year": 167, "uuid": "1ef64e20-813e-44a3-a1b1-a4e1164e8814", "inat_id": 83839828}}, {"type": "Feature", "geometry": {"type": "Point", "coordinates": [-122.2838220786, 45.1816705386]}, "properties": {"species": "Fomitopsis cajanderi", "date": "2021-08-21", "location": "97023, Estacada, OR, US", "elevation": 517.0, "land_cover_label": "Tree cover", "water_mask": false, "exclude_reason": "keep", "ndvi": null, "soil_moisture": null, "solar_exposure": null, "wind_exposure": null, "water_retention": null, "slope": null, "aspect": null, "num_identification_agreements": 1, "cluster": 0, "tavg": null, "tmin": 15.0, "tmax": 22.8, "prcp_d0": 4.299201488494873, "prcp_d1": 0.0, "prcp_d2": 0.0, "prcp_d3": 0.0, "prcp_d4": 0.0, "prcp_d5": 0.0, "prcp_d6": 0.0, "tmax_d0": 19.2, "tmax_d1": 21.8, "tmax_d2": 24.0, "tmax_d3": 23.5, "tmax_d4": 24.4, "tmax_d5": 30.7, "tmax_d6": 32.0, "tmin_d0": 11.2, "tmin_d1": 11.6, "tmin_d2": 10.9, "tmin_d3": 10.1, "tmin_d4": 10.4, "tmin_d5": 14.9, "tmin_d6": 18.0, "day_of_year": 233, "uuid": "ceb4063e-bb54-45c9-9db3-3e5ca503e45d", "inat_id": 92055363}}, {"type": "Feature", "geometry": {"type": "Point", "coordinates": [-122.303305, 45.4888116667]}, "properties": {"species": "Fomitopsis cajanderi", "date": "2023-03-09", "location": "Oxbow Regional Park, Gresham, OR, US", "elevation": 72.0, "land_cover_label": "Tree cover", "water_mask": false, "exclude_reason": "keep", "ndvi": null, "soil_moisture": null, "solar_exposure": null, "wind_exposure": null, "water_retention": null, "slope": null, "aspect": null, "num_identification_agreements": 1, "cluster": 0, "tavg": null, "tmin": 4.4, "tmax": 6.1, "prcp_d0": 0.0, "prcp_d1": 16.904464721679688, "prcp_d2": 0.0, "prcp_d3": 8.452232360839844, "prcp_d4": 0.0, "prcp_d5": 22.26048469543457, "prcp_d6": 0.0, "tmax_d0": 6.4, "tmax_d1": 8.0, "tmax_d2": 8.7, "tmax_d3": 9.2, "tmax_d4": 7.3, "tmax_d5": 6.4, "tmax_d6": 7.2, "tmin_d0": 1.5, "tmin_d1": -1.8, "tmin_d2": -0.1, "tmin_d3": -0.1, "tmin_d4": -3.2, "tmin_d5": 1.7, "tmin_d6": 0.9, "day_of_year": 68, "uuid": "12eb8bae-2555-4de7-9844-ba21db9860be", "inat_id": 150848673}}, {"type": "Feature", "geometry": {"type": "Point", "coordinates": [-121.8815616667, 45.60737]}, "properties": {"species": "Fomitopsis cajanderi", "date": "2023-04-24", "location": "Columbia River Gorge National Scenic Area - Headquarters, Cascade Locks, OR, US", "elevation": 242.0, "land_cover_label": "Tree cover", "water_mask": false, "exclude_reason": "keep", "ndvi": null, "soil_moisture": null, "solar_exposure": null, "wind_exposure": null, "water_retention": null, "slope": null, "aspect": null, "num_identification_agreements": 1, "cluster": 2, "tavg": null, "tmin": 5.6, "tmax": 13.2, "prcp_d0": 0.0, "prcp_d1": 0.0, "prcp_d2": 0.0, "prcp_d3": 47.26778411865234, "prcp_d4": 41.74784469604492, "prcp_d5": 0.0, "prcp_d6": 0.0, "tmax_d0": 11.3, "tmax_d1": 16.7, "tmax_d2": 15.7, "tmax_d3": 10.8, "tmax_d4": 8.3, "tmax_d5": 7.5, "tmax_d6": 8.7, "tmin_d0": 5.7, "tmin_d1": 7.7, "tmin_d2": 6.5, "tmin_d3": 3.6, "tmin_d4": 0.7, "tmin_d5": 2.6, "tmin_d6": 2.0, "day_of_year": 114, "uuid": "dd4af708-2fae-42d7-8bca-0242faff4732", "inat_id": 156855128}}, {"type": "Feature", "geometry": {"type": "Point", "coordinates": [-121.90534, 44.61478]}, "properties": {"species": "Fomitopsis cajanderi", "date": "2023-07-10", "location": "Linn County, OR, USA", "elevation": 995.0, "land_cover_label": "Tree cover", "water_mask": false, "exclude_reason": "keep", "ndvi": null, "soil_moisture": null, "solar_exposure": null, "wind_exposure": null, "water_retention": null, "slope": null, "aspect": null, "num_identification_agreements": 1, "cluster": 0, "tavg": null, "tmin": null, "tmax": null, "prcp_d0": 0.0, "prcp_d1": 0.0, "prcp_d2": 0.0, "prcp_d3": 0.0, "prcp_d4": 0.0, "prcp_d5": 0.0, "prcp_d6": 0.0, "tmax_d0": 22.5, "tmax_d1": 24.8, "tmax_d2": 25.4, "tmax_d3": 25.6, "tmax_d4": 28.6, "tmax_d5": 30.8, "tmax_d6": 29.3, "tmin_d0": 8.8, "tmin_d1": 12.3, "tmin_d2": 10.1, "tmin_d3": 11.7, "tmin_d4": 14.3, "tmin_d5": 10.2, "tmin_d6": 10.4, "day_of_year": 191, "uuid": "f8a2dd8e-990c-4fba-b2a6-7678859a0f36", "inat_id": 172278491}}, {"type": "Feature", "geometry": {"type": "Point", "coordinates": [-104.90818, 38.7762533333]}, "properties": {"species": "Fomitopsis cajanderi", "date": "2023-08-06", "location": "Pike and San Isabel National Forests, Manitou Springs, CO, US", "elevation": 2494.0, "land_cover_label": "Tree cover", "water_mask": false, "exclude_reason": "keep", "ndvi": null, "soil_moisture": null, "solar_exposure": null, "wind_exposure": null, "water_retention": null, "slope": null, "aspect": null, "num_identification_agreements": 1, "cluster": 2, "tavg": null, "tmin": 14.0, "tmax": 18.0, "prcp_d0": 0.0, "prcp_d1": 0.0, "prcp_d2": 0.0, "prcp_d3": 0.0, "prcp_d4": 0.0, "prcp_d5": 56.9954948425293, "prcp_d6": 5.646369457244873, "tmax_d0": 17.3, "tmax_d1": 21.2, "tmax_d2": 23.0, "tmax_d3": 23.7, "tmax_d4": 23.6, "tmax_d5": 22.5, "tmax_d6": 25.3, "tmin_d0": 9.4, "tmin_d1": 10.5, "tmin_d2": 10.3, "tmin_d3": 12.5, "tmin_d4": 10.1, "tmin_d5": 12.7, "tmin_d6": 12.6, "day_of_year": 218, "uuid": "d1c59d0e-1481-4ea1-8d53-5f38de721434", "inat_id": 177113083}}, {"type": "Feature", "geometry": {"type": "Point", "coordinates": [-122.2417526245, 45.4472961426]}, "properties": {"species": "Fomitopsis cajanderi", "date": "2023-10-02", "location": "Clackamas County, US-OR, US", "elevation": 114.0, "land_cover_label": "Tree cover", "water_mask": false, "exclude_reason": "keep", "ndvi": null, "soil_moisture": null, "solar_exposure": null, "wind_exposure": null, "water_retention": null, "slope": null, "aspect": null, "num_identification_agreements": 1, "cluster": 0, "tavg": null, "tmin": 10.6, "tmax": 16.1, "prcp_d0": 0.0, "prcp_d1": 0.0, "prcp_d2": 0.0, "prcp_d3": 0.0, "prcp_d4": 0.0, "prcp_d5": 0.0, "prcp_d6": 0.0, "tmax_d0": 17.2, "tmax_d1": 17.2, "tmax_d2": 17.6, "tmax_d3": 15.8, "tmax_d4": 16.2, "tmax_d5": 16.1, "tmax_d6": 17.4, "tmin_d0": 7.8, "tmin_d1": 3.3, "tmin_d2": 7.6, "tmin_d3": 11.3, "tmin_d4": 9.8, "tmin_d5": 11.0, "tmin_d6": 10.8, "day_of_year": 275, "uuid": "56373041-4920-4a8c-9413-3f4e24ee9b74", "inat_id": 185969143}}, {"type": "Feature", "geometry": {"type": "Point", "coordinates": [-122.1257638333, 45.5715716667]}, "properties": {"species": "Fomitopsis cajanderi", "date": "2023-10-16", "location": "Benson State Park, Corbett, OR, US", "elevation": 270.0, "land_cover_label": "Grassland", "water_mask": false, "exclude_reason": "keep", "ndvi": null, "soil_moisture": null, "solar_exposure": null, "wind_exposure": null, "water_retention": null, "slope": null, "aspect": null, "num_identification_agreements": 1, "cluster": 1, "tavg": null, "tmin": 13.9, "tmax": 21.7, "prcp_d0": 31.456504821777344, "prcp_d1": 21.4900016784668, "prcp_d2": 21.4900016784668, "prcp_d3": 0.0, "prcp_d4": 0.0, "prcp_d5": 0.0, "prcp_d6": 0.0, "tmax_d0": 16.5, "tmax_d1": 18.1, "tmax_d2": 16.8, "tmax_d3": 17.3, "tmax_d4": 17.9, "tmax_d5": 12.6, "tmax_d6": 14.3, "tmin_d0": 12.4, "tmin_d1": 11.1, "tmin_d2": 10.9, "tmin_d3": 9.4, "tmin_d4": 10.7, "tmin_d5": 8.9, "tmin_d6": 10.6, "day_of_year": 289, "uuid": "fff53de3-d4bc-407a-bfc2-488ca4d9e68c", "inat_id": 187932293}}, {"type": "Feature", "geometry": {"type": "Point", "coordinates": [-122.2901083333, 45.4955666667]}, "properties": {"species": "Fomitopsis cajanderi", "date": "2023-10-21", "location": "Oxbow Regional Park, Corbett, OR, US", "elevation": 63.0, "land_cover_label": "Tree cover", "water_mask": false, "exclude_reason": "keep", "ndvi": null, "soil_moisture": null, "solar_exposure": null, "wind_exposure": null, "water_retention": null, "slope": null, "aspect": null, "num_identification_agreements": 1, "cluster": 0, "tavg": null, "tmin": 12.8, "tmax": 16.7, "prcp_d0": 0.0, "prcp_d1": 0.0, "prcp_d2": 0.0, "prcp_d3": 0.0, "prcp_d4": 0.0, "prcp_d5": 23.62357711791992, "prcp_d6": 0.0, "tmax_d0": 18.6, "tmax_d1": 19.8, "tmax_d2": 19.6, "tmax_d3": 22.0, "tmax_d4": 18.8, "tmax_d5": 18.7, "tmax_d6": 20.1, "tmin_d0": 10.0, "tmin_d1": 10.6, "tmin_d2": 8.3, "tmin_d3": 8.1, "tmin_d4": 11.0, "tmin_d5": 14.1, "tmin_d6": 12.1, "day_of_year": 294, "uuid": "a46aa8d1-2482-47a0-8d71-e5252c5d3502", "inat_id": 188576833}}, {"type": "Feature", "geometry": {"type": "Point", "coordinates": [-121.8438633333, 44.65433]}, "properties": {"species": "Fomitopsis cajanderi", "date": "2023-10-21", "location": "Bosque Nacional De Willamette, Idanha, OR, US", "elevation": 1236.0, "land_cover_label": "Tree cover", "water_mask": false, "exclude_reason": "keep", "ndvi": null, "soil_moisture": null, "solar_exposure": null, "wind_exposure": null, "water_retention": null, "slope": null, "aspect": null, "num_identification_agreements": 1, "cluster": 0, "tavg": null, "tmin": null, "tmax": null, "prcp_d0": 0.0, "prcp_d1": 0.0, "prcp_d2": 0.0, "prcp_d3": 0.0, "prcp_d4": 0.0, "prcp_d5": 14.7830171585083, "prcp_d6": 0.0, "tmax_d0": 20.4, "tmax_d1": 20.7, "tmax_d2": 21.7, "tmax_d3": 23.8, "tmax_d4": 15.8, "tmax_d5": 17.2, "tmax_d6": 18.8, "tmin_d0": 9.9, "tmin_d1": 10.3, "tmin_d2": 11.3, "tmin_d3": 7.5, "tmin_d4": 2.8, "tmin_d5": 9.5, "tmin_d6": 6.3, "day_of_year": 294, "uuid": "401d7a66-a4f5-41f3-a587-25e6ddef9bf6", "inat_id": 188603116}}, {"type": "Feature", "geometry": {"type": "Point", "coordinates": [-122.0327984557, 45.3803491258]}, "properties": {"species": "Fomitopsis cajanderi", "date": "2023-11-14", "location": "E Barlow Trail Rd, Brightwood, OR, US", "elevation": 332.0, "land_cover_label": "Tree cover", "water_mask": false, "exclude_reason": "keep", "ndvi": null, "soil_moisture": null, "solar_exposure": null, "wind_exposure": null, "water_retention": null, "slope": null, "aspect": null, "num_identification_agreements": 1, "cluster": 0, "tavg": null, "tmin": 5.0, "tmax": 14.4, "prcp_d0": 0.0, "prcp_d1": 0.0, "prcp_d2": 0.0, "prcp_d3": 26.67236518859864, "prcp_d4": 0.0, "prcp_d5": 13.98742389678955, "prcp_d6": 0.0, "tmax_d0": 14.9, "tmax_d1": 13.0, "tmax_d2": 15.0, "tmax_d3": 10.2, "tmax_d4": 10.9, "tmax_d5": 13.8, "tmax_d6": 10.6, "tmin_d0": 2.0, "tmin_d1": 7.6, "tmin_d2": 6.2, "tmin_d3": 7.0, "tmin_d4": 6.0, "tmin_d5": 3.2, "tmin_d6": 3.3, "day_of_year": 318, "uuid": "fca08917-f43b-428d-a3be-189dd0345790", "inat_id": 191151183}}, {"type": "Feature", "geometry": {"type": "Point", "coordinates": [-122.4912668573, 45.3436918038]}, "properties": {"species": "Fomitopsis cajanderi", "date": "2023-11-26", "location": "Oregon City, OR 97045, USA", "elevation": 102.0, "land_cover_label": "Bare / sparse vegetation", "water_mask": false, "exclude_reason": "keep", "ndvi": null, "soil_moisture": null, "solar_exposure": null, "wind_exposure": null, "water_retention": null, "slope": null, "aspect": null, "num_identification_agreements": 1, "cluster": 0, "tavg": null, "tmin": 6.7, "tmax": 11.1, "prcp_d0": 0.0, "prcp_d1": 0.0, "prcp_d2": 0.0, "prcp_d3": 0.0, "prcp_d4": 0.0, "prcp_d5": 15.813875198364258, "prcp_d6": 0.0, "tmax_d0": 9.9, "tmax_d1": 10.2, "tmax_d2": 9.2, "tmax_d3": 9.7, "tmax_d4": 10.9, "tmax_d5": 12.4, "tmax_d6": 13.3, "tmin_d0": 1.2, "tmin_d1": -0.7, "tmin_d2": -2.0, "tmin_d3": 3.4, "tmin_d4": 6.9, "tmin_d5": 4.0, "tmin_d6": 0.6, "day_of_year": 330, "uuid": "34ba2ece-1f94-4ef8-8949-9271e3479968", "inat_id": 192252280}}, {"type": "Feature", "geometry": {"type": "Point", "coordinates": [-121.9390529548, 45.2878448782]}, "properties": {"species": "Fomitopsis cajanderi", "date": "2023-12-07", "location": "Zigzag Ranger Station, Welches, OR, US", "elevation": 534.0, "land_cover_label": "Tree cover", "water_mask": false, "exclude_reason": "keep", "ndvi": null, "soil_moisture": null, "solar_exposure": null, "wind_exposure": null, "water_retention": null, "slope": null, "aspect": null, "num_identification_agreements": 1, "cluster": 2, "tavg": null, "tmin": 7.8, "tmax": 10.6, "prcp_d0": 39.998172760009766, "prcp_d1": 0.0, "prcp_d2": 16.53809928894043, "prcp_d3": 0.0, "prcp_d4": 33.07619857788086, "prcp_d5": 66.15239715576172, "prcp_d6": 0.0, "tmax_d0": 7.6, "tmax_d1": 12.0, "tmax_d2": 13.4, "tmax_d3": 12.3, "tmax_d4": 10.2, "tmax_d5": 6.5, "tmax_d6": 4.4, "tmin_d0": 3.0, "tmin_d1": 8.0, "tmin_d2": 10.4, "tmin_d3": 7.4, "tmin_d4": 4.3, "tmin_d5": 3.7, "tmin_d6": 1.3, "day_of_year": 341, "uuid": "46ead746-6e03-4ba4-8013-aae1dcf70e3e", "inat_id": 193354607}}, {"type": "Feature", "geometry": {"type": "Point", "coordinates": [-121.8232265662, 45.6745495587]}, "properties": {"species": "Fomitopsis cajanderi", "date": "2023-12-31", "location": "Columbia River Gorge National Scenic Area, Cascade Locks, OR, US", "elevation": 255.0, "land_cover_label": "Tree cover", "water_mask": false, "exclude_reason": "keep", "ndvi": null, "soil_moisture": null, "solar_exposure": null, "wind_exposure": null, "water_retention": null, "slope": null, "aspect": null, "num_identification_agreements": 1, "cluster": 0, "tavg": null, "tmin": 1.3, "tmax": 6.7, "prcp_d0": 0.0, "prcp_d1": 8.572476387023926, "prcp_d2": 8.572476387023926, "prcp_d3": 4.286238193511963, "prcp_d4": 17.14495277404785, "prcp_d5": 8.572476387023926, "prcp_d6": 6.421377658843994, "tmax_d0": 6.6, "tmax_d1": 6.8, "tmax_d2": 5.4, "tmax_d3": 4.9, "tmax_d4": 2.3, "tmax_d5": 3.4, "tmax_d6": 0.5, "tmin_d0": 0.3, "tmin_d1": 2.1, "tmin_d2": 0.5, "tmin_d3": -0.4, "tmin_d4": 0.8, "tmin_d5": -1.2, "tmin_d6": -1.4, "day_of_year": 365, "uuid": "40861b62-1fd1-41b3-998f-7a2d22e38434", "inat_id": 195433429}}, {"type": "Feature", "geometry": {"type": "Point", "coordinates": [-122.0194348721, 45.370697944]}, "properties": {"species": "Fomitopsis cajanderi", "date": "2024-04-22", "location": "E Blue Jay Ln, Brightwood, OR, US", "elevation": 367.0, "land_cover_label": "Tree cover", "water_mask": false, "exclude_reason": "keep", "ndvi": null, "soil_moisture": null, "solar_exposure": null, "wind_exposure": null, "water_retention": null, "slope": null, "aspect": null, "num_identification_agreements": 1, "cluster": 0, "tavg": null, "tmin": 2.8, "tmax": 22.2, "prcp_d0": 0.0, "prcp_d1": 0.0, "prcp_d2": 0.0, "prcp_d3": 0.0, "prcp_d4": 0.0, "prcp_d5": 0.0, "prcp_d6": 0.0, "tmax_d0": 18.5, "tmax_d1": 12.6, "tmax_d2": 20.4, "tmax_d3": 18.0, "tmax_d4": 17.1, "tmax_d5": 15.1, "tmax_d6": 8.8, "tmin_d0": -2.8, "tmin_d1": 4.3, "tmin_d2": 7.6, "tmin_d3": 6.9, "tmin_d4": 1.9, "tmin_d5": -2.6, "tmin_d6": 3.3, "day_of_year": 113, "uuid": "56a70fee-16d5-4661-a9ad-df54ef4cdf9e", "inat_id": 208801010}}, {"type": "Feature", "geometry": {"type": "Point", "coordinates": [-122.1160805556, 45.5495027778]}, "properties": {"species": "Fomitopsis cajanderi", "date": "2024-05-08", "location": "Cascade Locks, OR 97014, USA", "elevation": 761.0, "land_cover_label": "Tree cover", "water_mask": false, "exclude_reason": "keep", "ndvi": null, "soil_moisture": null, "solar_exposure": null, "wind_exposure": null, "water_retention": null, "slope": null, "aspect": null, "num_identification_agreements": 1, "cluster": 2, "tavg": null, "tmin": 4.4, "tmax": 21.7, "prcp_d0": 0.0, "prcp_d1": 0.0, "prcp_d2": 0.0, "prcp_d3": 0.0, "prcp_d4": 171.0461883544922, "prcp_d5": 0.0, "prcp_d6": 0.0, "tmax_d0": 13.4, "tmax_d1": 7.4, "tmax_d2": 6.1, "tmax_d3": 4.9, "tmax_d4": 9.2, "tmax_d5": 15.8, "tmax_d6": 10.5, "tmin_d0": 0.8, "tmin_d1": 0.5, "tmin_d2": 3.0, "tmin_d3": 2.4, "tmin_d4": 2.9, "tmin_d5": -1.0, "tmin_d6": 1.7, "day_of_year": 129, "uuid": "93dec4ae-14f6-4ad3-8a07-f31c215ad56f", "inat_id": 214540541}}, {"type": "Feature", "geometry": {"type": "Point", "coordinates": [-105.3814192861, 39.1749116337]}, "properties": {"species": "Fomitopsis cajanderi", "date": "2024-07-28", "location": "Sedalia, CO 80135, USA", "elevation": 2538.0, "land_cover_label": "Tree cover", "water_mask": false, "exclude_reason": "keep", "ndvi": null, "soil_moisture": 0.1702459716060438, "solar_exposure": 0.7748578786849976, "wind_exposure": 0.2029605954885482, "water_retention": 0.2616346180438995, "slope": 10.327598571777344, "aspect": 63.46185302734375, "num_identification_agreements": 1, "cluster": 0, "tavg": null, "tmin": 6.2, "tmax": 21.0, "prcp_d0": 0.0, "prcp_d1": 0.0, "prcp_d2": 12.115233421325684, "prcp_d3": 0.0, "prcp_d4": 0.0, "prcp_d5": 0.0, "prcp_d6": 0.0, "tmax_d0": 27.8, "tmax_d1": 26.4, "tmax_d2": 25.2, "tmax_d3": 28.7, "tmax_d4": 26.7, "tmax_d5": 24.2, "tmax_d6": 20.9, "tmin_d0": 12.2, "tmin_d1": 11.2, "tmin_d2": 12.8, "tmin_d3": 11.9, "tmin_d4": 10.1, "tmin_d5": 8.5, "tmin_d6": 8.2, "day_of_year": 210, "uuid": "deaf3ea0-b7be-4706-9f44-ba65cd6fa3b7", "inat_id": 309817662}}, {"type": "Feature", "geometry": {"type": "Point", "coordinates": [-105.6773219915, 35.6119895857]}, "properties": {"species": "Fomitopsis cajanderi", "date": "2024-08-04", "location": "New Mexico, US", "elevation": 2157.0, "land_cover_label": "Tree cover", "water_mask": false, "exclude_reason": "keep", "ndvi": null, "soil_moisture": null, "solar_exposure": null, "wind_exposure": null, "water_retention": null, "slope": null, "aspect": null, "num_identification_agreements": 1, "cluster": 0, "tavg": null, "tmin": 16.1, "tmax": 33.9, "prcp_d0": 0.0, "prcp_d1": 0.0, "prcp_d2": 6.106607437133789, "prcp_d3": 6.106607437133789, "prcp_d4": 0.0, "prcp_d5": 0.0, "prcp_d6": 0.0, "tmax_d0": 28.6, "tmax_d1": 28.7, "tmax_d2": 29.0, "tmax_d3": 31.0, "tmax_d4": 32.1, "tmax_d5": 30.0, "tmax_d6": 30.2, "tmin_d0": 11.4, "tmin_d1": 15.2, "tmin_d2": 12.8, "tmin_d3": 14.2, "tmin_d4": 15.9, "tmin_d5": 16.0, "tmin_d6": 14.7, "day_of_year": 217, "uuid": "70fe25cd-e97b-4507-a47e-4dc8bc7afc55", "inat_id": 234519440}}, {"type": "Feature", "geometry": {"type": "Point", "coordinates": [-106.6416888889, 35.8308055556]}, "properties": {"species": "Fomitopsis cajanderi", "date": "2024-08-12", "location": "Jemez Springs, NM 87025, USA", "elevation": 2085.0, "land_cover_label": "Tree cover", "water_mask": false, "exclude_reason": "keep", "ndvi": null, "soil_moisture": null, "solar_exposure": null, "wind_exposure": null, "water_retention": null, "slope": null, "aspect": null, "num_identification_agreements": 2, "cluster": 0, "tavg": null, "tmin": 15.2, "tmax": 27.0, "prcp_d0": 0.0, "prcp_d1": 0.0, "prcp_d2": 0.0, "prcp_d3": 4.172702312469482, "prcp_d4": 8.345404624938965, "prcp_d5": 0.0, "prcp_d6": 0.0, "tmax_d0": 28.2, "tmax_d1": 27.9, "tmax_d2": 27.6, "tmax_d3": 26.9, "tmax_d4": 29.0, "tmax_d5": 29.5, "tmax_d6": 29.3, "tmin_d0": 12.1, "tmin_d1": 13.9, "tmin_d2": 13.6, "tmin_d3": 15.6, "tmin_d4": 13.3, "tmin_d5": 12.5, "tmin_d6": 12.1, "day_of_year": 225, "uuid": "72d74ae4-278c-46bb-a420-cd8963464418", "inat_id": 235446902}}, {"type": "Feature", "geometry": {"type": "Point", "coordinates": [-107.4606033333, 37.4685466667]}, "properties": {"species": "Fomitopsis cajanderi", "date": "2024-08-14", "location": "San Juan National Forest - Headquarters, Pagosa Springs, CO, US", "elevation": 2440.0, "land_cover_label": "Grassland", "water_mask": false, "exclude_reason": "keep", "ndvi": null, "soil_moisture": null, "solar_exposure": null, "wind_exposure": null, "water_retention": null, "slope": null, "aspect": null, "num_identification_agreements": 1, "cluster": 0, "tavg": null, "tmin": 10.0, "tmax": 25.0, "prcp_d0": 0.0, "prcp_d1": 0.0, "prcp_d2": 0.0, "prcp_d3": 27.47978782653809, "prcp_d4": 7.11559534072876, "prcp_d5": 0.0, "prcp_d6": 14.23119068145752, "tmax_d0": 22.4, "tmax_d1": 20.9, "tmax_d2": 22.9, "tmax_d3": 21.8, "tmax_d4": 20.8, "tmax_d5": 20.7, "tmax_d6": 26.7, "tmin_d0": 8.2, "tmin_d1": 10.9, "tmin_d2": 10.9, "tmin_d3": 9.3, "tmin_d4": 11.4, "tmin_d5": 12.0, "tmin_d6": 10.2, "day_of_year": 227, "uuid": "502539d7-3b23-419f-b0f9-82b308230ced", "inat_id": 236841575}}, {"type": "Feature", "geometry": {"type": "Point", "coordinates": [-105.2791966667, 36.3784783333]}, "properties": {"species": "Fomitopsis cajanderi", "date": "2024-09-04", "location": "Angel Fire, NM, US", "elevation": 2637.0, "land_cover_label": "Tree cover", "water_mask": false, "exclude_reason": "keep", "ndvi": null, "soil_moisture": null, "solar_exposure": null, "wind_exposure": null, "water_retention": null, "slope": null, "aspect": null, "num_identification_agreements": 1, "cluster": 0, "tavg": null, "tmin": 0.5, "tmax": 25.3, "prcp_d0": 0.0, "prcp_d1": 0.0, "prcp_d2": 0.0, "prcp_d3": 0.0, "prcp_d4": 0.0, "prcp_d5": 6.367806911468506, "prcp_d6": 5.236474514007568, "tmax_d0": 23.3, "tmax_d1": 22.4, "tmax_d2": 19.0, "tmax_d3": 18.8, "tmax_d4": 20.8, "tmax_d5": 18.7, "tmax_d6": 19.5, "tmin_d0": 9.0, "tmin_d1": 6.5, "tmin_d2": 4.1, "tmin_d3": 6.6, "tmin_d4": 5.5, "tmin_d5": 8.3, "tmin_d6": 8.1, "day_of_year": 248, "uuid": "bfcba9f9-4fac-4e92-8b18-9d339ae57c6a", "inat_id": 240549074}}, {"type": "Feature", "geometry": {"type": "Point", "coordinates": [-105.2791966667, 36.3784783333]}, "properties": {"species": "Fomitopsis cajanderi", "date": "2024-09-04", "location": "Angel Fire, NM, US", "elevation": 2637.0, "land_cover_label": "Tree cover", "water_mask": false, "exclude_reason": "keep", "ndvi": null, "soil_moisture": null, "solar_exposure": null, "wind_exposure": null, "water_retention": null, "slope": null, "aspect": null, "num_identification_agreements": 1, "cluster": 0, "tavg": null, "tmin": 0.5, "tmax": 25.3, "prcp_d0": 0.0, "prcp_d1": 0.0, "prcp_d2": 0.0, "prcp_d3": 0.0, "prcp_d4": 0.0, "prcp_d5": 6.367806911468506, "prcp_d6": 5.236474514007568, "tmax_d0": 23.3, "tmax_d1": 22.4, "tmax_d2": 19.0, "tmax_d3": 18.8, "tmax_d4": 20.8, "tmax_d5": 18.7, "tmax_d6": 19.5, "tmin_d0": 9.0, "tmin_d1": 6.5, "tmin_d2": 4.1, "tmin_d3": 6.6, "tmin_d4": 5.5, "tmin_d5": 8.3, "tmin_d6": 8.1, "day_of_year": 248, "uuid": "dd677f31-4671-417c-ad34-af5f7a6326c0", "inat_id": 240415108}}, {"type": "Feature", "geometry": {"type": "Point", "coordinates": [-106.3945466667, 35.8932116667]}, "properties": {"species": "Fomitopsis cajanderi", "date": "2024-09-21", "location": "Pajarito Mountain, Los Alamos, NM, US", "elevation": 2902.0, "land_cover_label": "Tree cover", "water_mask": false, "exclude_reason": "keep", "ndvi": null, "soil_moisture": null, "solar_exposure": null, "wind_exposure": null, "water_retention": null, "slope": null, "aspect": null, "num_identification_agreements": 1, "cluster": 0, "tavg": null, "tmin": 10.8, "tmax": 21.2, "prcp_d0": 7.539669513702393, "prcp_d1": 0.0, "prcp_d2": 0.0, "prcp_d3": 0.0, "prcp_d4": 0.0, "prcp_d5": 6.61293888092041, "prcp_d6": 0.0, "tmax_d0": 15.8, "tmax_d1": 17.4, "tmax_d2": 16.6, "tmax_d3": 16.3, "tmax_d4": 13.1, "tmax_d5": 16.5, "tmax_d6": 18.7, "tmin_d0": 6.6, "tmin_d1": 7.1, "tmin_d2": 5.2, "tmin_d3": 4.0, "tmin_d4": 6.2, "tmin_d5": 7.3, "tmin_d6": 10.2, "day_of_year": 265, "uuid": "c4be2ab1-e474-47a4-ae28-9d1687d9ab58", "inat_id": 243180657}}, {"type": "Feature", "geometry": {"type": "Point", "coordinates": [-122.5601277778, 45.2395055556]}, "properties": {"species": "Fomitopsis cajanderi", "date": "2024-09-28", "location": "Mulino, OR, USA", "elevation": 135.0, "land_cover_label": "Tree cover", "water_mask": false, "exclude_reason": "keep", "ndvi": null, "soil_moisture": null, "solar_exposure": null, "wind_exposure": null, "water_retention": null, "slope": null, "aspect": null, "num_identification_agreements": 1, "cluster": 0, "tavg": null, "tmin": 10.0, "tmax": 23.3, "prcp_d0": 0.0, "prcp_d1": 0.0, "prcp_d2": 0.0, "prcp_d3": 0.0, "prcp_d4": 0.0, "prcp_d5": 0.0, "prcp_d6": 0.0, "tmax_d0": 22.5, "tmax_d1": 21.3, "tmax_d2": 20.4, "tmax_d3": 30.2, "tmax_d4": 31.0, "tmax_d5": 25.9, "tmax_d6": 24.4, "tmin_d0": 9.6, "tmin_d1": 13.5, "tmin_d2": 10.2, "tmin_d3": 14.8, "tmin_d4": 14.0, "tmin_d5": 13.9, "tmin_d6": 8.4, "day_of_year": 272, "uuid": "6e6953e2-67e0-4fd5-b92c-098cbdd4c080", "inat_id": 244591587}}, {"type": "Feature", "geometry": {"type": "Point", "coordinates": [-122.3038047997, 45.4885555997]}, "properties": {"species": "Fomitopsis cajanderi", "date": "2024-10-12", "location": "Gresham, OR 97080, USA", "elevation": 72.0, "land_cover_label": "Tree cover", "water_mask": false, "exclude_reason": "keep", "ndvi": null, "soil_moisture": null, "solar_exposure": null, "wind_exposure": null, "water_retention": null, "slope": null, "aspect": null, "num_identification_agreements": 1, "cluster": 0, "tavg": null, "tmin": 8.9, "tmax": 24.4, "prcp_d0": 0.0, "prcp_d1": 19.49992752075196, "prcp_d2": 0.0, "prcp_d3": 0.0, "prcp_d4": 0.0, "prcp_d5": 0.0, "prcp_d6": 0.0, "tmax_d0": 24.2, "tmax_d1": 21.2, "tmax_d2": 20.8, "tmax_d3": 20.4, "tmax_d4": 25.1, "tmax_d5": 27.5, "tmax_d6": 21.6, "tmin_d0": 9.3, "tmin_d1": 10.7, "tmin_d2": 6.2, "tmin_d3": 13.2, "tmin_d4": 10.7, "tmin_d5": 8.2, "tmin_d6": 6.4, "day_of_year": 286, "uuid": "38b6a804-f73a-45ea-abcf-e9ddfe2762fe", "inat_id": 247146680}}, {"type": "Feature", "geometry": {"type": "Point", "coordinates": [-122.2901772997, 45.4971086997]}, "properties": {"species": "Fomitopsis cajanderi", "date": "2024-10-19", "location": "FPW6+82V, Corbett, OR 97080, USA", "elevation": 60.0, "land_cover_label": "Tree cover", "water_mask": false, "exclude_reason": "keep", "ndvi": null, "soil_moisture": null, "solar_exposure": null, "wind_exposure": null, "water_retention": null, "slope": null, "aspect": null, "num_identification_agreements": 1, "cluster": 0, "tavg": null, "tmin": 12.2, "tmax": 22.8, "prcp_d0": 0.0, "prcp_d1": 0.0, "prcp_d2": 0.0, "prcp_d3": 44.570289611816406, "prcp_d4": 0.0, "prcp_d5": 0.0, "prcp_d6": 0.0, "tmax_d0": 20.5, "tmax_d1": 12.8, "tmax_d2": 14.2, "tmax_d3": 15.9, "tmax_d4": 20.1, "tmax_d5": 21.1, "tmax_d6": 22.7, "tmin_d0": 10.5, "tmin_d1": 5.8, "tmin_d2": 7.9, "tmin_d3": 12.3, "tmin_d4": 13.6, "tmin_d5": 10.0, "tmin_d6": 8.1, "day_of_year": 293, "uuid": "c05e59b8-627e-4510-90e5-d6255f7684ac", "inat_id": 249093370}}, {"type": "Feature", "geometry": {"type": "Point", "coordinates": [-122.0958721667, 45.5680083333]}, "properties": {"species": "Fomitopsis cajanderi", "date": "2024-11-10", "location": "Zigzag Ranger Station, Corbett, OR, US", "elevation": 502.0, "land_cover_label": "Tree cover", "water_mask": false, "exclude_reason": "keep", "ndvi": null, "soil_moisture": null, "solar_exposure": null, "wind_exposure": null, "water_retention": null, "slope": null, "aspect": null, "num_identification_agreements": 1, "cluster": 0, "tavg": null, "tmin": 10.0, "tmax": 13.9, "prcp_d0": 0.0, "prcp_d1": 0.0, "prcp_d2": 0.0, "prcp_d3": 0.0, "prcp_d4": 0.0, "prcp_d5": 0.0, "prcp_d6": 0.0, "tmax_d0": 9.8, "tmax_d1": 11.7, "tmax_d2": 11.7, "tmax_d3": 10.3, "tmax_d4": 10.3, "tmax_d5": 7.4, "tmax_d6": 8.3, "tmin_d0": 5.8, "tmin_d1": 5.3, "tmin_d2": 2.6, "tmin_d3": 2.7, "tmin_d4": 1.5, "tmin_d5": 4.6, "tmin_d6": 3.7, "day_of_year": 315, "uuid": "7fbd8ee4-32cd-4367-8d1f-73a1f0b22861", "inat_id": 251255229}}, {"type": "Feature", "geometry": {"type": "Point", "coordinates": [-121.8630777778, 45.2917]}, "properties": {"species": "Fomitopsis cajanderi", "date": "2024-11-24", "location": "Rhododendron, OR 97049, USA", "elevation": 740.0, "land_cover_label": "Tree cover", "water_mask": false, "exclude_reason": "keep", "ndvi": null, "soil_moisture": null, "solar_exposure": null, "wind_exposure": null, "water_retention": null, "slope": null, "aspect": null, "num_identification_agreements": 1, "cluster": 2, "tavg": null, "tmin": 1.8, "tmax": 5.7, "prcp_d0": 0.0, "prcp_d1": 0.0, "prcp_d2": 41.04870223999024, "prcp_d3": 13.682901382446287, "prcp_d4": 75.8931655883789, "prcp_d5": 37.94658279418945, "prcp_d6": 37.94658279418945, "tmax_d0": 6.3, "tmax_d1": 5.6, "tmax_d2": 9.4, "tmax_d3": 8.7, "tmax_d4": 8.0, "tmax_d5": 4.5, "tmax_d6": 1.9, "tmin_d0": -2.1, "tmin_d1": 0.2, "tmin_d2": 2.6, "tmin_d3": 1.4, "tmin_d4": 2.3, "tmin_d5": -5.2, "tmin_d6": -0.2, "day_of_year": 329, "uuid": "108b47dd-7c46-414f-a524-2e33f2060862", "inat_id": 253077307}}, {"type": "Feature", "geometry": {"type": "Point", "coordinates": [-122.50492266, 45.01949331]}, "properties": {"species": "Fomitopsis cajanderi", "date": "2024-12-19", "location": "Molalla, OR 97038, USA", "elevation": 473.0, "land_cover_label": "Tree cover", "water_mask": false, "exclude_reason": "keep", "ndvi": null, "soil_moisture": null, "solar_exposure": null, "wind_exposure": null, "water_retention": null, "slope": null, "aspect": null, "num_identification_agreements": 1, "cluster": 2, "tavg": null, "tmin": 6.1, "tmax": 10.6, "prcp_d0": 0.0, "prcp_d1": 11.46328067779541, "prcp_d2": 11.46328067779541, "prcp_d3": 22.92656135559082, "prcp_d4": 0.0, "prcp_d5": 28.45728874206543, "prcp_d6": 18.971525192260746, "tmax_d0": 14.8, "tmax_d1": 12.8, "tmax_d2": 9.4, "tmax_d3": 9.6, "tmax_d4": 6.8, "tmax_d5": 7.4, "tmax_d6": 7.2, "tmin_d0": 7.9, "tmin_d1": 7.9, "tmin_d2": 5.1, "tmin_d3": 3.9, "tmin_d4": 0.8, "tmin_d5": 5.0, "tmin_d6": 3.7, "day_of_year": 354, "uuid": "80a2f789-8c5e-4577-8c7c-9ac76f48b5f6", "inat_id": 255626713}}, {"type": "Feature", "geometry": {"type": "Point", "coordinates": [-122.0855159722, 45.639155]}, "properties": {"species": "Fomitopsis cajanderi", "date": "2025-01-09", "location": "Stevenson, WA 98648, USA", "elevation": 385.0, "land_cover_label": "Tree cover", "water_mask": false, "exclude_reason": "keep", "ndvi": null, "soil_moisture": null, "solar_exposure": null, "wind_exposure": null, "water_retention": null, "slope": null, "aspect": null, "num_identification_agreements": 1, "cluster": 2, "tavg": null, "tmin": 5.6, "tmax": 7.8, "prcp_d0": 0.0, "prcp_d1": 13.985199928283691, "prcp_d2": 0.0, "prcp_d3": 13.985199928283691, "prcp_d4": 0.0, "prcp_d5": 0.0, "prcp_d6": 109.2204132080078, "tmax_d0": 9.3, "tmax_d1": 13.5, "tmax_d2": 5.9, "tmax_d3": 7.7, "tmax_d4": 8.1, "tmax_d5": 6.1, "tmax_d6": 4.6, "tmin_d0": -0.3, "tmin_d1": 0.2, "tmin_d2": 0.7, "tmin_d3": 4.4, "tmin_d4": 3.9, "tmin_d5": 1.5, "tmin_d6": 1.0, "day_of_year": 9, "uuid": "62f138ef-255f-4851-b325-b095331e5216", "inat_id": 258079449}}, {"type": "Feature", "geometry": {"type": "Point", "coordinates": [-122.2282373705, 45.305411287]}, "properties": {"species": "Fomitopsis cajanderi", "date": "2025-02-01", "location": "Clackamas County, US-OR, US", "elevation": 403.0, "land_cover_label": "Tree cover", "water_mask": false, "exclude_reason": "keep", "ndvi": null, "soil_moisture": null, "solar_exposure": null, "wind_exposure": null, "water_retention": null, "slope": null, "aspect": null, "num_identification_agreements": 1, "cluster": 0, "tavg": null, "tmin": 2.8, "tmax": 7.8, "prcp_d0": 3.727667570114136, "prcp_d1": 14.526568412780762, "prcp_d2": 0.0, "prcp_d3": 0.0, "prcp_d4": 0.0, "prcp_d5": 0.0, "prcp_d6": 0.0, "tmax_d0": 6.9, "tmax_d1": 7.6, "tmax_d2": 6.5, "tmax_d3": 9.9, "tmax_d4": 13.2, "tmax_d5": 11.0, "tmax_d6": 8.2, "tmin_d0": 0.1, "tmin_d1": 0.8, "tmin_d2": -6.7, "tmin_d3": -3.1, "tmin_d4": 0.3, "tmin_d5": -0.7, "tmin_d6": -3.4, "day_of_year": 32, "uuid": "8cf6cf5c-a34f-49cf-a853-76973bffeb3a", "inat_id": 260326558}}, {"type": "Feature", "geometry": {"type": "Point", "coordinates": [-122.2373472669, 45.4414557472]}, "properties": {"species": "Fomitopsis cajanderi", "date": "2025-03-19", "location": "SE Camp Namanu Rd, Sandy, OR, US", "elevation": 145.0, "land_cover_label": "Tree cover", "water_mask": false, "exclude_reason": "keep", "ndvi": null, "soil_moisture": null, "solar_exposure": null, "wind_exposure": null, "water_retention": null, "slope": null, "aspect": null, "num_identification_agreements": 1, "cluster": 2, "tavg": null, "tmin": 6.1, "tmax": 10.6, "prcp_d0": 82.55215454101562, "prcp_d1": 0.0, "prcp_d2": 0.0, "prcp_d3": 0.0, "prcp_d4": 0.0, "prcp_d5": 0.0, "prcp_d6": 97.95359802246094, "tmax_d0": 13.2, "tmax_d1": 9.1, "tmax_d2": 10.2, "tmax_d3": 9.0, "tmax_d4": 7.1, "tmax_d5": 6.6, "tmax_d6": 8.4, "tmin_d0": 2.5, "tmin_d1": 0.6, "tmin_d2": 3.4, "tmin_d3": 4.1, "tmin_d4": 4.2, "tmin_d5": -0.0, "tmin_d6": 1.8, "day_of_year": 78, "uuid": "1b1a60b6-e54b-47ab-8193-9b513e839e42", "inat_id": 266505667}}, {"type": "Feature", "geometry": {"type": "Point", "coordinates": [-122.0797805, 45.5879833333]}, "properties": {"species": "Fomitopsis cajanderi", "date": "2025-04-13", "location": "Columbia River Gorge National Scenic Area, Corbett, OR, US", "elevation": 6.0, "land_cover_label": "Tree cover", "water_mask": false, "exclude_reason": "keep", "ndvi": null, "soil_moisture": null, "solar_exposure": null, "wind_exposure": null, "water_retention": null, "slope": null, "aspect": null, "num_identification_agreements": 1, "cluster": 2, "tavg": null, "tmin": 1.7, "tmax": 18.3, "prcp_d0": 0.0, "prcp_d1": 0.0, "prcp_d2": 0.0, "prcp_d3": 0.0, "prcp_d4": 0.0, "prcp_d5": 0.0, "prcp_d6": 61.92292785644531, "tmax_d0": 17.0, "tmax_d1": 13.0, "tmax_d2": 13.7, "tmax_d3": 20.6, "tmax_d4": 18.8, "tmax_d5": 10.4, "tmax_d6": 14.1, "tmin_d0": 3.0, "tmin_d1": 5.0, "tmin_d2": 8.4, "tmin_d3": 9.0, "tmin_d4": 7.2, "tmin_d5": 7.6, "tmin_d6": 10.2, "day_of_year": 103, "uuid": "cbf19b96-efb7-400b-9a89-0d01878ad4e0", "inat_id": 271752279}}, {"type": "Feature", "geometry": {"type": "Point", "coordinates": [-122.3032, 45.48877]}, "properties": {"species": "Fomitopsis cajanderi", "date": "2025-04-20", "location": "Oxbow Regional Park, Gresham, OR, US", "elevation": 72.0, "land_cover_label": "Tree cover", "water_mask": false, "exclude_reason": "keep", "ndvi": null, "soil_moisture": null, "solar_exposure": null, "wind_exposure": null, "water_retention": null, "slope": null, "aspect": null, "num_identification_agreements": 1, "cluster": 0, "tavg": null, "tmin": 8.3, "tmax": 14.4, "prcp_d0": 0.0, "prcp_d1": 0.0, "prcp_d2": 0.0, "prcp_d3": 0.0, "prcp_d4": 0.0, "prcp_d5": 0.0, "prcp_d6": 0.0, "tmax_d0": 16.0, "tmax_d1": 21.2, "tmax_d2": 21.3, "tmax_d3": 18.7, "tmax_d4": 19.6, "tmax_d5": 20.4, "tmax_d6": 21.0, "tmin_d0": 6.7, "tmin_d1": 7.9, "tmin_d2": 4.7, "tmin_d3": 3.8, "tmin_d4": 5.4, "tmin_d5": 4.8, "tmin_d6": 9.0, "day_of_year": 110, "uuid": "41fcf5bb-b22d-444d-ac27-45a6ee8cfacd", "inat_id": 271872342}}, {"type": "Feature", "geometry": {"type": "Point", "coordinates": [-106.8065607548, 35.9997529859]}, "properties": {"species": "Fomitopsis cajanderi", "date": "2025-05-17", "location": "Rio Arriba County, US-NM, US", "elevation": 2544.0, "land_cover_label": "Tree cover", "water_mask": false, "exclude_reason": "keep", "ndvi": null, "soil_moisture": null, "solar_exposure": null, "wind_exposure": null, "water_retention": null, "slope": null, "aspect": null, "num_identification_agreements": 1, "cluster": 0, "tavg": null, "tmin": null, "tmax": null, "prcp_d0": 2.357012135689729e-06, "prcp_d1": 0.0, "prcp_d2": 0.0, "prcp_d3": 0.0, "prcp_d4": 0.0, "prcp_d5": 0.0, "prcp_d6": 0.0, "tmax_d0": 17.4, "tmax_d1": 16.2, "tmax_d2": 12.9, "tmax_d3": 17.6, "tmax_d4": 19.9, "tmax_d5": 19.9, "tmax_d6": 18.3, "tmin_d0": -0.2, "tmin_d1": 0.2, "tmin_d2": -3.0, "tmin_d3": 0.8, "tmin_d4": 7.5, "tmin_d5": 4.1, "tmin_d6": 1.3, "day_of_year": 137, "uuid": "163bc3f9-ff21-4b80-adb4-42b304c8c480", "inat_id": 287971054}}, {"type": "Feature", "geometry": {"type": "Point", "coordinates": [-105.4164283333, 40.2268783333]}, "properties": {"species": "Fomitopsis cajanderi", "date": "2025-06-02", "location": "Lyons, CO, US", "elevation": 2169.0, "land_cover_label": "Tree cover", "water_mask": false, "exclude_reason": "keep", "ndvi": null, "soil_moisture": 0.4118620548037233, "solar_exposure": 0.7966941595077515, "wind_exposure": 0.2449247539043426, "water_retention": 0.2044799625873565, "slope": 17.693445205688477, "aspect": 90.97490692138672, "num_identification_agreements": 1, "cluster": 0, "tavg": null, "tmin": 11.5, "tmax": 25.0, "prcp_d0": 11.179375648498535, "prcp_d1": 3.726458549499512, "prcp_d2": 0.0, "prcp_d3": 0.0, "prcp_d4": 0.0, "prcp_d5": 6.8518900871276855, "prcp_d6": 0.0, "tmax_d0": 22.8, "tmax_d1": 25.6, "tmax_d2": 20.2, "tmax_d3": 23.0, "tmax_d4": 12.7, "tmax_d5": 17.1, "tmax_d6": 19.0, "tmin_d0": 6.9, "tmin_d1": 6.1, "tmin_d2": 6.8, "tmin_d3": 2.6, "tmin_d4": 6.2, "tmin_d5": 3.4, "tmin_d6": 1.0, "day_of_year": 153, "uuid": "52f90c76-f92b-434d-95c0-70ce42bf6f7e", "inat_id": 286461181}}, {"type": "Feature", "geometry": {"type": "Point", "coordinates": [-105.3829283333, 39.566095]}, "properties": {"species": "Fomitopsis cajanderi", "date": "2025-07-15", "location": "Black Mountain Dr, Conifer, CO, US", "elevation": 2575.0, "land_cover_label": "Tree cover", "water_mask": false, "exclude_reason": "keep", "ndvi": null, "soil_moisture": 0.2408433440486892, "solar_exposure": 0.7556244134902954, "wind_exposure": 0.2873859107494354, "water_retention": 0.1887189000844955, "slope": 7.65132474899292, "aspect": 21.674945831298828, "num_identification_agreements": 1, "cluster": 0, "tavg": null, "tmin": 2.6, "tmax": 15.0, "prcp_d0": 0.0, "prcp_d1": 11.786436080932615, "prcp_d2": 0.0, "prcp_d3": 3.928812265396118, "prcp_d4": 0.0, "prcp_d5": 0.0, "prcp_d6": 0.0, "tmax_d0": 26.7, "tmax_d1": 26.5, "tmax_d2": 24.1, "tmax_d3": 21.1, "tmax_d4": 23.2, "tmax_d5": 27.3, "tmax_d6": 29.8, "tmin_d0": 12.6, "tmin_d1": 10.5, "tmin_d2": 7.9, "tmin_d3": 8.3, "tmin_d4": 8.4, "tmin_d5": 11.6, "tmin_d6": 8.7, "day_of_year": 196, "uuid": "8a744202-f807-423a-9320-30311ce76b55", "inat_id": 298480922}}, {"type": "Feature", "geometry": {"type": "Point", "coordinates": [-104.8937833333, 38.7893616667]}, "properties": {"species": "Fomitopsis cajanderi", "date": "2025-08-23", "location": "Pike and San Isabel National Forests, Colorado Springs, CO, US", "elevation": 2197.0, "land_cover_label": "Tree cover", "water_mask": false, "exclude_reason": "keep", "ndvi": null, "soil_moisture": null, "solar_exposure": null, "wind_exposure": null, "water_retention": null, "slope": null, "aspect": null, "num_identification_agreements": 1, "cluster": 0, "tavg": null, "tmin": 14.0, "tmax": 20.0, "prcp_d0": 18.560911178588867, "prcp_d1": 9.280455589294434, "prcp_d2": 0.0, "prcp_d3": 0.0, "prcp_d4": 0.0, "prcp_d5": 0.0, "prcp_d6": 0.0, "tmax_d0": 20.0, "tmax_d1": 26.1, "tmax_d2": 27.8, "tmax_d3": 25.6, "tmax_d4": 26.1, "tmax_d5": 25.7, "tmax_d6": 26.1, "tmin_d0": 13.1, "tmin_d1": 13.3, "tmin_d2": 11.5, "tmin_d3": 12.0, "tmin_d4": 13.3, "tmin_d5": 13.6, "tmin_d6": 12.2, "day_of_year": 235, "uuid": "c192b391-2645-4795-8a5d-5a7f1790adcf", "inat_id": 308875444}}, {"type": "Feature", "geometry": {"type": "Point", "coordinates": [-105.320275, 40.0585445]}, "properties": {"species": "Fomitopsis cajanderi", "date": "2025-08-27", "location": "Wagonwheel Gap Rd, Boulder, CO, US", "elevation": 1852.0, "land_cover_label": "Tree cover", "water_mask": false, "exclude_reason": "keep", "ndvi": null, "soil_moisture": 0.4027726759946883, "solar_exposure": 0.5920457243919373, "wind_exposure": 0.3592941462993622, "water_retention": 0.4557060003280639, "slope": 23.53324508666992, "aspect": 314.2633972167969, "num_identification_agreements": 1, "cluster": 3, "tavg": null, "tmin": 15.0, "tmax": 27.0, "prcp_d0": 0.0, "prcp_d1": 0.0, "prcp_d2": 0.0, "prcp_d3": 0.0, "prcp_d4": 24.37672615051269, "prcp_d5": 0.0, "prcp_d6": 0.0, "tmax_d0": 22.0, "tmax_d1": 19.4, "tmax_d2": 20.1, "tmax_d3": 22.2, "tmax_d4": 22.6, "tmax_d5": 29.6, "tmax_d6": 31.0, "tmin_d0": 12.0, "tmin_d1": 11.2, "tmin_d2": 12.7, "tmin_d3": 11.6, "tmin_d4": 14.8, "tmin_d5": 12.6, "tmin_d6": 14.1, "day_of_year": 239, "uuid": "3326a7f9-d19e-4bb6-a89b-17e9092645a7", "inat_id": 309623239}}, {"type": "Feature", "geometry": {"type": "Point", "coordinates": [-105.320495, 40.0587583333]}, "properties": {"species": "Fomitopsis cajanderi", "date": "2025-08-28", "location": "Wagonwheel Gap Rd, Boulder, CO, US", "elevation": 1852.0, "land_cover_label": "Tree cover", "water_mask": false, "exclude_reason": "keep", "ndvi": null, "soil_moisture": 0.3869394364429258, "solar_exposure": 0.8930630087852478, "wind_exposure": 0.2210576981306076, "water_retention": 0.1213229447603225, "slope": 20.05255508422852, "aspect": 123.38151550292967, "num_identification_agreements": 1, "cluster": 0, "tavg": null, "tmin": 14.0, "tmax": 27.0, "prcp_d0": 0.0, "prcp_d1": 0.0, "prcp_d2": 0.0, "prcp_d3": 0.0, "prcp_d4": 0.0, "prcp_d5": 24.37672615051269, "prcp_d6": 0.0, "tmax_d0": 21.5, "tmax_d1": 22.0, "tmax_d2": 19.4, "tmax_d3": 20.1, "tmax_d4": 22.2, "tmax_d5": 22.6, "tmax_d6": 29.6, "tmin_d0": 8.8, "tmin_d1": 12.0, "tmin_d2": 11.2, "tmin_d3": 12.7, "tmin_d4": 11.6, "tmin_d5": 14.8, "tmin_d6": 12.6, "day_of_year": 240, "uuid": "f192987a-d3a8-4bce-901e-d0f03f8443e5", "inat_id": 309832960}}, {"type": "Feature", "geometry": {"type": "Point", "coordinates": [-104.9095840278, 38.7284736389]}, "properties": {"species": "Fomitopsis cajanderi", "date": "2025-08-30", "location": "Rock Creek, Colorado Springs, CO, USA", "elevation": 2618.0, "land_cover_label": "Tree cover", "water_mask": false, "exclude_reason": "keep", "ndvi": null, "soil_moisture": null, "solar_exposure": null, "wind_exposure": null, "water_retention": null, "slope": null, "aspect": null, "num_identification_agreements": 1, "cluster": 2, "tavg": null, "tmin": 11.3, "tmax": 19.3, "prcp_d0": 0.0, "prcp_d1": 0.0, "prcp_d2": 0.0, "prcp_d3": 0.0, "prcp_d4": 0.0, "prcp_d5": 23.10459327697754, "prcp_d6": 23.10459327697754, "tmax_d0": 14.3, "tmax_d1": 19.0, "tmax_d2": 16.7, "tmax_d3": 19.1, "tmax_d4": 14.6, "tmax_d5": 15.0, "tmax_d6": 18.7, "tmin_d0": 8.1, "tmin_d1": 8.9, "tmin_d2": 9.1, "tmin_d3": 9.4, "tmin_d4": 9.1, "tmin_d5": 8.5, "tmin_d6": 9.3, "day_of_year": 242, "uuid": "542b1de2-2241-4c48-bf37-dfa13de6a625", "inat_id": 310396506}}, {"type": "Feature", "geometry": {"type": "Point", "coordinates": [-104.8881351542, 38.7800526922]}, "properties": {"species": "Fomitopsis cajanderi", "date": "2025-08-30", "location": "El Paso County, CO, USA", "elevation": 2343.0, "land_cover_label": "Tree cover", "water_mask": false, "exclude_reason": "keep", "ndvi": null, "soil_moisture": null, "solar_exposure": null, "wind_exposure": null, "water_retention": null, "slope": null, "aspect": null, "num_identification_agreements": 1, "cluster": 2, "tavg": null, "tmin": 11.3, "tmax": 19.3, "prcp_d0": 0.0, "prcp_d1": 0.0, "prcp_d2": 0.0, "prcp_d3": 0.0, "prcp_d4": 45.978546142578125, "prcp_d5": 0.0, "prcp_d6": 18.560911178588867, "tmax_d0": 16.8, "tmax_d1": 18.3, "tmax_d2": 19.1, "tmax_d3": 19.5, "tmax_d4": 16.2, "tmax_d5": 18.3, "tmax_d6": 21.1, "tmin_d0": 9.0, "tmin_d1": 10.9, "tmin_d2": 9.8, "tmin_d3": 11.8, "tmin_d4": 11.2, "tmin_d5": 9.5, "tmin_d6": 11.5, "day_of_year": 242, "uuid": "183fdde3-e361-4177-9ef7-f0180657322d", "inat_id": 310798449}}, {"type": "Feature", "geometry": {"type": "Point", "coordinates": [-105.4919824291, 39.6714609128]}, "properties": {"species": "Fomitopsis cajanderi", "date": "2025-09-07", "location": "Colorado, US", "elevation": 3219.0, "land_cover_label": "Tree cover", "water_mask": false, "exclude_reason": "keep", "ndvi": null, "soil_moisture": 0.3814745945147597, "solar_exposure": 0.854933500289917, "wind_exposure": 0.5343160033226013, "water_retention": 0.2121488153934478, "slope": 15.892630577087402, "aspect": 251.08956909179688, "num_identification_agreements": 1, "cluster": 0, "tavg": null, "tmin": -0.6, "tmax": 10.2, "prcp_d0": 0.0, "prcp_d1": 0.0, "prcp_d2": 0.0, "prcp_d3": 0.0, "prcp_d4": 0.0, "prcp_d5": 0.0, "prcp_d6": 0.0, "tmax_d0": 16.0, "tmax_d1": 15.6, "tmax_d2": 15.1, "tmax_d3": 17.5, "tmax_d4": 17.1, "tmax_d5": 15.7, "tmax_d6": 15.4, "tmin_d0": 3.2, "tmin_d1": -1.6, "tmin_d2": 2.3, "tmin_d3": 1.2, "tmin_d4": -0.1, "tmin_d5": -1.0, "tmin_d6": -0.7, "day_of_year": 250, "uuid": "65a0d757-a72b-45d4-ba76-2d9db2aabdeb", "inat_id": 312700937}}, {"type": "Feature", "geometry": {"type": "Point", "coordinates": [-105.5022353889, 39.40517425]}, "properties": {"species": "Fomitopsis cajanderi", "date": "2025-09-07", "location": "Bailey, CO 80421, USA", "elevation": 2444.0, "land_cover_label": "Tree cover", "water_mask": false, "exclude_reason": "keep", "ndvi": null, "soil_moisture": 0.3661076254429693, "solar_exposure": 0.7894493341445923, "wind_exposure": 0.2621654570102691, "water_retention": 0.5660014748573303, "slope": 5.416367530822754, "aspect": 36.73094177246094, "num_identification_agreements": 1, "cluster": 3, "tavg": null, "tmin": 1.8, "tmax": 15.6, "prcp_d0": 0.0, "prcp_d1": 0.0, "prcp_d2": 0.0, "prcp_d3": 0.0, "prcp_d4": 0.0, "prcp_d5": 0.0, "prcp_d6": 0.0, "tmax_d0": 21.6, "tmax_d1": 21.8, "tmax_d2": 20.9, "tmax_d3": 23.5, "tmax_d4": 22.8, "tmax_d5": 21.9, "tmax_d6": 20.7, "tmin_d0": 7.0, "tmin_d1": 3.3, "tmin_d2": 7.7, "tmin_d3": 6.7, "tmin_d4": 7.2, "tmin_d5": 5.4, "tmin_d6": 6.1, "day_of_year": 250, "uuid": "9e1bce2f-9478-4fce-8389-43064a6cbe1f", "inat_id": 312293892}}, {"type": "Feature", "geometry": {"type": "Point", "coordinates": [-105.83503056, 35.72505833]}, "properties": {"species": "Fomitopsis cajanderi", "date": "2025-09-26", "location": "Santa Fe, New Mexico, United States", "elevation": 2593.0, "land_cover_label": "Tree cover", "water_mask": false, "exclude_reason": "keep", "ndvi": null, "soil_moisture": null, "solar_exposure": null, "wind_exposure": null, "water_retention": null, "slope": null, "aspect": null, "num_identification_agreements": 2, "cluster": 0, "tavg": null, "tmin": 9.0, "tmax": 26.0, "prcp_d0": 0.0, "prcp_d1": 0.0, "prcp_d2": 0.0, "prcp_d3": 0.0, "prcp_d4": 0.0, "prcp_d5": 0.0, "prcp_d6": 0.0, "tmax_d0": 18.7, "tmax_d1": 18.3, "tmax_d2": 15.9, "tmax_d3": 16.8, "tmax_d4": 19.5, "tmax_d5": 20.1, "tmax_d6": 19.3, "tmin_d0": 9.4, "tmin_d1": 5.7, "tmin_d2": 3.2, "tmin_d3": 7.4, "tmin_d4": 10.1, "tmin_d5": 10.2, "tmin_d6": 9.6, "day_of_year": 269, "uuid": "cf5315bd-15b8-4be1-9e5a-ffdb0d40cd84", "inat_id": 316838855}}, {"type": "Feature", "geometry": {"type": "Point", "coordinates": [-106.5436333333, 35.8216033333]}, "properties": {"species": "Fomitopsis cajanderi", "date": "2025-10-08", "location": "E Fork Trail, Jemez Springs, NM, US", "elevation": 2584.0, "land_cover_label": "Tree cover", "water_mask": false, "exclude_reason": "keep", "ndvi": null, "soil_moisture": null, "solar_exposure": null, "wind_exposure": null, "water_retention": null, "slope": null, "aspect": null, "num_identification_agreements": 2, "cluster": 0, "tavg": null, "tmin": 10.6, "tmax": 19.3, "prcp_d0": 11.249592781066896, "prcp_d1": 1.3070966005325315, "prcp_d2": 0.0, "prcp_d3": 0.0, "prcp_d4": 0.0, "prcp_d5": 0.0, "prcp_d6": 0.0, "tmax_d0": 14.8, "tmax_d1": 15.1, "tmax_d2": 17.4, "tmax_d3": 16.1, "tmax_d4": 17.2, "tmax_d5": 18.5, "tmax_d6": 20.2, "tmin_d0": 6.7, "tmin_d1": 6.4, "tmin_d2": 2.6, "tmin_d3": 3.2, "tmin_d4": 8.0, "tmin_d5": 8.2, "tmin_d6": 5.2, "day_of_year": 281, "uuid": "9a4206b8-8904-4037-9790-a97e557db2a2", "inat_id": 319671405}}, {"type": "Feature", "geometry": {"type": "Point", "coordinates": [-121.8855273864, 45.6595912081]}, "properties": {"species": "Fomitopsis cajanderi", "date": "2025-11-07", "location": "Hood River County, OR, USA", "elevation": 238.0, "land_cover_label": "Tree cover", "water_mask": false, "exclude_reason": "keep", "ndvi": null, "soil_moisture": null, "solar_exposure": null, "wind_exposure": null, "water_retention": null, "slope": null, "aspect": null, "num_identification_agreements": 1, "cluster": 1, "tavg": null, "tmin": 5.0, "tmax": 12.0, "prcp_d0": 0.0, "prcp_d1": 0.0, "prcp_d2": 132.85215759277344, "prcp_d3": 33.21303939819336, "prcp_d4": 33.21303939819336, "prcp_d5": 0.0, "prcp_d6": 0.0, "tmax_d0": 11.0, "tmax_d1": 14.3, "tmax_d2": 13.9, "tmax_d3": 7.8, "tmax_d4": 11.7, "tmax_d5": 13.2, "tmax_d6": 14.2, "tmin_d0": 7.1, "tmin_d1": 8.8, "tmin_d2": 6.7, "tmin_d3": 5.3, "tmin_d4": 6.5, "tmin_d5": 6.6, "tmin_d6": 8.5, "day_of_year": 311, "uuid": "3d613125-10fb-4195-a420-8a4c7aad10b0", "inat_id": 325610339}}, {"type": "Feature", "geometry": {"type": "Point", "coordinates": [-121.734825, 45.2563366667]}, "properties": {"species": "Fomitopsis cajanderi", "date": "2025-11-14", "location": "Government Camp, OR, US", "elevation": 1219.0, "land_cover_label": "Tree cover", "water_mask": false, "exclude_reason": "keep", "ndvi": null, "soil_moisture": null, "solar_exposure": null, "wind_exposure": null, "water_retention": null, "slope": null, "aspect": null, "num_identification_agreements": 1, "cluster": 0, "tavg": null, "tmin": 9.0, "tmax": 14.0, "prcp_d0": 0.0, "prcp_d1": 18.7409610748291, "prcp_d2": 0.0, "prcp_d3": 0.0, "prcp_d4": 0.0, "prcp_d5": 0.0, "prcp_d6": 0.0, "tmax_d0": 7.7, "tmax_d1": 11.7, "tmax_d2": 12.5, "tmax_d3": 12.4, "tmax_d4": 12.3, "tmax_d5": 11.9, "tmax_d6": 7.2, "tmin_d0": 3.4, "tmin_d1": 5.6, "tmin_d2": 5.5, "tmin_d3": 2.5, "tmin_d4": 5.4, "tmin_d5": 3.3, "tmin_d6": -1.7, "day_of_year": 318, "uuid": "17614bb3-4ca7-43f0-ab19-154b699332d4", "inat_id": 327711155}}, {"type": "Feature", "geometry": {"type": "Point", "coordinates": [-122.0724722222, 45.585625]}, "properties": {"species": "Fomitopsis cajanderi", "date": "2025-11-20", "location": "Cascade Locks, OR 97014, USA", "elevation": 165.0, "land_cover_label": "Grassland", "water_mask": false, "exclude_reason": "keep", "ndvi": null, "soil_moisture": null, "solar_exposure": null, "wind_exposure": null, "water_retention": null, "slope": null, "aspect": null, "num_identification_agreements": 1, "cluster": 0, "tavg": null, "tmin": 4.0, "tmax": 12.0, "prcp_d0": 0.0, "prcp_d1": 0.0, "prcp_d2": 0.0, "prcp_d3": 0.0, "prcp_d4": 0.0, "prcp_d5": 0.0, "prcp_d6": 0.0, "tmax_d0": 12.0, "tmax_d1": 9.4, "tmax_d2": 9.1, "tmax_d3": 12.0, "tmax_d4": 14.0, "tmax_d5": 16.3, "tmax_d6": 13.0, "tmin_d0": 5.7, "tmin_d1": 2.6, "tmin_d2": 3.8, "tmin_d3": 8.4, "tmin_d4": 9.4, "tmin_d5": 10.8, "tmin_d6": 9.5, "day_of_year": 324, "uuid": "2a7fc712-3015-4043-9f9b-5ccd800955ae", "inat_id": 327547706}}, {"type": "Feature", "geometry": {"type": "Point", "coordinates": [-122.1071676639, 45.5718223741]}, "properties": {"species": "Fomitopsis cajanderi", "date": "2025-11-22", "location": "Multnomah County, OR, USA", "elevation": 398.0, "land_cover_label": "Tree cover", "water_mask": false, "exclude_reason": "keep", "ndvi": null, "soil_moisture": null, "solar_exposure": null, "wind_exposure": null, "water_retention": null, "slope": null, "aspect": null, "num_identification_agreements": 1, "cluster": 0, "tavg": null, "tmin": 1.0, "tmax": 7.0, "prcp_d0": 0.0003181550418958, "prcp_d1": 0.0127557152882218, "prcp_d2": 0.0, "prcp_d3": 0.0, "prcp_d4": 0.0, "prcp_d5": 0.0, "prcp_d6": 0.0, "tmax_d0": 9.2, "tmax_d1": 9.0, "tmax_d2": 9.8, "tmax_d3": 7.2, "tmax_d4": 6.9, "tmax_d5": 9.8, "tmax_d6": 11.8, "tmin_d0": 2.0, "tmin_d1": 1.0, "tmin_d2": 3.5, "tmin_d3": 0.4, "tmin_d4": 1.6, "tmin_d5": 6.2, "tmin_d6": 7.2, "day_of_year": 326, "uuid": "8db956e3-fb65-4afc-86f4-ca9aaf9b9395", "inat_id": 328304282}}, {"type": "Feature", "geometry": {"type": "Point", "coordinates": [-122.2288627881, 45.3069906132]}, "properties": {"species": "Fomitopsis cajanderi", "date": "2025-12-22", "location": "Clackamas County, OR, USA", "elevation": 413.0, "land_cover_label": "Tree cover", "water_mask": false, "exclude_reason": "keep", "ndvi": null, "soil_moisture": null, "solar_exposure": null, "wind_exposure": null, "water_retention": null, "slope": null, "aspect": null, "num_identification_agreements": 1, "cluster": 1, "tavg": null, "tmin": 6.0, "tmax": 12.0, "prcp_d0": 0.0, "prcp_d1": 25.942874908447266, "prcp_d2": 0.0, "prcp_d3": 57.03791427612305, "prcp_d4": 57.03791427612305, "prcp_d5": 19.012638092041016, "prcp_d6": 0.0, "tmax_d0": 8.5, "tmax_d1": 8.0, "tmax_d2": 7.7, "tmax_d3": 11.1, "tmax_d4": 11.0, "tmax_d5": 12.9, "tmax_d6": 13.6, "tmin_d0": 2.7, "tmin_d1": 1.1, "tmin_d2": 1.2, "tmin_d3": 2.4, "tmin_d4": 2.1, "tmin_d5": 3.0, "tmin_d6": 8.6, "day_of_year": 356, "uuid": "a23315d9-f559-47ed-8c23-d3d3801785b5", "inat_id": 331747699}}, {"type": "Feature", "geometry": {"type": "Point", "coordinates": [-122.3207066246, 45.3346368277]}, "properties": {"species": "Fomitopsis cajanderi", "date": "2026-01-02", "location": "SE Eagle Fern Rd, Eagle Creek, OR, US", "elevation": 149.0, "land_cover_label": "Tree cover", "water_mask": false, "exclude_reason": "keep", "ndvi": null, "soil_moisture": null, "solar_exposure": null, "wind_exposure": null, "water_retention": null, "slope": null, "aspect": null, "num_identification_agreements": 1, "cluster": 0, "tavg": null, "tmin": 4.0, "tmax": 7.0, "prcp_d0": 0.0, "prcp_d1": 0.0, "prcp_d2": 0.0, "prcp_d3": 0.0, "prcp_d4": 0.0, "prcp_d5": 0.0, "prcp_d6": 0.0, "tmax_d0": 14.5, "tmax_d1": 7.5, "tmax_d2": 10.4, "tmax_d3": 12.0, "tmax_d4": 10.5, "tmax_d5": 7.9, "tmax_d6": 6.1, "tmin_d0": 5.8, "tmin_d1": 3.4, "tmin_d2": 0.5, "tmin_d3": 3.5, "tmin_d4": 3.0, "tmin_d5": -0.6, "tmin_d6": 2.5, "day_of_year": 2, "uuid": "b45d9380-4358-419c-9dc2-83f2e54fddca", "inat_id": 333177402}}, {"type": "Feature", "geometry": {"type": "Point", "coordinates": [-121.6087808946, 45.6885141429]}, "properties": {"species": "Fomitopsis cajanderi", "date": "2026-02-28", "location": "Hood River, OR, US", "elevation": 453.0, "land_cover_label": "Tree cover", "water_mask": false, "exclude_reason": "keep", "ndvi": null, "soil_moisture": null, "solar_exposure": null, "wind_exposure": null, "water_retention": null, "slope": null, "aspect": null, "num_identification_agreements": 2, "cluster": 2, "tavg": null, "tmin": -2.0, "tmax": 11.0, "prcp_d0": 6.768729209899902, "prcp_d1": 0.0, "prcp_d2": 0.0, "prcp_d3": 3.5099027156829834, "prcp_d4": 33.69987487792969, "prcp_d5": 34.85089111328125, "prcp_d6": 12.237749099731444, "tmax_d0": 11.3, "tmax_d1": 13.0, "tmax_d2": 11.2, "tmax_d3": 8.2, "tmax_d4": 3.2, "tmax_d5": 4.9, "tmax_d6": 4.5, "tmin_d0": -1.7, "tmin_d1": -0.1, "tmin_d2": -0.6, "tmin_d3": 0.4, "tmin_d4": 0.1, "tmin_d5": 2.1, "tmin_d6": -2.7, "day_of_year": 59, "uuid": "fb9bcc31-d166-4937-9d20-4a97fe222eb0", "inat_id": 340704838}}, {"type": "Feature", "geometry": {"type": "Point", "coordinates": [-104.9036305556, 38.7875166667]}, "properties": {"species": "Fomitopsis cajanderi", "date": "2026-03-25", "location": "Colorado Springs, CO 80906, USA", "elevation": 2230.0, "land_cover_label": "Tree cover", "water_mask": false, "exclude_reason": "keep", "ndvi": null, "soil_moisture": null, "solar_exposure": null, "wind_exposure": null, "water_retention": null, "slope": null, "aspect": null, "num_identification_agreements": 1, "cluster": 0, "tavg": null, "tmin": 6.7, "tmax": 28.5, "prcp_d0": 0.0, "prcp_d1": 4.063737392425537, "prcp_d2": 0.0, "prcp_d3": 0.0, "prcp_d4": 0.0, "prcp_d5": 0.0, "prcp_d6": 0.0, "tmax_d0": 27.5, "tmax_d1": 25.1, "tmax_d2": 16.2, "tmax_d3": 25.1, "tmax_d4": 27.3, "tmax_d5": 25.5, "tmax_d6": 24.9, "tmin_d0": 6.7, "tmin_d1": 3.1, "tmin_d2": 0.7, "tmin_d3": 7.6, "tmin_d4": 6.2, "tmin_d5": 6.8, "tmin_d6": 6.4, "day_of_year": 84, "uuid": "51084f19-fdf7-44a7-8b26-d393fefc2964", "inat_id": 345478369}}, {"type": "Feature", "geometry": {"type": "Point", "coordinates": [-104.9429077667, 38.7536825137]}, "properties": {"species": "Fomitopsis cajanderi", "date": "2026-05-10", "location": "Colorado, US", "elevation": 3303.0, "land_cover_label": "Tree cover", "water_mask": false, "exclude_reason": "keep", "ndvi": null, "soil_moisture": null, "solar_exposure": null, "wind_exposure": null, "water_retention": null, "slope": null, "aspect": null, "num_identification_agreements": 1, "cluster": 0, "tavg": null, "tmin": 6.0, "tmax": 14.6, "prcp_d0": 9.118059158325195, "prcp_d1": 0.0, "prcp_d2": 4.559029579162598, "prcp_d3": 0.0, "prcp_d4": 0.0, "prcp_d5": 7.798367500305176, "prcp_d6": 0.7665424346923828, "tmax_d0": 6.8, "tmax_d1": 12.4, "tmax_d2": 9.7, "tmax_d3": 8.2, "tmax_d4": -4.5, "tmax_d5": 3.7, "tmax_d6": 8.6, "tmin_d0": -2.4, "tmin_d1": -2.1, "tmin_d2": -3.9, "tmin_d3": -10.3, "tmin_d4": -9.3, "tmin_d5": -5.2, "tmin_d6": -3.5, "day_of_year": 130, "uuid": "0d94cb81-a805-4c6c-a01e-0fa6153d3c30", "inat_id": 363069575}}]}