{"type": "FeatureCollection", "features": [{"type": "Feature", "geometry": {"type": "Point", "coordinates": [-104.8176410199, 38.9814968048]}, "properties": {"species": "Ganoderma tsugae", "date": "2023-07-30", "location": "Colorado, US", "elevation": 2001.0, "land_cover_label": "Grassland", "water_mask": false, "exclude_reason": "keep", "ndvi": null, "soil_moisture": null, "solar_exposure": null, "wind_exposure": null, "water_retention": null, "slope": null, "aspect": null, "num_identification_agreements": 4, "cluster": 0, "tavg": null, "tmin": 14.3, "tmax": 32.2, "prcp_d0": 9.46424674987793, "prcp_d1": 0.0, "prcp_d2": 3.154748916625977, "prcp_d3": 3.154748916625977, "prcp_d4": 3.154748916625977, "prcp_d5": 0.0, "prcp_d6": 0.0, "tmax_d0": 30.0, "tmax_d1": 27.9, "tmax_d2": 32.0, "tmax_d3": 31.8, "tmax_d4": 32.2, "tmax_d5": 33.8, "tmax_d6": 33.4, "tmin_d0": 12.9, "tmin_d1": 16.4, "tmin_d2": 11.6, "tmin_d3": 14.3, "tmin_d4": 13.3, "tmin_d5": 13.7, "tmin_d6": 14.1, "day_of_year": 211, "uuid": "0d923276-07df-45ba-849f-c47046aab589", "inat_id": 175890528}}]}