{"type": "FeatureCollection", "features": [{"type": "Feature", "geometry": {"type": "Point", "coordinates": [-122.0360115863, 44.803626773]}, "properties": {"species": "Gomphus clavatus", "date": "2007-09-06", "location": "Marion County, OR, USA", "elevation": 1041.0, "land_cover_label": "Tree cover", "water_mask": false, "exclude_reason": "keep", "ndvi": null, "soil_moisture": null, "solar_exposure": null, "wind_exposure": null, "water_retention": null, "slope": null, "aspect": null, "num_identification_agreements": 1, "cluster": 0, "tavg": null, "tmin": null, "tmax": null, "prcp_d0": 3.2424089908599854, "prcp_d1": 0.0, "prcp_d2": 5.360455513000488, "prcp_d3": 0.0, "prcp_d4": 0.0, "prcp_d5": 0.0, "prcp_d6": 0.0, "tmax_d0": 19.9, "tmax_d1": 18.3, "tmax_d2": 23.6, "tmax_d3": 25.0, "tmax_d4": 23.2, "tmax_d5": 24.5, "tmax_d6": 27.0, "tmin_d0": 8.6, "tmin_d1": 9.9, "tmin_d2": 11.9, "tmin_d3": 9.8, "tmin_d4": 10.7, "tmin_d5": 8.2, "tmin_d6": 14.5, "day_of_year": 249, "uuid": "02e8c598-fd1c-4727-9a86-8a53111c1fde", "inat_id": 46169635}}, {"type": "Feature", "geometry": {"type": "Point", "coordinates": [-122.1045252074, 44.8054609159]}, "properties": {"species": "Gomphus clavatus", "date": "2011-11-02", "location": "Marion County, OR, USA", "elevation": 953.0, "land_cover_label": "Tree cover", "water_mask": false, "exclude_reason": "keep", "ndvi": null, "soil_moisture": null, "solar_exposure": null, "wind_exposure": null, "water_retention": null, "slope": null, "aspect": null, "num_identification_agreements": 1, "cluster": 0, "tavg": null, "tmin": null, "tmax": null, "prcp_d0": 0.0, "prcp_d1": 0.0, "prcp_d2": 0.0, "prcp_d3": 0.0, "prcp_d4": 0.0, "prcp_d5": 0.0, "prcp_d6": 0.0, "tmax_d0": 15.1, "tmax_d1": 9.6, "tmax_d2": 11.0, "tmax_d3": 11.6, "tmax_d4": 12.4, "tmax_d5": 12.2, "tmax_d6": 13.2, "tmin_d0": 0.8, "tmin_d1": -1.3, "tmin_d2": 2.0, "tmin_d3": 7.9, "tmin_d4": 6.4, "tmin_d5": 3.2, "tmin_d6": 0.4, "day_of_year": 306, "uuid": "e21a0e68-68f9-442b-8475-12dcfce4c71f", "inat_id": 66602421}}, {"type": "Feature", "geometry": {"type": "Point", "coordinates": [-122.0715183861, 44.8054221973]}, "properties": {"species": "Gomphus clavatus", "date": "2011-11-03", "location": "Marion County, OR, USA", "elevation": 1103.0, "land_cover_label": "Tree cover", "water_mask": false, "exclude_reason": "keep", "ndvi": null, "soil_moisture": null, "solar_exposure": null, "wind_exposure": null, "water_retention": null, "slope": null, "aspect": null, "num_identification_agreements": 1, "cluster": 0, "tavg": null, "tmin": null, "tmax": null, "prcp_d0": 0.0, "prcp_d1": 0.0, "prcp_d2": 0.0, "prcp_d3": 0.0, "prcp_d4": 0.0, "prcp_d5": 0.0, "prcp_d6": 0.0, "tmax_d0": 9.9, "tmax_d1": 13.9, "tmax_d2": 8.4, "tmax_d3": 9.8, "tmax_d4": 10.4, "tmax_d5": 11.2, "tmax_d6": 11.0, "tmin_d0": 0.0, "tmin_d1": -0.4, "tmin_d2": -2.5, "tmin_d3": 0.8, "tmin_d4": 6.7, "tmin_d5": 5.2, "tmin_d6": 2.0, "day_of_year": 307, "uuid": "da7c7afd-89f9-47d3-bdfc-7913b4cfe285", "inat_id": 60323584}}, {"type": "Feature", "geometry": {"type": "Point", "coordinates": [-122.21, 44.84]}, "properties": {"species": "Gomphus clavatus", "date": "2013-10-22", "location": "Opal Creek, Jaw bone Flats, OR", "elevation": 979.0, "land_cover_label": "Tree cover", "water_mask": false, "exclude_reason": "keep", "ndvi": null, "soil_moisture": null, "solar_exposure": null, "wind_exposure": null, "water_retention": null, "slope": null, "aspect": null, "num_identification_agreements": 1, "cluster": 0, "tavg": null, "tmin": null, "tmax": null, "prcp_d0": 0.0, "prcp_d1": 0.0, "prcp_d2": 0.0, "prcp_d3": 0.0, "prcp_d4": 0.0, "prcp_d5": 0.0, "prcp_d6": 0.0, "tmax_d0": 20.1, "tmax_d1": 20.0, "tmax_d2": 18.7, "tmax_d3": 17.9, "tmax_d4": 17.8, "tmax_d5": 16.0, "tmax_d6": 14.8, "tmin_d0": 7.0, "tmin_d1": 6.5, "tmin_d2": 2.1, "tmin_d3": 3.5, "tmin_d4": 4.3, "tmin_d5": 2.0, "tmin_d6": 2.0, "day_of_year": 295, "uuid": "049f27b9-8e9b-4dbb-9937-f3848e4bb6dd", "inat_id": 440049}}, {"type": "Feature", "geometry": {"type": "Point", "coordinates": [-121.926619249, 45.2682803398]}, "properties": {"species": "Gomphus clavatus", "date": "2016-10-09", "location": "Clackamas County, OR, USA", "elevation": 553.0, "land_cover_label": "Tree cover", "water_mask": false, "exclude_reason": "keep", "ndvi": null, "soil_moisture": null, "solar_exposure": null, "wind_exposure": null, "water_retention": null, "slope": null, "aspect": null, "num_identification_agreements": 1, "cluster": 0, "tavg": null, "tmin": 11.1, "tmax": 16.7, "prcp_d0": 0.0, "prcp_d1": 0.0, "prcp_d2": 0.0, "prcp_d3": 0.0, "prcp_d4": 0.0, "prcp_d5": 0.0, "prcp_d6": 0.0, "tmax_d0": 17.7, "tmax_d1": 18.6, "tmax_d2": 12.5, "tmax_d3": 13.6, "tmax_d4": 11.2, "tmax_d5": 12.0, "tmax_d6": 12.1, "tmin_d0": 12.6, "tmin_d1": 10.3, "tmin_d2": 9.8, "tmin_d3": 8.8, "tmin_d4": 8.4, "tmin_d5": 7.7, "tmin_d6": 4.1, "day_of_year": 283, "uuid": "65a63088-2cd4-4c37-bd49-a587da0e3779", "inat_id": 16197037}}, {"type": "Feature", "geometry": {"type": "Point", "coordinates": [-122.24407586, 44.85749303]}, "properties": {"species": "Gomphus clavatus", "date": "2016-10-24", "location": "Marion County, US-OR, US", "elevation": 608.0, "land_cover_label": "Tree cover", "water_mask": false, "exclude_reason": "keep", "ndvi": null, "soil_moisture": null, "solar_exposure": null, "wind_exposure": null, "water_retention": null, "slope": null, "aspect": null, "num_identification_agreements": 1, "cluster": 2, "tavg": null, "tmin": null, "tmax": null, "prcp_d0": 41.53460311889648, "prcp_d1": 0.0, "prcp_d2": 0.0, "prcp_d3": 0.0, "prcp_d4": 16.657928466796875, "prcp_d5": 16.657928466796875, "prcp_d6": 33.31585693359375, "tmax_d0": 13.9, "tmax_d1": 15.0, "tmax_d2": 15.6, "tmax_d3": 12.5, "tmax_d4": 14.0, "tmax_d5": 15.5, "tmax_d6": 9.2, "tmin_d0": 9.9, "tmin_d1": 7.2, "tmin_d2": 5.8, "tmin_d3": 10.7, "tmin_d4": 10.3, "tmin_d5": 3.3, "tmin_d6": 6.1, "day_of_year": 298, "uuid": "13b47867-1f6d-4ff6-ab64-7eeddff94c1c", "inat_id": 4453041}}, {"type": "Feature", "geometry": {"type": "Point", "coordinates": [-121.8119366667, 45.3186633333]}, "properties": {"species": "Gomphus clavatus", "date": "2016-11-13", "location": "Mt. Hood National Forest, Rhododendron, OR, US", "elevation": 1010.0, "land_cover_label": "Tree cover", "water_mask": false, "exclude_reason": "keep", "ndvi": null, "soil_moisture": null, "solar_exposure": null, "wind_exposure": null, "water_retention": null, "slope": null, "aspect": null, "num_identification_agreements": 4, "cluster": 0, "tavg": null, "tmin": null, "tmax": null, "prcp_d0": 29.46406936645508, "prcp_d1": 0.0, "prcp_d2": 0.0, "prcp_d3": 0.0, "prcp_d4": 0.0, "prcp_d5": 0.0, "prcp_d6": 25.23876190185547, "tmax_d0": 11.1, "tmax_d1": 13.7, "tmax_d2": 15.8, "tmax_d3": 15.0, "tmax_d4": 15.2, "tmax_d5": 17.3, "tmax_d6": 14.5, "tmin_d0": 3.1, "tmin_d1": 4.4, "tmin_d2": 4.9, "tmin_d3": 4.6, "tmin_d4": 8.1, "tmin_d5": 5.2, "tmin_d6": 5.3, "day_of_year": 318, "uuid": "f29fb7c0-1456-4403-aab6-3312a057f0d1", "inat_id": 4575146}}, {"type": "Feature", "geometry": {"type": "Point", "coordinates": [-121.795, 45.30895]}, "properties": {"species": "Gomphus clavatus", "date": "2018-09-24", "location": "Barlow Trail, Laurel Ridge, Government Camp, Zigzag Ranger District, Mount Hood National Forest, Clackamas Co., Oregon, USA", "elevation": 1029.0, "land_cover_label": "Tree cover", "water_mask": false, "exclude_reason": "keep", "ndvi": null, "soil_moisture": null, "solar_exposure": null, "wind_exposure": null, "water_retention": null, "slope": null, "aspect": null, "num_identification_agreements": 1, "cluster": 0, "tavg": null, "tmin": null, "tmax": null, "prcp_d0": 0.0, "prcp_d1": 0.0, "prcp_d2": 6.330986022949219, "prcp_d3": 0.0, "prcp_d4": 0.0, "prcp_d5": 0.0, "prcp_d6": 0.0, "tmax_d0": 17.9, "tmax_d1": 9.5, "tmax_d2": 16.3, "tmax_d3": 19.5, "tmax_d4": 14.4, "tmax_d5": 13.0, "tmax_d6": 16.6, "tmin_d0": 3.4, "tmin_d1": 4.1, "tmin_d2": 8.9, "tmin_d3": 8.2, "tmin_d4": 5.6, "tmin_d5": 5.5, "tmin_d6": 3.9, "day_of_year": 267, "uuid": "ed45e213-79ba-4afa-92a4-8e62316b9970", "inat_id": 16918515}}, {"type": "Feature", "geometry": {"type": "Point", "coordinates": [-121.81, 45.31605]}, "properties": {"species": "Gomphus clavatus", "date": "2018-10-30", "location": "SW Mount Hood, Clackamas Co., Oregon, USA", "elevation": 916.0, "land_cover_label": "Tree cover", "water_mask": false, "exclude_reason": "keep", "ndvi": null, "soil_moisture": null, "solar_exposure": null, "wind_exposure": null, "water_retention": null, "slope": null, "aspect": null, "num_identification_agreements": 1, "cluster": 1, "tavg": null, "tmin": null, "tmax": null, "prcp_d0": 0.0, "prcp_d1": 42.974151611328125, "prcp_d2": 42.974151611328125, "prcp_d3": 0.0, "prcp_d4": 0.0, "prcp_d5": 0.0, "prcp_d6": 0.0, "tmax_d0": 8.3, "tmax_d1": 6.4, "tmax_d2": 12.1, "tmax_d3": 14.7, "tmax_d4": 11.9, "tmax_d5": 12.0, "tmax_d6": 11.3, "tmin_d0": 3.4, "tmin_d1": 3.0, "tmin_d2": 5.9, "tmin_d3": 4.9, "tmin_d4": 7.7, "tmin_d5": 5.0, "tmin_d6": 4.5, "day_of_year": 303, "uuid": "ad2c1e92-929d-4c00-8730-ad05d5340d2f", "inat_id": 18730240}}, {"type": "Feature", "geometry": {"type": "Point", "coordinates": [-121.81, 45.31605]}, "properties": {"species": "Gomphus clavatus", "date": "2019-08-12", "location": "SW Mount Hood, Clackamas Co., Oregon, USA", "elevation": 916.0, "land_cover_label": "Tree cover", "water_mask": false, "exclude_reason": "keep", "ndvi": null, "soil_moisture": null, "solar_exposure": null, "wind_exposure": null, "water_retention": null, "slope": null, "aspect": null, "num_identification_agreements": 1, "cluster": 0, "tavg": null, "tmin": null, "tmax": null, "prcp_d0": 0.0, "prcp_d1": 0.0, "prcp_d2": 16.199600219726562, "prcp_d3": 0.0, "prcp_d4": 0.0, "prcp_d5": 0.0, "prcp_d6": 0.0, "tmax_d0": 21.5, "tmax_d1": 15.8, "tmax_d2": 18.4, "tmax_d3": 21.3, "tmax_d4": 20.0, "tmax_d5": 24.2, "tmax_d6": 26.5, "tmin_d0": 7.9, "tmin_d1": 9.9, "tmin_d2": 8.2, "tmin_d3": 11.2, "tmin_d4": 12.0, "tmin_d5": 13.8, "tmin_d6": 14.1, "day_of_year": 224, "uuid": "382e045b-269c-4cf3-b1ec-1d6792769b83", "inat_id": 31163836}}, {"type": "Feature", "geometry": {"type": "Point", "coordinates": [-121.8283006967, 45.3145693106]}, "properties": {"species": "Gomphus clavatus", "date": "2019-08-14", "location": "Oregon, US", "elevation": 828.0, "land_cover_label": "Tree cover", "water_mask": false, "exclude_reason": "keep", "ndvi": null, "soil_moisture": null, "solar_exposure": null, "wind_exposure": null, "water_retention": null, "slope": null, "aspect": null, "num_identification_agreements": 2, "cluster": 0, "tavg": null, "tmin": null, "tmax": null, "prcp_d0": 0.0, "prcp_d1": 0.0, "prcp_d2": 0.0, "prcp_d3": 0.0, "prcp_d4": 16.199600219726562, "prcp_d5": 0.0, "prcp_d6": 0.0, "tmax_d0": 23.3, "tmax_d1": 23.7, "tmax_d2": 21.6, "tmax_d3": 16.3, "tmax_d4": 18.7, "tmax_d5": 21.3, "tmax_d6": 19.7, "tmin_d0": 11.7, "tmin_d1": 9.7, "tmin_d2": 6.9, "tmin_d3": 10.5, "tmin_d4": 9.0, "tmin_d5": 11.5, "tmin_d6": 12.5, "day_of_year": 226, "uuid": "80ec6c97-a0b3-47d7-aa88-a507945b401a", "inat_id": 39334817}}, {"type": "Feature", "geometry": {"type": "Point", "coordinates": [-121.8154104215, 45.3567168662]}, "properties": {"species": "Gomphus clavatus", "date": "2019-08-26", "location": "Mt Hood, Oregon 97041, USA", "elevation": 1231.0, "land_cover_label": "Tree cover", "water_mask": false, "exclude_reason": "keep", "ndvi": null, "soil_moisture": null, "solar_exposure": null, "wind_exposure": null, "water_retention": null, "slope": null, "aspect": null, "num_identification_agreements": 2, "cluster": 0, "tavg": null, "tmin": null, "tmax": null, "prcp_d0": 0.0, "prcp_d1": 0.0, "prcp_d2": 0.0, "prcp_d3": 0.0, "prcp_d4": 0.0, "prcp_d5": 12.728513717651367, "prcp_d6": 0.0, "tmax_d0": 23.6, "tmax_d1": 16.7, "tmax_d2": 19.8, "tmax_d3": 23.0, "tmax_d4": 15.4, "tmax_d5": 20.1, "tmax_d6": 23.2, "tmin_d0": 6.4, "tmin_d1": 7.8, "tmin_d2": 9.7, "tmin_d3": 8.1, "tmin_d4": 7.7, "tmin_d5": 11.8, "tmin_d6": 11.6, "day_of_year": 238, "uuid": "3ee8e4b3-5748-4924-ae30-8d4045388ee9", "inat_id": 33787042}}, {"type": "Feature", "geometry": {"type": "Point", "coordinates": [-121.7831268311, 45.307182312]}, "properties": {"species": "Gomphus clavatus", "date": "2019-09-14", "location": "TIMBRLINE LDG, OR 97028, USA", "elevation": 1108.0, "land_cover_label": "Tree cover", "water_mask": false, "exclude_reason": "keep", "ndvi": null, "soil_moisture": null, "solar_exposure": null, "wind_exposure": null, "water_retention": null, "slope": null, "aspect": null, "num_identification_agreements": 1, "cluster": 0, "tavg": null, "tmin": null, "tmax": null, "prcp_d0": 0.0, "prcp_d1": 0.0, "prcp_d2": 0.0, "prcp_d3": 0.0, "prcp_d4": 0.0, "prcp_d5": 0.0, "prcp_d6": 19.89039421081543, "tmax_d0": 16.6, "tmax_d1": 17.9, "tmax_d2": 20.6, "tmax_d3": 16.7, "tmax_d4": 12.8, "tmax_d5": 12.9, "tmax_d6": 14.3, "tmin_d0": 9.0, "tmin_d1": 9.1, "tmin_d2": 9.5, "tmin_d3": 7.6, "tmin_d4": 7.8, "tmin_d5": 7.4, "tmin_d6": 8.9, "day_of_year": 257, "uuid": "7dc51a62-98b8-47cd-ae02-ce0e9baf7bc8", "inat_id": 34379689}}, {"type": "Feature", "geometry": {"type": "Point", "coordinates": [-121.8360344285, 45.3989961695]}, "properties": {"species": "Gomphus clavatus", "date": "2019-09-22", "location": "Oregon, US", "elevation": 1117.0, "land_cover_label": "Tree cover", "water_mask": false, "exclude_reason": "keep", "ndvi": null, "soil_moisture": null, "solar_exposure": null, "wind_exposure": null, "water_retention": null, "slope": null, "aspect": null, "num_identification_agreements": 1, "cluster": 0, "tavg": null, "tmin": 12.2, "tmax": 18.9, "prcp_d0": 0.0, "prcp_d1": 0.0, "prcp_d2": 0.0, "prcp_d3": 0.0, "prcp_d4": 0.0, "prcp_d5": 0.0, "prcp_d6": 0.0, "tmax_d0": 14.0, "tmax_d1": 15.6, "tmax_d2": 11.3, "tmax_d3": 10.3, "tmax_d4": 10.5, "tmax_d5": 10.2, "tmax_d6": 10.8, "tmin_d0": 7.4, "tmin_d1": 7.7, "tmin_d2": 6.7, "tmin_d3": 2.5, "tmin_d4": 5.1, "tmin_d5": 5.5, "tmin_d6": 5.4, "day_of_year": 265, "uuid": "4d3f6b0a-0717-4d57-8c5d-15fd6878d41b", "inat_id": 36724937}}, {"type": "Feature", "geometry": {"type": "Point", "coordinates": [-121.76266333, 45.29614167]}, "properties": {"species": "Gomphus clavatus", "date": "2019-09-30", "location": "Mt. Hood National Forest, Government Camp, OR, US", "elevation": 1167.0, "land_cover_label": "Tree cover", "water_mask": false, "exclude_reason": "keep", "ndvi": null, "soil_moisture": null, "solar_exposure": null, "wind_exposure": null, "water_retention": null, "slope": null, "aspect": null, "num_identification_agreements": 1, "cluster": 0, "tavg": null, "tmin": null, "tmax": null, "prcp_d0": 0.0, "prcp_d1": 0.0, "prcp_d2": 0.0, "prcp_d3": 0.0, "prcp_d4": 0.0, "prcp_d5": 0.0, "prcp_d6": 0.0, "tmax_d0": 2.7, "tmax_d1": 2.4, "tmax_d2": 4.2, "tmax_d3": 10.2, "tmax_d4": 14.6, "tmax_d5": 16.7, "tmax_d6": 13.5, "tmin_d0": -2.4, "tmin_d1": -1.0, "tmin_d2": 0.1, "tmin_d3": 4.0, "tmin_d4": 7.1, "tmin_d5": 3.1, "tmin_d6": 7.6, "day_of_year": 273, "uuid": "b7f3c9df-919b-4eef-9bb1-44940b989a95", "inat_id": 33680913}}, {"type": "Feature", "geometry": {"type": "Point", "coordinates": [-121.80160644, 44.5415038732]}, "properties": {"species": "Gomphus clavatus", "date": "2019-10-03", "location": "Oregon, US", "elevation": 1720.0, "land_cover_label": "Tree cover", "water_mask": false, "exclude_reason": "keep", "ndvi": null, "soil_moisture": null, "solar_exposure": null, "wind_exposure": null, "water_retention": null, "slope": null, "aspect": null, "num_identification_agreements": 2, "cluster": 0, "tavg": null, "tmin": null, "tmax": null, "prcp_d0": 0.0, "prcp_d1": 0.0, "prcp_d2": 0.0, "prcp_d3": 0.0, "prcp_d4": 0.0, "prcp_d5": 0.0, "prcp_d6": 0.0, "tmax_d0": 7.0, "tmax_d1": 9.0, "tmax_d2": 4.2, "tmax_d3": 2.1, "tmax_d4": 0.8, "tmax_d5": 5.3, "tmax_d6": 9.2, "tmin_d0": 0.5, "tmin_d1": -5.2, "tmin_d2": -5.1, "tmin_d3": -4.5, "tmin_d4": -4.2, "tmin_d5": -1.6, "tmin_d6": 2.1, "day_of_year": 276, "uuid": "7f1c1c8a-9ffc-4869-b52e-c502cf3fb598", "inat_id": 33876441}}, {"type": "Feature", "geometry": {"type": "Point", "coordinates": [-121.8167888889, 45.3144555556]}, "properties": {"species": "Gomphus clavatus", "date": "2019-10-05", "location": "Clackamas, Oregon, United States", "elevation": 880.0, "land_cover_label": "Tree cover", "water_mask": false, "exclude_reason": "keep", "ndvi": null, "soil_moisture": null, "solar_exposure": null, "wind_exposure": null, "water_retention": null, "slope": null, "aspect": null, "num_identification_agreements": 2, "cluster": 0, "tavg": null, "tmin": null, "tmax": null, "prcp_d0": 0.0, "prcp_d1": 4.169913768768311, "prcp_d2": 9.204296112060549, "prcp_d3": 0.0, "prcp_d4": 0.0, "prcp_d5": 0.0, "prcp_d6": 0.0, "tmax_d0": 11.7, "tmax_d1": 8.5, "tmax_d2": 10.5, "tmax_d3": 12.4, "tmax_d4": 9.8, "tmax_d5": 5.1, "tmax_d6": 5.3, "tmin_d0": 1.8, "tmin_d1": 1.7, "tmin_d2": 4.8, "tmin_d3": -1.8, "tmin_d4": -3.0, "tmin_d5": -0.4, "tmin_d6": 0.4, "day_of_year": 278, "uuid": "163719e5-c400-4863-b104-09c26a82d815", "inat_id": 34223842}}, {"type": "Feature", "geometry": {"type": "Point", "coordinates": [-121.9802910492, 44.5846606396]}, "properties": {"species": "Gomphus clavatus", "date": "2019-10-07", "location": "Willamette National Forest, Idanha, OR, US", "elevation": 859.0, "land_cover_label": "Tree cover", "water_mask": false, "exclude_reason": "keep", "ndvi": null, "soil_moisture": null, "solar_exposure": null, "wind_exposure": null, "water_retention": null, "slope": null, "aspect": null, "num_identification_agreements": 1, "cluster": 0, "tavg": null, "tmin": null, "tmax": null, "prcp_d0": 0.0, "prcp_d1": 0.0, "prcp_d2": 0.0, "prcp_d3": 0.0, "prcp_d4": 0.0, "prcp_d5": 0.0, "prcp_d6": 0.0, "tmax_d0": 18.7, "tmax_d1": 18.5, "tmax_d2": 14.2, "tmax_d3": 9.5, "tmax_d4": 11.6, "tmax_d5": 13.5, "tmax_d6": 11.5, "tmin_d0": 5.3, "tmin_d1": 1.4, "tmin_d2": 1.0, "tmin_d3": 4.3, "tmin_d4": 6.0, "tmin_d5": -0.6, "tmin_d6": -0.4, "day_of_year": 280, "uuid": "1f8933e1-97ff-4f9a-bab1-2ec6ebed1a3c", "inat_id": 34726123}}, {"type": "Feature", "geometry": {"type": "Point", "coordinates": [-122.0451631693, 45.1412955195]}, "properties": {"species": "Gomphus clavatus", "date": "2019-10-12", "location": "Estacada", "elevation": 1214.0, "land_cover_label": "Tree cover", "water_mask": false, "exclude_reason": "keep", "ndvi": null, "soil_moisture": null, "solar_exposure": null, "wind_exposure": null, "water_retention": null, "slope": null, "aspect": null, "num_identification_agreements": 1, "cluster": 0, "tavg": null, "tmin": null, "tmax": null, "prcp_d0": 0.0, "prcp_d1": 0.0, "prcp_d2": 0.0, "prcp_d3": 0.0, "prcp_d4": 0.0, "prcp_d5": 0.0, "prcp_d6": 0.0, "tmax_d0": 13.4, "tmax_d1": 9.7, "tmax_d2": 7.1, "tmax_d3": 5.7, "tmax_d4": 12.1, "tmax_d5": 14.9, "tmax_d6": 15.3, "tmin_d0": -3.9, "tmin_d1": -4.7, "tmin_d2": -6.0, "tmin_d3": -1.5, "tmin_d4": 1.5, "tmin_d5": -2.6, "tmin_d6": -4.4, "day_of_year": 285, "uuid": "694d1c24-d493-4a00-8554-b748244f594d", "inat_id": 34622385}}, {"type": "Feature", "geometry": {"type": "Point", "coordinates": [-122.21070502, 44.8479346]}, "properties": {"species": "Gomphus clavatus", "date": "2019-10-12", "location": "Marion County, US-OR, US", "elevation": 638.0, "land_cover_label": "Tree cover", "water_mask": false, "exclude_reason": "keep", "ndvi": null, "soil_moisture": null, "solar_exposure": null, "wind_exposure": null, "water_retention": null, "slope": null, "aspect": null, "num_identification_agreements": 3, "cluster": 0, "tavg": null, "tmin": null, "tmax": null, "prcp_d0": 0.0, "prcp_d1": 0.0, "prcp_d2": 0.0, "prcp_d3": 0.0, "prcp_d4": 0.0, "prcp_d5": 0.0, "prcp_d6": 0.0, "tmax_d0": 17.1, "tmax_d1": 17.9, "tmax_d2": 13.9, "tmax_d3": 9.9, "tmax_d4": 15.3, "tmax_d5": 18.2, "tmax_d6": 19.7, "tmin_d0": 2.0, "tmin_d1": 0.4, "tmin_d2": -0.3, "tmin_d3": 2.2, "tmin_d4": 6.2, "tmin_d5": 5.6, "tmin_d6": 2.9, "day_of_year": 285, "uuid": "19cf9ddd-7b80-43b4-bfce-b9eeac63e8c4", "inat_id": 34368162}}, {"type": "Feature", "geometry": {"type": "Point", "coordinates": [-122.20744904, 44.844106]}, "properties": {"species": "Gomphus clavatus", "date": "2019-10-12", "location": "Marion County, US-OR, US", "elevation": 658.0, "land_cover_label": "Tree cover", "water_mask": false, "exclude_reason": "keep", "ndvi": null, "soil_moisture": null, "solar_exposure": null, "wind_exposure": null, "water_retention": null, "slope": null, "aspect": null, "num_identification_agreements": 1, "cluster": 0, "tavg": null, "tmin": null, "tmax": null, "prcp_d0": 0.0, "prcp_d1": 0.0, "prcp_d2": 0.0, "prcp_d3": 0.0, "prcp_d4": 0.0, "prcp_d5": 0.0, "prcp_d6": 0.0, "tmax_d0": 17.1, "tmax_d1": 17.9, "tmax_d2": 13.9, "tmax_d3": 9.9, "tmax_d4": 15.3, "tmax_d5": 18.2, "tmax_d6": 19.7, "tmin_d0": 2.0, "tmin_d1": 0.4, "tmin_d2": -0.3, "tmin_d3": 2.2, "tmin_d4": 6.2, "tmin_d5": 5.6, "tmin_d6": 2.9, "day_of_year": 285, "uuid": "e5127c36-4efb-44f4-aac5-c44a4e93f0f4", "inat_id": 34410082}}, {"type": "Feature", "geometry": {"type": "Point", "coordinates": [-122.2101739795, 44.8491117871]}, "properties": {"species": "Gomphus clavatus", "date": "2019-10-12", "location": "Marion County, US-OR, US", "elevation": 705.0, "land_cover_label": "Tree cover", "water_mask": false, "exclude_reason": "keep", "ndvi": null, "soil_moisture": null, "solar_exposure": null, "wind_exposure": null, "water_retention": null, "slope": null, "aspect": null, "num_identification_agreements": 1, "cluster": 0, "tavg": null, "tmin": null, "tmax": null, "prcp_d0": 0.0, "prcp_d1": 0.0, "prcp_d2": 0.0, "prcp_d3": 0.0, "prcp_d4": 0.0, "prcp_d5": 0.0, "prcp_d6": 0.0, "tmax_d0": 16.9, "tmax_d1": 17.7, "tmax_d2": 13.8, "tmax_d3": 9.8, "tmax_d4": 15.2, "tmax_d5": 18.1, "tmax_d6": 19.6, "tmin_d0": 1.9, "tmin_d1": 0.3, "tmin_d2": -0.5, "tmin_d3": 2.0, "tmin_d4": 6.0, "tmin_d5": 5.5, "tmin_d6": 2.8, "day_of_year": 285, "uuid": "649fe440-bff5-452e-9363-a1d1f461f79e", "inat_id": 34341135}}, {"type": "Feature", "geometry": {"type": "Point", "coordinates": [-122.2117118911, 44.8483625707]}, "properties": {"species": "Gomphus clavatus", "date": "2019-10-12", "location": "Marion County, US-OR, US", "elevation": 697.0, "land_cover_label": "Tree cover", "water_mask": false, "exclude_reason": "keep", "ndvi": null, "soil_moisture": null, "solar_exposure": null, "wind_exposure": null, "water_retention": null, "slope": null, "aspect": null, "num_identification_agreements": 3, "cluster": 0, "tavg": null, "tmin": null, "tmax": null, "prcp_d0": 0.0, "prcp_d1": 0.0, "prcp_d2": 0.0, "prcp_d3": 0.0, "prcp_d4": 0.0, "prcp_d5": 0.0, "prcp_d6": 0.0, "tmax_d0": 16.9, "tmax_d1": 17.7, "tmax_d2": 13.8, "tmax_d3": 9.8, "tmax_d4": 15.2, "tmax_d5": 18.1, "tmax_d6": 19.6, "tmin_d0": 1.9, "tmin_d1": 0.3, "tmin_d2": -0.5, "tmin_d3": 2.0, "tmin_d4": 6.0, "tmin_d5": 5.5, "tmin_d6": 2.8, "day_of_year": 285, "uuid": "d80390ed-8bb1-4ef4-b8a9-a227a68b6657", "inat_id": 34337868}}, {"type": "Feature", "geometry": {"type": "Point", "coordinates": [-121.99375333, 44.78414167]}, "properties": {"species": "Gomphus clavatus", "date": "2019-10-20", "location": "Willamette National Forest, Detroit, OR, US", "elevation": 793.0, "land_cover_label": "Tree cover", "water_mask": false, "exclude_reason": "keep", "ndvi": null, "soil_moisture": null, "solar_exposure": null, "wind_exposure": null, "water_retention": null, "slope": null, "aspect": null, "num_identification_agreements": 1, "cluster": 1, "tavg": null, "tmin": null, "tmax": null, "prcp_d0": 0.0, "prcp_d1": 82.00914764404297, "prcp_d2": 0.0, "prcp_d3": 0.0, "prcp_d4": 0.0, "prcp_d5": 0.0, "prcp_d6": 0.0, "tmax_d0": 8.1, "tmax_d1": 6.0, "tmax_d2": 8.4, "tmax_d3": 9.1, "tmax_d4": 14.3, "tmax_d5": 14.7, "tmax_d6": 15.6, "tmin_d0": 3.9, "tmin_d1": 4.2, "tmin_d2": 4.6, "tmin_d3": 5.2, "tmin_d4": 7.4, "tmin_d5": 4.0, "tmin_d6": 0.8, "day_of_year": 293, "uuid": "ac6c9a45-4d07-4327-ad3e-ae93d93762b2", "inat_id": 34676378}}, {"type": "Feature", "geometry": {"type": "Point", "coordinates": [-121.9232021766, 45.3185726869]}, "properties": {"species": "Gomphus clavatus", "date": "2019-10-21", "location": "Oregon, US", "elevation": 960.0, "land_cover_label": "Tree cover", "water_mask": false, "exclude_reason": "keep", "ndvi": null, "soil_moisture": null, "solar_exposure": null, "wind_exposure": null, "water_retention": null, "slope": null, "aspect": null, "num_identification_agreements": 3, "cluster": 2, "tavg": null, "tmin": 11.1, "tmax": 16.7, "prcp_d0": 0.0, "prcp_d1": 0.0, "prcp_d2": 0.0, "prcp_d3": 0.0, "prcp_d4": 0.0, "prcp_d5": 86.34727478027344, "prcp_d6": 0.0, "tmax_d0": 8.7, "tmax_d1": 7.2, "tmax_d2": 4.2, "tmax_d3": 8.1, "tmax_d4": 8.9, "tmax_d5": 12.7, "tmax_d6": 13.3, "tmin_d0": 5.3, "tmin_d1": 1.9, "tmin_d2": 2.6, "tmin_d3": 3.2, "tmin_d4": 3.6, "tmin_d5": 5.3, "tmin_d6": 2.9, "day_of_year": 294, "uuid": "3054e338-7e10-4f5d-833c-4105b02d6aaa", "inat_id": 37151228}}, {"type": "Feature", "geometry": {"type": "Point", "coordinates": [-121.84973, 45.38194667]}, "properties": {"species": "Gomphus clavatus", "date": "2019-10-22", "location": "Mt. Hood National Forest, Rhododendron, OR, US", "elevation": 803.0, "land_cover_label": "Tree cover", "water_mask": false, "exclude_reason": "keep", "ndvi": null, "soil_moisture": null, "solar_exposure": null, "wind_exposure": null, "water_retention": null, "slope": null, "aspect": null, "num_identification_agreements": 3, "cluster": 2, "tavg": null, "tmin": 7.8, "tmax": 17.8, "prcp_d0": 0.0, "prcp_d1": 0.0, "prcp_d2": 0.0, "prcp_d3": 0.0, "prcp_d4": 0.0, "prcp_d5": 0.0, "prcp_d6": 92.22708129882812, "tmax_d0": 11.8, "tmax_d1": 10.0, "tmax_d2": 8.3, "tmax_d3": 5.4, "tmax_d4": 8.9, "tmax_d5": 9.6, "tmax_d6": 14.0, "tmin_d0": 9.5, "tmin_d1": 6.5, "tmin_d2": 2.9, "tmin_d3": 3.6, "tmin_d4": 4.2, "tmin_d5": 4.9, "tmin_d6": 7.8, "day_of_year": 295, "uuid": "6704fb8c-bd26-457a-80bf-5ba9f35b8f2e", "inat_id": 34756774}}, {"type": "Feature", "geometry": {"type": "Point", "coordinates": [-121.7883453369, 45.353969574]}, "properties": {"species": "Gomphus clavatus", "date": "2019-10-27", "location": "Rhododendron", "elevation": 1127.0, "land_cover_label": "Tree cover", "water_mask": false, "exclude_reason": "keep", "ndvi": null, "soil_moisture": null, "solar_exposure": null, "wind_exposure": null, "water_retention": null, "slope": null, "aspect": null, "num_identification_agreements": 1, "cluster": 0, "tavg": null, "tmin": null, "tmax": null, "prcp_d0": 7.1426215171813965, "prcp_d1": 15.554373741149902, "prcp_d2": 0.0, "prcp_d3": 0.0, "prcp_d4": 0.0, "prcp_d5": 10.963359832763672, "prcp_d6": 4.2956366539001465, "tmax_d0": 5.0, "tmax_d1": 6.0, "tmax_d2": 14.6, "tmax_d3": 18.1, "tmax_d4": 13.7, "tmax_d5": 9.9, "tmax_d6": 8.0, "tmin_d0": -2.9, "tmin_d1": 0.4, "tmin_d2": 6.7, "tmin_d3": 1.2, "tmin_d4": 0.3, "tmin_d5": 7.6, "tmin_d6": 4.5, "day_of_year": 300, "uuid": "c5109f2d-9a48-43e5-ac8e-edbe7e3144c2", "inat_id": 34996354}}, {"type": "Feature", "geometry": {"type": "Point", "coordinates": [-121.8300473053, 45.2986860401]}, "properties": {"species": "Gomphus clavatus", "date": "2020-09-27", "location": "Oregon, US", "elevation": 992.0, "land_cover_label": "Tree cover", "water_mask": false, "exclude_reason": "keep", "ndvi": null, "soil_moisture": null, "solar_exposure": null, "wind_exposure": null, "water_retention": null, "slope": null, "aspect": null, "num_identification_agreements": 1, "cluster": 1, "tavg": null, "tmin": null, "tmax": null, "prcp_d0": 0.0, "prcp_d1": 0.0, "prcp_d2": 53.37970352172852, "prcp_d3": 0.0, "prcp_d4": 0.0, "prcp_d5": 0.0, "prcp_d6": 0.0, "tmax_d0": 19.0, "tmax_d1": 11.7, "tmax_d2": 12.0, "tmax_d3": 15.7, "tmax_d4": 18.7, "tmax_d5": 17.3, "tmax_d6": 17.7, "tmin_d0": 8.0, "tmin_d1": 7.9, "tmin_d2": 7.3, "tmin_d3": 6.7, "tmin_d4": 9.9, "tmin_d5": 10.5, "tmin_d6": 5.4, "day_of_year": 271, "uuid": "461c54a7-0039-4e5c-81a0-f5132d5e295d", "inat_id": 61069690}}, {"type": "Feature", "geometry": {"type": "Point", "coordinates": [-121.7853616667, 45.29138]}, "properties": {"species": "Gomphus clavatus", "date": "2020-10-06", "location": "Mt. Hood Skibowl, Government Camp, OR, US", "elevation": 1437.0, "land_cover_label": "Tree cover", "water_mask": false, "exclude_reason": "keep", "ndvi": null, "soil_moisture": null, "solar_exposure": null, "wind_exposure": null, "water_retention": null, "slope": null, "aspect": null, "num_identification_agreements": 1, "cluster": 0, "tavg": null, "tmin": null, "tmax": null, "prcp_d0": 0.0, "prcp_d1": 0.0, "prcp_d2": 0.0, "prcp_d3": 0.0, "prcp_d4": 0.0, "prcp_d5": 0.0, "prcp_d6": 0.0, "tmax_d0": 23.6, "tmax_d1": 20.5, "tmax_d2": 17.4, "tmax_d3": 20.3, "tmax_d4": 22.8, "tmax_d5": 24.0, "tmax_d6": 23.9, "tmin_d0": 9.6, "tmin_d1": 6.1, "tmin_d2": 7.1, "tmin_d3": 8.7, "tmin_d4": 12.7, "tmin_d5": 10.6, "tmin_d6": 10.3, "day_of_year": 280, "uuid": "a97a4008-9bbc-4b39-a13e-e7fbc4dfb3f8", "inat_id": 61901474}}, {"type": "Feature", "geometry": {"type": "Point", "coordinates": [-121.9880198122, 45.2745337605]}, "properties": {"species": "Gomphus clavatus", "date": "2020-10-22", "location": "Oregon, US", "elevation": 870.0, "land_cover_label": "Tree cover", "water_mask": false, "exclude_reason": "keep", "ndvi": null, "soil_moisture": null, "solar_exposure": null, "wind_exposure": null, "water_retention": null, "slope": null, "aspect": null, "num_identification_agreements": 2, "cluster": 0, "tavg": null, "tmin": 2.8, "tmax": 15.0, "prcp_d0": 0.0, "prcp_d1": 0.0, "prcp_d2": 0.0, "prcp_d3": 0.0, "prcp_d4": 0.0, "prcp_d5": 0.0, "prcp_d6": 0.0, "tmax_d0": 9.1, "tmax_d1": 9.1, "tmax_d2": 10.3, "tmax_d3": 11.4, "tmax_d4": 11.8, "tmax_d5": 13.1, "tmax_d6": 15.1, "tmin_d0": -3.5, "tmin_d1": 4.4, "tmin_d2": 4.9, "tmin_d3": 8.4, "tmin_d4": 7.5, "tmin_d5": 9.7, "tmin_d6": 4.4, "day_of_year": 296, "uuid": "b6e2085a-eb1a-4372-8bf0-e32ac9e9ee8c", "inat_id": 63287729}}, {"type": "Feature", "geometry": {"type": "Point", "coordinates": [-121.773995031, 45.3434346595]}, "properties": {"species": "Gomphus clavatus", "date": "2020-10-29", "location": "Oregon, US", "elevation": 1336.0, "land_cover_label": "Tree cover", "water_mask": false, "exclude_reason": "keep", "ndvi": null, "soil_moisture": null, "solar_exposure": null, "wind_exposure": null, "water_retention": null, "slope": null, "aspect": null, "num_identification_agreements": 2, "cluster": 0, "tavg": null, "tmin": null, "tmax": null, "prcp_d0": 0.0, "prcp_d1": 0.0, "prcp_d2": 0.0, "prcp_d3": 0.2213780134916305, "prcp_d4": 0.0, "prcp_d5": 0.0, "prcp_d6": 0.0, "tmax_d0": 13.7, "tmax_d1": 14.5, "tmax_d2": 10.8, "tmax_d3": 7.0, "tmax_d4": -1.5, "tmax_d5": 6.0, "tmax_d6": 4.6, "tmin_d0": 6.5, "tmin_d1": 2.9, "tmin_d2": -0.9, "tmin_d3": -6.4, "tmin_d4": -10.1, "tmin_d5": -2.1, "tmin_d6": -3.1, "day_of_year": 303, "uuid": "d84b157a-0b20-4a2e-b944-715b017daded", "inat_id": 63805354}}, {"type": "Feature", "geometry": {"type": "Point", "coordinates": [-105.9707033333, 39.9335366667]}, "properties": {"species": "Gomphus clavatus", "date": "2021-08-13", "location": "Arapaho & Roosevelt National Forests Pawnee National Grassland, Parshall, CO, US", "elevation": 3032.0, "land_cover_label": "Tree cover", "water_mask": false, "exclude_reason": "keep", "ndvi": null, "soil_moisture": 0.2844082977072246, "solar_exposure": 0.7983600497245789, "wind_exposure": 0.3206417858600616, "water_retention": 0.2359698265790939, "slope": 3.81367540359497, "aspect": 12.278748512268066, "num_identification_agreements": 2, "cluster": 0, "tavg": null, "tmin": 7.7, "tmax": 27.3, "prcp_d0": 0.0, "prcp_d1": 0.0, "prcp_d2": 0.0, "prcp_d3": 0.0, "prcp_d4": 0.0, "prcp_d5": 0.0, "prcp_d6": 0.0, "tmax_d0": 20.4, "tmax_d1": 22.1, "tmax_d2": 21.8, "tmax_d3": 19.8, "tmax_d4": 20.2, "tmax_d5": 20.6, "tmax_d6": 16.6, "tmin_d0": 6.0, "tmin_d1": 8.7, "tmin_d2": 6.2, "tmin_d3": 6.6, "tmin_d4": 8.3, "tmin_d5": 4.7, "tmin_d6": 6.6, "day_of_year": 225, "uuid": "6f87efb3-8166-492d-a44e-3c9ebc828525", "inat_id": 91053268}}, {"type": "Feature", "geometry": {"type": "Point", "coordinates": [-105.97469275, 39.9325191]}, "properties": {"species": "Gomphus clavatus", "date": "2021-08-14", "location": "Grand County, US-CO, US", "elevation": 3044.0, "land_cover_label": "Tree cover", "water_mask": false, "exclude_reason": "keep", "ndvi": null, "soil_moisture": 0.2793148406103986, "solar_exposure": 0.7982301712036133, "wind_exposure": 0.3188786804676056, "water_retention": 0.2808522880077362, "slope": 3.919668674468994, "aspect": 341.919677734375, "num_identification_agreements": 2, "cluster": 0, "tavg": null, "tmin": 6.0, "tmax": 28.3, "prcp_d0": 0.0, "prcp_d1": 0.0, "prcp_d2": 0.0, "prcp_d3": 0.0, "prcp_d4": 0.0, "prcp_d5": 0.0, "prcp_d6": 0.0, "tmax_d0": 22.8, "tmax_d1": 20.4, "tmax_d2": 22.1, "tmax_d3": 21.9, "tmax_d4": 19.8, "tmax_d5": 20.2, "tmax_d6": 20.7, "tmin_d0": 7.9, "tmin_d1": 6.1, "tmin_d2": 8.7, "tmin_d3": 6.3, "tmin_d4": 6.7, "tmin_d5": 8.4, "tmin_d6": 4.7, "day_of_year": 226, "uuid": "43d93165-350a-4f1c-81c2-fc27fddd49b2", "inat_id": 91188100}}, {"type": "Feature", "geometry": {"type": "Point", "coordinates": [-105.9761883333, 39.9329033333]}, "properties": {"species": "Gomphus clavatus", "date": "2021-08-14", "location": "Arapaho & Roosevelt National Forests Pawnee National Grassland, Parshall, CO, US", "elevation": 3039.0, "land_cover_label": "Tree cover", "water_mask": false, "exclude_reason": "keep", "ndvi": null, "soil_moisture": 0.2790798237946845, "solar_exposure": 0.790164053440094, "wind_exposure": 0.326255053281784, "water_retention": 0.2179499715566635, "slope": 4.976883411407471, "aspect": 330.765869140625, "num_identification_agreements": 3, "cluster": 0, "tavg": null, "tmin": 6.0, "tmax": 28.3, "prcp_d0": 0.0, "prcp_d1": 0.0, "prcp_d2": 0.0, "prcp_d3": 0.0, "prcp_d4": 0.0, "prcp_d5": 0.0, "prcp_d6": 0.0, "tmax_d0": 22.8, "tmax_d1": 20.4, "tmax_d2": 22.1, "tmax_d3": 21.9, "tmax_d4": 19.8, "tmax_d5": 20.2, "tmax_d6": 20.7, "tmin_d0": 7.9, "tmin_d1": 6.1, "tmin_d2": 8.7, "tmin_d3": 6.3, "tmin_d4": 6.7, "tmin_d5": 8.4, "tmin_d6": 4.7, "day_of_year": 226, "uuid": "be2c7cf6-0300-40b2-85ad-a4c7b502b0cb", "inat_id": 91219503}}, {"type": "Feature", "geometry": {"type": "Point", "coordinates": [-106.9971558452, 38.8624139208]}, "properties": {"species": "Gomphus clavatus", "date": "2021-08-26", "location": "Crested Butte, CO 81224, USA", "elevation": 3031.0, "land_cover_label": "Tree cover", "water_mask": false, "exclude_reason": "keep", "ndvi": null, "soil_moisture": null, "solar_exposure": null, "wind_exposure": null, "water_retention": null, "slope": null, "aspect": null, "num_identification_agreements": 1, "cluster": 0, "tavg": null, "tmin": 5.0, "tmax": 20.6, "prcp_d0": 0.0, "prcp_d1": 0.0, "prcp_d2": 0.0, "prcp_d3": 0.0, "prcp_d4": 0.0, "prcp_d5": 0.0, "prcp_d6": 0.0, "tmax_d0": 18.7, "tmax_d1": 21.9, "tmax_d2": 20.4, "tmax_d3": 19.8, "tmax_d4": 18.6, "tmax_d5": 16.4, "tmax_d6": 14.7, "tmin_d0": 2.6, "tmin_d1": -1.2, "tmin_d2": 3.2, "tmin_d3": 3.4, "tmin_d4": 5.0, "tmin_d5": 0.6, "tmin_d6": 0.4, "day_of_year": 238, "uuid": "677269f9-baea-4d35-878b-74c5a8b36402", "inat_id": 92682784}}, {"type": "Feature", "geometry": {"type": "Point", "coordinates": [-106.7531873101, 39.2449059058]}, "properties": {"species": "Gomphus clavatus", "date": "2022-07-29", "location": "Pitkin County, US-CO, US", "elevation": 2672.0, "land_cover_label": "Tree cover", "water_mask": false, "exclude_reason": "keep", "ndvi": null, "soil_moisture": null, "solar_exposure": null, "wind_exposure": null, "water_retention": null, "slope": null, "aspect": null, "num_identification_agreements": 1, "cluster": 0, "tavg": null, "tmin": 9.4, "tmax": 23.9, "prcp_d0": 0.0, "prcp_d1": 0.0, "prcp_d2": 0.0, "prcp_d3": 12.26108741760254, "prcp_d4": 0.0, "prcp_d5": 0.0, "prcp_d6": 0.0, "tmax_d0": 21.9, "tmax_d1": 22.6, "tmax_d2": 24.2, "tmax_d3": 23.6, "tmax_d4": 23.5, "tmax_d5": 20.9, "tmax_d6": 25.9, "tmin_d0": 7.9, "tmin_d1": 10.3, "tmin_d2": 8.3, "tmin_d3": 9.4, "tmin_d4": 9.1, "tmin_d5": 9.9, "tmin_d6": 10.3, "day_of_year": 210, "uuid": "b89abf20-718c-41b0-b47a-e6f4b95ac6d3", "inat_id": 128497566}}, {"type": "Feature", "geometry": {"type": "Point", "coordinates": [-106.8024419931, 39.2642653301]}, "properties": {"species": "Gomphus clavatus", "date": "2022-08-21", "location": "White River National Forest, Meredith, CO, US", "elevation": 2951.0, "land_cover_label": "Tree cover", "water_mask": false, "exclude_reason": "keep", "ndvi": null, "soil_moisture": null, "solar_exposure": null, "wind_exposure": null, "water_retention": null, "slope": null, "aspect": null, "num_identification_agreements": 3, "cluster": 0, "tavg": null, "tmin": 11.1, "tmax": 20.0, "prcp_d0": 0.0, "prcp_d1": 7.895569801330566, "prcp_d2": 7.895569801330566, "prcp_d3": 0.0, "prcp_d4": 0.0, "prcp_d5": 7.895569801330566, "prcp_d6": 0.0, "tmax_d0": 17.5, "tmax_d1": 15.4, "tmax_d2": 20.9, "tmax_d3": 22.2, "tmax_d4": 20.5, "tmax_d5": 15.1, "tmax_d6": 20.3, "tmin_d0": 3.9, "tmin_d1": 7.0, "tmin_d2": 5.6, "tmin_d3": 3.9, "tmin_d4": 6.7, "tmin_d5": 8.2, "tmin_d6": 7.4, "day_of_year": 233, "uuid": "05270405-8a20-41f3-966e-6fc8856f746f", "inat_id": 131818928}}, {"type": "Feature", "geometry": {"type": "Point", "coordinates": [-105.5175032755, 40.0867422959]}, "properties": {"species": "Gomphus clavatus", "date": "2022-09-01", "location": "Colorado, US", "elevation": 2962.0, "land_cover_label": "Tree cover", "water_mask": false, "exclude_reason": "keep", "ndvi": null, "soil_moisture": 0.2897078245961929, "solar_exposure": 0.6729037761688232, "wind_exposure": 0.3942064940929413, "water_retention": 0.1490451693534851, "slope": 13.601914405822754, "aspect": 15.286928176879885, "num_identification_agreements": 1, "cluster": 0, "tavg": null, "tmin": 15.0, "tmax": 33.0, "prcp_d0": 4.448739528656006, "prcp_d1": 0.0, "prcp_d2": 0.0, "prcp_d3": 0.0, "prcp_d4": 13.929317474365234, "prcp_d5": 0.0, "prcp_d6": 0.0, "tmax_d0": 19.7, "tmax_d1": 20.7, "tmax_d2": 19.1, "tmax_d3": 18.0, "tmax_d4": 18.4, "tmax_d5": 18.7, "tmax_d6": 15.7, "tmin_d0": 8.0, "tmin_d1": 8.5, "tmin_d2": 8.5, "tmin_d3": 7.9, "tmin_d4": 10.4, "tmin_d5": 7.5, "tmin_d6": 7.6, "day_of_year": 244, "uuid": "cdf0bed2-3e62-48f0-80c4-653f33ad1d2d", "inat_id": 151366791}}, {"type": "Feature", "geometry": {"type": "Point", "coordinates": [-105.536055, 40.0821528333]}, "properties": {"species": "Gomphus clavatus", "date": "2022-09-03", "location": "Waldrop North, Ward, CO, US", "elevation": 3068.0, "land_cover_label": "Tree cover", "water_mask": false, "exclude_reason": "keep", "ndvi": null, "soil_moisture": 0.2743834943086364, "solar_exposure": 0.8366796374320984, "wind_exposure": 0.3150392472743988, "water_retention": 0.2467974871397018, "slope": 6.477669715881348, "aspect": 92.7401123046875, "num_identification_agreements": 2, "cluster": 0, "tavg": null, "tmin": 17.0, "tmax": 31.0, "prcp_d0": 0.0, "prcp_d1": 0.0, "prcp_d2": 4.448739528656006, "prcp_d3": 0.0, "prcp_d4": 0.0, "prcp_d5": 0.0, "prcp_d6": 13.929317474365234, "tmax_d0": 17.3, "tmax_d1": 19.0, "tmax_d2": 18.7, "tmax_d3": 19.7, "tmax_d4": 18.1, "tmax_d5": 17.0, "tmax_d6": 17.4, "tmin_d0": 7.6, "tmin_d1": 9.1, "tmin_d2": 7.0, "tmin_d3": 7.5, "tmin_d4": 7.5, "tmin_d5": 6.9, "tmin_d6": 9.4, "day_of_year": 246, "uuid": "93b7b006-5780-4291-b5bd-e72a18b3ce70", "inat_id": 133685083}}, {"type": "Feature", "geometry": {"type": "Point", "coordinates": [-105.4558266276, 40.1199397439]}, "properties": {"species": "Gomphus clavatus", "date": "2023-09-10", "location": "Colorado, US", "elevation": 2587.0, "land_cover_label": "Tree cover", "water_mask": false, "exclude_reason": "keep", "ndvi": null, "soil_moisture": 0.2386031292499175, "solar_exposure": 0.7977429628372192, "wind_exposure": 0.287745863199234, "water_retention": 0.1865881830453872, "slope": 7.893921852111816, "aspect": 66.9538345336914, "num_identification_agreements": 1, "cluster": 0, "tavg": null, "tmin": 13.0, "tmax": 18.0, "prcp_d0": 8.530320167541504, "prcp_d1": 0.0, "prcp_d2": 0.0, "prcp_d3": 0.0, "prcp_d4": 0.0, "prcp_d5": 0.0, "prcp_d6": 0.0, "tmax_d0": 17.6, "tmax_d1": 21.1, "tmax_d2": 22.6, "tmax_d3": 22.1, "tmax_d4": 21.6, "tmax_d5": 17.5, "tmax_d6": 21.6, "tmin_d0": 6.8, "tmin_d1": 7.3, "tmin_d2": 8.7, "tmin_d3": 8.3, "tmin_d4": 5.2, "tmin_d5": 5.5, "tmin_d6": 8.8, "day_of_year": 253, "uuid": "78113e01-dfce-4e95-ac5e-338824fa9f06", "inat_id": 182766940}}, {"type": "Feature", "geometry": {"type": "Point", "coordinates": [-121.6813059933, 45.2818676533]}, "properties": {"species": "Gomphus clavatus", "date": "2023-10-01", "location": "Barlow Pass, Hood River Cty, OR, USA", "elevation": 1248.0, "land_cover_label": "Tree cover", "water_mask": false, "exclude_reason": "keep", "ndvi": null, "soil_moisture": null, "solar_exposure": null, "wind_exposure": null, "water_retention": null, "slope": null, "aspect": null, "num_identification_agreements": 1, "cluster": 0, "tavg": null, "tmin": 6.5, "tmax": 19.7, "prcp_d0": 0.0, "prcp_d1": 0.0, "prcp_d2": 0.0, "prcp_d3": 0.0, "prcp_d4": 0.0, "prcp_d5": 0.0, "prcp_d6": 20.303699493408203, "tmax_d0": 13.4, "tmax_d1": 12.0, "tmax_d2": 9.1, "tmax_d3": 8.2, "tmax_d4": 8.3, "tmax_d5": 10.2, "tmax_d6": 10.8, "tmin_d0": 1.8, "tmin_d1": 2.5, "tmin_d2": 5.6, "tmin_d3": 4.8, "tmin_d4": 4.1, "tmin_d5": 4.8, "tmin_d6": 7.0, "day_of_year": 274, "uuid": "d6945d3d-46cf-4f90-b08c-2b5404ba8cba", "inat_id": 186714078}}, {"type": "Feature", "geometry": {"type": "Point", "coordinates": [-121.8640562388, 45.3309875178]}, "properties": {"species": "Gomphus clavatus", "date": "2023-10-06", "location": "Mt. Hood Park Division Recreation Area, Rhododendron, OR, US", "elevation": 1214.0, "land_cover_label": "Tree cover", "water_mask": false, "exclude_reason": "keep", "ndvi": null, "soil_moisture": null, "solar_exposure": null, "wind_exposure": null, "water_retention": null, "slope": null, "aspect": null, "num_identification_agreements": 1, "cluster": 0, "tavg": null, "tmin": 10.5, "tmax": 23.6, "prcp_d0": 0.0, "prcp_d1": 0.0, "prcp_d2": 0.0, "prcp_d3": 0.0, "prcp_d4": 0.0, "prcp_d5": 0.0, "prcp_d6": 0.0, "tmax_d0": 19.1, "tmax_d1": 21.0, "tmax_d2": 14.9, "tmax_d3": 9.4, "tmax_d4": 10.2, "tmax_d5": 12.7, "tmax_d6": 11.5, "tmin_d0": 10.4, "tmin_d1": 8.9, "tmin_d2": 3.8, "tmin_d3": 7.2, "tmin_d4": 3.9, "tmin_d5": 0.5, "tmin_d6": 1.7, "day_of_year": 279, "uuid": "da4f0f7d-a939-493a-b74c-bf02fef89ea8", "inat_id": 186498768}}, {"type": "Feature", "geometry": {"type": "Point", "coordinates": [-107.8785092046, 37.9357526667]}, "properties": {"species": "Gomphus clavatus", "date": "2024-08-16", "location": "Colorado, US", "elevation": 2815.0, "land_cover_label": "Tree cover", "water_mask": false, "exclude_reason": "keep", "ndvi": null, "soil_moisture": null, "solar_exposure": null, "wind_exposure": null, "water_retention": null, "slope": null, "aspect": null, "num_identification_agreements": 1, "cluster": 0, "tavg": null, "tmin": 12.0, "tmax": 25.0, "prcp_d0": 0.0, "prcp_d1": 0.0, "prcp_d2": 0.0, "prcp_d3": 23.053241729736328, "prcp_d4": 11.526620864868164, "prcp_d5": 0.0, "prcp_d6": 0.0, "tmax_d0": 23.1, "tmax_d1": 21.6, "tmax_d2": 19.6, "tmax_d3": 18.2, "tmax_d4": 19.6, "tmax_d5": 20.9, "tmax_d6": 19.5, "tmin_d0": 5.2, "tmin_d1": 4.2, "tmin_d2": 4.8, "tmin_d3": 6.7, "tmin_d4": 7.2, "tmin_d5": 7.9, "tmin_d6": 8.1, "day_of_year": 229, "uuid": "5de9bdeb-6a9a-4aa6-a7c6-1cbd318b2c25", "inat_id": 236191185}}, {"type": "Feature", "geometry": {"type": "Point", "coordinates": [-105.7976018158, 35.7969946574]}, "properties": {"species": "Gomphus clavatus", "date": "2024-08-16", "location": "Santa Fe National Forest, Tererro, NM, US", "elevation": 3301.0, "land_cover_label": "Tree cover", "water_mask": false, "exclude_reason": "keep", "ndvi": null, "soil_moisture": null, "solar_exposure": null, "wind_exposure": null, "water_retention": null, "slope": null, "aspect": null, "num_identification_agreements": 2, "cluster": 0, "tavg": null, "tmin": 16.7, "tmax": 34.4, "prcp_d0": 0.0, "prcp_d1": 0.0, "prcp_d2": 0.0, "prcp_d3": 0.0, "prcp_d4": 0.0, "prcp_d5": 0.0, "prcp_d6": 7.033227443695068, "tmax_d0": 19.3, "tmax_d1": 19.1, "tmax_d2": 17.0, "tmax_d3": 18.0, "tmax_d4": 18.2, "tmax_d5": 18.2, "tmax_d6": 16.6, "tmin_d0": 8.5, "tmin_d1": 6.8, "tmin_d2": 7.6, "tmin_d3": 8.5, "tmin_d4": 8.6, "tmin_d5": 9.9, "tmin_d6": 8.0, "day_of_year": 229, "uuid": "103ce21d-4a47-48ab-8cd7-ea13147e680b", "inat_id": 236401685}}, {"type": "Feature", "geometry": {"type": "Point", "coordinates": [-121.7381866649, 45.2773040206]}, "properties": {"species": "Gomphus clavatus", "date": "2024-09-15", "location": "Clackamas County, US-OR, US", "elevation": 1143.0, "land_cover_label": "Tree cover", "water_mask": false, "exclude_reason": "keep", "ndvi": null, "soil_moisture": null, "solar_exposure": null, "wind_exposure": null, "water_retention": null, "slope": null, "aspect": null, "num_identification_agreements": 1, "cluster": 0, "tavg": null, "tmin": 11.3, "tmax": 21.2, "prcp_d0": 0.0, "prcp_d1": 0.0, "prcp_d2": 0.0, "prcp_d3": 0.0, "prcp_d4": 9.45176887512207, "prcp_d5": 0.0, "prcp_d6": 0.0, "tmax_d0": 13.4, "tmax_d1": 15.4, "tmax_d2": 16.5, "tmax_d3": 12.0, "tmax_d4": 17.4, "tmax_d5": 20.1, "tmax_d6": 22.7, "tmin_d0": 5.0, "tmin_d1": 7.6, "tmin_d2": 6.2, "tmin_d3": 7.7, "tmin_d4": 6.7, "tmin_d5": 11.5, "tmin_d6": 12.5, "day_of_year": 259, "uuid": "b83076e4-1b13-455a-b9be-bb63baccbcc1", "inat_id": 242220046}}, {"type": "Feature", "geometry": {"type": "Point", "coordinates": [-121.93297, 45.342105]}, "properties": {"species": "Gomphus clavatus", "date": "2024-09-15", "location": "Clackamas County, US-OR, US", "elevation": 459.0, "land_cover_label": "Tree cover", "water_mask": false, "exclude_reason": "keep", "ndvi": null, "soil_moisture": null, "solar_exposure": null, "wind_exposure": null, "water_retention": null, "slope": null, "aspect": null, "num_identification_agreements": 1, "cluster": 0, "tavg": null, "tmin": 11.1, "tmax": 20.0, "prcp_d0": 3.2266054153442383, "prcp_d1": 0.2489669322967529, "prcp_d2": 0.7382651567459106, "prcp_d3": 5.467009544372559, "prcp_d4": 17.419157028198242, "prcp_d5": 0.0, "prcp_d6": 0.0, "tmax_d0": 17.8, "tmax_d1": 19.0, "tmax_d2": 19.7, "tmax_d3": 15.6, "tmax_d4": 21.6, "tmax_d5": 23.3, "tmax_d6": 25.6, "tmin_d0": 9.1, "tmin_d1": 11.4, "tmin_d2": 9.2, "tmin_d3": 11.9, "tmin_d4": 10.8, "tmin_d5": 13.4, "tmin_d6": 14.6, "day_of_year": 259, "uuid": "250b3930-43d2-4926-bba8-2d848de5c8e9", "inat_id": 242220440}}, {"type": "Feature", "geometry": {"type": "Point", "coordinates": [-121.7377166667, 45.293075]}, "properties": {"species": "Gomphus clavatus", "date": "2024-09-15", "location": "Mt. Hood Park Division Recreation Area, Government Camp, OR, US", "elevation": 1153.0, "land_cover_label": "Tree cover", "water_mask": false, "exclude_reason": "keep", "ndvi": null, "soil_moisture": null, "solar_exposure": null, "wind_exposure": null, "water_retention": null, "slope": null, "aspect": null, "num_identification_agreements": 1, "cluster": 0, "tavg": null, "tmin": 11.3, "tmax": 21.2, "prcp_d0": 0.0, "prcp_d1": 0.0, "prcp_d2": 0.0, "prcp_d3": 0.0, "prcp_d4": 9.45176887512207, "prcp_d5": 0.0, "prcp_d6": 0.0, "tmax_d0": 12.7, "tmax_d1": 14.7, "tmax_d2": 15.8, "tmax_d3": 11.3, "tmax_d4": 16.7, "tmax_d5": 19.4, "tmax_d6": 22.0, "tmin_d0": 4.3, "tmin_d1": 6.9, "tmin_d2": 5.5, "tmin_d3": 7.0, "tmin_d4": 6.0, "tmin_d5": 10.8, "tmin_d6": 11.8, "day_of_year": 259, "uuid": "4357a20e-2efb-44b4-b9da-d169968ef893", "inat_id": 242014291}}, {"type": "Feature", "geometry": {"type": "Point", "coordinates": [-122.0226726101, 45.229838513]}, "properties": {"species": "Gomphus clavatus", "date": "2024-09-16", "location": "Clackamas County, US-OR, US", "elevation": 1204.0, "land_cover_label": "Tree cover", "water_mask": false, "exclude_reason": "keep", "ndvi": null, "soil_moisture": null, "solar_exposure": null, "wind_exposure": null, "water_retention": null, "slope": null, "aspect": null, "num_identification_agreements": 1, "cluster": 2, "tavg": null, "tmin": 10.0, "tmax": 25.0, "prcp_d0": 0.0, "prcp_d1": 5.630091667175293, "prcp_d2": 0.4221982061862945, "prcp_d3": 1.1883975267410278, "prcp_d4": 9.385169982910156, "prcp_d5": 28.45977020263672, "prcp_d6": 0.0, "tmax_d0": 15.1, "tmax_d1": 13.2, "tmax_d2": 14.7, "tmax_d3": 15.6, "tmax_d4": 12.0, "tmax_d5": 17.4, "tmax_d6": 19.3, "tmin_d0": 2.8, "tmin_d1": 4.5, "tmin_d2": 7.4, "tmin_d3": 6.9, "tmin_d4": 7.5, "tmin_d5": 5.9, "tmin_d6": 8.5, "day_of_year": 260, "uuid": "d5e81f97-223a-44e8-9f19-2f2ed797496e", "inat_id": 242191953}}, {"type": "Feature", "geometry": {"type": "Point", "coordinates": [-121.9105503935, 45.3098201288]}, "properties": {"species": "Gomphus clavatus", "date": "2024-09-21", "location": "Mt. Hood Park Division Recreation Area, Rhododendron, OR, US", "elevation": 720.0, "land_cover_label": "Tree cover", "water_mask": false, "exclude_reason": "keep", "ndvi": null, "soil_moisture": null, "solar_exposure": null, "wind_exposure": null, "water_retention": null, "slope": null, "aspect": null, "num_identification_agreements": 1, "cluster": 0, "tavg": null, "tmin": 8.3, "tmax": 25.6, "prcp_d0": 0.0, "prcp_d1": 0.0, "prcp_d2": 0.0, "prcp_d3": 0.0, "prcp_d4": 0.0, "prcp_d5": 12.573562622070312, "prcp_d6": 3.2266054153442383, "tmax_d0": 21.9, "tmax_d1": 16.4, "tmax_d2": 18.2, "tmax_d3": 16.7, "tmax_d4": 17.7, "tmax_d5": 18.8, "tmax_d6": 16.3, "tmin_d0": 4.6, "tmin_d1": 6.9, "tmin_d2": 7.6, "tmin_d3": 11.1, "tmin_d4": 7.9, "tmin_d5": 6.7, "tmin_d6": 7.6, "day_of_year": 265, "uuid": "22562122-7607-4b9f-9c7b-99c1d9c28e09", "inat_id": 257492165}}, {"type": "Feature", "geometry": {"type": "Point", "coordinates": [-121.834, 45.31288]}, "properties": {"species": "Gomphus clavatus", "date": "2024-09-28", "location": "Mt. Hood Park Division Recreation Area, Government Camp, OR, US", "elevation": 807.0, "land_cover_label": "Tree cover", "water_mask": false, "exclude_reason": "keep", "ndvi": null, "soil_moisture": null, "solar_exposure": null, "wind_exposure": null, "water_retention": null, "slope": null, "aspect": null, "num_identification_agreements": 1, "cluster": 0, "tavg": null, "tmin": 11.8, "tmax": 26.0, "prcp_d0": 0.0, "prcp_d1": 0.0, "prcp_d2": 0.0, "prcp_d3": 8.39395523071289, "prcp_d4": 0.0, "prcp_d5": 0.0, "prcp_d6": 0.0, "tmax_d0": 23.4, "tmax_d1": 18.2, "tmax_d2": 19.2, "tmax_d3": 25.8, "tmax_d4": 29.2, "tmax_d5": 21.4, "tmax_d6": 20.6, "tmin_d0": 11.6, "tmin_d1": 11.0, "tmin_d2": 6.0, "tmin_d3": 12.2, "tmin_d4": 13.4, "tmin_d5": 11.2, "tmin_d6": 7.3, "day_of_year": 272, "uuid": "09213d84-958e-4beb-b54a-11b900b80aa3", "inat_id": 244616971}}, {"type": "Feature", "geometry": {"type": "Point", "coordinates": [-121.9067438872, 45.3648427862]}, "properties": {"species": "Gomphus clavatus", "date": "2024-09-29", "location": "Oregon, US", "elevation": 675.0, "land_cover_label": "Tree cover", "water_mask": false, "exclude_reason": "keep", "ndvi": null, "soil_moisture": null, "solar_exposure": null, "wind_exposure": null, "water_retention": null, "slope": null, "aspect": null, "num_identification_agreements": 1, "cluster": 0, "tavg": null, "tmin": 8.9, "tmax": 20.0, "prcp_d0": 0.0, "prcp_d1": 0.0, "prcp_d2": 0.0, "prcp_d3": 0.0, "prcp_d4": 0.0, "prcp_d5": 0.0, "prcp_d6": 0.0, "tmax_d0": 18.1, "tmax_d1": 22.2, "tmax_d2": 18.3, "tmax_d3": 19.0, "tmax_d4": 26.8, "tmax_d5": 30.4, "tmax_d6": 22.0, "tmin_d0": 5.5, "tmin_d1": 10.3, "tmin_d2": 11.1, "tmin_d3": 6.2, "tmin_d4": 12.0, "tmin_d5": 12.9, "tmin_d6": 10.4, "day_of_year": 273, "uuid": "b6a7a809-2dc0-45a5-b462-6f189a4a069d", "inat_id": 324614183}}, {"type": "Feature", "geometry": {"type": "Point", "coordinates": [-121.5773833333, 45.4043277778]}, "properties": {"species": "Gomphus clavatus", "date": "2024-10-05", "location": "MT HOOD PRKDL, OR 97041, USA", "elevation": 1015.0, "land_cover_label": "Tree cover", "water_mask": false, "exclude_reason": "keep", "ndvi": null, "soil_moisture": null, "solar_exposure": null, "wind_exposure": null, "water_retention": null, "slope": null, "aspect": null, "num_identification_agreements": 1, "cluster": 0, "tavg": null, "tmin": 6.7, "tmax": 20.1, "prcp_d0": 1.1084372997283936, "prcp_d1": 15.589488983154297, "prcp_d2": 1.4404030480363872e-05, "prcp_d3": 1.0319160223007202, "prcp_d4": 0.0, "prcp_d5": 0.0, "prcp_d6": 0.0, "tmax_d0": 17.9, "tmax_d1": 15.2, "tmax_d2": 16.0, "tmax_d3": 19.2, "tmax_d4": 23.9, "tmax_d5": 15.4, "tmax_d6": 19.6, "tmin_d0": 4.2, "tmin_d1": 5.7, "tmin_d2": 4.5, "tmin_d3": 5.1, "tmin_d4": 7.3, "tmin_d5": 2.7, "tmin_d6": 3.9, "day_of_year": 279, "uuid": "229c7ed6-0300-4291-b091-15ef50d4454c", "inat_id": 246062348}}, {"type": "Feature", "geometry": {"type": "Point", "coordinates": [-121.7293161, 45.2852242]}, "properties": {"species": "Gomphus clavatus", "date": "2024-10-07", "location": "TIMBRLINE LDG, OR 97028, USA", "elevation": 1163.0, "land_cover_label": "Tree cover", "water_mask": false, "exclude_reason": "keep", "ndvi": null, "soil_moisture": null, "solar_exposure": null, "wind_exposure": null, "water_retention": null, "slope": null, "aspect": null, "num_identification_agreements": 3, "cluster": 0, "tavg": null, "tmin": 8.3, "tmax": 23.4, "prcp_d0": 0.0, "prcp_d1": 0.0, "prcp_d2": 1.5438107252120972, "prcp_d3": 30.58796119689941, "prcp_d4": 0.0, "prcp_d5": 2.176501512527466, "prcp_d6": 0.0, "tmax_d0": 21.6, "tmax_d1": 17.8, "tmax_d2": 18.1, "tmax_d3": 15.6, "tmax_d4": 16.6, "tmax_d5": 16.8, "tmax_d6": 20.4, "tmin_d0": 9.1, "tmin_d1": 8.0, "tmin_d2": 1.4, "tmin_d3": 5.4, "tmin_d4": 4.6, "tmin_d5": 3.7, "tmin_d6": 8.3, "day_of_year": 281, "uuid": "006b0f00-1974-4d81-9d67-78e94b6fc4d1", "inat_id": 247030241}}, {"type": "Feature", "geometry": {"type": "Point", "coordinates": [-121.8144833333, 45.3157083333]}, "properties": {"species": "Gomphus clavatus", "date": "2024-10-08", "location": "Mt. Hood Park Division Recreation Area, Government Camp, OR, US", "elevation": 899.0, "land_cover_label": "Tree cover", "water_mask": false, "exclude_reason": "keep", "ndvi": null, "soil_moisture": null, "solar_exposure": null, "wind_exposure": null, "water_retention": null, "slope": null, "aspect": null, "num_identification_agreements": 1, "cluster": 0, "tavg": null, "tmin": 10.5, "tmax": 21.8, "prcp_d0": 0.0, "prcp_d1": 0.0, "prcp_d2": 0.0, "prcp_d3": 0.0, "prcp_d4": 25.601364135742188, "prcp_d5": 0.0, "prcp_d6": 1.6055772304534912, "tmax_d0": 22.2, "tmax_d1": 23.6, "tmax_d2": 19.2, "tmax_d3": 20.9, "tmax_d4": 18.0, "tmax_d5": 19.2, "tmax_d6": 18.3, "tmin_d0": 9.4, "tmin_d1": 9.5, "tmin_d2": 7.0, "tmin_d3": 2.4, "tmin_d4": 7.0, "tmin_d5": 3.6, "tmin_d6": 5.0, "day_of_year": 282, "uuid": "b89fe097-046c-4f4a-97a4-d9f9d98a6e54", "inat_id": 246391658}}, {"type": "Feature", "geometry": {"type": "Point", "coordinates": [-122.2247632023, 45.3065000278]}, "properties": {"species": "Gomphus clavatus", "date": "2024-10-10", "location": "Clackamas County, OR, USA", "elevation": 385.0, "land_cover_label": "Tree cover", "water_mask": false, "exclude_reason": "keep", "ndvi": null, "soil_moisture": null, "solar_exposure": null, "wind_exposure": null, "water_retention": null, "slope": null, "aspect": null, "num_identification_agreements": 1, "cluster": 0, "tavg": null, "tmin": 6.7, "tmax": 21.1, "prcp_d0": 0.0, "prcp_d1": 0.0, "prcp_d2": 0.0, "prcp_d3": 0.0, "prcp_d4": 0.0, "prcp_d5": 1.0006494522094729, "prcp_d6": 30.28504943847656, "tmax_d0": 18.6, "tmax_d1": 18.4, "tmax_d2": 24.5, "tmax_d3": 26.7, "tmax_d4": 20.5, "tmax_d5": 19.9, "tmax_d6": 22.0, "tmin_d0": 2.8, "tmin_d1": 11.4, "tmin_d2": 9.5, "tmin_d3": 8.7, "tmin_d4": 8.0, "tmin_d5": 4.9, "tmin_d6": 8.3, "day_of_year": 284, "uuid": "7d5260bb-cb04-4f8d-864f-23729c759d2e", "inat_id": 246783543}}, {"type": "Feature", "geometry": {"type": "Point", "coordinates": [-121.8124383333, 45.315525]}, "properties": {"species": "Gomphus clavatus", "date": "2024-10-13", "location": "Mt. Hood Park Division Recreation Area, Government Camp, OR, US", "elevation": 905.0, "land_cover_label": "Tree cover", "water_mask": false, "exclude_reason": "keep", "ndvi": null, "soil_moisture": null, "solar_exposure": null, "wind_exposure": null, "water_retention": null, "slope": null, "aspect": null, "num_identification_agreements": 1, "cluster": 0, "tavg": null, "tmin": 8.9, "tmax": 22.8, "prcp_d0": 0.0, "prcp_d1": 0.0, "prcp_d2": 0.0, "prcp_d3": 0.0, "prcp_d4": 20.072654724121094, "prcp_d5": 0.0, "prcp_d6": 0.0, "tmax_d0": 22.5, "tmax_d1": 21.1, "tmax_d2": 21.0, "tmax_d3": 17.7, "tmax_d4": 15.6, "tmax_d5": 22.3, "tmax_d6": 23.7, "tmin_d0": 6.7, "tmin_d1": 8.5, "tmin_d2": 5.9, "tmin_d3": 2.1, "tmin_d4": 9.1, "tmin_d5": 9.5, "tmin_d6": 9.6, "day_of_year": 287, "uuid": "52b561a8-713b-407a-9e42-b53fe8640720", "inat_id": 247264434}}, {"type": "Feature", "geometry": {"type": "Point", "coordinates": [-122.1156891435, 45.2593550123]}, "properties": {"species": "Gomphus clavatus", "date": "2024-10-13", "location": "Estacada, OR 97023, USA", "elevation": 757.0, "land_cover_label": "Tree cover", "water_mask": false, "exclude_reason": "keep", "ndvi": null, "soil_moisture": null, "solar_exposure": null, "wind_exposure": null, "water_retention": null, "slope": null, "aspect": null, "num_identification_agreements": 1, "cluster": 0, "tavg": null, "tmin": 8.9, "tmax": 23.9, "prcp_d0": 0.0, "prcp_d1": 0.0, "prcp_d2": 0.0, "prcp_d3": 0.0, "prcp_d4": 0.0, "prcp_d5": 0.0, "prcp_d6": 0.0, "tmax_d0": 21.2, "tmax_d1": 21.0, "tmax_d2": 21.6, "tmax_d3": 16.9, "tmax_d4": 16.1, "tmax_d5": 22.5, "tmax_d6": 25.4, "tmin_d0": 6.4, "tmin_d1": 9.2, "tmin_d2": 6.4, "tmin_d3": 0.8, "tmin_d4": 9.2, "tmin_d5": 8.3, "tmin_d6": 7.7, "day_of_year": 287, "uuid": "6ba9bce7-2ff6-4b51-8c75-25c90cd1a214", "inat_id": 247586924}}, {"type": "Feature", "geometry": {"type": "Point", "coordinates": [-121.6504070134, 45.3922025356]}, "properties": {"species": "Gomphus clavatus", "date": "2024-10-31", "location": "Oregon, US", "elevation": 1812.0, "land_cover_label": "Bare / sparse vegetation", "water_mask": false, "exclude_reason": "keep", "ndvi": null, "soil_moisture": null, "solar_exposure": null, "wind_exposure": null, "water_retention": null, "slope": null, "aspect": null, "num_identification_agreements": 1, "cluster": 0, "tavg": null, "tmin": 3.6, "tmax": 6.7, "prcp_d0": 0.0, "prcp_d1": 0.0, "prcp_d2": 0.0, "prcp_d3": 0.0, "prcp_d4": 0.0, "prcp_d5": 0.0, "prcp_d6": 0.0, "tmax_d0": -2.3, "tmax_d1": 1.7, "tmax_d2": -0.5, "tmax_d3": 0.1, "tmax_d4": 9.0, "tmax_d5": 10.3, "tmax_d6": 8.9, "tmin_d0": -4.3, "tmin_d1": -4.0, "tmin_d2": -3.1, "tmin_d3": -3.0, "tmin_d4": -0.3, "tmin_d5": 1.6, "tmin_d6": -3.1, "day_of_year": 305, "uuid": "b93d5455-6d78-474d-80b6-e8bba808f7ac", "inat_id": 250027088}}, {"type": "Feature", "geometry": {"type": "Point", "coordinates": [-121.7901383333, 45.3121033333]}, "properties": {"species": "Gomphus clavatus", "date": "2024-11-02", "location": "Mt. Hood Park Division Recreation Area, Government Camp, OR, US", "elevation": 1026.0, "land_cover_label": "Tree cover", "water_mask": false, "exclude_reason": "keep", "ndvi": null, "soil_moisture": null, "solar_exposure": null, "wind_exposure": null, "water_retention": null, "slope": null, "aspect": null, "num_identification_agreements": 1, "cluster": 0, "tavg": null, "tmin": 6.3, "tmax": 10.4, "prcp_d0": 0.0, "prcp_d1": 0.0, "prcp_d2": 13.371297836303713, "prcp_d3": 3.690800666809082, "prcp_d4": 0.0, "prcp_d5": 5.617885589599609, "prcp_d6": 12.857406616210938, "tmax_d0": 3.8, "tmax_d1": 4.5, "tmax_d2": 2.3, "tmax_d3": 6.1, "tmax_d4": 4.5, "tmax_d5": 5.5, "tmax_d6": 13.9, "tmin_d0": 1.9, "tmin_d1": 1.9, "tmin_d2": 0.6, "tmin_d3": 1.6, "tmin_d4": 2.2, "tmin_d5": 1.9, "tmin_d6": 5.1, "day_of_year": 307, "uuid": "ea923fe2-7fba-4aa5-98a8-cac4fc93266f", "inat_id": 250328305}}, {"type": "Feature", "geometry": {"type": "Point", "coordinates": [-121.9454254579, 45.3456526411]}, "properties": {"species": "Gomphus clavatus", "date": "2024-11-04", "location": "Oregon, US", "elevation": 441.0, "land_cover_label": "Tree cover", "water_mask": false, "exclude_reason": "keep", "ndvi": null, "soil_moisture": null, "solar_exposure": null, "wind_exposure": null, "water_retention": null, "slope": null, "aspect": null, "num_identification_agreements": 1, "cluster": 0, "tavg": null, "tmin": 7.8, "tmax": 12.8, "prcp_d0": 0.0, "prcp_d1": 0.0, "prcp_d2": 0.0, "prcp_d3": 0.0, "prcp_d4": 0.0, "prcp_d5": 0.0, "prcp_d6": 0.0, "tmax_d0": 8.9, "tmax_d1": 7.9, "tmax_d2": 8.8, "tmax_d3": 9.4, "tmax_d4": 6.4, "tmax_d5": 10.7, "tmax_d6": 8.3, "tmin_d0": 3.7, "tmin_d1": 5.4, "tmin_d2": 5.7, "tmin_d3": 5.1, "tmin_d4": 4.2, "tmin_d5": 1.5, "tmin_d6": 5.7, "day_of_year": 309, "uuid": "f5598895-cc11-43a0-ad74-62b4363b687f", "inat_id": 250508536}}, {"type": "Feature", "geometry": {"type": "Point", "coordinates": [-122.1401555793, 45.392916568]}, "properties": {"species": "Gomphus clavatus", "date": "2024-11-09", "location": "Clackamas County, US-OR, US", "elevation": 319.0, "land_cover_label": "Tree cover", "water_mask": false, "exclude_reason": "keep", "ndvi": null, "soil_moisture": null, "solar_exposure": null, "wind_exposure": null, "water_retention": null, "slope": null, "aspect": null, "num_identification_agreements": 1, "cluster": 0, "tavg": null, "tmin": 8.3, "tmax": 13.3, "prcp_d0": 0.0, "prcp_d1": 0.0, "prcp_d2": 0.0, "prcp_d3": 0.0, "prcp_d4": 0.0, "prcp_d5": 0.0, "prcp_d6": 0.0, "tmax_d0": 12.8, "tmax_d1": 15.4, "tmax_d2": 16.5, "tmax_d3": 14.1, "tmax_d4": 8.8, "tmax_d5": 9.8, "tmax_d6": 8.9, "tmin_d0": 7.1, "tmin_d1": 6.1, "tmin_d2": 5.6, "tmin_d3": 2.0, "tmin_d4": 4.4, "tmin_d5": 5.7, "tmin_d6": 6.0, "day_of_year": 314, "uuid": "75697047-dc69-46b8-97ac-b81acf63cf61", "inat_id": 251346331}}, {"type": "Feature", "geometry": {"type": "Point", "coordinates": [-122.1595341113, 44.7069668367]}, "properties": {"species": "Gomphus clavatus", "date": "2024-11-26", "location": "Willamette National Forest, Idanha, OR, US", "elevation": 563.0, "land_cover_label": "Tree cover", "water_mask": false, "exclude_reason": "keep", "ndvi": null, "soil_moisture": null, "solar_exposure": null, "wind_exposure": null, "water_retention": null, "slope": null, "aspect": null, "num_identification_agreements": 1, "cluster": 2, "tavg": null, "tmin": null, "tmax": null, "prcp_d0": 0.0, "prcp_d1": 22.732627868652344, "prcp_d2": 0.0, "prcp_d3": 0.0, "prcp_d4": 68.19788360595703, "prcp_d5": 22.732627868652344, "prcp_d6": 112.6314926147461, "tmax_d0": 5.8, "tmax_d1": 7.3, "tmax_d2": 9.4, "tmax_d3": 6.8, "tmax_d4": 9.2, "tmax_d5": 9.7, "tmax_d6": 7.3, "tmin_d0": -0.6, "tmin_d1": 1.9, "tmin_d2": 0.5, "tmin_d3": 2.9, "tmin_d4": 1.6, "tmin_d5": 2.8, "tmin_d6": 2.8, "day_of_year": 331, "uuid": "b5d30c32-0cb0-4239-9ba5-666bb8157f18", "inat_id": 253192103}}, {"type": "Feature", "geometry": {"type": "Point", "coordinates": [-121.8059748039, 45.3156978612]}, "properties": {"species": "Gomphus clavatus", "date": "2025-09-13", "location": "Rhododendron, OR 97049, USA", "elevation": 922.0, "land_cover_label": "Tree cover", "water_mask": false, "exclude_reason": "keep", "ndvi": null, "soil_moisture": null, "solar_exposure": null, "wind_exposure": null, "water_retention": null, "slope": null, "aspect": null, "num_identification_agreements": 1, "cluster": 0, "tavg": null, "tmin": 10.0, "tmax": 27.0, "prcp_d0": 0.0, "prcp_d1": 0.0, "prcp_d2": 0.0, "prcp_d3": 5.570193767547607, "prcp_d4": 11.140387535095217, "prcp_d5": 0.0, "prcp_d6": 5.570193767547607, "tmax_d0": 21.8, "tmax_d1": 19.1, "tmax_d2": 17.9, "tmax_d3": 18.7, "tmax_d4": 18.4, "tmax_d5": 21.5, "tmax_d6": 19.3, "tmin_d0": 9.9, "tmin_d1": 10.9, "tmin_d2": 11.1, "tmin_d3": 10.2, "tmin_d4": 11.1, "tmin_d5": 10.5, "tmin_d6": 11.6, "day_of_year": 256, "uuid": "fc22840d-8832-4f63-85d8-e080b145459d", "inat_id": 313724701}}, {"type": "Feature", "geometry": {"type": "Point", "coordinates": [-122.0865215997, 45.5386779997]}, "properties": {"species": "Gomphus clavatus", "date": "2025-10-03", "location": "Cascade Locks, OR 97014, USA", "elevation": 945.0, "land_cover_label": "Tree cover", "water_mask": false, "exclude_reason": "keep", "ndvi": null, "soil_moisture": null, "solar_exposure": null, "wind_exposure": null, "water_retention": null, "slope": null, "aspect": null, "num_identification_agreements": 1, "cluster": 0, "tavg": null, "tmin": 10.0, "tmax": 19.0, "prcp_d0": 0.0, "prcp_d1": 0.0, "prcp_d2": 17.870695114135742, "prcp_d3": 0.0, "prcp_d4": 24.987531661987305, "prcp_d5": 0.0, "prcp_d6": 0.0, "tmax_d0": 10.9, "tmax_d1": 12.7, "tmax_d2": 10.2, "tmax_d3": 16.1, "tmax_d4": 17.1, "tmax_d5": 18.4, "tmax_d6": 21.9, "tmin_d0": 4.5, "tmin_d1": 4.6, "tmin_d2": 6.7, "tmin_d3": 4.4, "tmin_d4": 8.9, "tmin_d5": 8.8, "tmin_d6": 6.9, "day_of_year": 276, "uuid": "3f67cf54-b5bd-48de-999c-a6b4656fa007", "inat_id": 318527709}}, {"type": "Feature", "geometry": {"type": "Point", "coordinates": [-121.924387479, 45.2667551284]}, "properties": {"species": "Gomphus clavatus", "date": "2025-10-10", "location": "Clackamas County, OR, USA", "elevation": 605.0, "land_cover_label": "Tree cover", "water_mask": false, "exclude_reason": "keep", "ndvi": null, "soil_moisture": null, "solar_exposure": null, "wind_exposure": null, "water_retention": null, "slope": null, "aspect": null, "num_identification_agreements": 1, "cluster": 0, "tavg": null, "tmin": 10.6, "tmax": 15.0, "prcp_d0": 5.524641513824463, "prcp_d1": 10.375179290771484, "prcp_d2": 0.0, "prcp_d3": 0.0, "prcp_d4": 0.0, "prcp_d5": 0.0, "prcp_d6": 0.0, "tmax_d0": 18.1, "tmax_d1": 18.6, "tmax_d2": 20.5, "tmax_d3": 23.5, "tmax_d4": 19.4, "tmax_d5": 18.0, "tmax_d6": 13.9, "tmin_d0": 7.1, "tmin_d1": 8.1, "tmin_d2": 7.4, "tmin_d3": 11.0, "tmin_d4": 7.1, "tmin_d5": 5.7, "tmin_d6": 9.6, "day_of_year": 283, "uuid": "8bde0868-defc-41db-89e7-1bd73af8815d", "inat_id": 322889348}}, {"type": "Feature", "geometry": {"type": "Point", "coordinates": [-122.0863682433, 45.5388501846]}, "properties": {"species": "Gomphus clavatus", "date": "2025-10-13", "location": "Multnomah County, US-OR, US", "elevation": 945.0, "land_cover_label": "Tree cover", "water_mask": false, "exclude_reason": "keep", "ndvi": null, "soil_moisture": null, "solar_exposure": null, "wind_exposure": null, "water_retention": null, "slope": null, "aspect": null, "num_identification_agreements": 1, "cluster": 0, "tavg": null, "tmin": 3.0, "tmax": 16.0, "prcp_d0": 5.731915473937988, "prcp_d1": 12.390398025512695, "prcp_d2": 2.915889263153076, "prcp_d3": 6.6397576332092285, "prcp_d4": 15.881731986999512, "prcp_d5": 0.0, "prcp_d6": 0.0, "tmax_d0": 7.1, "tmax_d1": 6.3, "tmax_d2": 8.9, "tmax_d3": 12.7, "tmax_d4": 13.4, "tmax_d5": 18.3, "tmax_d6": 19.5, "tmin_d0": -0.4, "tmin_d1": 3.4, "tmin_d2": 4.1, "tmin_d3": 4.7, "tmin_d4": 4.9, "tmin_d5": 3.8, "tmin_d6": 6.9, "day_of_year": 286, "uuid": "dacded90-7a0f-48dc-a0de-b841b56872a3", "inat_id": 320779795}}, {"type": "Feature", "geometry": {"type": "Point", "coordinates": [-121.8658966667, 45.29623]}, "properties": {"species": "Gomphus clavatus", "date": "2025-10-15", "location": "Mt. Hood Park Division Recreation Area, Government Camp, OR, US", "elevation": 727.0, "land_cover_label": "Tree cover", "water_mask": false, "exclude_reason": "keep", "ndvi": null, "soil_moisture": null, "solar_exposure": null, "wind_exposure": null, "water_retention": null, "slope": null, "aspect": null, "num_identification_agreements": 1, "cluster": 0, "tavg": null, "tmin": 0.0, "tmax": 17.0, "prcp_d0": 0.0, "prcp_d1": 0.0, "prcp_d2": 5.244589805603027, "prcp_d3": 7.186570167541504, "prcp_d4": 0.0, "prcp_d5": 5.249355316162109, "prcp_d6": 9.976099014282228, "tmax_d0": 15.1, "tmax_d1": 11.7, "tmax_d2": 8.3, "tmax_d3": 8.2, "tmax_d4": 10.5, "tmax_d5": 17.2, "tmax_d6": 17.6, "tmin_d0": 3.4, "tmin_d1": 2.1, "tmin_d2": 0.8, "tmin_d3": 5.0, "tmin_d4": 6.2, "tmin_d5": 6.1, "tmin_d6": 7.1, "day_of_year": 288, "uuid": "7cf2becc-eb51-46f4-9910-5c6baf25c3ea", "inat_id": 321292889}}, {"type": "Feature", "geometry": {"type": "Point", "coordinates": [-121.581025, 45.3210216667]}, "properties": {"species": "Gomphus clavatus", "date": "2025-10-18", "location": "Mt. Hood Park Division Recreation Area, Mount Hood Parkdale, OR, US", "elevation": 1159.0, "land_cover_label": "Tree cover", "water_mask": false, "exclude_reason": "keep", "ndvi": null, "soil_moisture": null, "solar_exposure": null, "wind_exposure": null, "water_retention": null, "slope": null, "aspect": null, "num_identification_agreements": 1, "cluster": 0, "tavg": null, "tmin": 2.0, "tmax": 17.0, "prcp_d0": 0.0, "prcp_d1": 0.0, "prcp_d2": 0.0, "prcp_d3": 0.0, "prcp_d4": 0.0, "prcp_d5": 0.0, "prcp_d6": 13.0258150100708, "tmax_d0": 15.9, "tmax_d1": 10.4, "tmax_d2": 13.4, "tmax_d3": 11.0, "tmax_d4": 5.9, "tmax_d5": 2.1, "tmax_d6": 5.2, "tmin_d0": -0.1, "tmin_d1": 5.3, "tmin_d2": 1.3, "tmin_d3": 0.0, "tmin_d4": -1.4, "tmin_d5": -2.1, "tmin_d6": 2.1, "day_of_year": 291, "uuid": "c7c7d4de-eaf4-4d7b-9d48-339c7ff94fd8", "inat_id": 321691166}}, {"type": "Feature", "geometry": {"type": "Point", "coordinates": [-121.893901262, 45.2988717884]}, "properties": {"species": "Gomphus clavatus", "date": "2025-10-23", "location": "Clackamas County, OR, USA", "elevation": 618.0, "land_cover_label": "Tree cover", "water_mask": false, "exclude_reason": "keep", "ndvi": null, "soil_moisture": null, "solar_exposure": null, "wind_exposure": null, "water_retention": null, "slope": null, "aspect": null, "num_identification_agreements": 1, "cluster": 0, "tavg": null, "tmin": 9.0, "tmax": 18.0, "prcp_d0": 0.0, "prcp_d1": 0.0, "prcp_d2": 0.0, "prcp_d3": 0.0, "prcp_d4": 11.790103912353516, "prcp_d5": 0.0, "prcp_d6": 0.0, "tmax_d0": 18.0, "tmax_d1": 18.4, "tmax_d2": 20.8, "tmax_d3": 14.9, "tmax_d4": 15.3, "tmax_d5": 18.5, "tmax_d6": 12.0, "tmin_d0": 6.5, "tmin_d1": 7.3, "tmin_d2": 4.3, "tmin_d3": 5.2, "tmin_d4": 7.4, "tmin_d5": 0.9, "tmin_d6": 7.1, "day_of_year": 296, "uuid": "eb897edd-01ad-4435-9de5-3aa32a3b0cce", "inat_id": 325446950}}, {"type": "Feature", "geometry": {"type": "Point", "coordinates": [-121.93698, 45.2688033333]}, "properties": {"species": "Gomphus clavatus", "date": "2025-10-26", "location": "Government Camp, OR, US", "elevation": 567.0, "land_cover_label": "Tree cover", "water_mask": false, "exclude_reason": "keep", "ndvi": null, "soil_moisture": null, "solar_exposure": null, "wind_exposure": null, "water_retention": null, "slope": null, "aspect": null, "num_identification_agreements": 2, "cluster": 1, "tavg": null, "tmin": 4.0, "tmax": 11.0, "prcp_d0": 17.07339859008789, "prcp_d1": 23.446664810180664, "prcp_d2": 3.330563545227051, "prcp_d3": 0.0, "prcp_d4": 0.0, "prcp_d5": 0.0, "prcp_d6": 0.0, "tmax_d0": 6.5, "tmax_d1": 10.9, "tmax_d2": 14.7, "tmax_d3": 18.2, "tmax_d4": 18.7, "tmax_d5": 21.0, "tmax_d6": 15.1, "tmin_d0": 2.8, "tmin_d1": 4.6, "tmin_d2": 9.0, "tmin_d3": 6.8, "tmin_d4": 7.6, "tmin_d5": 4.5, "tmin_d6": 5.4, "day_of_year": 299, "uuid": "0ea01b7b-9486-48b5-b27d-c016d8d57ae8", "inat_id": 323683105}}, {"type": "Feature", "geometry": {"type": "Point", "coordinates": [-122.1133722222, 45.3218305556]}, "properties": {"species": "Gomphus clavatus", "date": "2025-11-09", "location": "Sandy, OR 97055, USA", "elevation": 734.0, "land_cover_label": "Tree cover", "water_mask": false, "exclude_reason": "keep", "ndvi": null, "soil_moisture": null, "solar_exposure": null, "wind_exposure": null, "water_retention": null, "slope": null, "aspect": null, "num_identification_agreements": 2, "cluster": 2, "tavg": null, "tmin": 11.0, "tmax": 14.6, "prcp_d0": 0.0, "prcp_d1": 0.0, "prcp_d2": 53.235107421875, "prcp_d3": 0.0, "prcp_d4": 112.33623504638672, "prcp_d5": 28.08405876159668, "prcp_d6": 0.0, "tmax_d0": 18.4, "tmax_d1": 13.6, "tmax_d2": 9.6, "tmax_d3": 12.9, "tmax_d4": 13.0, "tmax_d5": 13.6, "tmax_d6": 9.0, "tmin_d0": 8.6, "tmin_d1": 1.2, "tmin_d2": 4.3, "tmin_d3": 5.7, "tmin_d4": 7.4, "tmin_d5": 5.6, "tmin_d6": 4.2, "day_of_year": 313, "uuid": "53bf75cd-a727-4129-8368-f8617c5ff0e3", "inat_id": 326610931}}, {"type": "Feature", "geometry": {"type": "Point", "coordinates": [-121.920988597, 45.2663427915]}, "properties": {"species": "Gomphus clavatus", "date": "2025-11-18", "location": "Rhododendron, OR 97049, USA", "elevation": 567.0, "land_cover_label": "Tree cover", "water_mask": false, "exclude_reason": "keep", "ndvi": null, "soil_moisture": null, "solar_exposure": null, "wind_exposure": null, "water_retention": null, "slope": null, "aspect": null, "num_identification_agreements": 1, "cluster": 2, "tavg": null, "tmin": 4.0, "tmax": 10.0, "prcp_d0": 0.0, "prcp_d1": 0.0, "prcp_d2": 0.0, "prcp_d3": 0.0, "prcp_d4": 0.0, "prcp_d5": 31.27838897705078, "prcp_d6": 0.0, "tmax_d0": 5.7, "tmax_d1": 10.3, "tmax_d2": 13.0, "tmax_d3": 14.9, "tmax_d4": 11.5, "tmax_d5": 17.7, "tmax_d6": 17.4, "tmin_d0": -0.8, "tmin_d1": 5.8, "tmin_d2": 7.3, "tmin_d3": 8.9, "tmin_d4": 7.3, "tmin_d5": 9.9, "tmin_d6": 10.2, "day_of_year": 322, "uuid": "97943fa8-1e68-4816-ae99-2afd2aa6af29", "inat_id": 327308707}}, {"type": "Feature", "geometry": {"type": "Point", "coordinates": [-121.84844737, 44.65722367]}, "properties": {"species": "Gomphus clavatus", "date": "2025-11-24", "location": "Linn County, US-OR, US", "elevation": 1255.0, "land_cover_label": "Tree cover", "water_mask": false, "exclude_reason": "keep", "ndvi": null, "soil_moisture": null, "solar_exposure": null, "wind_exposure": null, "water_retention": null, "slope": null, "aspect": null, "num_identification_agreements": 1, "cluster": 0, "tavg": null, "tmin": null, "tmax": null, "prcp_d0": 17.09913444519043, "prcp_d1": 2.4307897090911865, "prcp_d2": 0.0, "prcp_d3": 0.050949852913618, "prcp_d4": 0.0, "prcp_d5": 0.0, "prcp_d6": 0.0, "tmax_d0": 2.5, "tmax_d1": 5.0, "tmax_d2": 10.4, "tmax_d3": 8.1, "tmax_d4": 3.8, "tmax_d5": 5.3, "tmax_d6": 3.7, "tmin_d0": -1.1, "tmin_d1": 1.3, "tmin_d2": -1.1, "tmin_d3": -3.8, "tmin_d4": -0.5, "tmin_d5": -4.3, "tmin_d6": -1.1, "day_of_year": 328, "uuid": "802b8f7a-7fd5-41f1-90b2-18270247877c", "inat_id": 328165255}}, {"type": "Feature", "geometry": {"type": "Point", "coordinates": [-122.16992792, 44.70948653]}, "properties": {"species": "Gomphus clavatus", "date": "2025-11-26", "location": "Detroit, OR 97342, USA", "elevation": 523.0, "land_cover_label": "Tree cover", "water_mask": false, "exclude_reason": "keep", "ndvi": null, "soil_moisture": null, "solar_exposure": null, "wind_exposure": null, "water_retention": null, "slope": null, "aspect": null, "num_identification_agreements": 1, "cluster": 1, "tavg": null, "tmin": null, "tmax": null, "prcp_d0": 25.088661193847656, "prcp_d1": 3.784278392791748, "prcp_d2": 18.6560001373291, "prcp_d3": 3.0016028881073, "prcp_d4": 0.0, "prcp_d5": 0.0304706636816263, "prcp_d6": 0.0, "tmax_d0": 7.0, "tmax_d1": 10.0, "tmax_d2": 7.8, "tmax_d3": 8.7, "tmax_d4": 15.8, "tmax_d5": 12.7, "tmax_d6": 9.4, "tmin_d0": 3.7, "tmin_d1": -2.0, "tmin_d2": 3.5, "tmin_d3": 1.4, "tmin_d4": -1.5, "tmin_d5": -1.4, "tmin_d6": 5.0, "day_of_year": 330, "uuid": "3be25eb1-c3e3-4452-861e-d71bebe0f453", "inat_id": 328399847}}, {"type": "Feature", "geometry": {"type": "Point", "coordinates": [-121.84995, 45.3822361111]}, "properties": {"species": "Gomphus clavatus", "date": "2025-11-27", "location": "Rhododendron, OR 97049, USA", "elevation": 763.0, "land_cover_label": "Tree cover", "water_mask": false, "exclude_reason": "keep", "ndvi": null, "soil_moisture": null, "solar_exposure": null, "wind_exposure": null, "water_retention": null, "slope": null, "aspect": null, "num_identification_agreements": 1, "cluster": 1, "tavg": null, "tmin": 5.0, "tmax": 7.0, "prcp_d0": 3.102455377578736, "prcp_d1": 15.206995964050291, "prcp_d2": 9.388880729675291, "prcp_d3": 15.370564460754396, "prcp_d4": 5.332469940185547, "prcp_d5": 8.213238470489159e-05, "prcp_d6": 0.0283249001950025, "tmax_d0": 9.9, "tmax_d1": 7.8, "tmax_d2": 7.8, "tmax_d3": 5.1, "tmax_d4": 5.5, "tmax_d5": 12.4, "tmax_d6": 9.5, "tmin_d0": 4.7, "tmin_d1": 3.6, "tmin_d2": -1.1, "tmin_d3": 1.7, "tmin_d4": 2.4, "tmin_d5": 1.9, "tmin_d6": -0.4, "day_of_year": 331, "uuid": "f365978e-6fd8-4fa5-a033-288550e2d71f", "inat_id": 328604557}}, {"type": "Feature", "geometry": {"type": "Point", "coordinates": [-105.5280669296, 36.1319641826]}, "properties": {"species": "Gomphus clavatus", "date": "2026-08-01", "location": "Taos County, US-NM, US", "elevation": 2596.0, "land_cover_label": "Tree cover", "water_mask": false, "exclude_reason": "keep", "ndvi": null, "soil_moisture": null, "solar_exposure": null, "wind_exposure": null, "water_retention": null, "slope": null, "aspect": null, "num_identification_agreements": 1, "cluster": 0, "tavg": null, "tmin": 14.5, "tmax": 29.6, "prcp_d0": null, "prcp_d1": 0.0, "prcp_d2": 0.0, "prcp_d3": 8.403246879577637, "prcp_d4": 8.403246879577637, "prcp_d5": 4.201623439788818, "prcp_d6": 0.0, "tmax_d0": 27.1, "tmax_d1": 29.1, "tmax_d2": 28.9, "tmax_d3": 26.9, "tmax_d4": 27.9, "tmax_d5": 28.4, "tmax_d6": 28.8, "tmin_d0": 11.1, "tmin_d1": 12.1, "tmin_d2": 14.0, "tmin_d3": 13.6, "tmin_d4": 12.3, "tmin_d5": 14.3, "tmin_d6": 12.8, "day_of_year": 213, "uuid": "a25ced8e-318d-4335-b23c-8649a932af3f", "inat_id": 387269592}}, {"type": "Feature", "geometry": {"type": "Point", "coordinates": [-105.5284034997, 36.1315609997]}, "properties": {"species": "Gomphus clavatus", "date": "2026-08-01", "location": "Taos County, US-NM, US", "elevation": 2596.0, "land_cover_label": "Tree cover", "water_mask": false, "exclude_reason": "keep", "ndvi": null, "soil_moisture": null, "solar_exposure": null, "wind_exposure": null, "water_retention": null, "slope": null, "aspect": null, "num_identification_agreements": 1, "cluster": 0, "tavg": null, "tmin": 14.5, "tmax": 29.6, "prcp_d0": null, "prcp_d1": 0.0, "prcp_d2": 0.0, "prcp_d3": 8.403246879577637, "prcp_d4": 8.403246879577637, "prcp_d5": 4.201623439788818, "prcp_d6": 0.0, "tmax_d0": 27.1, "tmax_d1": 29.1, "tmax_d2": 28.9, "tmax_d3": 26.9, "tmax_d4": 27.9, "tmax_d5": 28.3, "tmax_d6": 28.7, "tmin_d0": 11.1, "tmin_d1": 12.0, "tmin_d2": 13.9, "tmin_d3": 13.5, "tmin_d4": 12.3, "tmin_d5": 14.3, "tmin_d6": 12.7, "day_of_year": 213, "uuid": "f19c8f95-7b14-4ea4-908a-e4774e3574da", "inat_id": 387270820}}]}