{"type": "FeatureCollection", "features": [{"type": "Feature", "geometry": {"type": "Point", "coordinates": [-121.8768216667, 45.2826]}, "properties": {"species": "Gymnopus fuscopurpureus", "date": "2019-09-21", "location": "Mt. Hood National Forest, Rhododendron, OR, US", "elevation": 1176.0, "land_cover_label": "Tree cover", "water_mask": false, "exclude_reason": "keep", "ndvi": null, "soil_moisture": null, "solar_exposure": null, "wind_exposure": null, "water_retention": null, "slope": null, "aspect": null, "num_identification_agreements": 1, "cluster": 0, "tavg": null, "tmin": null, "tmax": null, "prcp_d0": 0.0, "prcp_d1": 0.0, "prcp_d2": 0.0, "prcp_d3": 0.0, "prcp_d4": 0.0, "prcp_d5": 0.0, "prcp_d6": 0.0, "tmax_d0": 15.9, "tmax_d1": 11.7, "tmax_d2": 11.1, "tmax_d3": 10.4, "tmax_d4": 11.2, "tmax_d5": 11.3, "tmax_d6": 16.1, "tmin_d0": 8.4, "tmin_d1": 7.4, "tmin_d2": 3.4, "tmin_d3": 5.3, "tmin_d4": 5.6, "tmin_d5": 5.5, "tmin_d6": 7.3, "day_of_year": 264, "uuid": "545fa4cb-400b-4fd9-b89c-d7c0aeaad672", "inat_id": 33169811}}, {"type": "Feature", "geometry": {"type": "Point", "coordinates": [-105.4447, 39.6739]}, "properties": {"species": "Gymnopus fuscopurpureus", "date": "2022-07-30", "location": "Colorado, Clear Creek Co., Beaver Brook Watershed CR 103.", "elevation": 2813.0, "land_cover_label": "Bare / sparse vegetation", "water_mask": false, "exclude_reason": "keep", "ndvi": null, "soil_moisture": 0.4280864623565664, "solar_exposure": 0.744668185710907, "wind_exposure": 0.3084835112094879, "water_retention": 0.2787847220897674, "slope": 8.042834281921387, "aspect": 2.8753316402435303, "num_identification_agreements": 1, "cluster": 0, "tavg": null, "tmin": 1.4, "tmax": 14.5, "prcp_d0": 0.0, "prcp_d1": 0.0, "prcp_d2": 0.0, "prcp_d3": 0.0, "prcp_d4": 0.0, "prcp_d5": 0.0, "prcp_d6": 0.0, "tmax_d0": 21.7, "tmax_d1": 17.2, "tmax_d2": 18.2, "tmax_d3": 23.9, "tmax_d4": 22.0, "tmax_d5": 22.8, "tmax_d6": 19.6, "tmin_d0": 6.2, "tmin_d1": 7.3, "tmin_d2": 10.2, "tmin_d3": 8.3, "tmin_d4": 9.5, "tmin_d5": 7.2, "tmin_d6": 8.9, "day_of_year": 211, "uuid": "d9851b7a-d23f-459f-8618-4944a7f4b510", "inat_id": 129568094}}, {"type": "Feature", "geometry": {"type": "Point", "coordinates": [-105.3375, 39.3422]}, "properties": {"species": "Gymnopus fuscopurpureus", "date": "2023-06-12", "location": "Colorado, Jefferson Co., Pike & San Isabel Nat'l Forest, 0.1 mile W of Meadows Group Campground on Redskin Rd.", "elevation": 2264.0, "land_cover_label": "Tree cover", "water_mask": false, "exclude_reason": "keep", "ndvi": null, "soil_moisture": 0.4031221542358432, "solar_exposure": 0.8462856411933899, "wind_exposure": 0.2640252113342285, "water_retention": 0.5935183763504028, "slope": 6.586804389953613, "aspect": 100.8376693725586, "num_identification_agreements": 1, "cluster": 3, "tavg": null, "tmin": -1.3, "tmax": 10.1, "prcp_d0": 16.422086715698242, "prcp_d1": 4.1055216789245605, "prcp_d2": 0.0, "prcp_d3": 9.34662914276123, "prcp_d4": 4.673314571380615, "prcp_d5": 4.673314571380615, "prcp_d6": 0.0, "tmax_d0": 15.5, "tmax_d1": 16.6, "tmax_d2": 18.3, "tmax_d3": 20.2, "tmax_d4": 19.2, "tmax_d5": 18.7, "tmax_d6": 19.1, "tmin_d0": 7.6, "tmin_d1": 6.8, "tmin_d2": 6.7, "tmin_d3": 8.5, "tmin_d4": 7.1, "tmin_d5": 7.7, "tmin_d6": 6.6, "day_of_year": 163, "uuid": "56ae7223-cca7-4bd7-99e0-e70de0be18ae", "inat_id": 167430704}}]}