{"type": "FeatureCollection", "features": [{"type": "Feature", "geometry": {"type": "Point", "coordinates": [-121.941995, 45.26315]}, "properties": {"species": "Gymnopus androsaceus", "date": "2021-11-06", "location": "Mount Hood National Forest, Welches, OR, US", "elevation": 613.0, "land_cover_label": "Tree cover", "water_mask": false, "exclude_reason": "keep", "ndvi": null, "soil_moisture": null, "solar_exposure": null, "wind_exposure": null, "water_retention": null, "slope": null, "aspect": null, "num_identification_agreements": 1, "cluster": 0, "tavg": null, "tmin": 6.1, "tmax": 11.1, "prcp_d0": 0.0, "prcp_d1": 0.0, "prcp_d2": 18.763126373291016, "prcp_d3": 0.0, "prcp_d4": 9.381563186645508, "prcp_d5": 18.763126373291016, "prcp_d6": 0.0, "tmax_d0": 7.3, "tmax_d1": 8.7, "tmax_d2": 14.5, "tmax_d3": 17.2, "tmax_d4": 12.1, "tmax_d5": 7.5, "tmax_d6": 11.7, "tmin_d0": 1.8, "tmin_d1": 5.5, "tmin_d2": 7.2, "tmin_d3": 7.3, "tmin_d4": 3.8, "tmin_d5": 4.5, "tmin_d6": 4.4, "day_of_year": 310, "uuid": "ac2b1fb4-2d09-4cfe-b8b2-c709b40fe366", "inat_id": 100566850}}, {"type": "Feature", "geometry": {"type": "Point", "coordinates": [-105.33864, 39.63224]}, "properties": {"species": "Gymnopus androsaceus", "date": "2025-08-19", "location": "Jefferson County, US-CO, US", "elevation": 2183.0, "land_cover_label": "Tree cover", "water_mask": false, "exclude_reason": "keep", "ndvi": null, "soil_moisture": 0.2100316902441358, "solar_exposure": 0.7072246074676514, "wind_exposure": 0.2866244316101074, "water_retention": 0.3248111307621002, "slope": 11.108652114868164, "aspect": 345.3626708984375, "num_identification_agreements": 2, "cluster": 0, "tavg": null, "tmin": 16.0, "tmax": 34.0, "prcp_d0": 0.0, "prcp_d1": 0.0, "prcp_d2": 0.0, "prcp_d3": 0.0, "prcp_d4": 0.0, "prcp_d5": 0.0, "prcp_d6": 0.0, "tmax_d0": 27.5, "tmax_d1": 28.0, "tmax_d2": 26.5, "tmax_d3": 26.5, "tmax_d4": 29.8, "tmax_d5": 31.4, "tmax_d6": 31.3, "tmin_d0": 13.1, "tmin_d1": 10.5, "tmin_d2": 15.3, "tmin_d3": 11.6, "tmin_d4": 10.6, "tmin_d5": 13.6, "tmin_d6": 12.8, "day_of_year": 231, "uuid": "9edf2d81-0feb-4a39-b84d-3b26d82c9917", "inat_id": 307618927}}, {"type": "Feature", "geometry": {"type": "Point", "coordinates": [-122.2251945197, 45.3084916124]}, "properties": {"species": "Gymnopus androsaceus", "date": "2026-02-25", "location": "Clackamas County, OR, USA", "elevation": 383.0, "land_cover_label": "Tree cover", "water_mask": false, "exclude_reason": "keep", "ndvi": null, "soil_moisture": null, "solar_exposure": null, "wind_exposure": null, "water_retention": null, "slope": null, "aspect": null, "num_identification_agreements": 1, "cluster": 1, "tavg": null, "tmin": 1.1, "tmax": 10.6, "prcp_d0": 3.3066346645355225, "prcp_d1": 27.826154708862305, "prcp_d2": 32.59324264526367, "prcp_d3": 11.708037376403809, "prcp_d4": 11.178393363952637, "prcp_d5": 0.0, "prcp_d6": 0.0, "tmax_d0": 7.7, "tmax_d1": 8.6, "tmax_d2": 8.0, "tmax_d3": 6.7, "tmax_d4": 7.9, "tmax_d5": 6.3, "tmax_d6": 4.1, "tmin_d0": 0.6, "tmin_d1": 4.6, "tmin_d2": 4.2, "tmin_d3": 4.3, "tmin_d4": -1.5, "tmin_d5": -0.4, "tmin_d6": 0.1, "day_of_year": 56, "uuid": "ee12e42e-ba23-4edd-a463-b9c3d79ab713", "inat_id": 340227809}}]}