{"type": "FeatureCollection", "features": [{"type": "Feature", "geometry": {"type": "Point", "coordinates": [-122.56390271, 45.23802402]}, "properties": {"species": "Gymnopus erythropus", "date": "2018-10-13", "location": "14761 S Buckner Creek Rd, Mulino, OR 97042, USA", "elevation": 174.0, "land_cover_label": "Tree cover", "water_mask": false, "exclude_reason": "keep", "ndvi": null, "soil_moisture": null, "solar_exposure": null, "wind_exposure": null, "water_retention": null, "slope": null, "aspect": null, "num_identification_agreements": 2, "cluster": 0, "tavg": null, "tmin": 7.2, "tmax": 21.7, "prcp_d0": 0.0, "prcp_d1": 0.0, "prcp_d2": 0.0, "prcp_d3": 0.0, "prcp_d4": 0.0, "prcp_d5": 0.0, "prcp_d6": 0.0, "tmax_d0": 20.9, "tmax_d1": 19.5, "tmax_d2": 19.4, "tmax_d3": 18.6, "tmax_d4": 17.0, "tmax_d5": 13.9, "tmax_d6": 15.5, "tmin_d0": 7.9, "tmin_d1": 4.3, "tmin_d2": 5.8, "tmin_d3": 8.8, "tmin_d4": 11.3, "tmin_d5": 10.4, "tmin_d6": 5.0, "day_of_year": 286, "uuid": "7ab11a6d-6b48-4ea8-8c40-0901f4063847", "inat_id": 17475152}}, {"type": "Feature", "geometry": {"type": "Point", "coordinates": [-122.56395474, 45.23804661]}, "properties": {"species": "Gymnopus erythropus", "date": "2018-10-13", "location": "14761 S Buckner Creek Rd, Mulino, OR 97042, USA", "elevation": 174.0, "land_cover_label": "Tree cover", "water_mask": false, "exclude_reason": "keep", "ndvi": null, "soil_moisture": null, "solar_exposure": null, "wind_exposure": null, "water_retention": null, "slope": null, "aspect": null, "num_identification_agreements": 2, "cluster": 0, "tavg": null, "tmin": 7.2, "tmax": 21.7, "prcp_d0": 0.0, "prcp_d1": 0.0, "prcp_d2": 0.0, "prcp_d3": 0.0, "prcp_d4": 0.0, "prcp_d5": 0.0, "prcp_d6": 0.0, "tmax_d0": 20.9, "tmax_d1": 19.5, "tmax_d2": 19.4, "tmax_d3": 18.6, "tmax_d4": 17.0, "tmax_d5": 13.9, "tmax_d6": 15.5, "tmin_d0": 7.9, "tmin_d1": 4.3, "tmin_d2": 5.8, "tmin_d3": 8.8, "tmin_d4": 11.3, "tmin_d5": 10.4, "tmin_d6": 5.0, "day_of_year": 286, "uuid": "2b25f2fa-f924-4863-a228-212c5952a8e5", "inat_id": 17478064}}]}