{"type": "FeatureCollection", "features": [{"type": "Feature", "geometry": {"type": "Point", "coordinates": [-106.2814633333, 39.67362]}, "properties": {"species": "Heimiomyces tenuipes", "date": "2022-06-15", "location": "White River National Forest, Vail, CO, US", "elevation": 3141.0, "land_cover_label": "Tree cover", "water_mask": false, "exclude_reason": "keep", "ndvi": null, "soil_moisture": null, "solar_exposure": null, "wind_exposure": null, "water_retention": null, "slope": null, "aspect": null, "num_identification_agreements": 1, "cluster": 0, "tavg": null, "tmin": 1.0, "tmax": 15.0, "prcp_d0": 0.0, "prcp_d1": 0.0, "prcp_d2": 0.0, "prcp_d3": 0.0, "prcp_d4": 0.0, "prcp_d5": 0.0, "prcp_d6": 0.0, "tmax_d0": 12.4, "tmax_d1": 18.0, "tmax_d2": 18.3, "tmax_d3": 20.0, "tmax_d4": 17.8, "tmax_d5": 17.5, "tmax_d6": 15.6, "tmin_d0": -3.6, "tmin_d1": -0.2, "tmin_d2": 1.1, "tmin_d3": 1.8, "tmin_d4": 2.9, "tmin_d5": 1.6, "tmin_d6": 0.2, "day_of_year": 166, "uuid": "c115c9e4-776c-422d-82b4-582082e55305", "inat_id": 121979391}}]}