{"type": "FeatureCollection", "features": [{"type": "Feature", "geometry": {"type": "Point", "coordinates": [-106.2908017138, 35.9726870162]}, "properties": {"species": "Hericium cirrhatum", "date": "2024-09-22", "location": "New Mexico, US", "elevation": 2292.0, "land_cover_label": "Tree cover", "water_mask": false, "exclude_reason": "keep", "ndvi": null, "soil_moisture": null, "solar_exposure": null, "wind_exposure": null, "water_retention": null, "slope": null, "aspect": null, "num_identification_agreements": 3, "cluster": 2, "tavg": null, "tmin": 8.8, "tmax": 17.5, "prcp_d0": 0.0, "prcp_d1": 7.189693927764893, "prcp_d2": 0.0, "prcp_d3": 0.0, "prcp_d4": 0.0, "prcp_d5": 0.0, "prcp_d6": 6.996673583984375, "tmax_d0": null, "tmax_d1": null, "tmax_d2": null, "tmax_d3": null, "tmax_d4": null, "tmax_d5": null, "tmax_d6": null, "tmin_d0": null, "tmin_d1": null, "tmin_d2": null, "tmin_d3": null, "tmin_d4": null, "tmin_d5": null, "tmin_d6": null, "day_of_year": 266, "uuid": "a41104f2-a866-48eb-9da5-66193cf3f4c5", "inat_id": 243496776}}, {"type": "Feature", "geometry": {"type": "Point", "coordinates": [-106.2583294027, 35.9130513388]}, "properties": {"species": "Hericium cirrhatum", "date": "2025-06-28", "location": "New Mexico, US", "elevation": 2097.0, "land_cover_label": "Grassland", "water_mask": false, "exclude_reason": "keep", "ndvi": null, "soil_moisture": null, "solar_exposure": null, "wind_exposure": null, "water_retention": null, "slope": null, "aspect": null, "num_identification_agreements": 3, "cluster": 2, "tavg": null, "tmin": 15.5, "tmax": 28.9, "prcp_d0": 0.0, "prcp_d1": 0.0, "prcp_d2": 0.0, "prcp_d3": 10.388659477233888, "prcp_d4": 5.194329738616943, "prcp_d5": 0.0, "prcp_d6": 0.0, "tmax_d0": null, "tmax_d1": null, "tmax_d2": null, "tmax_d3": null, "tmax_d4": null, "tmax_d5": null, "tmax_d6": null, "tmin_d0": null, "tmin_d1": null, "tmin_d2": null, "tmin_d3": null, "tmin_d4": null, "tmin_d5": null, "tmin_d6": null, "day_of_year": 179, "uuid": "11d4d8e5-a68b-43f2-8e50-399c2769835f", "inat_id": 293473753}}, {"type": "Feature", "geometry": {"type": "Point", "coordinates": [-106.375383035, 35.8517093583]}, "properties": {"species": "Hericium cirrhatum", "date": "2025-08-07", "location": "New Mexico, US", "elevation": 2543.0, "land_cover_label": "Tree cover", "water_mask": false, "exclude_reason": "keep", "ndvi": null, "soil_moisture": null, "solar_exposure": null, "wind_exposure": null, "water_retention": null, "slope": null, "aspect": null, "num_identification_agreements": 1, "cluster": 2, "tavg": null, "tmin": 20.1, "tmax": 30.3, "prcp_d0": 2.8344829082489014, "prcp_d1": 0.0, "prcp_d2": 0.0, "prcp_d3": 0.0, "prcp_d4": 0.0, "prcp_d5": 0.0, "prcp_d6": 0.0, "tmax_d0": null, "tmax_d1": null, "tmax_d2": null, "tmax_d3": null, "tmax_d4": null, "tmax_d5": null, "tmax_d6": null, "tmin_d0": null, "tmin_d1": null, "tmin_d2": null, "tmin_d3": null, "tmin_d4": null, "tmin_d5": null, "tmin_d6": null, "day_of_year": 219, "uuid": "b925e057-8d19-49d7-9d21-f199e6780840", "inat_id": 304639267}}]}