{"type": "FeatureCollection", "features": [{"type": "Feature", "geometry": {"type": "Point", "coordinates": [-107.704055, 38.0906805]}, "properties": {"species": "Hericium coralloides", "date": "2017-08-20", "location": "US-550, Ridgway, CO, US", "elevation": 2219.0, "land_cover_label": "Tree cover", "water_mask": false, "exclude_reason": "keep", "ndvi": null, "soil_moisture": null, "solar_exposure": null, "wind_exposure": null, "water_retention": null, "slope": null, "aspect": null, "num_identification_agreements": 2, "cluster": 0, "tavg": null, "tmin": 10.6, "tmax": 23.5, "prcp_d0": 0.0, "prcp_d1": 8.018901824951172, "prcp_d2": 0.0, "prcp_d3": 0.0, "prcp_d4": 0.0, "prcp_d5": 0.0, "prcp_d6": 0.0, "tmax_d0": 26.5, "tmax_d1": 25.7, "tmax_d2": 25.4, "tmax_d3": 24.2, "tmax_d4": 23.3, "tmax_d5": 23.1, "tmax_d6": 23.1, "tmin_d0": 7.5, "tmin_d1": 8.2, "tmin_d2": 8.3, "tmin_d3": 7.7, "tmin_d4": 8.7, "tmin_d5": 9.8, "tmin_d6": 9.1, "day_of_year": 232, "uuid": "a8d8abae-6824-4210-b743-15066fd45d76", "inat_id": 179629199}}, {"type": "Feature", "geometry": {"type": "Point", "coordinates": [-105.0989219919, 39.5501815083]}, "properties": {"species": "Hericium coralloides", "date": "2018-08-31", "location": "8500 W Deer Creek Canyon Rd, Littleton, CO 80128, USA", "elevation": 1680.0, "land_cover_label": "Grassland", "water_mask": false, "exclude_reason": "keep", "ndvi": null, "soil_moisture": 0.1517568538550087, "solar_exposure": 0.8333749175071716, "wind_exposure": 0.305960088968277, "water_retention": 0.3052003979682922, "slope": 1.3676942586898804, "aspect": 62.955177307128906, "num_identification_agreements": 1, "cluster": 0, "tavg": null, "tmin": 13.9, "tmax": 30.0, "prcp_d0": 9.628846168518066, "prcp_d1": 0.0, "prcp_d2": 0.0, "prcp_d3": 0.0, "prcp_d4": 0.0, "prcp_d5": 0.0, "prcp_d6": 0.0, "tmax_d0": 31.2, "tmax_d1": 33.0, "tmax_d2": 30.5, "tmax_d3": 30.2, "tmax_d4": 32.8, "tmax_d5": 30.8, "tmax_d6": 30.9, "tmin_d0": 15.8, "tmin_d1": 15.1, "tmin_d2": 11.1, "tmin_d3": 12.0, "tmin_d4": 16.4, "tmin_d5": 15.5, "tmin_d6": 13.9, "day_of_year": 243, "uuid": "e4512d24-5d3a-47e7-874b-a5d3c3c331c8", "inat_id": 16210357}}, {"type": "Feature", "geometry": {"type": "Point", "coordinates": [-106.5226076916, 36.749259046]}, "properties": {"species": "Hericium coralloides", "date": "2018-12-07", "location": "Los Ojos, NM 87551, USA", "elevation": 2384.0, "land_cover_label": "Tree cover", "water_mask": false, "exclude_reason": "keep", "ndvi": null, "soil_moisture": null, "solar_exposure": null, "wind_exposure": null, "water_retention": null, "slope": null, "aspect": null, "num_identification_agreements": 1, "cluster": 0, "tavg": null, "tmin": null, "tmax": null, "prcp_d0": 0.0, "prcp_d1": 0.0, "prcp_d2": 0.0, "prcp_d3": 0.0, "prcp_d4": 0.0, "prcp_d5": 0.0, "prcp_d6": 0.0, "tmax_d0": 2.0, "tmax_d1": 2.7, "tmax_d2": 2.7, "tmax_d3": -4.3, "tmax_d4": -5.1, "tmax_d5": -3.7, "tmax_d6": -1.7, "tmin_d0": -3.2, "tmin_d1": -7.6, "tmin_d2": -16.5, "tmin_d3": -16.6, "tmin_d4": -13.2, "tmin_d5": -14.9, "tmin_d6": -7.1, "day_of_year": 341, "uuid": "2166d493-0f5d-4f1f-bfa6-0fd9733eb204", "inat_id": 21394584}}, {"type": "Feature", "geometry": {"type": "Point", "coordinates": [-107.87500947, 37.91413844]}, "properties": {"species": "Hericium coralloides", "date": "2019-08-23", "location": "San Miguel County, US-CO, US", "elevation": 2971.0, "land_cover_label": "Tree cover", "water_mask": false, "exclude_reason": "keep", "ndvi": null, "soil_moisture": null, "solar_exposure": null, "wind_exposure": null, "water_retention": null, "slope": null, "aspect": null, "num_identification_agreements": 2, "cluster": 0, "tavg": null, "tmin": 12.0, "tmax": 23.0, "prcp_d0": 4.595932960510254, "prcp_d1": 4.595932960510254, "prcp_d2": 0.0, "prcp_d3": 0.0, "prcp_d4": 0.0, "prcp_d5": 0.0, "prcp_d6": 0.0, "tmax_d0": 18.6, "tmax_d1": 19.4, "tmax_d2": 21.1, "tmax_d3": 21.8, "tmax_d4": 22.2, "tmax_d5": 22.5, "tmax_d6": 19.5, "tmin_d0": 5.2, "tmin_d1": 6.5, "tmin_d2": 6.4, "tmin_d3": 7.7, "tmin_d4": 5.4, "tmin_d5": 4.2, "tmin_d6": 5.3, "day_of_year": 235, "uuid": "d7739363-5a15-4bce-8b61-30ab6d8013e0", "inat_id": 31377036}}, {"type": "Feature", "geometry": {"type": "Point", "coordinates": [-121.81654652, 45.48970977]}, "properties": {"species": "Hericium coralloides", "date": "2020-10-02", "location": "Hood River County, US-OR, US", "elevation": 1001.0, "land_cover_label": "Tree cover", "water_mask": false, "exclude_reason": "keep", "ndvi": null, "soil_moisture": null, "solar_exposure": null, "wind_exposure": null, "water_retention": null, "slope": null, "aspect": null, "num_identification_agreements": 2, "cluster": 0, "tavg": null, "tmin": 11.7, "tmax": 27.2, "prcp_d0": 0.0, "prcp_d1": 0.0, "prcp_d2": 0.0, "prcp_d3": 0.0, "prcp_d4": 0.0, "prcp_d5": 0.0, "prcp_d6": 12.659564971923828, "tmax_d0": 23.4, "tmax_d1": 24.9, "tmax_d2": 23.1, "tmax_d3": 22.3, "tmax_d4": 19.3, "tmax_d5": 16.2, "tmax_d6": 11.4, "tmin_d0": 12.5, "tmin_d1": 11.4, "tmin_d2": 11.3, "tmin_d3": 8.8, "tmin_d4": 8.4, "tmin_d5": 6.7, "tmin_d6": 7.5, "day_of_year": 276, "uuid": "5af0d4dd-4b1e-458b-8efb-ee294c2acfb6", "inat_id": 61738832}}, {"type": "Feature", "geometry": {"type": "Point", "coordinates": [-121.9255253612, 45.5342493768]}, "properties": {"species": "Hericium coralloides", "date": "2020-10-02", "location": "Oregon, US", "elevation": 937.0, "land_cover_label": "Tree cover", "water_mask": false, "exclude_reason": "keep", "ndvi": null, "soil_moisture": null, "solar_exposure": null, "wind_exposure": null, "water_retention": null, "slope": null, "aspect": null, "num_identification_agreements": 1, "cluster": 0, "tavg": null, "tmin": 11.7, "tmax": 27.2, "prcp_d0": 0.0, "prcp_d1": 0.0, "prcp_d2": 0.0, "prcp_d3": 0.0, "prcp_d4": 0.0, "prcp_d5": 0.0, "prcp_d6": 14.616785049438477, "tmax_d0": 24.2, "tmax_d1": 26.2, "tmax_d2": 24.2, "tmax_d3": 24.0, "tmax_d4": 20.2, "tmax_d5": 17.5, "tmax_d6": 11.7, "tmin_d0": 13.0, "tmin_d1": 11.1, "tmin_d2": 12.2, "tmin_d3": 9.3, "tmin_d4": 9.9, "tmin_d5": 6.9, "tmin_d6": 8.4, "day_of_year": 276, "uuid": "0fb76a70-32e3-42e8-ab31-a54db07a8451", "inat_id": 61750781}}, {"type": "Feature", "geometry": {"type": "Point", "coordinates": [-121.9116061532, 45.527579422]}, "properties": {"species": "Hericium coralloides", "date": "2020-10-02", "location": "Oregon, US", "elevation": 1223.0, "land_cover_label": "Tree cover", "water_mask": false, "exclude_reason": "keep", "ndvi": null, "soil_moisture": null, "solar_exposure": null, "wind_exposure": null, "water_retention": null, "slope": null, "aspect": null, "num_identification_agreements": 1, "cluster": 0, "tavg": null, "tmin": 11.7, "tmax": 27.2, "prcp_d0": 0.0, "prcp_d1": 0.0, "prcp_d2": 0.0, "prcp_d3": 0.0, "prcp_d4": 0.0, "prcp_d5": 0.0, "prcp_d6": 14.616785049438477, "tmax_d0": 22.1, "tmax_d1": 24.1, "tmax_d2": 22.1, "tmax_d3": 21.9, "tmax_d4": 18.1, "tmax_d5": 15.4, "tmax_d6": 9.6, "tmin_d0": 10.9, "tmin_d1": 9.0, "tmin_d2": 10.1, "tmin_d3": 7.2, "tmin_d4": 7.8, "tmin_d5": 4.8, "tmin_d6": 6.3, "day_of_year": 276, "uuid": "f797b3d6-3682-4c1f-b6f4-5c620fdded23", "inat_id": 61750830}}, {"type": "Feature", "geometry": {"type": "Point", "coordinates": [-121.9010661208, 45.5732466749]}, "properties": {"species": "Hericium coralloides", "date": "2020-10-03", "location": "Oregon, US", "elevation": 838.0, "land_cover_label": "Tree cover", "water_mask": false, "exclude_reason": "keep", "ndvi": null, "soil_moisture": null, "solar_exposure": null, "wind_exposure": null, "water_retention": null, "slope": null, "aspect": null, "num_identification_agreements": 1, "cluster": 0, "tavg": null, "tmin": 12.8, "tmax": 25.0, "prcp_d0": 0.0, "prcp_d1": 0.0, "prcp_d2": 0.0, "prcp_d3": 0.0, "prcp_d4": 0.0, "prcp_d5": 0.0, "prcp_d6": 0.0, "tmax_d0": 22.5, "tmax_d1": 24.2, "tmax_d2": 26.2, "tmax_d3": 24.2, "tmax_d4": 24.0, "tmax_d5": 20.2, "tmax_d6": 17.5, "tmin_d0": 10.6, "tmin_d1": 13.0, "tmin_d2": 11.1, "tmin_d3": 12.2, "tmin_d4": 9.3, "tmin_d5": 9.9, "tmin_d6": 6.9, "day_of_year": 277, "uuid": "2023878b-0052-49fc-96cd-f17fc3b2cda2", "inat_id": 61751797}}, {"type": "Feature", "geometry": {"type": "Point", "coordinates": [-107.8450859513, 38.0555201281]}, "properties": {"species": "Hericium coralloides", "date": "2021-07-24", "location": "Grand Mesa Uncompahgre and Gunnison National Forests, Ridgway, CO, US", "elevation": 2849.0, "land_cover_label": "Tree cover", "water_mask": false, "exclude_reason": "keep", "ndvi": null, "soil_moisture": null, "solar_exposure": null, "wind_exposure": null, "water_retention": null, "slope": null, "aspect": null, "num_identification_agreements": 1, "cluster": 0, "tavg": null, "tmin": 11.0, "tmax": 22.0, "prcp_d0": 9.13896369934082, "prcp_d1": 6.092642784118652, "prcp_d2": 3.046321392059326, "prcp_d3": 3.046321392059326, "prcp_d4": 0.0, "prcp_d5": 0.0, "prcp_d6": 0.0, "tmax_d0": 20.2, "tmax_d1": 21.6, "tmax_d2": 22.5, "tmax_d3": 22.6, "tmax_d4": 24.2, "tmax_d5": 23.5, "tmax_d6": 23.2, "tmin_d0": 9.1, "tmin_d1": 10.7, "tmin_d2": 8.5, "tmin_d3": 9.4, "tmin_d4": 10.0, "tmin_d5": 9.2, "tmin_d6": 5.1, "day_of_year": 205, "uuid": "d725413e-5bb8-4456-ae97-64c9a05bbcc8", "inat_id": 104876369}}, {"type": "Feature", "geometry": {"type": "Point", "coordinates": [-106.40108214, 35.84712701]}, "properties": {"species": "Hericium coralloides", "date": "2021-08-03", "location": "Bandelier National Monument, Sandoval County, US-NM, US", "elevation": 2797.0, "land_cover_label": "Tree cover", "water_mask": false, "exclude_reason": "keep", "ndvi": null, "soil_moisture": null, "solar_exposure": null, "wind_exposure": null, "water_retention": null, "slope": null, "aspect": null, "num_identification_agreements": 2, "cluster": 0, "tavg": null, "tmin": 14.3, "tmax": 25.3, "prcp_d0": 0.0, "prcp_d1": 0.0, "prcp_d2": 0.0, "prcp_d3": 2.253720760345459, "prcp_d4": 0.0, "prcp_d5": 0.0, "prcp_d6": 2.253720760345459, "tmax_d0": null, "tmax_d1": null, "tmax_d2": null, "tmax_d3": null, "tmax_d4": null, "tmax_d5": null, "tmax_d6": null, "tmin_d0": null, "tmin_d1": null, "tmin_d2": null, "tmin_d3": null, "tmin_d4": null, "tmin_d5": null, "tmin_d6": null, "day_of_year": 215, "uuid": "bfc7f5f6-4602-4c15-b5bb-9057507cf938", "inat_id": 89868319}}, {"type": "Feature", "geometry": {"type": "Point", "coordinates": [-106.8057089722, 38.8579999722]}, "properties": {"species": "Hericium coralloides", "date": "2021-08-07", "location": "Crested Butte, CO 81224, USA", "elevation": 2917.0, "land_cover_label": "Tree cover", "water_mask": false, "exclude_reason": "keep", "ndvi": null, "soil_moisture": null, "solar_exposure": null, "wind_exposure": null, "water_retention": null, "slope": null, "aspect": null, "num_identification_agreements": 2, "cluster": 0, "tavg": null, "tmin": 7.2, "tmax": 23.3, "prcp_d0": 0.0, "prcp_d1": 0.0, "prcp_d2": 0.0, "prcp_d3": 0.0, "prcp_d4": 0.0, "prcp_d5": 11.961968421936035, "prcp_d6": 11.961968421936035, "tmax_d0": 21.6, "tmax_d1": 21.8, "tmax_d2": 22.3, "tmax_d3": 20.7, "tmax_d4": 18.1, "tmax_d5": 18.8, "tmax_d6": 17.5, "tmin_d0": 3.3, "tmin_d1": 3.8, "tmin_d2": 1.4, "tmin_d3": 3.0, "tmin_d4": 4.2, "tmin_d5": 6.9, "tmin_d6": 9.2, "day_of_year": 219, "uuid": "28bedf6a-a2ac-4d21-8339-49dd331e00e8", "inat_id": 90349507}}, {"type": "Feature", "geometry": {"type": "Point", "coordinates": [-105.2825092268, 39.5697631688]}, "properties": {"species": "Hericium coralloides", "date": "2021-08-13", "location": "North Turkey Creek, CO, USA", "elevation": 2468.0, "land_cover_label": "Tree cover", "water_mask": false, "exclude_reason": "keep", "ndvi": null, "soil_moisture": 0.1439176563396195, "solar_exposure": 0.7760493755340576, "wind_exposure": 0.3256930708885193, "water_retention": 0.2116497904062271, "slope": 16.004663467407227, "aspect": 81.29261779785156, "num_identification_agreements": 1, "cluster": 0, "tavg": null, "tmin": 15.6, "tmax": 28.9, "prcp_d0": 3.674131155014038, "prcp_d1": 0.0, "prcp_d2": 0.0, "prcp_d3": 0.0, "prcp_d4": 0.0, "prcp_d5": 0.0, "prcp_d6": 0.0, "tmax_d0": 21.0, "tmax_d1": 25.6, "tmax_d2": 27.5, "tmax_d3": 25.2, "tmax_d4": 25.2, "tmax_d5": 24.7, "tmax_d6": 22.9, "tmin_d0": 10.6, "tmin_d1": 11.7, "tmin_d2": 9.8, "tmin_d3": 8.8, "tmin_d4": 10.2, "tmin_d5": 6.9, "tmin_d6": 10.7, "day_of_year": 225, "uuid": "1448cb0a-68a2-4356-bcae-b07e046362d1", "inat_id": 91082152}}, {"type": "Feature", "geometry": {"type": "Point", "coordinates": [-121.9166528061, 45.6544079795]}, "properties": {"species": "Hericium coralloides", "date": "2021-10-04", "location": "Stevenson, WA 98648, USA", "elevation": 97.0, "land_cover_label": "Tree cover", "water_mask": false, "exclude_reason": "keep", "ndvi": null, "soil_moisture": null, "solar_exposure": null, "wind_exposure": null, "water_retention": null, "slope": null, "aspect": null, "num_identification_agreements": 1, "cluster": 0, "tavg": null, "tmin": 11.7, "tmax": 19.4, "prcp_d0": 0.0, "prcp_d1": 0.0, "prcp_d2": 0.0, "prcp_d3": 0.0, "prcp_d4": 0.0, "prcp_d5": 0.0, "prcp_d6": 0.0, "tmax_d0": 22.6, "tmax_d1": 21.1, "tmax_d2": 21.9, "tmax_d3": 19.3, "tmax_d4": 17.2, "tmax_d5": 19.7, "tmax_d6": 14.5, "tmin_d0": 11.8, "tmin_d1": 10.5, "tmin_d2": 8.8, "tmin_d3": 8.3, "tmin_d4": 11.6, "tmin_d5": 8.0, "tmin_d6": 10.9, "day_of_year": 277, "uuid": "27839c74-7c20-44c6-8138-f1dadfab6094", "inat_id": 97266189}}, {"type": "Feature", "geometry": {"type": "Point", "coordinates": [-106.1038968997, 40.0795559997]}, "properties": {"species": "Hericium coralloides", "date": "2022-07-30", "location": "Hot Sulphur Springs, CO 80451, USA", "elevation": 2346.0, "land_cover_label": "Tree cover", "water_mask": false, "exclude_reason": "keep", "ndvi": null, "soil_moisture": null, "solar_exposure": null, "wind_exposure": null, "water_retention": null, "slope": null, "aspect": null, "num_identification_agreements": 1, "cluster": 0, "tavg": null, "tmin": 5.0, "tmax": 26.1, "prcp_d0": 0.0, "prcp_d1": 0.0, "prcp_d2": 11.825237274169922, "prcp_d3": 0.0, "prcp_d4": 0.0, "prcp_d5": 0.0, "prcp_d6": 0.0, "tmax_d0": 25.6, "tmax_d1": 23.1, "tmax_d2": 26.1, "tmax_d3": 27.9, "tmax_d4": 26.1, "tmax_d5": 25.5, "tmax_d6": 24.4, "tmin_d0": 7.8, "tmin_d1": 8.5, "tmin_d2": 10.7, "tmin_d3": 9.1, "tmin_d4": 8.0, "tmin_d5": 10.1, "tmin_d6": 10.8, "day_of_year": 211, "uuid": "4c27a9e1-db86-45c7-9673-2d8165977f35", "inat_id": 128631120}}, {"type": "Feature", "geometry": {"type": "Point", "coordinates": [-105.0438244504, 38.0728618349]}, "properties": {"species": "Hericium coralloides", "date": "2022-08-08", "location": "Colorado, US", "elevation": 2537.0, "land_cover_label": "Tree cover", "water_mask": false, "exclude_reason": "keep", "ndvi": null, "soil_moisture": null, "solar_exposure": null, "wind_exposure": null, "water_retention": null, "slope": null, "aspect": null, "num_identification_agreements": 3, "cluster": 1, "tavg": null, "tmin": 17.1, "tmax": 28.4, "prcp_d0": 28.289268493652344, "prcp_d1": 9.42975616455078, "prcp_d2": 9.42975616455078, "prcp_d3": 12.240360260009766, "prcp_d4": 3.0600900650024414, "prcp_d5": 9.180269241333008, "prcp_d6": 0.0, "tmax_d0": 20.3, "tmax_d1": 23.4, "tmax_d2": 24.8, "tmax_d3": 25.9, "tmax_d4": 23.2, "tmax_d5": 21.5, "tmax_d6": 27.2, "tmin_d0": 12.2, "tmin_d1": 14.5, "tmin_d2": 15.7, "tmin_d3": 14.4, "tmin_d4": 14.2, "tmin_d5": 14.7, "tmin_d6": 14.9, "day_of_year": 220, "uuid": "b908db39-395e-4f6f-b335-d15bad148a78", "inat_id": 254462987}}, {"type": "Feature", "geometry": {"type": "Point", "coordinates": [-107.9071635098, 37.8975423043]}, "properties": {"species": "Hericium coralloides", "date": "2022-08-18", "location": "Grand Mesa Uncompahgre and Gunnison National Forests, Telluride, CO, US", "elevation": 2531.0, "land_cover_label": "Grassland", "water_mask": false, "exclude_reason": "keep", "ndvi": null, "soil_moisture": null, "solar_exposure": null, "wind_exposure": null, "water_retention": null, "slope": null, "aspect": null, "num_identification_agreements": 1, "cluster": 0, "tavg": null, "tmin": 9.0, "tmax": 23.0, "prcp_d0": 0.0, "prcp_d1": 0.0, "prcp_d2": 0.0, "prcp_d3": 33.15773391723633, "prcp_d4": 0.0, "prcp_d5": 0.0, "prcp_d6": 0.0, "tmax_d0": 23.7, "tmax_d1": 21.0, "tmax_d2": 21.0, "tmax_d3": 22.9, "tmax_d4": 24.1, "tmax_d5": 23.7, "tmax_d6": 23.3, "tmin_d0": 9.0, "tmin_d1": 7.6, "tmin_d2": 10.2, "tmin_d3": 7.8, "tmin_d4": 8.4, "tmin_d5": 8.9, "tmin_d6": 8.6, "day_of_year": 230, "uuid": "fd7da277-5978-4e93-8909-8df894ea7784", "inat_id": 131370946}}, {"type": "Feature", "geometry": {"type": "Point", "coordinates": [-107.8803833854, 37.8334198147]}, "properties": {"species": "Hericium coralloides", "date": "2022-08-20", "location": "San Miguel County, US-CO, US", "elevation": 2930.0, "land_cover_label": "Tree cover", "water_mask": false, "exclude_reason": "keep", "ndvi": null, "soil_moisture": null, "solar_exposure": null, "wind_exposure": null, "water_retention": null, "slope": null, "aspect": null, "num_identification_agreements": 2, "cluster": 2, "tavg": null, "tmin": 10.0, "tmax": 17.0, "prcp_d0": 0.0, "prcp_d1": 0.0, "prcp_d2": 0.0, "prcp_d3": 0.0, "prcp_d4": 0.0, "prcp_d5": 0.0, "prcp_d6": 37.34519577026367, "tmax_d0": null, "tmax_d1": null, "tmax_d2": null, "tmax_d3": null, "tmax_d4": null, "tmax_d5": null, "tmax_d6": null, "tmin_d0": null, "tmin_d1": null, "tmin_d2": null, "tmin_d3": null, "tmin_d4": null, "tmin_d5": null, "tmin_d6": null, "day_of_year": 232, "uuid": "b0ff147c-99cd-427a-8069-659a7d632d6c", "inat_id": 131908609}}, {"type": "Feature", "geometry": {"type": "Point", "coordinates": [-105.2342902692, 39.6900435021]}, "properties": {"species": "Hericium coralloides", "date": "2022-10-09", "location": "Colorado, US", "elevation": 2199.0, "land_cover_label": "Tree cover", "water_mask": false, "exclude_reason": "keep", "ndvi": null, "soil_moisture": 0.2462236153129146, "solar_exposure": 0.6407173275947571, "wind_exposure": 0.4152247011661529, "water_retention": 0.1364909708499908, "slope": 16.250272750854492, "aspect": 338.6065368652344, "num_identification_agreements": 1, "cluster": 0, "tavg": null, "tmin": 8.0, "tmax": 22.0, "prcp_d0": 0.0, "prcp_d1": 0.0, "prcp_d2": 0.0, "prcp_d3": 0.0, "prcp_d4": 0.0, "prcp_d5": 0.0, "prcp_d6": 0.0, "tmax_d0": 17.0, "tmax_d1": 13.6, "tmax_d2": 14.0, "tmax_d3": 16.7, "tmax_d4": 15.1, "tmax_d5": 15.3, "tmax_d6": 17.9, "tmin_d0": 1.2, "tmin_d1": 2.1, "tmin_d2": 3.5, "tmin_d3": 4.2, "tmin_d4": 5.8, "tmin_d5": 5.2, "tmin_d6": 5.3, "day_of_year": 282, "uuid": "be7b3c30-4128-466f-82e9-5f4c922de0a5", "inat_id": 138202541}}, {"type": "Feature", "geometry": {"type": "Point", "coordinates": [-122.4742473854, 45.3903809271]}, "properties": {"species": "Hericium coralloides", "date": "2022-11-01", "location": "S Stevens Rd, Oregon City, OR, US", "elevation": 48.0, "land_cover_label": "Tree cover", "water_mask": false, "exclude_reason": "keep", "ndvi": null, "soil_moisture": null, "solar_exposure": null, "wind_exposure": null, "water_retention": null, "slope": null, "aspect": null, "num_identification_agreements": 1, "cluster": 2, "tavg": null, "tmin": 7.2, "tmax": 11.7, "prcp_d0": 19.575096130371094, "prcp_d1": 0.0, "prcp_d2": 0.0, "prcp_d3": 0.0, "prcp_d4": 25.42926788330078, "prcp_d5": 25.42926788330078, "prcp_d6": 0.0, "tmax_d0": 10.4, "tmax_d1": 13.7, "tmax_d2": 13.0, "tmax_d3": 15.3, "tmax_d4": 13.7, "tmax_d5": 15.0, "tmax_d6": 11.8, "tmin_d0": 6.4, "tmin_d1": 10.6, "tmin_d2": 9.0, "tmin_d3": 9.5, "tmin_d4": 8.1, "tmin_d5": 3.0, "tmin_d6": 5.7, "day_of_year": 305, "uuid": "d2c63382-34f4-4f6c-a09d-5cab57f58a7e", "inat_id": 140828286}}, {"type": "Feature", "geometry": {"type": "Point", "coordinates": [-107.1017426943, 39.2699628041]}, "properties": {"species": "Hericium coralloides", "date": "2023-08-23", "location": "Colorado, US", "elevation": 2894.0, "land_cover_label": "Tree cover", "water_mask": false, "exclude_reason": "keep", "ndvi": null, "soil_moisture": null, "solar_exposure": null, "wind_exposure": null, "water_retention": null, "slope": null, "aspect": null, "num_identification_agreements": 1, "cluster": 0, "tavg": null, "tmin": 10.0, "tmax": 26.7, "prcp_d0": 0.0, "prcp_d1": 0.0, "prcp_d2": 0.0, "prcp_d3": 0.0, "prcp_d4": 0.0, "prcp_d5": 0.0, "prcp_d6": 8.741605758666992, "tmax_d0": 22.9, "tmax_d1": 23.3, "tmax_d2": 25.7, "tmax_d3": 26.3, "tmax_d4": 23.7, "tmax_d5": 24.5, "tmax_d6": 25.8, "tmin_d0": 7.2, "tmin_d1": 10.6, "tmin_d2": 9.5, "tmin_d3": 7.9, "tmin_d4": 5.7, "tmin_d5": 9.5, "tmin_d6": 7.8, "day_of_year": 235, "uuid": "1ccafbe4-3f52-44d2-91cd-b350a998df50", "inat_id": 179898760}}, {"type": "Feature", "geometry": {"type": "Point", "coordinates": [-105.338359981, 39.7136021179]}, "properties": {"species": "Hericium coralloides", "date": "2023-09-16", "location": "Colorado, US", "elevation": 2331.0, "land_cover_label": "Tree cover", "water_mask": false, "exclude_reason": "keep", "ndvi": null, "soil_moisture": 0.3898704627882199, "solar_exposure": 0.8334783315658569, "wind_exposure": 0.3450527489185333, "water_retention": 0.1352970600128173, "slope": 16.524869918823242, "aspect": 101.60984802246094, "num_identification_agreements": 1, "cluster": 0, "tavg": null, "tmin": 8.0, "tmax": 23.0, "prcp_d0": 0.0, "prcp_d1": 23.84978103637696, "prcp_d2": 0.0, "prcp_d3": 0.0, "prcp_d4": 0.0, "prcp_d5": 0.0, "prcp_d6": 0.0, "tmax_d0": 17.4, "tmax_d1": 10.8, "tmax_d2": 16.8, "tmax_d3": 18.8, "tmax_d4": 16.1, "tmax_d5": 13.3, "tmax_d6": 20.7, "tmin_d0": 0.5, "tmin_d1": 7.1, "tmin_d2": 6.2, "tmin_d3": 4.6, "tmin_d4": 2.5, "tmin_d5": 8.3, "tmin_d6": 7.7, "day_of_year": 259, "uuid": "2d41a06e-b9d5-4e65-8b70-4cd28b7d55be", "inat_id": 183566533}}, {"type": "Feature", "geometry": {"type": "Point", "coordinates": [-108.2080864098, 37.5174368839]}, "properties": {"species": "Hericium coralloides", "date": "2023-09-17", "location": "Colorado, US", "elevation": 2875.0, "land_cover_label": "Tree cover", "water_mask": false, "exclude_reason": "keep", "ndvi": null, "soil_moisture": null, "solar_exposure": null, "wind_exposure": null, "water_retention": null, "slope": null, "aspect": null, "num_identification_agreements": 1, "cluster": 0, "tavg": null, "tmin": 7.0, "tmax": 27.0, "prcp_d0": 0.0, "prcp_d1": 0.0, "prcp_d2": 0.0, "prcp_d3": 0.0, "prcp_d4": 16.916545867919922, "prcp_d5": 16.916545867919922, "prcp_d6": 0.0, "tmax_d0": 15.4, "tmax_d1": 15.0, "tmax_d2": 10.8, "tmax_d3": 13.6, "tmax_d4": 12.2, "tmax_d5": 15.2, "tmax_d6": 17.1, "tmin_d0": 4.2, "tmin_d1": 1.7, "tmin_d2": 3.7, "tmin_d3": 4.1, "tmin_d4": 4.3, "tmin_d5": 6.3, "tmin_d6": 4.7, "day_of_year": 260, "uuid": "2fd85277-8af6-4c4e-a8ae-b2b09557e96a", "inat_id": 183775840}}, {"type": "Feature", "geometry": {"type": "Point", "coordinates": [-108.3349422753, 37.4998424529]}, "properties": {"species": "Hericium coralloides", "date": "2023-09-17", "location": "Colorado, US", "elevation": 2513.0, "land_cover_label": "Tree cover", "water_mask": false, "exclude_reason": "keep", "ndvi": null, "soil_moisture": null, "solar_exposure": null, "wind_exposure": null, "water_retention": null, "slope": null, "aspect": null, "num_identification_agreements": 1, "cluster": 0, "tavg": null, "tmin": 7.0, "tmax": 27.0, "prcp_d0": 0.0, "prcp_d1": 0.0, "prcp_d2": 0.0, "prcp_d3": 0.0, "prcp_d4": 4.935450077056885, "prcp_d5": 0.0, "prcp_d6": 0.0, "tmax_d0": 19.4, "tmax_d1": 18.5, "tmax_d2": 13.8, "tmax_d3": 18.2, "tmax_d4": 15.9, "tmax_d5": 19.4, "tmax_d6": 21.8, "tmin_d0": 6.2, "tmin_d1": 2.6, "tmin_d2": 4.9, "tmin_d3": 5.3, "tmin_d4": 6.2, "tmin_d5": 10.0, "tmin_d6": 8.1, "day_of_year": 260, "uuid": "424d07aa-e6c5-4262-9a56-360c6bcc83d0", "inat_id": 183776590}}, {"type": "Feature", "geometry": {"type": "Point", "coordinates": [-107.5913351675, 39.1586032933]}, "properties": {"species": "Hericium coralloides", "date": "2024-07-23", "location": "Grand Mesa Uncompahgre and Gunnison National Forests, Paonia, CO, US", "elevation": 2858.0, "land_cover_label": "Tree cover", "water_mask": false, "exclude_reason": "keep", "ndvi": null, "soil_moisture": null, "solar_exposure": null, "wind_exposure": null, "water_retention": null, "slope": null, "aspect": null, "num_identification_agreements": 1, "cluster": 0, "tavg": null, "tmin": 7.5, "tmax": 20.8, "prcp_d0": 0.0, "prcp_d1": 0.0, "prcp_d2": 0.0, "prcp_d3": 0.0, "prcp_d4": 0.0, "prcp_d5": 0.0, "prcp_d6": 0.0, "tmax_d0": 22.7, "tmax_d1": 20.5, "tmax_d2": 21.7, "tmax_d3": 22.6, "tmax_d4": 22.6, "tmax_d5": 23.3, "tmax_d6": 22.8, "tmin_d0": 6.6, "tmin_d1": 5.1, "tmin_d2": 6.7, "tmin_d3": 10.0, "tmin_d4": 8.8, "tmin_d5": 8.0, "tmin_d6": 6.6, "day_of_year": 205, "uuid": "11c83802-ec31-4336-a1bb-39d0375e974b", "inat_id": 231340966}}, {"type": "Feature", "geometry": {"type": "Point", "coordinates": [-107.62217, 38.9624866667]}, "properties": {"species": "Hericium coralloides", "date": "2024-07-23", "location": "Grand Mesa Uncompahgre and Gunnison National Forests, Paonia, CO, US", "elevation": 2435.0, "land_cover_label": "Tree cover", "water_mask": false, "exclude_reason": "keep", "ndvi": null, "soil_moisture": null, "solar_exposure": null, "wind_exposure": null, "water_retention": null, "slope": null, "aspect": null, "num_identification_agreements": 1, "cluster": 0, "tavg": null, "tmin": 15.6, "tmax": 34.9, "prcp_d0": 0.0, "prcp_d1": 0.0, "prcp_d2": 0.0, "prcp_d3": 0.0, "prcp_d4": 0.0, "prcp_d5": 0.0, "prcp_d6": 0.0, "tmax_d0": 26.2, "tmax_d1": 24.6, "tmax_d2": 26.2, "tmax_d3": 27.0, "tmax_d4": 24.8, "tmax_d5": 25.3, "tmax_d6": 26.0, "tmin_d0": 11.5, "tmin_d1": 10.8, "tmin_d2": 11.7, "tmin_d3": 12.8, "tmin_d4": 11.7, "tmin_d5": 11.9, "tmin_d6": 12.4, "day_of_year": 205, "uuid": "d1b99aa8-0a44-48ea-a240-7fc774fa844c", "inat_id": 231333511}}, {"type": "Feature", "geometry": {"type": "Point", "coordinates": [-106.5603838322, 35.9443300055]}, "properties": {"species": "Hericium coralloides", "date": "2024-07-27", "location": "Sandoval County, US-NM, US", "elevation": 2725.0, "land_cover_label": "Tree cover", "water_mask": false, "exclude_reason": "keep", "ndvi": null, "soil_moisture": null, "solar_exposure": null, "wind_exposure": null, "water_retention": null, "slope": null, "aspect": null, "num_identification_agreements": 2, "cluster": 0, "tavg": null, "tmin": 13.8, "tmax": 28.2, "prcp_d0": 0.0, "prcp_d1": 0.0, "prcp_d2": 0.0, "prcp_d3": 0.0, "prcp_d4": 0.0, "prcp_d5": 0.0, "prcp_d6": 0.0, "tmax_d0": 23.3, "tmax_d1": 22.8, "tmax_d2": 23.6, "tmax_d3": 22.9, "tmax_d4": 20.2, "tmax_d5": 18.2, "tmax_d6": 19.8, "tmin_d0": 10.9, "tmin_d1": 11.6, "tmin_d2": 11.5, "tmin_d3": 10.9, "tmin_d4": 8.2, "tmin_d5": 8.3, "tmin_d6": 10.2, "day_of_year": 209, "uuid": "2e6964cf-cc54-4711-9880-e78063e93dd7", "inat_id": 243503962}}, {"type": "Feature", "geometry": {"type": "Point", "coordinates": [-107.0122083333, 38.5159333333]}, "properties": {"species": "Hericium coralloides", "date": "2024-08-10", "location": "Curecanti National Recreation Area, Gunnison, CO, US", "elevation": 2310.0, "land_cover_label": "Tree cover", "water_mask": false, "exclude_reason": "keep", "ndvi": null, "soil_moisture": null, "solar_exposure": null, "wind_exposure": null, "water_retention": null, "slope": null, "aspect": null, "num_identification_agreements": 2, "cluster": 0, "tavg": null, "tmin": 10.0, "tmax": 22.2, "prcp_d0": 4.094005107879639, "prcp_d1": 0.0, "prcp_d2": 0.0, "prcp_d3": 4.094005107879639, "prcp_d4": 4.094005107879639, "prcp_d5": 6.971027374267578, "prcp_d6": 0.0, "tmax_d0": 23.8, "tmax_d1": 27.1, "tmax_d2": 28.4, "tmax_d3": 30.5, "tmax_d4": 27.2, "tmax_d5": 28.2, "tmax_d6": 31.1, "tmin_d0": 10.6, "tmin_d1": 14.1, "tmin_d2": 11.0, "tmin_d3": 12.4, "tmin_d4": 13.4, "tmin_d5": 12.4, "tmin_d6": 15.8, "day_of_year": 223, "uuid": "0c8d41b2-f55c-49e9-a3b0-a634c69c2e9a", "inat_id": 235357705}}, {"type": "Feature", "geometry": {"type": "Point", "coordinates": [-107.9075527778, 37.8955166667]}, "properties": {"species": "Hericium coralloides", "date": "2024-08-14", "location": "Mountain Village, CO 81435, USA", "elevation": 2534.0, "land_cover_label": "Tree cover", "water_mask": false, "exclude_reason": "keep", "ndvi": null, "soil_moisture": null, "solar_exposure": null, "wind_exposure": null, "water_retention": null, "slope": null, "aspect": null, "num_identification_agreements": 3, "cluster": 1, "tavg": null, "tmin": 9.0, "tmax": 20.0, "prcp_d0": 0.0, "prcp_d1": 22.02738380432129, "prcp_d2": 22.02738380432129, "prcp_d3": 0.0, "prcp_d4": 0.0, "prcp_d5": 0.0, "prcp_d6": 11.421351432800291, "tmax_d0": 21.4, "tmax_d1": 20.9, "tmax_d2": 22.1, "tmax_d3": 23.3, "tmax_d4": 21.5, "tmax_d5": 23.4, "tmax_d6": 26.8, "tmin_d0": 7.2, "tmin_d1": 9.1, "tmin_d2": 9.1, "tmin_d3": 9.9, "tmin_d4": 9.9, "tmin_d5": 13.1, "tmin_d6": 8.5, "day_of_year": 227, "uuid": "8b923534-c174-4b7c-a968-ecb88b186667", "inat_id": 235780911}}, {"type": "Feature", "geometry": {"type": "Point", "coordinates": [-107.9076216667, 37.8955633333]}, "properties": {"species": "Hericium coralloides", "date": "2024-08-14", "location": "Grand Mesa Uncompahgre and Gunnison National Forests, Ophir, CO, US", "elevation": 2534.0, "land_cover_label": "Tree cover", "water_mask": false, "exclude_reason": "keep", "ndvi": null, "soil_moisture": null, "solar_exposure": null, "wind_exposure": null, "water_retention": null, "slope": null, "aspect": null, "num_identification_agreements": 2, "cluster": 1, "tavg": null, "tmin": 9.0, "tmax": 20.0, "prcp_d0": 0.0, "prcp_d1": 22.02738380432129, "prcp_d2": 22.02738380432129, "prcp_d3": 0.0, "prcp_d4": 0.0, "prcp_d5": 0.0, "prcp_d6": 11.421351432800291, "tmax_d0": 21.4, "tmax_d1": 20.9, "tmax_d2": 22.1, "tmax_d3": 23.3, "tmax_d4": 21.5, "tmax_d5": 23.4, "tmax_d6": 26.8, "tmin_d0": 7.2, "tmin_d1": 9.1, "tmin_d2": 9.1, "tmin_d3": 9.9, "tmin_d4": 9.9, "tmin_d5": 13.1, "tmin_d6": 8.5, "day_of_year": 227, "uuid": "9920f399-9d78-46d7-a129-325b545a9aea", "inat_id": 235777222}}, {"type": "Feature", "geometry": {"type": "Point", "coordinates": [-107.5295090692, 39.3022399481]}, "properties": {"species": "Hericium coralloides", "date": "2024-08-24", "location": "Colorado, US", "elevation": 2533.0, "land_cover_label": "Tree cover", "water_mask": false, "exclude_reason": "keep", "ndvi": null, "soil_moisture": null, "solar_exposure": null, "wind_exposure": null, "water_retention": null, "slope": null, "aspect": null, "num_identification_agreements": 2, "cluster": 0, "tavg": null, "tmin": 6.7, "tmax": 17.1, "prcp_d0": 10.201541900634766, "prcp_d1": 1.2759143114089966, "prcp_d2": 6.901185512542725, "prcp_d3": 7.564770698547363, "prcp_d4": 0.0, "prcp_d5": 0.0, "prcp_d6": 0.0, "tmax_d0": 21.2, "tmax_d1": 20.3, "tmax_d2": 19.5, "tmax_d3": 23.9, "tmax_d4": 25.8, "tmax_d5": 22.5, "tmax_d6": 23.9, "tmin_d0": 11.6, "tmin_d1": 12.1, "tmin_d2": 10.7, "tmin_d3": 12.8, "tmin_d4": 13.4, "tmin_d5": 12.2, "tmin_d6": 10.1, "day_of_year": 237, "uuid": "83c8ef9f-6434-452c-a1c5-f14e391c4e09", "inat_id": 238283388}}, {"type": "Feature", "geometry": {"type": "Point", "coordinates": [-107.91997164, 37.33714517]}, "properties": {"species": "Hericium coralloides", "date": "2024-09-12", "location": "La Plata County, US-CO, US", "elevation": 2213.0, "land_cover_label": "Tree cover", "water_mask": false, "exclude_reason": "keep", "ndvi": null, "soil_moisture": null, "solar_exposure": null, "wind_exposure": null, "water_retention": null, "slope": null, "aspect": null, "num_identification_agreements": 1, "cluster": 0, "tavg": null, "tmin": 3.9, "tmax": 27.8, "prcp_d0": 0.0, "prcp_d1": 9.303058624267578, "prcp_d2": 0.0, "prcp_d3": 0.0, "prcp_d4": 0.0, "prcp_d5": 0.0, "prcp_d6": 0.0, "tmax_d0": 24.4, "tmax_d1": 24.2, "tmax_d2": 24.8, "tmax_d3": 24.6, "tmax_d4": 24.3, "tmax_d5": 24.1, "tmax_d6": 23.5, "tmin_d0": 6.4, "tmin_d1": 8.4, "tmin_d2": 9.1, "tmin_d3": 8.5, "tmin_d4": 8.4, "tmin_d5": 8.3, "tmin_d6": 8.2, "day_of_year": 256, "uuid": "39f3b71f-6dd7-49d2-8de6-db64f4824962", "inat_id": 241396117}}, {"type": "Feature", "geometry": {"type": "Point", "coordinates": [-122.357345, 45.5172366667]}, "properties": {"species": "Hericium coralloides", "date": "2024-10-06", "location": "Historic Columbia River Hwy, Troutdale, OR, US", "elevation": 61.0, "land_cover_label": "Tree cover", "water_mask": false, "exclude_reason": "keep", "ndvi": null, "soil_moisture": null, "solar_exposure": null, "wind_exposure": null, "water_retention": null, "slope": null, "aspect": null, "num_identification_agreements": 1, "cluster": 1, "tavg": null, "tmin": 8.9, "tmax": 23.3, "prcp_d0": 0.0, "prcp_d1": 1.2606298923492432, "prcp_d2": 32.35684585571289, "prcp_d3": 0.0028508997056633, "prcp_d4": 1.1455183029174805, "prcp_d5": 0.0002308583207195, "prcp_d6": 0.0, "tmax_d0": 21.4, "tmax_d1": 22.3, "tmax_d2": 20.4, "tmax_d3": 21.9, "tmax_d4": 22.7, "tmax_d5": 23.3, "tmax_d6": 20.9, "tmin_d0": 6.2, "tmin_d1": 6.8, "tmin_d2": 6.9, "tmin_d3": 6.3, "tmin_d4": 9.8, "tmin_d5": 10.3, "tmin_d6": 6.0, "day_of_year": 280, "uuid": "f98360c5-2609-436e-a680-c0f2642c50f6", "inat_id": 246043936}}, {"type": "Feature", "geometry": {"type": "Point", "coordinates": [-105.2295573703, 40.3099269482]}, "properties": {"species": "Hericium coralloides", "date": "2025-06-02", "location": "Colorado, US", "elevation": 1844.0, "land_cover_label": "Tree cover", "water_mask": false, "exclude_reason": "keep", "ndvi": null, "soil_moisture": 0.3809547182882575, "solar_exposure": 0.8227179646492004, "wind_exposure": 0.3536549210548401, "water_retention": 0.263007789850235, "slope": 2.5559117794036865, "aspect": 52.55630493164063, "num_identification_agreements": 1, "cluster": 0, "tavg": null, "tmin": 11.5, "tmax": 25.0, "prcp_d0": 8.117263793945312, "prcp_d1": 0.0, "prcp_d2": 0.0, "prcp_d3": 0.0, "prcp_d4": 0.0, "prcp_d5": 20.75304412841797, "prcp_d6": 0.0, "tmax_d0": 23.5, "tmax_d1": 26.2, "tmax_d2": 21.1, "tmax_d3": 22.2, "tmax_d4": 14.7, "tmax_d5": 14.6, "tmax_d6": 18.2, "tmin_d0": 8.9, "tmin_d1": 8.7, "tmin_d2": 7.9, "tmin_d3": 3.8, "tmin_d4": 7.7, "tmin_d5": 5.2, "tmin_d6": 2.6, "day_of_year": 153, "uuid": "2c601e17-d41a-49fa-91ac-06e54a739633", "inat_id": 286417661}}, {"type": "Feature", "geometry": {"type": "Point", "coordinates": [-105.2790916449, 40.2071235294]}, "properties": {"species": "Hericium coralloides", "date": "2025-06-03", "location": "Colorado, US", "elevation": 1714.0, "land_cover_label": "Grassland", "water_mask": false, "exclude_reason": "keep", "ndvi": null, "soil_moisture": 0.3698398852573863, "solar_exposure": 0.7812281847000122, "wind_exposure": 0.3021911084651947, "water_retention": 0.2009217590093612, "slope": 6.396185874938965, "aspect": 39.22047424316406, "num_identification_agreements": 2, "cluster": 0, "tavg": null, "tmin": 10.0, "tmax": 13.6, "prcp_d0": 8.210095405578613, "prcp_d1": 8.210095405578613, "prcp_d2": 4.105047702789307, "prcp_d3": 9.162317276000977, "prcp_d4": 0.0, "prcp_d5": 0.0, "prcp_d6": 9.162317276000977, "tmax_d0": 21.3, "tmax_d1": 23.7, "tmax_d2": 26.8, "tmax_d3": 23.2, "tmax_d4": 23.8, "tmax_d5": 16.2, "tmax_d6": 16.8, "tmin_d0": 7.2, "tmin_d1": 6.5, "tmin_d2": 8.6, "tmin_d3": 7.7, "tmin_d4": 3.7, "tmin_d5": 8.7, "tmin_d6": 5.2, "day_of_year": 154, "uuid": "b280df4e-9a5c-4433-a4a4-6b94b7c941e8", "inat_id": 286676592}}, {"type": "Feature", "geometry": {"type": "Point", "coordinates": [-105.112075, 38.05565]}, "properties": {"species": "Hericium coralloides", "date": "2025-08-01", "location": "Custer County, US-CO, US", "elevation": 2774.0, "land_cover_label": "Tree cover", "water_mask": false, "exclude_reason": "keep", "ndvi": null, "soil_moisture": null, "solar_exposure": null, "wind_exposure": null, "water_retention": null, "slope": null, "aspect": null, "num_identification_agreements": 3, "cluster": 0, "tavg": null, "tmin": 15.0, "tmax": 31.0, "prcp_d0": 0.0, "prcp_d1": 0.0, "prcp_d2": 6.36787748336792, "prcp_d3": 0.0, "prcp_d4": 6.36787748336792, "prcp_d5": 0.0, "prcp_d6": 0.0, "tmax_d0": 22.1, "tmax_d1": 20.2, "tmax_d2": 18.1, "tmax_d3": 22.3, "tmax_d4": 25.4, "tmax_d5": 24.8, "tmax_d6": 22.9, "tmin_d0": 10.2, "tmin_d1": 8.5, "tmin_d2": 11.9, "tmin_d3": 13.9, "tmin_d4": 12.9, "tmin_d5": 13.2, "tmin_d6": 10.1, "day_of_year": 213, "uuid": "c012dca8-9f6a-4ef9-9952-02b74622e88a", "inat_id": 303003514}}, {"type": "Feature", "geometry": {"type": "Point", "coordinates": [-105.1592825936, 38.0374041796]}, "properties": {"species": "Hericium coralloides", "date": "2025-08-01", "location": "Colorado, US", "elevation": 3273.0, "land_cover_label": "Tree cover", "water_mask": false, "exclude_reason": "keep", "ndvi": null, "soil_moisture": null, "solar_exposure": null, "wind_exposure": null, "water_retention": null, "slope": null, "aspect": null, "num_identification_agreements": 1, "cluster": 0, "tavg": null, "tmin": 15.0, "tmax": 31.0, "prcp_d0": 0.0, "prcp_d1": 0.0, "prcp_d2": 5.356243133544922, "prcp_d3": 0.0, "prcp_d4": 5.356243133544922, "prcp_d5": 0.0, "prcp_d6": 0.0, "tmax_d0": 18.5, "tmax_d1": 16.7, "tmax_d2": 14.6, "tmax_d3": 18.7, "tmax_d4": 21.9, "tmax_d5": 21.2, "tmax_d6": 19.4, "tmin_d0": 6.6, "tmin_d1": 4.9, "tmin_d2": 8.3, "tmin_d3": 10.3, "tmin_d4": 9.4, "tmin_d5": 9.7, "tmin_d6": 6.6, "day_of_year": 213, "uuid": "3610e03a-2776-4a74-8f8c-d46212f77d9c", "inat_id": 304557342}}, {"type": "Feature", "geometry": {"type": "Point", "coordinates": [-105.1294919722, 39.7727659722]}, "properties": {"species": "Hericium coralloides", "date": "2025-08-08", "location": "Fruitdale, Wheat Ridge, CO 80033, USA", "elevation": 1663.0, "land_cover_label": "Tree cover", "water_mask": false, "exclude_reason": "keep", "ndvi": null, "soil_moisture": 0.133866377827703, "solar_exposure": 0.7984636425971985, "wind_exposure": 0.3286489844322204, "water_retention": 0.2375301569700241, "slope": 3.7266845703125, "aspect": 0.0, "num_identification_agreements": 1, "cluster": 0, "tavg": null, "tmin": 21.0, "tmax": 36.0, "prcp_d0": 0.0, "prcp_d1": 0.0, "prcp_d2": 0.0, "prcp_d3": 0.0, "prcp_d4": 0.0, "prcp_d5": 0.0, "prcp_d6": 6.129978179931641, "tmax_d0": 35.6, "tmax_d1": 36.4, "tmax_d2": 35.7, "tmax_d3": 35.9, "tmax_d4": 34.2, "tmax_d5": 30.0, "tmax_d6": 31.4, "tmin_d0": 19.0, "tmin_d1": 17.5, "tmin_d2": 16.7, "tmin_d3": 15.6, "tmin_d4": 12.9, "tmin_d5": 13.6, "tmin_d6": 13.7, "day_of_year": 220, "uuid": "525a5824-dae8-4407-b803-1b731460a004", "inat_id": 304857843}}, {"type": "Feature", "geometry": {"type": "Point", "coordinates": [-107.8813383333, 37.84192]}, "properties": {"species": "Hericium coralloides", "date": "2025-08-14", "location": "Ophir, CO, US", "elevation": 2890.0, "land_cover_label": "Tree cover", "water_mask": false, "exclude_reason": "keep", "ndvi": null, "soil_moisture": null, "solar_exposure": null, "wind_exposure": null, "water_retention": null, "slope": null, "aspect": null, "num_identification_agreements": 1, "cluster": 0, "tavg": null, "tmin": 14.0, "tmax": 23.0, "prcp_d0": 0.0, "prcp_d1": 0.0, "prcp_d2": 0.0, "prcp_d3": 0.0, "prcp_d4": 0.0, "prcp_d5": 0.0, "prcp_d6": 0.0, "tmax_d0": 21.4, "tmax_d1": 21.9, "tmax_d2": 20.4, "tmax_d3": 19.1, "tmax_d4": 20.0, "tmax_d5": 21.0, "tmax_d6": 21.1, "tmin_d0": 9.8, "tmin_d1": 7.9, "tmin_d2": 6.7, "tmin_d3": 6.6, "tmin_d4": 10.2, "tmin_d5": 7.7, "tmin_d6": 10.3, "day_of_year": 226, "uuid": "87b3ed3e-163e-46b5-baa8-96c5635eb029", "inat_id": 306906236}}, {"type": "Feature", "geometry": {"type": "Point", "coordinates": [-105.8222633333, 35.7964216667]}, "properties": {"species": "Hericium coralloides", "date": "2025-08-23", "location": "Santa Fe National Forest, Tererro, NM, US", "elevation": 2902.0, "land_cover_label": "Grassland", "water_mask": false, "exclude_reason": "keep", "ndvi": null, "soil_moisture": null, "solar_exposure": null, "wind_exposure": null, "water_retention": null, "slope": null, "aspect": null, "num_identification_agreements": 1, "cluster": 0, "tavg": null, "tmin": 17.2, "tmax": 28.9, "prcp_d0": 4.452316284179688, "prcp_d1": 0.0, "prcp_d2": 4.452316284179688, "prcp_d3": 0.0, "prcp_d4": 11.7296724319458, "prcp_d5": 0.0, "prcp_d6": 0.0, "tmax_d0": 22.1, "tmax_d1": 23.7, "tmax_d2": 23.7, "tmax_d3": 21.9, "tmax_d4": 21.9, "tmax_d5": 23.4, "tmax_d6": 22.6, "tmin_d0": 7.1, "tmin_d1": 8.6, "tmin_d2": 8.1, "tmin_d3": 7.6, "tmin_d4": 8.3, "tmin_d5": 10.8, "tmin_d6": 10.2, "day_of_year": 235, "uuid": "4dad4385-16a3-4c20-9b62-854badcff4a0", "inat_id": 309406341}}, {"type": "Feature", "geometry": {"type": "Point", "coordinates": [-122.1068893609, 45.4417720877]}, "properties": {"species": "Hericium coralloides", "date": "2025-10-12", "location": "Oregon, US", "elevation": 416.0, "land_cover_label": "Tree cover", "water_mask": false, "exclude_reason": "keep", "ndvi": null, "soil_moisture": null, "solar_exposure": null, "wind_exposure": null, "water_retention": null, "slope": null, "aspect": null, "num_identification_agreements": 1, "cluster": 0, "tavg": null, "tmin": 7.0, "tmax": 13.0, "prcp_d0": 11.398715019226074, "prcp_d1": 2.5993757247924805, "prcp_d2": 6.850556373596191, "prcp_d3": 14.406071662902832, "prcp_d4": 0.0, "prcp_d5": 0.0, "prcp_d6": 0.0, "tmax_d0": 9.8, "tmax_d1": 12.9, "tmax_d2": 14.0, "tmax_d3": 14.6, "tmax_d4": 22.4, "tmax_d5": 23.8, "tmax_d6": 21.7, "tmin_d0": 6.8, "tmin_d1": 7.4, "tmin_d2": 7.7, "tmin_d3": 7.2, "tmin_d4": 7.1, "tmin_d5": 11.7, "tmin_d6": 7.1, "day_of_year": 285, "uuid": "c96e9500-8e7f-41f5-a727-e73475d47eed", "inat_id": 321868059}}, {"type": "Feature", "geometry": {"type": "Point", "coordinates": [-122.2928543091, 45.4930763245]}, "properties": {"species": "Hericium coralloides", "date": "2025-11-27", "location": "Multnomah County, US-OR, US", "elevation": 51.0, "land_cover_label": "Tree cover", "water_mask": false, "exclude_reason": "keep", "ndvi": null, "soil_moisture": null, "solar_exposure": null, "wind_exposure": null, "water_retention": null, "slope": null, "aspect": null, "num_identification_agreements": 1, "cluster": 0, "tavg": null, "tmin": 7.0, "tmax": 14.0, "prcp_d0": 2.371560573577881, "prcp_d1": 10.87122917175293, "prcp_d2": 6.249253749847412, "prcp_d3": 8.61280632019043, "prcp_d4": 4.426751136779785, "prcp_d5": 0.0, "prcp_d6": 0.0095261987298727, "tmax_d0": 11.6, "tmax_d1": 10.0, "tmax_d2": 9.2, "tmax_d3": 10.1, "tmax_d4": 8.3, "tmax_d5": 9.3, "tmax_d6": 10.8, "tmin_d0": 7.0, "tmin_d1": 6.6, "tmin_d2": 3.3, "tmin_d3": 4.3, "tmin_d4": 4.4, "tmin_d5": 2.2, "tmin_d6": 2.3, "day_of_year": 331, "uuid": "6602855e-0408-43a3-ad33-7dac0db5e86e", "inat_id": 328666500}}, {"type": "Feature", "geometry": {"type": "Point", "coordinates": [-107.088926072, 39.3381033095]}, "properties": {"species": "Hericium coralloides", "date": "2026-07-15", "location": "Colorado, US", "elevation": 2237.0, "land_cover_label": "Tree cover", "water_mask": false, "exclude_reason": "keep", "ndvi": null, "soil_moisture": null, "solar_exposure": null, "wind_exposure": null, "water_retention": null, "slope": null, "aspect": null, "num_identification_agreements": 1, "cluster": 0, "tavg": null, "tmin": 12.8, "tmax": 30.6, "prcp_d0": 0.0, "prcp_d1": 0.0, "prcp_d2": 0.0, "prcp_d3": 0.0, "prcp_d4": 0.0, "prcp_d5": 0.0, "prcp_d6": 0.0, "tmax_d0": 32.4, "tmax_d1": 32.6, "tmax_d2": 31.8, "tmax_d3": 32.4, "tmax_d4": 31.4, "tmax_d5": 28.4, "tmax_d6": 28.5, "tmin_d0": 13.1, "tmin_d1": 13.5, "tmin_d2": 12.7, "tmin_d3": 10.4, "tmin_d4": 8.7, "tmin_d5": 9.3, "tmin_d6": 11.5, "day_of_year": 196, "uuid": "8e89012a-f9cc-445b-9396-58a564bd4110", "inat_id": 383747598}}]}