{"type": "FeatureCollection", "features": [{"type": "Feature", "geometry": {"type": "Point", "coordinates": [-105.2920133333, 39.9972216667]}, "properties": {"species": "Hohenbuehelia mastrucata", "date": "2018-03-13", "location": "Boulder Mountain Park, Boulder, CO, US", "elevation": 1814.0, "land_cover_label": "Tree cover", "water_mask": false, "exclude_reason": "keep", "ndvi": null, "soil_moisture": 0.3213743676030788, "solar_exposure": 0.6955422163009644, "wind_exposure": 0.2444516122341156, "water_retention": 0.4439592957496643, "slope": 11.714468955993652, "aspect": 5.886160373687744, "num_identification_agreements": 1, "cluster": 2, "tavg": null, "tmin": -1.0, "tmax": 13.0, "prcp_d0": 0.0, "prcp_d1": 0.0, "prcp_d2": 0.0, "prcp_d3": 0.0, "prcp_d4": 0.0, "prcp_d5": 1.891857385635376, "prcp_d6": 0.0, "tmax_d0": null, "tmax_d1": null, "tmax_d2": null, "tmax_d3": null, "tmax_d4": null, "tmax_d5": null, "tmax_d6": null, "tmin_d0": null, "tmin_d1": null, "tmin_d2": null, "tmin_d3": null, "tmin_d4": null, "tmin_d5": null, "tmin_d6": null, "day_of_year": 72, "uuid": "f3ff5942-40a3-407c-99a6-51db1b1f2e10", "inat_id": 10240890}}, {"type": "Feature", "geometry": {"type": "Point", "coordinates": [-105.2990111317, 39.4923067812]}, "properties": {"species": "Hohenbuehelia mastrucata", "date": "2019-07-26", "location": "Colorado, US", "elevation": 2608.0, "land_cover_label": "Tree cover", "water_mask": false, "exclude_reason": "keep", "ndvi": null, "soil_moisture": 0.2952458353023187, "solar_exposure": 0.7448475956916809, "wind_exposure": 0.3163524270057678, "water_retention": 0.2068476229906082, "slope": 11.603708267211914, "aspect": 52.55630493164063, "num_identification_agreements": 2, "cluster": 0, "tavg": null, "tmin": 18.3, "tmax": 32.2, "prcp_d0": 0.0, "prcp_d1": 12.904720306396484, "prcp_d2": 0.0, "prcp_d3": 0.0, "prcp_d4": 0.0, "prcp_d5": 12.904720306396484, "prcp_d6": 7.31825065612793, "tmax_d0": null, "tmax_d1": null, "tmax_d2": null, "tmax_d3": null, "tmax_d4": null, "tmax_d5": null, "tmax_d6": null, "tmin_d0": null, "tmin_d1": null, "tmin_d2": null, "tmin_d3": null, "tmin_d4": null, "tmin_d5": null, "tmin_d6": null, "day_of_year": 207, "uuid": "63acac53-9acf-4cac-b548-31c2f99792e7", "inat_id": 32447823}}, {"type": "Feature", "geometry": {"type": "Point", "coordinates": [-105.422731272, 41.2526770281]}, "properties": {"species": "Hohenbuehelia mastrucata", "date": "2020-07-31", "location": "Albany County, WY, USA", "elevation": 2561.0, "land_cover_label": "Tree cover", "water_mask": false, "exclude_reason": "keep", "ndvi": null, "soil_moisture": 0.1194078191695773, "solar_exposure": 0.6573317050933838, "wind_exposure": 0.3538675606250763, "water_retention": 0.1452432572841644, "slope": 14.35912036895752, "aspect": 355.23516845703125, "num_identification_agreements": 1, "cluster": 1, "tavg": null, "tmin": null, "tmax": null, "prcp_d0": 0.0, "prcp_d1": 0.0, "prcp_d2": 0.0, "prcp_d3": 0.0, "prcp_d4": 0.0, "prcp_d5": 0.0, "prcp_d6": 0.0, "tmax_d0": null, "tmax_d1": null, "tmax_d2": null, "tmax_d3": null, "tmax_d4": null, "tmax_d5": null, "tmax_d6": null, "tmin_d0": null, "tmin_d1": null, "tmin_d2": null, "tmin_d3": null, "tmin_d4": null, "tmin_d5": null, "tmin_d6": null, "day_of_year": 213, "uuid": "a7aa7e03-5170-4455-ba70-6fe70c71264e", "inat_id": 55029622}}, {"type": "Feature", "geometry": {"type": "Point", "coordinates": [-107.7524033333, 38.15435]}, "properties": {"species": "Hohenbuehelia mastrucata", "date": "2024-08-13", "location": "US-550, Ridgway, CO, US", "elevation": 2129.0, "land_cover_label": "Grassland", "water_mask": false, "exclude_reason": "keep", "ndvi": null, "soil_moisture": null, "solar_exposure": null, "wind_exposure": null, "water_retention": null, "slope": null, "aspect": null, "num_identification_agreements": 3, "cluster": 3, "tavg": null, "tmin": 10.0, "tmax": 18.0, "prcp_d0": 0.0, "prcp_d1": 33.506141662597656, "prcp_d2": 0.0, "prcp_d3": 0.0, "prcp_d4": 0.0, "prcp_d5": 0.0, "prcp_d6": 0.0, "tmax_d0": null, "tmax_d1": null, "tmax_d2": null, "tmax_d3": null, "tmax_d4": null, "tmax_d5": null, "tmax_d6": null, "tmin_d0": null, "tmin_d1": null, "tmin_d2": null, "tmin_d3": null, "tmin_d4": null, "tmin_d5": null, "tmin_d6": null, "day_of_year": 226, "uuid": "ace6a660-1662-4bec-b8f9-78c3acd7368a", "inat_id": 235639331}}, {"type": "Feature", "geometry": {"type": "Point", "coordinates": [-105.1285933303, 39.7747962829]}, "properties": {"species": "Hohenbuehelia mastrucata", "date": "2026-03-14", "location": "Prospect Park Trail, Wheat Ridge, CO, US", "elevation": 1656.0, "land_cover_label": "Bare / sparse vegetation", "water_mask": false, "exclude_reason": "keep", "ndvi": null, "soil_moisture": 0.2887122197069768, "solar_exposure": 0.8292720317840576, "wind_exposure": 0.3115702867507934, "water_retention": 0.2616600394248962, "slope": 2.607444524765014, "aspect": 69.04898834228516, "num_identification_agreements": 1, "cluster": 2, "tavg": null, "tmin": 11.0, "tmax": 23.0, "prcp_d0": 3.6878316402435294, "prcp_d1": 7.375663280487059, "prcp_d2": 1.8439158201217647, "prcp_d3": 0.0, "prcp_d4": 4.606205463409424, "prcp_d5": 2.303102731704712, "prcp_d6": 0.0, "tmax_d0": null, "tmax_d1": null, "tmax_d2": null, "tmax_d3": null, "tmax_d4": null, "tmax_d5": null, "tmax_d6": null, "tmin_d0": null, "tmin_d1": null, "tmin_d2": null, "tmin_d3": null, "tmin_d4": null, "tmin_d5": null, "tmin_d6": null, "day_of_year": 73, "uuid": "7f0c056d-f23c-4d8b-b682-e78319c23913", "inat_id": 350344769}}]}