{"type": "FeatureCollection", "features": [{"type": "Feature", "geometry": {"type": "Point", "coordinates": [-104.7740283608, 38.8864429261]}, "properties": {"species": "Hortiboletus campestris", "date": "2023-08-12", "location": "Colorado Springs, CO 80907, USA", "elevation": 1957.0, "land_cover_label": "Grassland", "water_mask": false, "exclude_reason": "keep", "ndvi": null, "soil_moisture": null, "solar_exposure": null, "wind_exposure": null, "water_retention": null, "slope": null, "aspect": null, "num_identification_agreements": 4, "cluster": 0, "tavg": null, "tmin": 15.0, "tmax": 26.7, "prcp_d0": 0.0, "prcp_d1": 0.0, "prcp_d2": 0.0, "prcp_d3": 0.0, "prcp_d4": 0.0, "prcp_d5": 0.0, "prcp_d6": 0.0, "tmax_d0": 26.2, "tmax_d1": 28.9, "tmax_d2": 28.9, "tmax_d3": 26.7, "tmax_d4": 27.9, "tmax_d5": 24.1, "tmax_d6": 23.2, "tmin_d0": 14.6, "tmin_d1": 11.7, "tmin_d2": 14.0, "tmin_d3": 11.2, "tmin_d4": 11.6, "tmin_d5": 12.3, "tmin_d6": 12.4, "day_of_year": 224, "uuid": "8cb19f38-e388-4963-b393-185bf0d1c962", "inat_id": 178768421}}]}