{"type": "FeatureCollection", "features": [{"type": "Feature", "geometry": {"type": "Point", "coordinates": [-105.7951333333, 39.9052166667]}, "properties": {"species": "Hydnellum aurantiacum", "date": "2021-08-14", "location": "Arapaho & Roosevelt National Forests Pawnee National Grassland, Winter Park, CO, US", "elevation": 2766.0, "land_cover_label": "Tree cover", "water_mask": false, "exclude_reason": "keep", "ndvi": null, "soil_moisture": 0.3062616936830717, "solar_exposure": 0.8014716506004333, "wind_exposure": 0.298814058303833, "water_retention": 0.5736369490623474, "slope": 6.104280471801758, "aspect": 300.5002746582031, "num_identification_agreements": 2, "cluster": 2, "tavg": null, "tmin": 6.0, "tmax": 28.3, "prcp_d0": 0.0, "prcp_d1": 6.066195011138916, "prcp_d2": 0.0, "prcp_d3": 0.0, "prcp_d4": 0.0, "prcp_d5": 0.0, "prcp_d6": 0.0, "tmax_d0": 24.0, "tmax_d1": 21.5, "tmax_d2": 22.9, "tmax_d3": 23.1, "tmax_d4": 21.9, "tmax_d5": 22.1, "tmax_d6": 22.3, "tmin_d0": 7.0, "tmin_d1": 6.3, "tmin_d2": 9.0, "tmin_d3": 7.7, "tmin_d4": 8.7, "tmin_d5": 8.4, "tmin_d6": 5.3, "day_of_year": 226, "uuid": "638fdabf-0c7d-4e8b-bee3-8163293a8853", "inat_id": 91250033}}, {"type": "Feature", "geometry": {"type": "Point", "coordinates": [-105.7952033333, 39.9061366667]}, "properties": {"species": "Hydnellum aurantiacum", "date": "2021-08-14", "location": "Arapaho & Roosevelt National Forests Pawnee National Grassland, Winter Park, CO, US", "elevation": 2766.0, "land_cover_label": "Tree cover", "water_mask": false, "exclude_reason": "keep", "ndvi": null, "soil_moisture": 0.3056009262096869, "solar_exposure": 0.833186686038971, "wind_exposure": 0.2698071599006653, "water_retention": 0.2889991402626037, "slope": 1.73896324634552, "aspect": 69.04898834228516, "num_identification_agreements": 1, "cluster": 2, "tavg": null, "tmin": 6.0, "tmax": 28.3, "prcp_d0": 0.0, "prcp_d1": 6.066195011138916, "prcp_d2": 0.0, "prcp_d3": 0.0, "prcp_d4": 0.0, "prcp_d5": 0.0, "prcp_d6": 0.0, "tmax_d0": 24.0, "tmax_d1": 21.5, "tmax_d2": 23.0, "tmax_d3": 23.2, "tmax_d4": 21.9, "tmax_d5": 22.2, "tmax_d6": 22.3, "tmin_d0": 7.1, "tmin_d1": 6.4, "tmin_d2": 9.1, "tmin_d3": 7.7, "tmin_d4": 8.7, "tmin_d5": 8.4, "tmin_d6": 5.3, "day_of_year": 226, "uuid": "94607aa2-910f-4e5e-b964-f94b8067648a", "inat_id": 91188925}}, {"type": "Feature", "geometry": {"type": "Point", "coordinates": [-105.735895, 40.0997278333]}, "properties": {"species": "Hydnellum aurantiacum", "date": "2022-07-25", "location": "Arapaho & Roosevelt National Forests Pawnee National Grassland, Granby, CO, US", "elevation": 2616.0, "land_cover_label": "Tree cover", "water_mask": false, "exclude_reason": "keep", "ndvi": null, "soil_moisture": 0.3895017667805033, "solar_exposure": 0.6584919095039368, "wind_exposure": 0.2190770208835601, "water_retention": 0.2511407732963562, "slope": 14.903468132019045, "aspect": 20.256742477416992, "num_identification_agreements": 1, "cluster": 3, "tavg": null, "tmin": 11.5, "tmax": 25.5, "prcp_d0": 0.0, "prcp_d1": 21.710433959960938, "prcp_d2": 0.0, "prcp_d3": 0.0, "prcp_d4": 0.0, "prcp_d5": 0.0, "prcp_d6": 13.789521217346191, "tmax_d0": null, "tmax_d1": null, "tmax_d2": null, "tmax_d3": null, "tmax_d4": null, "tmax_d5": null, "tmax_d6": null, "tmin_d0": null, "tmin_d1": null, "tmin_d2": null, "tmin_d3": null, "tmin_d4": null, "tmin_d5": null, "tmin_d6": null, "day_of_year": 206, "uuid": "ab9cb175-c983-4b5f-8295-cbd27ede5fc0", "inat_id": 128070939}}, {"type": "Feature", "geometry": {"type": "Point", "coordinates": [-105.3782583333, 39.1742383333]}, "properties": {"species": "Hydnellum aurantiacum", "date": "2022-08-07", "location": "Pike and San Isabel National Forests, Sedalia, CO, US", "elevation": 2477.0, "land_cover_label": "Tree cover", "water_mask": false, "exclude_reason": "keep", "ndvi": null, "soil_moisture": 0.2466597547981759, "solar_exposure": 0.7995294332504272, "wind_exposure": 0.2543823719024658, "water_retention": 0.3449568748474121, "slope": 5.294915199279785, "aspect": 310.10888671875, "num_identification_agreements": 1, "cluster": 2, "tavg": null, "tmin": 7.7, "tmax": 20.4, "prcp_d0": 5.866520881652832, "prcp_d1": 5.866520881652832, "prcp_d2": 0.0, "prcp_d3": 0.0, "prcp_d4": 0.0, "prcp_d5": 12.5331392288208, "prcp_d6": 0.0, "tmax_d0": null, "tmax_d1": null, "tmax_d2": null, "tmax_d3": null, "tmax_d4": null, "tmax_d5": null, "tmax_d6": null, "tmin_d0": null, "tmin_d1": null, "tmin_d2": null, "tmin_d3": null, "tmin_d4": null, "tmin_d5": null, "tmin_d6": null, "day_of_year": 219, "uuid": "7c8c0080-4896-41c5-8d39-4e0131fc5c22", "inat_id": 129908570}}, {"type": "Feature", "geometry": {"type": "Point", "coordinates": [-105.490476, 39.9352166]}, "properties": {"species": "Hydnellum aurantiacum", "date": "2022-08-12", "location": "Colorado, US", "elevation": 2591.0, "land_cover_label": "Tree cover", "water_mask": false, "exclude_reason": "keep", "ndvi": null, "soil_moisture": 0.2909441332507713, "solar_exposure": 0.7849421501159668, "wind_exposure": 0.3072735667228699, "water_retention": 0.2775412201881408, "slope": 6.1612229347229, "aspect": 41.04240798950195, "num_identification_agreements": 2, "cluster": 0, "tavg": null, "tmin": 20.0, "tmax": 33.0, "prcp_d0": 0.0, "prcp_d1": 0.0, "prcp_d2": 0.0, "prcp_d3": 0.0, "prcp_d4": 0.0, "prcp_d5": 13.643023490905762, "prcp_d6": 0.0, "tmax_d0": null, "tmax_d1": null, "tmax_d2": null, "tmax_d3": null, "tmax_d4": null, "tmax_d5": null, "tmax_d6": null, "tmin_d0": null, "tmin_d1": null, "tmin_d2": null, "tmin_d3": null, "tmin_d4": null, "tmin_d5": null, "tmin_d6": null, "day_of_year": 224, "uuid": "ce84d68b-2ff5-4a43-bd09-dd96cc6a910b", "inat_id": 130648653}}, {"type": "Feature", "geometry": {"type": "Point", "coordinates": [-107.3949965575, 40.8203877062]}, "properties": {"species": "Hydnellum aurantiacum", "date": "2022-08-28", "location": "Moffat County, CO, USA", "elevation": 2938.0, "land_cover_label": "Tree cover", "water_mask": false, "exclude_reason": "keep", "ndvi": null, "soil_moisture": null, "solar_exposure": null, "wind_exposure": null, "water_retention": null, "slope": null, "aspect": null, "num_identification_agreements": 1, "cluster": 2, "tavg": null, "tmin": -18.0, "tmax": 27.1, "prcp_d0": 0.0, "prcp_d1": 0.0, "prcp_d2": 0.0, "prcp_d3": 0.0, "prcp_d4": 0.0, "prcp_d5": 0.0, "prcp_d6": 0.0, "tmax_d0": null, "tmax_d1": null, "tmax_d2": null, "tmax_d3": null, "tmax_d4": null, "tmax_d5": null, "tmax_d6": null, "tmin_d0": null, "tmin_d1": null, "tmin_d2": null, "tmin_d3": null, "tmin_d4": null, "tmin_d5": null, "tmin_d6": null, "day_of_year": 240, "uuid": "e4672a11-7df5-4471-820d-3dcde89cabdf", "inat_id": 132964170}}, {"type": "Feature", "geometry": {"type": "Point", "coordinates": [-105.4465992058, 39.7706863431]}, "properties": {"species": "Hydnellum aurantiacum", "date": "2022-09-04", "location": "Colorado, US", "elevation": 2349.0, "land_cover_label": "Tree cover", "water_mask": false, "exclude_reason": "keep", "ndvi": null, "soil_moisture": 0.2594033714669861, "solar_exposure": 0.963601529598236, "wind_exposure": 0.3741800189018249, "water_retention": 0.1376340687274933, "slope": 15.99117660522461, "aspect": 189.97024536132807, "num_identification_agreements": 1, "cluster": 2, "tavg": null, "tmin": 1.8, "tmax": 16.3, "prcp_d0": 0.0, "prcp_d1": 7.07322359085083, "prcp_d2": 0.0, "prcp_d3": 0.0, "prcp_d4": 0.0, "prcp_d5": 0.0, "prcp_d6": 0.0, "tmax_d0": null, "tmax_d1": null, "tmax_d2": null, "tmax_d3": null, "tmax_d4": null, "tmax_d5": null, "tmax_d6": null, "tmin_d0": null, "tmin_d1": null, "tmin_d2": null, "tmin_d3": null, "tmin_d4": null, "tmin_d5": null, "tmin_d6": null, "day_of_year": 247, "uuid": "9eb52b6a-6b20-4264-a832-16efc01d8691", "inat_id": 134376951}}, {"type": "Feature", "geometry": {"type": "Point", "coordinates": [-105.5926435954, 39.9500501856]}, "properties": {"species": "Hydnellum aurantiacum", "date": "2022-09-08", "location": "Hessie Rd, Nederland, CO, US", "elevation": 2755.0, "land_cover_label": "Tree cover", "water_mask": false, "exclude_reason": "keep", "ndvi": null, "soil_moisture": 0.2727908601842618, "solar_exposure": 0.8563632369041443, "wind_exposure": 0.1461302042007446, "water_retention": 0.4853690862655639, "slope": 1.6067173480987549, "aspect": 165.36268615722656, "num_identification_agreements": 1, "cluster": 2, "tavg": null, "tmin": 3.6, "tmax": 16.6, "prcp_d0": 0.0, "prcp_d1": 0.0, "prcp_d2": 0.0, "prcp_d3": 0.0, "prcp_d4": 0.0, "prcp_d5": 0.0, "prcp_d6": 0.0, "tmax_d0": null, "tmax_d1": null, "tmax_d2": null, "tmax_d3": null, "tmax_d4": null, "tmax_d5": null, "tmax_d6": null, "tmin_d0": null, "tmin_d1": null, "tmin_d2": null, "tmin_d3": null, "tmin_d4": null, "tmin_d5": null, "tmin_d6": null, "day_of_year": 251, "uuid": "14f4a2dd-6e18-4f69-b5bf-3776c056d04e", "inat_id": 134247425}}, {"type": "Feature", "geometry": {"type": "Point", "coordinates": [-105.6767229981, 39.6638577031]}, "properties": {"species": "Hydnellum aurantiacum", "date": "2023-08-29", "location": "Colorado, US", "elevation": 3278.0, "land_cover_label": "Tree cover", "water_mask": false, "exclude_reason": "keep", "ndvi": null, "soil_moisture": 0.3877195395401275, "solar_exposure": 0.7516886591911316, "wind_exposure": 0.3106705248355865, "water_retention": 0.1917652934789657, "slope": 21.06755256652832, "aspect": 83.52764129638672, "num_identification_agreements": 1, "cluster": 1, "tavg": null, "tmin": 0.8, "tmax": 13.6, "prcp_d0": 0.0, "prcp_d1": 0.0, "prcp_d2": 0.0, "prcp_d3": 0.0, "prcp_d4": 22.801570892333984, "prcp_d5": 0.0, "prcp_d6": 0.0, "tmax_d0": null, "tmax_d1": null, "tmax_d2": null, "tmax_d3": null, "tmax_d4": null, "tmax_d5": null, "tmax_d6": null, "tmin_d0": null, "tmin_d1": null, "tmin_d2": null, "tmin_d3": null, "tmin_d4": null, "tmin_d5": null, "tmin_d6": null, "day_of_year": 241, "uuid": "bd3dcf0a-0b9f-4002-a81a-03a073edc624", "inat_id": 181855397}}, {"type": "Feature", "geometry": {"type": "Point", "coordinates": [-105.8685530484, 39.6531052011]}, "properties": {"species": "Hydnellum aurantiacum", "date": "2023-09-03", "location": "Colorado, US", "elevation": 3494.0, "land_cover_label": "Tree cover", "water_mask": false, "exclude_reason": "keep", "ndvi": null, "soil_moisture": 0.3623567406059784, "solar_exposure": 0.8702095746994019, "wind_exposure": 0.3528594374656677, "water_retention": 0.3488544821739197, "slope": 24.2209701538086, "aspect": 241.9289093017578, "num_identification_agreements": 2, "cluster": 2, "tavg": null, "tmin": 2.0, "tmax": 14.7, "prcp_d0": 0.0, "prcp_d1": 0.0, "prcp_d2": 0.0, "prcp_d3": 0.0, "prcp_d4": 0.0, "prcp_d5": 0.0, "prcp_d6": 0.0, "tmax_d0": null, "tmax_d1": null, "tmax_d2": null, "tmax_d3": null, "tmax_d4": null, "tmax_d5": null, "tmax_d6": null, "tmin_d0": null, "tmin_d1": null, "tmin_d2": null, "tmin_d3": null, "tmin_d4": null, "tmin_d5": null, "tmin_d6": null, "day_of_year": 246, "uuid": "adf606e9-3f18-41bd-ab46-1b9b8ee21e43", "inat_id": 181853781}}, {"type": "Feature", "geometry": {"type": "Point", "coordinates": [-105.79335, 35.7965861111]}, "properties": {"species": "Hydnellum aurantiacum", "date": "2024-08-07", "location": "Santa Fe County, NM, USA", "elevation": 3419.0, "land_cover_label": "Tree cover", "water_mask": false, "exclude_reason": "keep", "ndvi": null, "soil_moisture": null, "solar_exposure": null, "wind_exposure": null, "water_retention": null, "slope": null, "aspect": null, "num_identification_agreements": 1, "cluster": 0, "tavg": null, "tmin": 17.2, "tmax": 34.4, "prcp_d0": 0.0, "prcp_d1": 7.033227443695068, "prcp_d2": 5.258572101593018, "prcp_d3": 0.0, "prcp_d4": 0.0, "prcp_d5": 10.517144203186035, "prcp_d6": 5.258572101593018, "tmax_d0": null, "tmax_d1": null, "tmax_d2": null, "tmax_d3": null, "tmax_d4": null, "tmax_d5": null, "tmax_d6": null, "tmin_d0": null, "tmin_d1": null, "tmin_d2": null, "tmin_d3": null, "tmin_d4": null, "tmin_d5": null, "tmin_d6": null, "day_of_year": 220, "uuid": "18fbe8f6-e0b7-4909-9595-8ea29d3cfd2a", "inat_id": 235964164}}, {"type": "Feature", "geometry": {"type": "Point", "coordinates": [-107.8243128118, 37.8550121917]}, "properties": {"species": "Hydnellum aurantiacum", "date": "2024-08-18", "location": "San Miguel County, US-CO, US", "elevation": 2983.0, "land_cover_label": "Tree cover", "water_mask": false, "exclude_reason": "keep", "ndvi": null, "soil_moisture": null, "solar_exposure": null, "wind_exposure": null, "water_retention": null, "slope": null, "aspect": null, "num_identification_agreements": 2, "cluster": 0, "tavg": null, "tmin": 11.0, "tmax": 20.0, "prcp_d0": 0.0, "prcp_d1": 12.986563682556152, "prcp_d2": 0.0, "prcp_d3": 0.0, "prcp_d4": 0.0, "prcp_d5": 43.08270263671875, "prcp_d6": 0.0, "tmax_d0": null, "tmax_d1": null, "tmax_d2": null, "tmax_d3": null, "tmax_d4": null, "tmax_d5": null, "tmax_d6": null, "tmin_d0": null, "tmin_d1": null, "tmin_d2": null, "tmin_d3": null, "tmin_d4": null, "tmin_d5": null, "tmin_d6": null, "day_of_year": 231, "uuid": "ca7a6fb2-0b58-4957-a6e5-f4fef3aaed4e", "inat_id": 236621564}}, {"type": "Feature", "geometry": {"type": "Point", "coordinates": [-106.70147, 39.1182971667]}, "properties": {"species": "Hydnellum aurantiacum", "date": "2024-08-23", "location": "White River National Forest, Aspen, CO, US", "elevation": 2911.0, "land_cover_label": "Tree cover", "water_mask": false, "exclude_reason": "keep", "ndvi": null, "soil_moisture": null, "solar_exposure": null, "wind_exposure": null, "water_retention": null, "slope": null, "aspect": null, "num_identification_agreements": 1, "cluster": 3, "tavg": null, "tmin": 10.6, "tmax": 21.1, "prcp_d0": 1.867099404335022, "prcp_d1": 10.572236061096191, "prcp_d2": 9.068431854248049, "prcp_d3": 0.0, "prcp_d4": 0.0, "prcp_d5": 0.0, "prcp_d6": 0.0, "tmax_d0": null, "tmax_d1": null, "tmax_d2": null, "tmax_d3": null, "tmax_d4": null, "tmax_d5": null, "tmax_d6": null, "tmin_d0": null, "tmin_d1": null, "tmin_d2": null, "tmin_d3": null, "tmin_d4": null, "tmin_d5": null, "tmin_d6": null, "day_of_year": 236, "uuid": "4b411519-b48c-46f4-a0c0-ef5873820d28", "inat_id": 237541416}}, {"type": "Feature", "geometry": {"type": "Point", "coordinates": [-105.1123337936, 39.1573998181]}, "properties": {"species": "Hydnellum aurantiacum", "date": "2025-08-08", "location": "Pike and San Isabel National Forests, Sedalia, CO, US", "elevation": 2323.0, "land_cover_label": "Tree cover", "water_mask": false, "exclude_reason": "keep", "ndvi": null, "soil_moisture": 0.1040680323218845, "solar_exposure": 0.9234369397163392, "wind_exposure": 0.3328894376754761, "water_retention": 0.416758120059967, "slope": 10.34737491607666, "aspect": 202.8433532714844, "num_identification_agreements": 1, "cluster": 2, "tavg": null, "tmin": 14.1, "tmax": 35.1, "prcp_d0": 0.0, "prcp_d1": 0.0, "prcp_d2": 0.0, "prcp_d3": 0.0, "prcp_d4": 0.0, "prcp_d5": 0.0, "prcp_d6": 0.0, "tmax_d0": null, "tmax_d1": null, "tmax_d2": null, "tmax_d3": null, "tmax_d4": null, "tmax_d5": null, "tmax_d6": null, "tmin_d0": null, "tmin_d1": null, "tmin_d2": null, "tmin_d3": null, "tmin_d4": null, "tmin_d5": null, "tmin_d6": null, "day_of_year": 220, "uuid": "f62f4d9c-c11b-46f7-8c0e-9d8a03701ce7", "inat_id": 304844022}}, {"type": "Feature", "geometry": {"type": "Point", "coordinates": [-106.8304133333, 39.6433533333]}, "properties": {"species": "Hydnellum aurantiacum", "date": "2025-08-09", "location": "Capitol St, Eagle, CO, US", "elevation": 2012.0, "land_cover_label": "Grassland", "water_mask": false, "exclude_reason": "keep", "ndvi": null, "soil_moisture": null, "solar_exposure": null, "wind_exposure": null, "water_retention": null, "slope": null, "aspect": null, "num_identification_agreements": 2, "cluster": 2, "tavg": null, "tmin": 12.2, "tmax": 29.4, "prcp_d0": 0.0, "prcp_d1": 3.5581276416778564, "prcp_d2": 0.0, "prcp_d3": 0.0, "prcp_d4": 0.0, "prcp_d5": 0.0, "prcp_d6": 0.0, "tmax_d0": null, "tmax_d1": null, "tmax_d2": null, "tmax_d3": null, "tmax_d4": null, "tmax_d5": null, "tmax_d6": null, "tmin_d0": null, "tmin_d1": null, "tmin_d2": null, "tmin_d3": null, "tmin_d4": null, "tmin_d5": null, "tmin_d6": null, "day_of_year": 221, "uuid": "1724b17a-faab-403d-bcf5-5d38604a04fe", "inat_id": 305065297}}, {"type": "Feature", "geometry": {"type": "Point", "coordinates": [-105.3368533333, 39.342575]}, "properties": {"species": "Hydnellum aurantiacum", "date": "2025-08-17", "location": "Pike and San Isabel National Forests, Bailey, CO, US", "elevation": 2242.0, "land_cover_label": "Tree cover", "water_mask": false, "exclude_reason": "keep", "ndvi": null, "soil_moisture": 0.2085926599666268, "solar_exposure": 0.8289243578910828, "wind_exposure": 0.2569920420646667, "water_retention": 0.6470233201980591, "slope": 2.9893298149108887, "aspect": 71.83090209960938, "num_identification_agreements": 1, "cluster": 2, "tavg": null, "tmin": 5.1, "tmax": 21.0, "prcp_d0": 0.0, "prcp_d1": 0.0, "prcp_d2": 0.0, "prcp_d3": 0.0, "prcp_d4": 0.0, "prcp_d5": 0.0, "prcp_d6": 0.0, "tmax_d0": null, "tmax_d1": null, "tmax_d2": null, "tmax_d3": null, "tmax_d4": null, "tmax_d5": null, "tmax_d6": null, "tmin_d0": null, "tmin_d1": null, "tmin_d2": null, "tmin_d3": null, "tmin_d4": null, "tmin_d5": null, "tmin_d6": null, "day_of_year": 229, "uuid": "72dad5c5-ffe2-415b-aa1d-b7524b2e9468", "inat_id": 307276952}}, {"type": "Feature", "geometry": {"type": "Point", "coordinates": [-105.596105, 39.9512616667]}, "properties": {"species": "Hydnellum aurantiacum", "date": "2025-09-07", "location": "Hessie Rd, Nederland, CO, US", "elevation": 2751.0, "land_cover_label": "Tree cover", "water_mask": false, "exclude_reason": "keep", "ndvi": null, "soil_moisture": 0.3474925243503641, "solar_exposure": 0.8623546361923218, "wind_exposure": 0.1546741873025894, "water_retention": 0.6073079705238342, "slope": 2.4931445121765137, "aspect": 209.234130859375, "num_identification_agreements": 1, "cluster": 2, "tavg": null, "tmin": -0.6, "tmax": 10.2, "prcp_d0": 0.0, "prcp_d1": 0.0, "prcp_d2": 0.0, "prcp_d3": 0.0, "prcp_d4": 0.0, "prcp_d5": 0.0, "prcp_d6": 0.0, "tmax_d0": null, "tmax_d1": null, "tmax_d2": null, "tmax_d3": null, "tmax_d4": null, "tmax_d5": null, "tmax_d6": null, "tmin_d0": null, "tmin_d1": null, "tmin_d2": null, "tmin_d3": null, "tmin_d4": null, "tmin_d5": null, "tmin_d6": null, "day_of_year": 250, "uuid": "713f36f2-ea12-41b7-bee2-bdc3b2924285", "inat_id": 312383648}}, {"type": "Feature", "geometry": {"type": "Point", "coordinates": [-105.5251166667, 36.1341555556]}, "properties": {"species": "Hydnellum aurantiacum", "date": "2026-07-31", "location": "Taos County, NM, USA", "elevation": 2571.0, "land_cover_label": "Tree cover", "water_mask": false, "exclude_reason": "keep", "ndvi": null, "soil_moisture": null, "solar_exposure": null, "wind_exposure": null, "water_retention": null, "slope": null, "aspect": null, "num_identification_agreements": 1, "cluster": 0, "tavg": null, "tmin": 6.7, "tmax": 27.5, "prcp_d0": 0.0, "prcp_d1": 0.0, "prcp_d2": 8.403246879577637, "prcp_d3": 8.403246879577637, "prcp_d4": 4.201623439788818, "prcp_d5": 0.0, "prcp_d6": 18.635093688964844, "tmax_d0": null, "tmax_d1": null, "tmax_d2": null, "tmax_d3": null, "tmax_d4": null, "tmax_d5": null, "tmax_d6": null, "tmin_d0": null, "tmin_d1": null, "tmin_d2": null, "tmin_d3": null, "tmin_d4": null, "tmin_d5": null, "tmin_d6": null, "day_of_year": 212, "uuid": "f4d106fa-32a2-4a98-813d-fb2f0875ab7f", "inat_id": 386984592}}, {"type": "Feature", "geometry": {"type": "Point", "coordinates": [-105.5945873319, 36.0070604936]}, "properties": {"species": "Hydnellum aurantiacum", "date": "2026-08-01", "location": "New Mexico, US", "elevation": 3452.0, "land_cover_label": "Tree cover", "water_mask": false, "exclude_reason": "keep", "ndvi": null, "soil_moisture": null, "solar_exposure": null, "wind_exposure": null, "water_retention": null, "slope": null, "aspect": null, "num_identification_agreements": 1, "cluster": 2, "tavg": null, "tmin": null, "tmax": null, "prcp_d0": null, "prcp_d1": 0.0, "prcp_d2": 0.0, "prcp_d3": 8.490347862243652, "prcp_d4": 16.980695724487305, "prcp_d5": 0.0, "prcp_d6": 0.0, "tmax_d0": null, "tmax_d1": null, "tmax_d2": null, "tmax_d3": null, "tmax_d4": null, "tmax_d5": null, "tmax_d6": null, "tmin_d0": null, "tmin_d1": null, "tmin_d2": null, "tmin_d3": null, "tmin_d4": null, "tmin_d5": null, "tmin_d6": null, "day_of_year": 213, "uuid": "6736fc83-7b43-4d19-bff2-17be40d63ce3", "inat_id": 388295064}}]}