{"type": "FeatureCollection", "features": [{"type": "Feature", "geometry": {"type": "Point", "coordinates": [-105.832825586, 40.2668279858]}, "properties": {"species": "Hydnellum caeruleum", "date": "2017-07-29", "location": "Grand County, CO, USA", "elevation": 2678.0, "land_cover_label": "Bare / sparse vegetation", "water_mask": false, "exclude_reason": "keep", "ndvi": null, "soil_moisture": 0.3182326718688582, "solar_exposure": 0.8634232878684998, "wind_exposure": 0.3429008424282074, "water_retention": 0.2260978519916534, "slope": 4.412769794464111, "aspect": 235.75759887695312, "num_identification_agreements": 2, "cluster": 0, "tavg": null, "tmin": 12.4, "tmax": 19.3, "prcp_d0": 0.0, "prcp_d1": 0.0, "prcp_d2": 0.0, "prcp_d3": 0.0, "prcp_d4": 0.0, "prcp_d5": 0.0, "prcp_d6": 0.0, "tmax_d0": 17.2, "tmax_d1": 22.6, "tmax_d2": 23.1, "tmax_d3": 17.3, "tmax_d4": 23.4, "tmax_d5": 24.4, "tmax_d6": 23.1, "tmin_d0": 10.6, "tmin_d1": 10.6, "tmin_d2": 7.9, "tmin_d3": 10.1, "tmin_d4": 12.9, "tmin_d5": 9.8, "tmin_d6": 7.0, "day_of_year": 210, "uuid": "431954a4-933b-45ee-8dc9-09ec246274a6", "inat_id": 264741717}}, {"type": "Feature", "geometry": {"type": "Point", "coordinates": [-105.3986153986, 39.8476658479]}, "properties": {"species": "Hydnellum caeruleum", "date": "2019-08-10", "location": "Golden Gate Canyon State Park, Golden, CO, US", "elevation": 2590.0, "land_cover_label": "Tree cover", "water_mask": false, "exclude_reason": "keep", "ndvi": null, "soil_moisture": 0.3387563499736943, "solar_exposure": 0.9236536622047424, "wind_exposure": 0.3404843509197235, "water_retention": 0.1504305303096771, "slope": 13.335274696350098, "aspect": 143.26905822753906, "num_identification_agreements": 1, "cluster": 0, "tavg": null, "tmin": 19.6, "tmax": 31.2, "prcp_d0": 0.0, "prcp_d1": 0.0, "prcp_d2": 0.0, "prcp_d3": 0.0, "prcp_d4": 0.0, "prcp_d5": 18.70963287353516, "prcp_d6": 0.0, "tmax_d0": 23.1, "tmax_d1": 23.8, "tmax_d2": 20.6, "tmax_d3": 23.6, "tmax_d4": 25.3, "tmax_d5": 22.0, "tmax_d6": 24.4, "tmin_d0": 10.1, "tmin_d1": 10.1, "tmin_d2": 9.2, "tmin_d3": 10.6, "tmin_d4": 8.4, "tmin_d5": 10.6, "tmin_d6": 10.9, "day_of_year": 222, "uuid": "56cdd929-9995-47b8-9cf5-2eb9fd556177", "inat_id": 30767456}}, {"type": "Feature", "geometry": {"type": "Point", "coordinates": [-121.8875093188, 45.2340478948]}, "properties": {"species": "Hydnellum caeruleum", "date": "2019-08-14", "location": "Oregon, US", "elevation": 866.0, "land_cover_label": "Tree cover", "water_mask": false, "exclude_reason": "keep", "ndvi": null, "soil_moisture": null, "solar_exposure": null, "wind_exposure": null, "water_retention": null, "slope": null, "aspect": null, "num_identification_agreements": 2, "cluster": 0, "tavg": null, "tmin": null, "tmax": null, "prcp_d0": 0.0, "prcp_d1": 0.0, "prcp_d2": 0.0, "prcp_d3": 0.0, "prcp_d4": 11.64730739593506, "prcp_d5": 0.0, "prcp_d6": 0.0, "tmax_d0": 23.5, "tmax_d1": 24.2, "tmax_d2": 21.9, "tmax_d3": 16.4, "tmax_d4": 19.3, "tmax_d5": 22.2, "tmax_d6": 20.3, "tmin_d0": 12.3, "tmin_d1": 10.4, "tmin_d2": 7.3, "tmin_d3": 10.5, "tmin_d4": 9.2, "tmin_d5": 11.7, "tmin_d6": 12.6, "day_of_year": 226, "uuid": "56fa94e9-ccd9-4f6a-9064-de3bfbde6df3", "inat_id": 31163856}}, {"type": "Feature", "geometry": {"type": "Point", "coordinates": [-121.8099418825, 45.7425235804]}, "properties": {"species": "Hydnellum caeruleum", "date": "2019-09-14", "location": "Columbia River Gorge National Scenic Area, Carson, WA, US", "elevation": 179.0, "land_cover_label": "Tree cover", "water_mask": false, "exclude_reason": "keep", "ndvi": null, "soil_moisture": null, "solar_exposure": null, "wind_exposure": null, "water_retention": null, "slope": null, "aspect": null, "num_identification_agreements": 3, "cluster": 2, "tavg": null, "tmin": null, "tmax": null, "prcp_d0": 0.0, "prcp_d1": 0.0, "prcp_d2": 0.0, "prcp_d3": 0.0, "prcp_d4": 0.0, "prcp_d5": 0.0, "prcp_d6": 46.55758666992188, "tmax_d0": null, "tmax_d1": null, "tmax_d2": null, "tmax_d3": null, "tmax_d4": null, "tmax_d5": null, "tmax_d6": null, "tmin_d0": null, "tmin_d1": null, "tmin_d2": null, "tmin_d3": null, "tmin_d4": null, "tmin_d5": null, "tmin_d6": null, "day_of_year": 257, "uuid": "cddbce77-bdd6-44fe-826f-7194f8cf905a", "inat_id": 32891090}}, {"type": "Feature", "geometry": {"type": "Point", "coordinates": [-121.8767638465, 45.3892239919]}, "properties": {"species": "Hydnellum caeruleum", "date": "2019-09-18", "location": "Clackamas County, OR, USA", "elevation": 875.0, "land_cover_label": "Tree cover", "water_mask": false, "exclude_reason": "keep", "ndvi": null, "soil_moisture": null, "solar_exposure": null, "wind_exposure": null, "water_retention": null, "slope": null, "aspect": null, "num_identification_agreements": 3, "cluster": 0, "tavg": null, "tmin": 12.8, "tmax": 19.4, "prcp_d0": 0.0, "prcp_d1": 0.0, "prcp_d2": 0.0, "prcp_d3": 0.0, "prcp_d4": 33.60828399658203, "prcp_d5": 0.0, "prcp_d6": 0.0, "tmax_d0": null, "tmax_d1": null, "tmax_d2": null, "tmax_d3": null, "tmax_d4": null, "tmax_d5": null, "tmax_d6": null, "tmin_d0": null, "tmin_d1": null, "tmin_d2": null, "tmin_d3": null, "tmin_d4": null, "tmin_d5": null, "tmin_d6": null, "day_of_year": 261, "uuid": "b8a6a5d3-beca-4a4a-965f-48468fbc2753", "inat_id": 59981600}}, {"type": "Feature", "geometry": {"type": "Point", "coordinates": [-121.8155361111, 45.3149527778]}, "properties": {"species": "Hydnellum caeruleum", "date": "2019-10-05", "location": "Clackamas County, OR, USA", "elevation": 915.0, "land_cover_label": "Tree cover", "water_mask": false, "exclude_reason": "keep", "ndvi": null, "soil_moisture": null, "solar_exposure": null, "wind_exposure": null, "water_retention": null, "slope": null, "aspect": null, "num_identification_agreements": 4, "cluster": 0, "tavg": null, "tmin": null, "tmax": null, "prcp_d0": 0.0, "prcp_d1": 4.169913768768311, "prcp_d2": 9.204296112060549, "prcp_d3": 0.0, "prcp_d4": 0.0, "prcp_d5": 0.0, "prcp_d6": 0.0, "tmax_d0": null, "tmax_d1": null, "tmax_d2": null, "tmax_d3": null, "tmax_d4": null, "tmax_d5": null, "tmax_d6": null, "tmin_d0": null, "tmin_d1": null, "tmin_d2": null, "tmin_d3": null, "tmin_d4": null, "tmin_d5": null, "tmin_d6": null, "day_of_year": 278, "uuid": "f8eb9d6c-f372-4623-a61d-63af875a3e57", "inat_id": 34223846}}, {"type": "Feature", "geometry": {"type": "Point", "coordinates": [-121.809625, 45.3161305556]}, "properties": {"species": "Hydnellum caeruleum", "date": "2019-10-05", "location": "Clackamas County, OR, USA", "elevation": 916.0, "land_cover_label": "Tree cover", "water_mask": false, "exclude_reason": "keep", "ndvi": null, "soil_moisture": null, "solar_exposure": null, "wind_exposure": null, "water_retention": null, "slope": null, "aspect": null, "num_identification_agreements": 4, "cluster": 0, "tavg": null, "tmin": null, "tmax": null, "prcp_d0": 0.0, "prcp_d1": 4.169913768768311, "prcp_d2": 9.204296112060549, "prcp_d3": 0.0, "prcp_d4": 0.0, "prcp_d5": 0.0, "prcp_d6": 0.0, "tmax_d0": null, "tmax_d1": null, "tmax_d2": null, "tmax_d3": null, "tmax_d4": null, "tmax_d5": null, "tmax_d6": null, "tmin_d0": null, "tmin_d1": null, "tmin_d2": null, "tmin_d3": null, "tmin_d4": null, "tmin_d5": null, "tmin_d6": null, "day_of_year": 278, "uuid": "7e6265a0-782d-404f-b7e3-2b25ce53cffa", "inat_id": 34223856}}, {"type": "Feature", "geometry": {"type": "Point", "coordinates": [-105.89631591, 39.8773994996]}, "properties": {"species": "Hydnellum caeruleum", "date": "2021-08-13", "location": "Grand County, US-CO, US", "elevation": 2862.0, "land_cover_label": "Tree cover", "water_mask": false, "exclude_reason": "keep", "ndvi": null, "soil_moisture": 0.3117047903501782, "solar_exposure": 0.8393102288246155, "wind_exposure": 0.1911198794841766, "water_retention": 0.359745055437088, "slope": 2.435271978378296, "aspect": 90.0, "num_identification_agreements": 2, "cluster": 3, "tavg": null, "tmin": 7.7, "tmax": 27.3, "prcp_d0": 3.747859954833984, "prcp_d1": 3.747859954833984, "prcp_d2": 0.0, "prcp_d3": 0.0, "prcp_d4": 0.0, "prcp_d5": 0.0, "prcp_d6": 0.0, "tmax_d0": 22.2, "tmax_d1": 23.8, "tmax_d2": 23.4, "tmax_d3": 21.6, "tmax_d4": 22.1, "tmax_d5": 22.4, "tmax_d6": 18.9, "tmin_d0": 6.2, "tmin_d1": 7.6, "tmin_d2": 7.0, "tmin_d3": 5.5, "tmin_d4": 6.6, "tmin_d5": 5.5, "tmin_d6": 6.1, "day_of_year": 225, "uuid": "d4dab65e-3a0d-4b8c-af2b-cd70c2749f3c", "inat_id": 91032697}}, {"type": "Feature", "geometry": {"type": "Point", "coordinates": [-105.87966879, 39.90706448]}, "properties": {"species": "Hydnellum caeruleum", "date": "2021-08-13", "location": "Grand County, US-CO, US", "elevation": 2758.0, "land_cover_label": "Tree cover", "water_mask": false, "exclude_reason": "keep", "ndvi": null, "soil_moisture": 0.3042139126778246, "solar_exposure": 0.7975308895111084, "wind_exposure": 0.2798456847667694, "water_retention": 0.6350427269935608, "slope": 4.448074817657471, "aspect": 326.8578491210937, "num_identification_agreements": 1, "cluster": 3, "tavg": null, "tmin": 7.7, "tmax": 27.3, "prcp_d0": 5.318371295928955, "prcp_d1": 5.318371295928955, "prcp_d2": 0.0, "prcp_d3": 0.0, "prcp_d4": 0.0, "prcp_d5": 0.0, "prcp_d6": 0.0, "tmax_d0": 22.8, "tmax_d1": 24.5, "tmax_d2": 24.0, "tmax_d3": 22.3, "tmax_d4": 22.8, "tmax_d5": 23.0, "tmax_d6": 19.6, "tmin_d0": 6.8, "tmin_d1": 8.2, "tmin_d2": 7.6, "tmin_d3": 6.2, "tmin_d4": 7.2, "tmin_d5": 6.1, "tmin_d6": 6.8, "day_of_year": 225, "uuid": "2812e0a2-1a35-4c02-b04a-6b1a0c06170d", "inat_id": 91024665}}, {"type": "Feature", "geometry": {"type": "Point", "coordinates": [-121.9853238468, 45.2531029586]}, "properties": {"species": "Hydnellum caeruleum", "date": "2021-09-30", "location": "Oregon, US", "elevation": 991.0, "land_cover_label": "Tree cover", "water_mask": false, "exclude_reason": "keep", "ndvi": null, "soil_moisture": null, "solar_exposure": null, "wind_exposure": null, "water_retention": null, "slope": null, "aspect": null, "num_identification_agreements": 1, "cluster": 0, "tavg": null, "tmin": 13.9, "tmax": 17.2, "prcp_d0": 0.0, "prcp_d1": 0.0, "prcp_d2": 0.0, "prcp_d3": 0.0, "prcp_d4": 0.0, "prcp_d5": 0.0, "prcp_d6": 0.0, "tmax_d0": null, "tmax_d1": null, "tmax_d2": null, "tmax_d3": null, "tmax_d4": null, "tmax_d5": null, "tmax_d6": null, "tmin_d0": null, "tmin_d1": null, "tmin_d2": null, "tmin_d3": null, "tmin_d4": null, "tmin_d5": null, "tmin_d6": null, "day_of_year": 273, "uuid": "30338ee2-00d7-4d09-a150-f7f8f723cd63", "inat_id": 96737277}}, {"type": "Feature", "geometry": {"type": "Point", "coordinates": [-121.6827528064, 45.3890241779]}, "properties": {"species": "Hydnellum caeruleum", "date": "2021-10-09", "location": "Oregon, US", "elevation": 2309.0, "land_cover_label": "Bare / sparse vegetation", "water_mask": false, "exclude_reason": "keep", "ndvi": null, "soil_moisture": null, "solar_exposure": null, "wind_exposure": null, "water_retention": null, "slope": null, "aspect": null, "num_identification_agreements": 1, "cluster": 0, "tavg": null, "tmin": 6.1, "tmax": 19.4, "prcp_d0": 0.0, "prcp_d1": 0.0, "prcp_d2": 0.0, "prcp_d3": 0.0, "prcp_d4": 41.832820892333984, "prcp_d5": 0.0, "prcp_d6": 0.0, "tmax_d0": null, "tmax_d1": null, "tmax_d2": null, "tmax_d3": null, "tmax_d4": null, "tmax_d5": null, "tmax_d6": null, "tmin_d0": null, "tmin_d1": null, "tmin_d2": null, "tmin_d3": null, "tmin_d4": null, "tmin_d5": null, "tmin_d6": null, "day_of_year": 282, "uuid": "7089fad4-7029-49a4-a30d-25ffc3d386c9", "inat_id": 97724368}}, {"type": "Feature", "geometry": {"type": "Point", "coordinates": [-121.8103466667, 45.3211666667]}, "properties": {"species": "Hydnellum caeruleum", "date": "2021-10-31", "location": "Mt. Hood Park Division Recreation Area, Government Camp, OR, US", "elevation": 1108.0, "land_cover_label": "Tree cover", "water_mask": false, "exclude_reason": "keep", "ndvi": null, "soil_moisture": null, "solar_exposure": null, "wind_exposure": null, "water_retention": null, "slope": null, "aspect": null, "num_identification_agreements": 2, "cluster": 0, "tavg": null, "tmin": null, "tmax": null, "prcp_d0": 0.0, "prcp_d1": 0.0, "prcp_d2": 0.0, "prcp_d3": 0.0, "prcp_d4": 0.0, "prcp_d5": 0.0, "prcp_d6": 0.0, "tmax_d0": null, "tmax_d1": null, "tmax_d2": null, "tmax_d3": null, "tmax_d4": null, "tmax_d5": null, "tmax_d6": null, "tmin_d0": null, "tmin_d1": null, "tmin_d2": null, "tmin_d3": null, "tmin_d4": null, "tmin_d5": null, "tmin_d6": null, "day_of_year": 304, "uuid": "97507d3a-7d1c-474a-a6e1-0f31db227a8b", "inat_id": 100123230}}, {"type": "Feature", "geometry": {"type": "Point", "coordinates": [-106.7536947505, 39.2450694787]}, "properties": {"species": "Hydnellum caeruleum", "date": "2022-07-29", "location": "Pitkin County, US-CO, US", "elevation": 2672.0, "land_cover_label": "Tree cover", "water_mask": false, "exclude_reason": "keep", "ndvi": null, "soil_moisture": null, "solar_exposure": null, "wind_exposure": null, "water_retention": null, "slope": null, "aspect": null, "num_identification_agreements": 2, "cluster": 0, "tavg": null, "tmin": 9.4, "tmax": 23.9, "prcp_d0": 0.0, "prcp_d1": 0.0, "prcp_d2": 0.0, "prcp_d3": 12.26108741760254, "prcp_d4": 0.0, "prcp_d5": 0.0, "prcp_d6": 0.0, "tmax_d0": 21.9, "tmax_d1": 22.6, "tmax_d2": 24.3, "tmax_d3": 23.7, "tmax_d4": 23.6, "tmax_d5": 21.0, "tmax_d6": 26.0, "tmin_d0": 8.0, "tmin_d1": 10.4, "tmin_d2": 8.4, "tmin_d3": 9.5, "tmin_d4": 9.1, "tmin_d5": 10.0, "tmin_d6": 10.3, "day_of_year": 210, "uuid": "8549fb86-daf6-4318-a487-ae14d1750286", "inat_id": 128501323}}, {"type": "Feature", "geometry": {"type": "Point", "coordinates": [-105.5708754707, 39.511785346]}, "properties": {"species": "Hydnellum caeruleum", "date": "2022-08-12", "location": "Park County, US-CO, US", "elevation": 2881.0, "land_cover_label": "Tree cover", "water_mask": false, "exclude_reason": "keep", "ndvi": null, "soil_moisture": 0.3075741219939977, "solar_exposure": 0.883025586605072, "wind_exposure": 0.1780858337879181, "water_retention": 0.6568105220794678, "slope": 4.511847496032715, "aspect": 164.36669921875, "num_identification_agreements": 2, "cluster": 3, "tavg": null, "tmin": 5.6, "tmax": 16.4, "prcp_d0": 0.0, "prcp_d1": 0.0, "prcp_d2": 0.0, "prcp_d3": 0.0, "prcp_d4": 13.66179084777832, "prcp_d5": 13.66179084777832, "prcp_d6": 0.0, "tmax_d0": 22.8, "tmax_d1": 24.0, "tmax_d2": 22.5, "tmax_d3": 21.9, "tmax_d4": 20.9, "tmax_d5": 21.4, "tmax_d6": 23.9, "tmin_d0": 8.8, "tmin_d1": 8.7, "tmin_d2": 9.2, "tmin_d3": 8.3, "tmin_d4": 7.2, "tmin_d5": 9.8, "tmin_d6": 9.8, "day_of_year": 224, "uuid": "369e104d-807d-4147-9000-744c950c6ab9", "inat_id": 130567878}}, {"type": "Feature", "geometry": {"type": "Point", "coordinates": [-105.6414091044, 39.6308742462]}, "properties": {"species": "Hydnellum caeruleum", "date": "2022-08-21", "location": "Colorado, US", "elevation": 3713.0, "land_cover_label": "Moss and lichen", "water_mask": false, "exclude_reason": "keep", "ndvi": null, "soil_moisture": 0.405226474251799, "solar_exposure": 0.7833767533302307, "wind_exposure": 0.4022929072380066, "water_retention": 0.2629063129425049, "slope": 5.109334468841553, "aspect": 346.2416687011719, "num_identification_agreements": 1, "cluster": 0, "tavg": null, "tmin": 0.5, "tmax": 10.3, "prcp_d0": 0.0, "prcp_d1": 0.0, "prcp_d2": 0.0, "prcp_d3": 0.0, "prcp_d4": 0.0, "prcp_d5": 21.31513977050781, "prcp_d6": 0.0, "tmax_d0": 10.8, "tmax_d1": 10.6, "tmax_d2": 12.9, "tmax_d3": 12.6, "tmax_d4": 12.5, "tmax_d5": 7.7, "tmax_d6": 14.1, "tmin_d0": 1.4, "tmin_d1": 2.8, "tmin_d2": 3.4, "tmin_d3": 4.3, "tmin_d4": 1.9, "tmin_d5": 4.9, "tmin_d6": 3.7, "day_of_year": 233, "uuid": "abdf97b0-8bfe-4c44-b245-86b3b654681f", "inat_id": 131833621}}, {"type": "Feature", "geometry": {"type": "Point", "coordinates": [-121.5787484497, 45.4230005274]}, "properties": {"species": "Hydnellum caeruleum", "date": "2022-10-02", "location": "MT HOOD PRKDL, OR 97041, USA", "elevation": 955.0, "land_cover_label": "Tree cover", "water_mask": false, "exclude_reason": "keep", "ndvi": null, "soil_moisture": null, "solar_exposure": null, "wind_exposure": null, "water_retention": null, "slope": null, "aspect": null, "num_identification_agreements": 1, "cluster": 0, "tavg": null, "tmin": 12.6, "tmax": 25.8, "prcp_d0": 0.0, "prcp_d1": 0.0, "prcp_d2": 0.9277417063713074, "prcp_d3": 13.981409072875977, "prcp_d4": 0.3184182941913605, "prcp_d5": 0.0, "prcp_d6": 0.0, "tmax_d0": null, "tmax_d1": null, "tmax_d2": null, "tmax_d3": null, "tmax_d4": null, "tmax_d5": null, "tmax_d6": null, "tmin_d0": null, "tmin_d1": null, "tmin_d2": null, "tmin_d3": null, "tmin_d4": null, "tmin_d5": null, "tmin_d6": null, "day_of_year": 275, "uuid": "ba2b888e-087c-48ae-90d7-de38de73bf04", "inat_id": 137426580}}, {"type": "Feature", "geometry": {"type": "Point", "coordinates": [-121.7296916667, 45.2788777778]}, "properties": {"species": "Hydnellum caeruleum", "date": "2022-10-16", "location": "Clackamas, Oregon, United States", "elevation": 1110.0, "land_cover_label": "Tree cover", "water_mask": false, "exclude_reason": "keep", "ndvi": null, "soil_moisture": null, "solar_exposure": null, "wind_exposure": null, "water_retention": null, "slope": null, "aspect": null, "num_identification_agreements": 1, "cluster": 0, "tavg": null, "tmin": 9.3, "tmax": 23.9, "prcp_d0": 0.0, "prcp_d1": 0.0, "prcp_d2": 0.0, "prcp_d3": 0.0, "prcp_d4": 0.0, "prcp_d5": 9.365456581115724, "prcp_d6": 0.0, "tmax_d0": null, "tmax_d1": null, "tmax_d2": null, "tmax_d3": null, "tmax_d4": null, "tmax_d5": null, "tmax_d6": null, "tmin_d0": null, "tmin_d1": null, "tmin_d2": null, "tmin_d3": null, "tmin_d4": null, "tmin_d5": null, "tmin_d6": null, "day_of_year": 289, "uuid": "ab256b21-755e-49c6-be4a-49578c7f9311", "inat_id": 139084891}}, {"type": "Feature", "geometry": {"type": "Point", "coordinates": [-121.8613359332, 45.304634398]}, "properties": {"species": "Hydnellum caeruleum", "date": "2022-10-28", "location": "Rhododendron, OR 97049, USA", "elevation": 685.0, "land_cover_label": "Tree cover", "water_mask": false, "exclude_reason": "keep", "ndvi": null, "soil_moisture": null, "solar_exposure": null, "wind_exposure": null, "water_retention": null, "slope": null, "aspect": null, "num_identification_agreements": 1, "cluster": 1, "tavg": null, "tmin": 7.4, "tmax": 12.5, "prcp_d0": 16.122600555419922, "prcp_d1": 16.122600555419922, "prcp_d2": 32.245201110839844, "prcp_d3": 0.0, "prcp_d4": 0.0, "prcp_d5": 0.0, "prcp_d6": 0.0, "tmax_d0": null, "tmax_d1": null, "tmax_d2": null, "tmax_d3": null, "tmax_d4": null, "tmax_d5": null, "tmax_d6": null, "tmin_d0": null, "tmin_d1": null, "tmin_d2": null, "tmin_d3": null, "tmin_d4": null, "tmin_d5": null, "tmin_d6": null, "day_of_year": 301, "uuid": "c9469700-3860-4c3c-aed6-4f794956a431", "inat_id": 140342042}}, {"type": "Feature", "geometry": {"type": "Point", "coordinates": [-105.44738, 39.6789866667]}, "properties": {"species": "Hydnellum caeruleum", "date": "2023-07-28", "location": "Evergreen, CO, US", "elevation": 2762.0, "land_cover_label": "Tree cover", "water_mask": false, "exclude_reason": "keep", "ndvi": null, "soil_moisture": 0.3696787862697946, "solar_exposure": 0.8209196925163269, "wind_exposure": 0.2953493893146515, "water_retention": 0.2965854406356811, "slope": 6.19333028793335, "aspect": 281.5413818359375, "num_identification_agreements": 2, "cluster": 0, "tavg": null, "tmin": 2.2, "tmax": 16.5, "prcp_d0": 0.0, "prcp_d1": 0.0, "prcp_d2": 0.0, "prcp_d3": 0.0, "prcp_d4": 0.0, "prcp_d5": 0.0, "prcp_d6": 0.0, "tmax_d0": 24.8, "tmax_d1": 24.0, "tmax_d2": 23.2, "tmax_d3": 25.8, "tmax_d4": 26.3, "tmax_d5": 25.1, "tmax_d6": 21.5, "tmin_d0": 8.0, "tmin_d1": 7.8, "tmin_d2": 9.0, "tmin_d3": 9.2, "tmin_d4": 9.0, "tmin_d5": 7.3, "tmin_d6": 5.5, "day_of_year": 209, "uuid": "b2dd5c21-155d-425e-95ba-d90d3026f3b8", "inat_id": 175652768}}, {"type": "Feature", "geometry": {"type": "Point", "coordinates": [-105.550818629, 40.3190745397]}, "properties": {"species": "Hydnellum caeruleum", "date": "2023-07-30", "location": "Rocky Mountain, Rocky Mountain National Park, Rocky Mountain National Park, Larimer County, US-CO, US", "elevation": 2553.0, "land_cover_label": "Tree cover", "water_mask": false, "exclude_reason": "keep", "ndvi": null, "soil_moisture": 0.3689153718635111, "solar_exposure": 0.8080334067344666, "wind_exposure": 0.1739854514598846, "water_retention": 0.2330305278301239, "slope": 3.983064413070679, "aspect": 45.445831298828125, "num_identification_agreements": 1, "cluster": 0, "tavg": null, "tmin": 16.7, "tmax": 35.2, "prcp_d0": 0.0, "prcp_d1": 0.0, "prcp_d2": 0.0, "prcp_d3": 0.0, "prcp_d4": 0.0, "prcp_d5": 0.0, "prcp_d6": 0.0, "tmax_d0": 25.9, "tmax_d1": 21.7, "tmax_d2": 25.2, "tmax_d3": 25.3, "tmax_d4": 23.3, "tmax_d5": 26.2, "tmax_d6": 26.0, "tmin_d0": 7.9, "tmin_d1": 6.5, "tmin_d2": 7.5, "tmin_d3": 8.5, "tmin_d4": 10.5, "tmin_d5": 11.4, "tmin_d6": 9.1, "day_of_year": 211, "uuid": "22c42427-cec5-42f7-9f97-78a8b9923175", "inat_id": 175788653}}, {"type": "Feature", "geometry": {"type": "Point", "coordinates": [-105.4413133333, 40.1402028333]}, "properties": {"species": "Hydnellum caeruleum", "date": "2023-07-30", "location": "Ceran St Vrain, Ward, CO, US", "elevation": 2477.0, "land_cover_label": "Tree cover", "water_mask": false, "exclude_reason": "keep", "ndvi": null, "soil_moisture": 0.3084715477547339, "solar_exposure": 0.8750341534614563, "wind_exposure": 0.2253390699625015, "water_retention": 0.3156913518905639, "slope": 9.284621238708496, "aspect": 119.86983489990234, "num_identification_agreements": 1, "cluster": 0, "tavg": null, "tmin": 16.0, "tmax": 33.0, "prcp_d0": 0.0, "prcp_d1": 0.0, "prcp_d2": 0.0, "prcp_d3": 0.0, "prcp_d4": 0.0, "prcp_d5": 22.88115119934082, "prcp_d6": 0.0, "tmax_d0": 25.4, "tmax_d1": 22.4, "tmax_d2": 24.5, "tmax_d3": 26.1, "tmax_d4": 24.7, "tmax_d5": 26.5, "tmax_d6": 25.2, "tmin_d0": 11.2, "tmin_d1": 11.4, "tmin_d2": 10.0, "tmin_d3": 8.5, "tmin_d4": 10.7, "tmin_d5": 11.3, "tmin_d6": 10.8, "day_of_year": 211, "uuid": "4f3e7e1a-47c3-42a8-adcb-0eff08eced13", "inat_id": 175813882}}, {"type": "Feature", "geometry": {"type": "Point", "coordinates": [-105.565605, 39.9946666667]}, "properties": {"species": "Hydnellum caeruleum", "date": "2023-08-05", "location": "Forest Service Road 505, Nederland, CO, US", "elevation": 2983.0, "land_cover_label": "Tree cover", "water_mask": false, "exclude_reason": "keep", "ndvi": null, "soil_moisture": 0.3266149223103184, "solar_exposure": 0.7477682828903198, "wind_exposure": 0.2921006381511688, "water_retention": 0.50827956199646, "slope": 8.221441268920898, "aspect": 20.08476448059082, "num_identification_agreements": 1, "cluster": 3, "tavg": null, "tmin": 2.3, "tmax": 11.8, "prcp_d0": 0.0, "prcp_d1": 0.0, "prcp_d2": 0.0, "prcp_d3": 9.132293701171877, "prcp_d4": 27.396879196166992, "prcp_d5": 12.00437355041504, "prcp_d6": 0.0, "tmax_d0": 18.1, "tmax_d1": 18.1, "tmax_d2": 18.4, "tmax_d3": 17.0, "tmax_d4": 20.1, "tmax_d5": 20.3, "tmax_d6": 22.3, "tmin_d0": 4.9, "tmin_d1": 5.8, "tmin_d2": 7.0, "tmin_d3": 7.8, "tmin_d4": 8.1, "tmin_d5": 9.2, "tmin_d6": 9.9, "day_of_year": 217, "uuid": "05384bc5-b6b3-4191-a050-3071df3d486c", "inat_id": 176954781}}, {"type": "Feature", "geometry": {"type": "Point", "coordinates": [-105.5847333333, 39.9846883333]}, "properties": {"species": "Hydnellum caeruleum", "date": "2023-08-13", "location": "Nederland, CO, US", "elevation": 3031.0, "land_cover_label": "Tree cover", "water_mask": false, "exclude_reason": "keep", "ndvi": null, "soil_moisture": 0.2908937462442593, "solar_exposure": 0.8415213823318481, "wind_exposure": 0.2672936916351318, "water_retention": 0.4697622656822204, "slope": 5.700759410858154, "aspect": 96.2430648803711, "num_identification_agreements": 1, "cluster": 3, "tavg": null, "tmin": 2.8, "tmax": 13.4, "prcp_d0": 0.0, "prcp_d1": 0.0, "prcp_d2": 0.0, "prcp_d3": 0.0, "prcp_d4": 0.0, "prcp_d5": 0.0, "prcp_d6": 7.362748622894287, "tmax_d0": 14.8, "tmax_d1": 17.4, "tmax_d2": 18.5, "tmax_d3": 17.3, "tmax_d4": 18.1, "tmax_d5": 17.7, "tmax_d6": 14.1, "tmin_d0": 5.3, "tmin_d1": 7.8, "tmin_d2": 5.3, "tmin_d3": 6.0, "tmin_d4": 1.4, "tmin_d5": 3.5, "tmin_d6": 2.9, "day_of_year": 225, "uuid": "4e0de154-3420-4193-84b1-dde12e3a6fa5", "inat_id": 178442887}}, {"type": "Feature", "geometry": {"type": "Point", "coordinates": [-105.5859363275, 39.9844789586]}, "properties": {"species": "Hydnellum caeruleum", "date": "2023-08-13", "location": "Boulder County, US-CO, US", "elevation": 3047.0, "land_cover_label": "Tree cover", "water_mask": false, "exclude_reason": "keep", "ndvi": null, "soil_moisture": 0.2911510162787267, "solar_exposure": 0.7406263947486877, "wind_exposure": 0.2833305895328522, "water_retention": 0.4285222589969635, "slope": 9.788434982299805, "aspect": 35.11360168457031, "num_identification_agreements": 1, "cluster": 3, "tavg": null, "tmin": 2.8, "tmax": 13.4, "prcp_d0": 0.0, "prcp_d1": 0.0, "prcp_d2": 0.0, "prcp_d3": 0.0, "prcp_d4": 0.0, "prcp_d5": 0.0, "prcp_d6": 7.362748622894287, "tmax_d0": 14.8, "tmax_d1": 17.4, "tmax_d2": 18.5, "tmax_d3": 17.3, "tmax_d4": 18.1, "tmax_d5": 17.7, "tmax_d6": 14.1, "tmin_d0": 5.3, "tmin_d1": 7.8, "tmin_d2": 5.3, "tmin_d3": 6.0, "tmin_d4": 1.4, "tmin_d5": 3.5, "tmin_d6": 2.9, "day_of_year": 225, "uuid": "37f627b4-69ba-43cd-a763-f5c0c6a57b27", "inat_id": 178270147}}, {"type": "Feature", "geometry": {"type": "Point", "coordinates": [-105.5650449, 40.3506722997]}, "properties": {"species": "Hydnellum caeruleum", "date": "2023-08-16", "location": "Estes Park, CO 80517, USA", "elevation": 2374.0, "land_cover_label": "Tree cover", "water_mask": false, "exclude_reason": "keep", "ndvi": null, "soil_moisture": 0.3358260164745044, "solar_exposure": 0.7867211699485779, "wind_exposure": 0.2344507426023483, "water_retention": 0.2166345417499542, "slope": 5.074423789978027, "aspect": 336.476806640625, "num_identification_agreements": 1, "cluster": 0, "tavg": null, "tmin": 14.4, "tmax": 38.2, "prcp_d0": 0.0, "prcp_d1": 0.0, "prcp_d2": 0.0, "prcp_d3": 0.0, "prcp_d4": 0.0, "prcp_d5": 0.0, "prcp_d6": 0.0, "tmax_d0": 26.5, "tmax_d1": 24.7, "tmax_d2": 16.8, "tmax_d3": 21.1, "tmax_d4": 22.7, "tmax_d5": 24.5, "tmax_d6": 23.8, "tmin_d0": 10.7, "tmin_d1": 4.3, "tmin_d2": 8.1, "tmin_d3": 10.3, "tmin_d4": 11.6, "tmin_d5": 9.7, "tmin_d6": 6.5, "day_of_year": 228, "uuid": "df0c145d-9fbb-4369-93aa-9ddc36333d24", "inat_id": 178778466}}, {"type": "Feature", "geometry": {"type": "Point", "coordinates": [-105.3358232562, 39.4050780248]}, "properties": {"species": "Hydnellum caeruleum", "date": "2023-08-26", "location": "Colorado, US", "elevation": 2084.0, "land_cover_label": "Tree cover", "water_mask": false, "exclude_reason": "keep", "ndvi": null, "soil_moisture": 0.2615064006786892, "solar_exposure": 0.7505809664726257, "wind_exposure": 0.3657389879226684, "water_retention": 0.1808799803256988, "slope": 16.79409408569336, "aspect": 285.6506652832031, "num_identification_agreements": 2, "cluster": 0, "tavg": null, "tmin": 5.1, "tmax": 16.1, "prcp_d0": 0.0, "prcp_d1": 0.0, "prcp_d2": 0.0, "prcp_d3": 0.0, "prcp_d4": 0.0, "prcp_d5": 0.0, "prcp_d6": 0.0, "tmax_d0": 20.9, "tmax_d1": 21.8, "tmax_d2": 28.9, "tmax_d3": 30.4, "tmax_d4": 31.2, "tmax_d5": 32.4, "tmax_d6": 32.7, "tmin_d0": 11.8, "tmin_d1": 14.3, "tmin_d2": 17.2, "tmin_d3": 13.6, "tmin_d4": 15.5, "tmin_d5": 14.0, "tmin_d6": 13.0, "day_of_year": 238, "uuid": "f9a5d7c7-75b1-4248-b0e2-2e5aca74e578", "inat_id": 202362860}}, {"type": "Feature", "geometry": {"type": "Point", "coordinates": [-105.5281216667, 40.0772971667]}, "properties": {"species": "Hydnellum caeruleum", "date": "2023-08-28", "location": "Brainard Lake Rd, Ward, CO, US", "elevation": 3014.0, "land_cover_label": "Tree cover", "water_mask": false, "exclude_reason": "keep", "ndvi": null, "soil_moisture": 0.3476451835838448, "solar_exposure": 0.879875898361206, "wind_exposure": 0.3044506013393402, "water_retention": 0.3275125622749328, "slope": 8.773801803588867, "aspect": 124.24240112304688, "num_identification_agreements": 2, "cluster": 0, "tavg": null, "tmin": 14.0, "tmax": 25.0, "prcp_d0": 0.0, "prcp_d1": 0.0, "prcp_d2": 0.0, "prcp_d3": 0.0, "prcp_d4": 0.0, "prcp_d5": 0.0, "prcp_d6": 0.0, "tmax_d0": 13.8, "tmax_d1": 18.7, "tmax_d2": 12.7, "tmax_d3": 14.7, "tmax_d4": 19.7, "tmax_d5": 20.5, "tmax_d6": 21.8, "tmin_d0": 6.3, "tmin_d1": 6.6, "tmin_d2": 4.8, "tmin_d3": 8.4, "tmin_d4": 10.6, "tmin_d5": 10.0, "tmin_d6": 12.9, "day_of_year": 240, "uuid": "6a863423-8038-403a-9b9a-d7591a3d9c6d", "inat_id": 180654711}}, {"type": "Feature", "geometry": {"type": "Point", "coordinates": [-121.7420966667, 45.2694583333]}, "properties": {"species": "Hydnellum caeruleum", "date": "2023-09-02", "location": "Trillium Lake, Government Camp, OR, US", "elevation": 1127.0, "land_cover_label": "Tree cover", "water_mask": false, "exclude_reason": "keep", "ndvi": null, "soil_moisture": null, "solar_exposure": null, "wind_exposure": null, "water_retention": null, "slope": null, "aspect": null, "num_identification_agreements": 1, "cluster": 0, "tavg": null, "tmin": 13.8, "tmax": 28.6, "prcp_d0": 0.0, "prcp_d1": 0.0, "prcp_d2": 22.409912109375, "prcp_d3": 0.0, "prcp_d4": 0.0, "prcp_d5": 0.0, "prcp_d6": 0.0, "tmax_d0": null, "tmax_d1": null, "tmax_d2": null, "tmax_d3": null, "tmax_d4": null, "tmax_d5": null, "tmax_d6": null, "tmin_d0": null, "tmin_d1": null, "tmin_d2": null, "tmin_d3": null, "tmin_d4": null, "tmin_d5": null, "tmin_d6": null, "day_of_year": 245, "uuid": "43e3af0b-2386-4a2a-a9b0-5100051bd011", "inat_id": 181479580}}, {"type": "Feature", "geometry": {"type": "Point", "coordinates": [-121.7368458956, 45.2750499404]}, "properties": {"species": "Hydnellum caeruleum", "date": "2023-09-02", "location": "TIMBRLINE LDG, OR 97028, USA", "elevation": 1115.0, "land_cover_label": "Tree cover", "water_mask": false, "exclude_reason": "keep", "ndvi": null, "soil_moisture": null, "solar_exposure": null, "wind_exposure": null, "water_retention": null, "slope": null, "aspect": null, "num_identification_agreements": 1, "cluster": 0, "tavg": null, "tmin": 13.8, "tmax": 28.6, "prcp_d0": 0.0, "prcp_d1": 0.0, "prcp_d2": 22.409912109375, "prcp_d3": 0.0, "prcp_d4": 0.0, "prcp_d5": 0.0, "prcp_d6": 0.0, "tmax_d0": null, "tmax_d1": null, "tmax_d2": null, "tmax_d3": null, "tmax_d4": null, "tmax_d5": null, "tmax_d6": null, "tmin_d0": null, "tmin_d1": null, "tmin_d2": null, "tmin_d3": null, "tmin_d4": null, "tmin_d5": null, "tmin_d6": null, "day_of_year": 245, "uuid": "5f40ec4b-7525-4809-b780-b6f9ab24be3d", "inat_id": 214746947}}, {"type": "Feature", "geometry": {"type": "Point", "coordinates": [-105.9764002066, 39.7968432972]}, "properties": {"species": "Hydnellum caeruleum", "date": "2023-09-03", "location": "Colorado, US", "elevation": 3519.0, "land_cover_label": "Grassland", "water_mask": false, "exclude_reason": "keep", "ndvi": null, "soil_moisture": 0.3128524439640707, "solar_exposure": 0.9215223789215088, "wind_exposure": 0.4050243198871612, "water_retention": 0.1262493133544922, "slope": 18.74164581298828, "aspect": 134.74078369140625, "num_identification_agreements": 1, "cluster": 0, "tavg": null, "tmin": 2.0, "tmax": 14.7, "prcp_d0": 5.166655540466309, "prcp_d1": 0.0, "prcp_d2": 0.0, "prcp_d3": 0.0, "prcp_d4": 0.0, "prcp_d5": 0.0, "prcp_d6": 0.0, "tmax_d0": 14.3, "tmax_d1": 16.2, "tmax_d2": 17.3, "tmax_d3": 17.0, "tmax_d4": 16.9, "tmax_d5": 15.5, "tmax_d6": 14.2, "tmin_d0": 2.9, "tmin_d1": 6.2, "tmin_d2": 5.4, "tmin_d3": 4.4, "tmin_d4": 2.1, "tmin_d5": 1.3, "tmin_d6": 3.0, "day_of_year": 246, "uuid": "da8d16dc-1594-4fc3-b9b0-ae0edc2cf040", "inat_id": 181854038}}, {"type": "Feature", "geometry": {"type": "Point", "coordinates": [-105.5839535594, 39.8890605682]}, "properties": {"species": "Hydnellum caeruleum", "date": "2023-09-03", "location": "Black Hawk, CO 80422, USA", "elevation": 3075.0, "land_cover_label": "Tree cover", "water_mask": false, "exclude_reason": "keep", "ndvi": null, "soil_moisture": 0.3500627969222435, "solar_exposure": 0.5793588161468506, "wind_exposure": 0.424304187297821, "water_retention": 0.232119545340538, "slope": 19.43715476989746, "aspect": 1.1509442329406738, "num_identification_agreements": 1, "cluster": 0, "tavg": null, "tmin": 2.0, "tmax": 14.7, "prcp_d0": 0.0, "prcp_d1": 0.0, "prcp_d2": 0.0, "prcp_d3": 0.0, "prcp_d4": 0.0, "prcp_d5": 0.0, "prcp_d6": 0.0, "tmax_d0": 18.7, "tmax_d1": 21.5, "tmax_d2": 22.1, "tmax_d3": 22.0, "tmax_d4": 22.2, "tmax_d5": 15.8, "tmax_d6": 15.4, "tmin_d0": 6.8, "tmin_d1": 5.8, "tmin_d2": 6.9, "tmin_d3": 7.2, "tmin_d4": 4.5, "tmin_d5": 3.3, "tmin_d6": 5.2, "day_of_year": 246, "uuid": "782c8312-e479-46f3-885c-7b798e18c37e", "inat_id": 199036969}}, {"type": "Feature", "geometry": {"type": "Point", "coordinates": [-121.7518947646, 45.2974480381]}, "properties": {"species": "Hydnellum caeruleum", "date": "2023-09-11", "location": "TIMBRLINE LDG, OR 97028, USA", "elevation": 1237.0, "land_cover_label": "Tree cover", "water_mask": false, "exclude_reason": "keep", "ndvi": null, "soil_moisture": null, "solar_exposure": null, "wind_exposure": null, "water_retention": null, "slope": null, "aspect": null, "num_identification_agreements": 2, "cluster": 0, "tavg": null, "tmin": 13.5, "tmax": 25.3, "prcp_d0": 0.0, "prcp_d1": 0.0, "prcp_d2": 0.0, "prcp_d3": 0.0, "prcp_d4": 0.0, "prcp_d5": 0.0, "prcp_d6": 0.0, "tmax_d0": null, "tmax_d1": null, "tmax_d2": null, "tmax_d3": null, "tmax_d4": null, "tmax_d5": null, "tmax_d6": null, "tmin_d0": null, "tmin_d1": null, "tmin_d2": null, "tmin_d3": null, "tmin_d4": null, "tmin_d5": null, "tmin_d6": null, "day_of_year": 254, "uuid": "3f4e42d9-a03b-46b8-9eda-309959cb45ea", "inat_id": 183426702}}, {"type": "Feature", "geometry": {"type": "Point", "coordinates": [-106.6786461, 39.5358185]}, "properties": {"species": "Hydnellum caeruleum", "date": "2024-08-10", "location": "Porphyry Mountain, Colorado 81632, USA", "elevation": 3298.0, "land_cover_label": "Tree cover", "water_mask": false, "exclude_reason": "keep", "ndvi": null, "soil_moisture": null, "solar_exposure": null, "wind_exposure": null, "water_retention": null, "slope": null, "aspect": null, "num_identification_agreements": 1, "cluster": 0, "tavg": null, "tmin": 11.7, "tmax": 27.8, "prcp_d0": 0.0, "prcp_d1": 0.0, "prcp_d2": 0.0, "prcp_d3": 0.0, "prcp_d4": 13.805109024047852, "prcp_d5": 11.77196216583252, "prcp_d6": 0.0, "tmax_d0": 17.0, "tmax_d1": 17.1, "tmax_d2": 19.5, "tmax_d3": 20.6, "tmax_d4": 20.4, "tmax_d5": 20.5, "tmax_d6": 22.0, "tmin_d0": 5.5, "tmin_d1": 8.0, "tmin_d2": 7.5, "tmin_d3": 9.8, "tmin_d4": 7.0, "tmin_d5": 8.5, "tmin_d6": 11.1, "day_of_year": 223, "uuid": "7e77674c-fc8c-4863-b5d6-31276cd2c3ca", "inat_id": 235033284}}, {"type": "Feature", "geometry": {"type": "Point", "coordinates": [-105.8006603763, 35.8052225481]}, "properties": {"species": "Hydnellum caeruleum", "date": "2024-08-11", "location": "Santa Fe National Forest, Tererro, NM, US", "elevation": 3282.0, "land_cover_label": "Tree cover", "water_mask": false, "exclude_reason": "keep", "ndvi": null, "soil_moisture": null, "solar_exposure": null, "wind_exposure": null, "water_retention": null, "slope": null, "aspect": null, "num_identification_agreements": 2, "cluster": 0, "tavg": null, "tmin": 18.9, "tmax": 31.1, "prcp_d0": 0.0, "prcp_d1": 5.943536281585693, "prcp_d2": 11.887072563171388, "prcp_d3": 11.887072563171388, "prcp_d4": 0.0, "prcp_d5": 5.943536281585693, "prcp_d6": 6.329019546508789, "tmax_d0": 18.2, "tmax_d1": 16.6, "tmax_d2": 14.9, "tmax_d3": 17.9, "tmax_d4": 19.8, "tmax_d5": 19.8, "tmax_d6": 20.1, "tmin_d0": 9.8, "tmin_d1": 8.0, "tmin_d2": 7.4, "tmin_d3": 7.6, "tmin_d4": 9.6, "tmin_d5": 7.3, "tmin_d6": 8.4, "day_of_year": 224, "uuid": "736c9ea0-7368-42a6-8993-e94947edc1ee", "inat_id": 235457302}}, {"type": "Feature", "geometry": {"type": "Point", "coordinates": [-105.8159557997, 39.6910026997]}, "properties": {"species": "Hydnellum caeruleum", "date": "2024-08-21", "location": "Keystone, CO 80435, USA", "elevation": 3029.0, "land_cover_label": "Tree cover", "water_mask": false, "exclude_reason": "keep", "ndvi": null, "soil_moisture": 0.3218909617211014, "solar_exposure": 0.5931693911552429, "wind_exposure": 0.1810019761323928, "water_retention": 0.4692453742027282, "slope": 19.28935432434082, "aspect": 18.90766716003418, "num_identification_agreements": 1, "cluster": 3, "tavg": null, "tmin": 2.7, "tmax": 14.6, "prcp_d0": 2.415258884429932, "prcp_d1": 0.0, "prcp_d2": 0.0, "prcp_d3": 0.0, "prcp_d4": 0.0, "prcp_d5": 0.0, "prcp_d6": 0.0, "tmax_d0": 22.7, "tmax_d1": 22.9, "tmax_d2": 20.8, "tmax_d3": 22.5, "tmax_d4": 22.7, "tmax_d5": 21.5, "tmax_d6": 19.3, "tmin_d0": 6.4, "tmin_d1": 7.0, "tmin_d2": 6.0, "tmin_d3": 7.4, "tmin_d4": 3.9, "tmin_d5": 4.5, "tmin_d6": 4.1, "day_of_year": 234, "uuid": "ca8b0b84-1cd0-4a0c-bfde-0c68722ba60e", "inat_id": 237190737}}, {"type": "Feature", "geometry": {"type": "Point", "coordinates": [-105.6906438613, 39.9072049545]}, "properties": {"species": "Hydnellum caeruleum", "date": "2024-08-22", "location": "Colorado, US", "elevation": 3594.0, "land_cover_label": "Moss and lichen", "water_mask": false, "exclude_reason": "keep", "ndvi": null, "soil_moisture": 0.2776759941401175, "solar_exposure": 0.7593221664428711, "wind_exposure": 0.5417293310165405, "water_retention": 0.1774524003267288, "slope": 17.61693572998047, "aspect": 280.8376770019531, "num_identification_agreements": 2, "cluster": 0, "tavg": null, "tmin": 3.6, "tmax": 11.4, "prcp_d0": 9.620004653930664, "prcp_d1": 1.9179987907409668, "prcp_d2": 0.0, "prcp_d3": 0.0, "prcp_d4": 0.0, "prcp_d5": 0.0, "prcp_d6": 0.0, "tmax_d0": 13.4, "tmax_d1": 17.8, "tmax_d2": 17.6, "tmax_d3": 16.7, "tmax_d4": 16.7, "tmax_d5": 18.4, "tmax_d6": 16.8, "tmin_d0": 4.3, "tmin_d1": 1.6, "tmin_d2": 2.6, "tmin_d3": 0.9, "tmin_d4": 1.6, "tmin_d5": 1.5, "tmin_d6": 0.5, "day_of_year": 235, "uuid": "d6a61b60-655b-4f4c-a14a-1c919d458f57", "inat_id": 237420212}}, {"type": "Feature", "geometry": {"type": "Point", "coordinates": [-105.4618538749, 36.7890117725]}, "properties": {"species": "Hydnellum caeruleum", "date": "2024-08-26", "location": "Taos County, US-NM, US", "elevation": 3589.0, "land_cover_label": "Tree cover", "water_mask": false, "exclude_reason": "keep", "ndvi": null, "soil_moisture": null, "solar_exposure": null, "wind_exposure": null, "water_retention": null, "slope": null, "aspect": null, "num_identification_agreements": 2, "cluster": 0, "tavg": null, "tmin": 13.3, "tmax": 24.4, "prcp_d0": 2.7138638496398926, "prcp_d1": 11.95705795288086, "prcp_d2": 1.6004889011383057, "prcp_d3": 2.093688726425171, "prcp_d4": 0.0, "prcp_d5": 3.764930248260498, "prcp_d6": 0.0, "tmax_d0": 13.4, "tmax_d1": 14.5, "tmax_d2": 15.2, "tmax_d3": 15.2, "tmax_d4": 16.8, "tmax_d5": 18.1, "tmax_d6": 18.6, "tmin_d0": 4.9, "tmin_d1": 3.6, "tmin_d2": 5.5, "tmin_d3": 5.2, "tmin_d4": 5.4, "tmin_d5": 6.9, "tmin_d6": 4.6, "day_of_year": 239, "uuid": "8b6c4e23-6db9-446d-a8ef-da3345aa92ca", "inat_id": 238348650}}, {"type": "Feature", "geometry": {"type": "Point", "coordinates": [-105.7981638889, 35.8014722222]}, "properties": {"species": "Hydnellum caeruleum", "date": "2024-08-29", "location": "Santa Fe County, NM, USA", "elevation": 3269.0, "land_cover_label": "Tree cover", "water_mask": false, "exclude_reason": "keep", "ndvi": null, "soil_moisture": null, "solar_exposure": null, "wind_exposure": null, "water_retention": null, "slope": null, "aspect": null, "num_identification_agreements": 1, "cluster": 0, "tavg": null, "tmin": 15.6, "tmax": 28.9, "prcp_d0": 2.6917762756347656, "prcp_d1": 0.4040963351726532, "prcp_d2": 4.634634494781494, "prcp_d3": 1.4237905740737915, "prcp_d4": 1.9023528099060056, "prcp_d5": 3.57135009765625, "prcp_d6": 3.3443503379821777, "tmax_d0": 14.6, "tmax_d1": 15.6, "tmax_d2": 15.8, "tmax_d3": 14.6, "tmax_d4": 16.0, "tmax_d5": 16.3, "tmax_d6": 17.2, "tmin_d0": 3.5, "tmin_d1": 5.5, "tmin_d2": 6.3, "tmin_d3": 6.9, "tmin_d4": 6.2, "tmin_d5": 7.5, "tmin_d6": 8.4, "day_of_year": 242, "uuid": "d950c59e-e733-484b-81f3-47854a881b08", "inat_id": 238979747}}, {"type": "Feature", "geometry": {"type": "Point", "coordinates": [-105.7562920304, 35.7724201883]}, "properties": {"species": "Hydnellum caeruleum", "date": "2024-09-06", "location": "Santa Fe National Forest, Tererro, NM, US", "elevation": 3373.0, "land_cover_label": "Tree cover", "water_mask": false, "exclude_reason": "keep", "ndvi": null, "soil_moisture": null, "solar_exposure": null, "wind_exposure": null, "water_retention": null, "slope": null, "aspect": null, "num_identification_agreements": 2, "cluster": 0, "tavg": null, "tmin": 10.0, "tmax": 26.1, "prcp_d0": 5.805318832397461, "prcp_d1": 12.731420516967772, "prcp_d2": 0.0, "prcp_d3": 0.0, "prcp_d4": 0.0, "prcp_d5": 0.0, "prcp_d6": 0.0, "tmax_d0": 14.1, "tmax_d1": 14.7, "tmax_d2": 17.6, "tmax_d3": 16.5, "tmax_d4": 13.5, "tmax_d5": 13.8, "tmax_d6": 14.6, "tmin_d0": 0.0, "tmin_d1": 2.2, "tmin_d2": 5.5, "tmin_d3": 2.9, "tmin_d4": -0.1, "tmin_d5": 2.6, "tmin_d6": 2.7, "day_of_year": 250, "uuid": "ad0ee914-710b-464f-add5-4d9fb4475182", "inat_id": 240255551}}, {"type": "Feature", "geometry": {"type": "Point", "coordinates": [-121.7379110679, 45.2783663847]}, "properties": {"species": "Hydnellum caeruleum", "date": "2024-09-15", "location": "Clackamas County, US-OR, US", "elevation": 1143.0, "land_cover_label": "Tree cover", "water_mask": false, "exclude_reason": "keep", "ndvi": null, "soil_moisture": null, "solar_exposure": null, "wind_exposure": null, "water_retention": null, "slope": null, "aspect": null, "num_identification_agreements": 1, "cluster": 0, "tavg": null, "tmin": 11.3, "tmax": 21.2, "prcp_d0": 0.0, "prcp_d1": 0.0, "prcp_d2": 0.0, "prcp_d3": 0.0, "prcp_d4": 9.45176887512207, "prcp_d5": 0.0, "prcp_d6": 0.0, "tmax_d0": null, "tmax_d1": null, "tmax_d2": null, "tmax_d3": null, "tmax_d4": null, "tmax_d5": null, "tmax_d6": null, "tmin_d0": null, "tmin_d1": null, "tmin_d2": null, "tmin_d3": null, "tmin_d4": null, "tmin_d5": null, "tmin_d6": null, "day_of_year": 259, "uuid": "49009940-f9d9-4cbb-a756-7f9d5e4e7513", "inat_id": 242220813}}, {"type": "Feature", "geometry": {"type": "Point", "coordinates": [-122.1766770218, 45.3731251575]}, "properties": {"species": "Hydnellum caeruleum", "date": "2024-09-16", "location": "Clackamas County, US-OR, US", "elevation": 388.0, "land_cover_label": "Tree cover", "water_mask": false, "exclude_reason": "keep", "ndvi": null, "soil_moisture": null, "solar_exposure": null, "wind_exposure": null, "water_retention": null, "slope": null, "aspect": null, "num_identification_agreements": 1, "cluster": 2, "tavg": null, "tmin": 10.0, "tmax": 25.0, "prcp_d0": 0.0, "prcp_d1": 5.080763816833496, "prcp_d2": 0.5026659369468689, "prcp_d3": 1.1752302646636963, "prcp_d4": 9.781880378723145, "prcp_d5": 22.00474166870117, "prcp_d6": 0.0, "tmax_d0": null, "tmax_d1": null, "tmax_d2": null, "tmax_d3": null, "tmax_d4": null, "tmax_d5": null, "tmax_d6": null, "tmin_d0": null, "tmin_d1": null, "tmin_d2": null, "tmin_d3": null, "tmin_d4": null, "tmin_d5": null, "tmin_d6": null, "day_of_year": 260, "uuid": "ded11969-40ed-41fb-9f84-e4123363cbff", "inat_id": 242192293}}, {"type": "Feature", "geometry": {"type": "Point", "coordinates": [-107.14380156, 38.8661172668]}, "properties": {"species": "Hydnellum caeruleum", "date": "2024-09-18", "location": "Gunnison County, US-CO, US", "elevation": 2975.0, "land_cover_label": "Tree cover", "water_mask": false, "exclude_reason": "keep", "ndvi": null, "soil_moisture": null, "solar_exposure": null, "wind_exposure": null, "water_retention": null, "slope": null, "aspect": null, "num_identification_agreements": 1, "cluster": 0, "tavg": null, "tmin": -1.1, "tmax": 20.6, "prcp_d0": 0.0, "prcp_d1": 0.0, "prcp_d2": 0.0, "prcp_d3": 2.275073766708374, "prcp_d4": 2.587410108390032e-07, "prcp_d5": 0.005514055956155, "prcp_d6": 0.4644016623497009, "tmax_d0": 12.1, "tmax_d1": 12.5, "tmax_d2": 12.5, "tmax_d3": 15.2, "tmax_d4": 17.5, "tmax_d5": 15.4, "tmax_d6": 17.4, "tmin_d0": 1.7, "tmin_d1": 4.7, "tmin_d2": 4.0, "tmin_d3": 1.8, "tmin_d4": 2.3, "tmin_d5": 5.2, "tmin_d6": 4.0, "day_of_year": 262, "uuid": "6accd76a-0655-4eaa-9121-673e1be8784c", "inat_id": 242758877}}, {"type": "Feature", "geometry": {"type": "Point", "coordinates": [-121.8278366667, 45.3136466667]}, "properties": {"species": "Hydnellum caeruleum", "date": "2024-09-28", "location": "Mt. Hood Park Division Recreation Area, Government Camp, OR, US", "elevation": 823.0, "land_cover_label": "Tree cover", "water_mask": false, "exclude_reason": "keep", "ndvi": null, "soil_moisture": null, "solar_exposure": null, "wind_exposure": null, "water_retention": null, "slope": null, "aspect": null, "num_identification_agreements": 1, "cluster": 0, "tavg": null, "tmin": 11.8, "tmax": 26.0, "prcp_d0": 0.0, "prcp_d1": 0.0, "prcp_d2": 0.0, "prcp_d3": 8.39395523071289, "prcp_d4": 0.0, "prcp_d5": 0.0, "prcp_d6": 0.0, "tmax_d0": null, "tmax_d1": null, "tmax_d2": null, "tmax_d3": null, "tmax_d4": null, "tmax_d5": null, "tmax_d6": null, "tmin_d0": null, "tmin_d1": null, "tmin_d2": null, "tmin_d3": null, "tmin_d4": null, "tmin_d5": null, "tmin_d6": null, "day_of_year": 272, "uuid": "e901caef-6804-430c-8273-5190931d67c9", "inat_id": 244616885}}, {"type": "Feature", "geometry": {"type": "Point", "coordinates": [-105.1091778333, 38.0588305]}, "properties": {"species": "Hydnellum caeruleum", "date": "2025-07-19", "location": "Pike and San Isabel National Forests, Rye, CO, US", "elevation": 2742.0, "land_cover_label": "Tree cover", "water_mask": false, "exclude_reason": "keep", "ndvi": null, "soil_moisture": null, "solar_exposure": null, "wind_exposure": null, "water_retention": null, "slope": null, "aspect": null, "num_identification_agreements": 1, "cluster": 0, "tavg": null, "tmin": 18.0, "tmax": 35.0, "prcp_d0": 0.0, "prcp_d1": 0.0, "prcp_d2": 10.322165489196776, "prcp_d3": 0.0, "prcp_d4": 2.8968770503997803, "prcp_d5": 0.0, "prcp_d6": 5.7937541007995605, "tmax_d0": 21.8, "tmax_d1": 23.1, "tmax_d2": 21.3, "tmax_d3": 22.4, "tmax_d4": 25.3, "tmax_d5": 23.5, "tmax_d6": 21.7, "tmin_d0": 12.1, "tmin_d1": 10.5, "tmin_d2": 10.5, "tmin_d3": 11.7, "tmin_d4": 11.6, "tmin_d5": 10.9, "tmin_d6": 10.2, "day_of_year": 200, "uuid": "77cf2364-7804-4223-b30d-77d8c18bc6c6", "inat_id": 343932289}}, {"type": "Feature", "geometry": {"type": "Point", "coordinates": [-105.7925438505, 35.7944857884]}, "properties": {"species": "Hydnellum caeruleum", "date": "2025-08-28", "location": "Santa Fe National Forest, Tererro, NM, US", "elevation": 3365.0, "land_cover_label": "Tree cover", "water_mask": false, "exclude_reason": "keep", "ndvi": null, "soil_moisture": null, "solar_exposure": null, "wind_exposure": null, "water_retention": null, "slope": null, "aspect": null, "num_identification_agreements": 1, "cluster": 1, "tavg": null, "tmin": 13.0, "tmax": 28.0, "prcp_d0": 0.0, "prcp_d1": 29.806293487548828, "prcp_d2": 29.806293487548828, "prcp_d3": 7.914974212646484, "prcp_d4": 3.957487106323242, "prcp_d5": 3.957487106323242, "prcp_d6": 3.957487106323242, "tmax_d0": 16.6, "tmax_d1": 13.1, "tmax_d2": 14.9, "tmax_d3": 16.1, "tmax_d4": 17.0, "tmax_d5": 18.3, "tmax_d6": 20.4, "tmin_d0": 4.6, "tmin_d1": 6.2, "tmin_d2": 6.0, "tmin_d3": 6.3, "tmin_d4": 6.8, "tmin_d5": 4.9, "tmin_d6": 5.7, "day_of_year": 240, "uuid": "81c6f959-8f65-4801-8bc0-70784774d105", "inat_id": 310053263}}, {"type": "Feature", "geometry": {"type": "Point", "coordinates": [-121.722657861, 45.8004981816]}, "properties": {"species": "Hydnellum caeruleum", "date": "2025-09-13", "location": "Washington, US", "elevation": 809.0, "land_cover_label": "Tree cover", "water_mask": false, "exclude_reason": "keep", "ndvi": null, "soil_moisture": null, "solar_exposure": null, "wind_exposure": null, "water_retention": null, "slope": null, "aspect": null, "num_identification_agreements": 1, "cluster": 0, "tavg": null, "tmin": 10.0, "tmax": 27.0, "prcp_d0": 0.0, "prcp_d1": 0.0, "prcp_d2": 0.0, "prcp_d3": 0.0, "prcp_d4": 0.0, "prcp_d5": 0.0, "prcp_d6": 9.83089828491211, "tmax_d0": null, "tmax_d1": null, "tmax_d2": null, "tmax_d3": null, "tmax_d4": null, "tmax_d5": null, "tmax_d6": null, "tmin_d0": null, "tmin_d1": null, "tmin_d2": null, "tmin_d3": null, "tmin_d4": null, "tmin_d5": null, "tmin_d6": null, "day_of_year": 256, "uuid": "1b0b9383-ba99-4851-ba5e-b905656e1c48", "inat_id": 313847404}}, {"type": "Feature", "geometry": {"type": "Point", "coordinates": [-121.7752025847, 45.8025570464]}, "properties": {"species": "Hydnellum caeruleum", "date": "2025-10-05", "location": "Washington, US", "elevation": 823.0, "land_cover_label": "Tree cover", "water_mask": false, "exclude_reason": "keep", "ndvi": null, "soil_moisture": null, "solar_exposure": null, "wind_exposure": null, "water_retention": null, "slope": null, "aspect": null, "num_identification_agreements": 1, "cluster": 0, "tavg": null, "tmin": 5.0, "tmax": 21.0, "prcp_d0": 0.0, "prcp_d1": 0.0, "prcp_d2": 0.0, "prcp_d3": 0.0, "prcp_d4": 0.0, "prcp_d5": 0.0, "prcp_d6": 24.64080238342285, "tmax_d0": null, "tmax_d1": null, "tmax_d2": null, "tmax_d3": null, "tmax_d4": null, "tmax_d5": null, "tmax_d6": null, "tmin_d0": null, "tmin_d1": null, "tmin_d2": null, "tmin_d3": null, "tmin_d4": null, "tmin_d5": null, "tmin_d6": null, "day_of_year": 278, "uuid": "7f03e9e6-d243-41ef-8b62-a330eb79428d", "inat_id": 319067663}}, {"type": "Feature", "geometry": {"type": "Point", "coordinates": [-121.6865555556, 45.8176444444]}, "properties": {"species": "Hydnellum caeruleum", "date": "2025-10-22", "location": "Cook, WA 98605, USA", "elevation": 626.0, "land_cover_label": "Tree cover", "water_mask": false, "exclude_reason": "keep", "ndvi": null, "soil_moisture": null, "solar_exposure": null, "wind_exposure": null, "water_retention": null, "slope": null, "aspect": null, "num_identification_agreements": 1, "cluster": 0, "tavg": null, "tmin": 2.0, "tmax": 17.0, "prcp_d0": 0.0, "prcp_d1": 0.0, "prcp_d2": 0.0, "prcp_d3": 0.0, "prcp_d4": 0.0, "prcp_d5": 0.0, "prcp_d6": 0.0, "tmax_d0": null, "tmax_d1": null, "tmax_d2": null, "tmax_d3": null, "tmax_d4": null, "tmax_d5": null, "tmax_d6": null, "tmin_d0": null, "tmin_d1": null, "tmin_d2": null, "tmin_d3": null, "tmin_d4": null, "tmin_d5": null, "tmin_d6": null, "day_of_year": 295, "uuid": "8b1c99ab-26c5-4fae-96cd-58cd229e502b", "inat_id": 322705058}}, {"type": "Feature", "geometry": {"type": "Point", "coordinates": [-105.6591391997, 39.6779644]}, "properties": {"species": "Hydnellum caeruleum", "date": "2026-07-22", "location": "Idaho Springs, CO 80452, USA", "elevation": 2950.0, "land_cover_label": "Tree cover", "water_mask": false, "exclude_reason": "keep", "ndvi": null, "soil_moisture": 0.2688369609252219, "solar_exposure": 0.906999409198761, "wind_exposure": 0.1804141402244568, "water_retention": 0.1534621864557266, "slope": 12.768607139587402, "aspect": 133.995361328125, "num_identification_agreements": 1, "cluster": 0, "tavg": null, "tmin": 6.0, "tmax": 13.0, "prcp_d0": 0.0, "prcp_d1": 0.0, "prcp_d2": 0.0, "prcp_d3": 0.0, "prcp_d4": 0.0, "prcp_d5": 0.0, "prcp_d6": 0.0, "tmax_d0": 23.8, "tmax_d1": 23.8, "tmax_d2": 26.9, "tmax_d3": 25.2, "tmax_d4": 22.5, "tmax_d5": 21.4, "tmax_d6": 21.0, "tmin_d0": 10.7, "tmin_d1": 11.1, "tmin_d2": 11.3, "tmin_d3": 9.5, "tmin_d4": 7.7, "tmin_d5": 8.6, "tmin_d6": 9.0, "day_of_year": 203, "uuid": "b1355ed5-d152-4156-82a3-252ac0b130f7", "inat_id": 384066729}}]}