{"type": "FeatureCollection", "features": [{"type": "Feature", "geometry": {"type": "Point", "coordinates": [-105.75, 39.891]}, "properties": {"species": "Hydnellum suaveolens", "date": "2013-09-21", "location": "Grand County, CO, USA", "elevation": 2876.0, "land_cover_label": "Tree cover", "water_mask": false, "exclude_reason": "keep", "ndvi": null, "soil_moisture": 0.3597444915771486, "solar_exposure": 0.7949423789978027, "wind_exposure": 0.3543735444545746, "water_retention": 0.1631649136543274, "slope": 11.10293960571289, "aspect": 282.7836303710937, "num_identification_agreements": 3, "cluster": 3, "tavg": null, "tmin": 7.0, "tmax": 15.0, "prcp_d0": 0.0, "prcp_d1": 0.0, "prcp_d2": 7.594725131988525, "prcp_d3": 7.594725131988525, "prcp_d4": 0.0, "prcp_d5": 0.0, "prcp_d6": 0.0, "tmax_d0": 17.7, "tmax_d1": 16.6, "tmax_d2": 13.6, "tmax_d3": 17.2, "tmax_d4": 18.3, "tmax_d5": 15.4, "tmax_d6": 12.7, "tmin_d0": 1.6, "tmin_d1": -0.9, "tmin_d2": 3.3, "tmin_d3": 6.7, "tmin_d4": 3.8, "tmin_d5": 4.3, "tmin_d6": 4.7, "day_of_year": 264, "uuid": "379e729f-f704-46e3-9d32-5a96958c7ffc", "inat_id": 21274966}}, {"type": "Feature", "geometry": {"type": "Point", "coordinates": [-105.5255548283, 40.1943993308]}, "properties": {"species": "Hydnellum suaveolens", "date": "2018-08-28", "location": "Allenspark, CO, USA", "elevation": 2598.0, "land_cover_label": "Bare / sparse vegetation", "water_mask": false, "exclude_reason": "keep", "ndvi": null, "soil_moisture": 0.3303887282780229, "solar_exposure": 0.8324307203292847, "wind_exposure": 0.3041056990623474, "water_retention": 0.2140217423439026, "slope": 5.273809432983398, "aspect": 86.62887573242188, "num_identification_agreements": 1, "cluster": 2, "tavg": null, "tmin": 12.0, "tmax": 22.0, "prcp_d0": 0.0, "prcp_d1": 12.122332572937012, "prcp_d2": 0.0, "prcp_d3": 0.0, "prcp_d4": 0.0, "prcp_d5": 0.0, "prcp_d6": 5.875651836395264, "tmax_d0": 18.3, "tmax_d1": 20.3, "tmax_d2": 19.5, "tmax_d3": 21.7, "tmax_d4": 21.0, "tmax_d5": 19.0, "tmax_d6": 18.4, "tmin_d0": 8.0, "tmin_d1": 10.4, "tmin_d2": 10.4, "tmin_d3": 10.2, "tmin_d4": 9.9, "tmin_d5": 8.1, "tmin_d6": 8.5, "day_of_year": 240, "uuid": "a0df5df7-f158-4562-81bf-b5ebd4fe5840", "inat_id": 324685568}}, {"type": "Feature", "geometry": {"type": "Point", "coordinates": [-107.8122466667, 37.6608583333]}, "properties": {"species": "Hydnellum suaveolens", "date": "2019-08-17", "location": "San Juan National Forest, CO, US", "elevation": 2708.0, "land_cover_label": "Tree cover", "water_mask": false, "exclude_reason": "keep", "ndvi": null, "soil_moisture": null, "solar_exposure": null, "wind_exposure": null, "water_retention": null, "slope": null, "aspect": null, "num_identification_agreements": 1, "cluster": 2, "tavg": null, "tmin": 12.0, "tmax": 23.0, "prcp_d0": 0.0, "prcp_d1": 0.0, "prcp_d2": 0.0, "prcp_d3": 0.0, "prcp_d4": 0.0, "prcp_d5": 0.0, "prcp_d6": 0.0, "tmax_d0": 22.7, "tmax_d1": 22.3, "tmax_d2": 24.0, "tmax_d3": 24.0, "tmax_d4": 22.7, "tmax_d5": 22.2, "tmax_d6": 18.7, "tmin_d0": 6.4, "tmin_d1": 5.9, "tmin_d2": 5.8, "tmin_d3": 3.2, "tmin_d4": 3.1, "tmin_d5": 4.1, "tmin_d6": 9.4, "day_of_year": 229, "uuid": "7f449e60-e8e7-4397-b39a-340e27c032a2", "inat_id": 31206051}}, {"type": "Feature", "geometry": {"type": "Point", "coordinates": [-105.56877833, 39.51123833]}, "properties": {"species": "Hydnellum suaveolens", "date": "2020-07-30", "location": "Pike and San Isabel National Forests, Bailey, CO, US", "elevation": 2858.0, "land_cover_label": "Tree cover", "water_mask": false, "exclude_reason": "keep", "ndvi": null, "soil_moisture": 0.3544162069467874, "solar_exposure": 0.7742212414741516, "wind_exposure": 0.1707979291677475, "water_retention": 0.1743489652872085, "slope": 9.439126014709473, "aspect": 58.50780487060547, "num_identification_agreements": 1, "cluster": 2, "tavg": null, "tmin": null, "tmax": null, "prcp_d0": 0.0, "prcp_d1": 0.0, "prcp_d2": 0.0, "prcp_d3": 0.0, "prcp_d4": 9.108113288879396, "prcp_d5": 4.883981227874756, "prcp_d6": 0.0, "tmax_d0": 19.8, "tmax_d1": 21.1, "tmax_d2": 17.8, "tmax_d3": 17.9, "tmax_d4": 17.3, "tmax_d5": 17.4, "tmax_d6": 22.3, "tmin_d0": 5.7, "tmin_d1": 5.5, "tmin_d2": 7.8, "tmin_d3": 8.8, "tmin_d4": 9.0, "tmin_d5": 8.2, "tmin_d6": 10.6, "day_of_year": 212, "uuid": "987852a6-cdda-4774-b534-5b9b0fcc4534", "inat_id": 55226565}}, {"type": "Feature", "geometry": {"type": "Point", "coordinates": [-105.669105, 40.80402]}, "properties": {"species": "Hydnellum suaveolens", "date": "2021-08-01", "location": "Arapaho & Roosevelt National Forests Pawnee National Grassland, Red Feather Lakes, CO, US", "elevation": 2826.0, "land_cover_label": "Tree cover", "water_mask": false, "exclude_reason": "keep", "ndvi": null, "soil_moisture": 0.3956084680461123, "solar_exposure": 0.8510445356369019, "wind_exposure": 0.2657950818538666, "water_retention": 0.3001829385757446, "slope": 5.873860836029053, "aspect": 105.29568481445312, "num_identification_agreements": 1, "cluster": 3, "tavg": null, "tmin": null, "tmax": null, "prcp_d0": 0.0, "prcp_d1": 5.2874627113342285, "prcp_d2": 21.14985084533692, "prcp_d3": 0.0, "prcp_d4": 0.0, "prcp_d5": 0.0, "prcp_d6": 0.0, "tmax_d0": 17.0, "tmax_d1": 15.9, "tmax_d2": 21.6, "tmax_d3": 24.2, "tmax_d4": 26.1, "tmax_d5": 24.3, "tmax_d6": 23.1, "tmin_d0": 6.3, "tmin_d1": 9.6, "tmin_d2": 9.3, "tmin_d3": 9.3, "tmin_d4": 8.8, "tmin_d5": 4.7, "tmin_d6": 9.5, "day_of_year": 213, "uuid": "87454f02-afdf-41b1-b8bc-99866d6a3dd4", "inat_id": 90161262}}, {"type": "Feature", "geometry": {"type": "Point", "coordinates": [-105.8001818636, 39.9040371913]}, "properties": {"species": "Hydnellum suaveolens", "date": "2021-08-13", "location": "Grand County, US-CO, US", "elevation": 2784.0, "land_cover_label": "Tree cover", "water_mask": false, "exclude_reason": "keep", "ndvi": null, "soil_moisture": 0.3125367028393221, "solar_exposure": 0.7820290923118591, "wind_exposure": 0.3218693137168884, "water_retention": 0.4980806410312652, "slope": 7.627445697784424, "aspect": 307.4436950683594, "num_identification_agreements": 1, "cluster": 2, "tavg": null, "tmin": 7.7, "tmax": 27.3, "prcp_d0": 3.092546939849853, "prcp_d1": 3.092546939849853, "prcp_d2": 0.0, "prcp_d3": 0.0, "prcp_d4": 0.0, "prcp_d5": 0.0, "prcp_d6": 0.0, "tmax_d0": 21.4, "tmax_d1": 22.9, "tmax_d2": 23.1, "tmax_d3": 21.8, "tmax_d4": 22.1, "tmax_d5": 22.2, "tmax_d6": 18.9, "tmin_d0": 6.3, "tmin_d1": 9.0, "tmin_d2": 7.6, "tmin_d3": 8.6, "tmin_d4": 8.3, "tmin_d5": 5.2, "tmin_d6": 6.9, "day_of_year": 225, "uuid": "1275cd9b-d048-48a7-a2be-e6323baf7714", "inat_id": 91068980}}, {"type": "Feature", "geometry": {"type": "Point", "coordinates": [-105.8278195002, 39.8926170124]}, "properties": {"species": "Hydnellum suaveolens", "date": "2021-08-13", "location": "Grand County, US-CO, US", "elevation": 2877.0, "land_cover_label": "Tree cover", "water_mask": false, "exclude_reason": "keep", "ndvi": null, "soil_moisture": 0.3147071651567758, "solar_exposure": 0.8263973593711853, "wind_exposure": 0.2802658379077911, "water_retention": 0.5158238410949707, "slope": 2.045217752456665, "aspect": 307.4436950683594, "num_identification_agreements": 2, "cluster": 2, "tavg": null, "tmin": 7.7, "tmax": 27.3, "prcp_d0": 3.007849931716919, "prcp_d1": 3.007849931716919, "prcp_d2": 0.0, "prcp_d3": 0.0, "prcp_d4": 0.0, "prcp_d5": 0.0, "prcp_d6": 0.0, "tmax_d0": 20.7, "tmax_d1": 22.1, "tmax_d2": 22.3, "tmax_d3": 21.1, "tmax_d4": 21.3, "tmax_d5": 21.5, "tmax_d6": 18.1, "tmin_d0": 5.5, "tmin_d1": 8.2, "tmin_d2": 6.9, "tmin_d3": 7.9, "tmin_d4": 7.6, "tmin_d5": 4.5, "tmin_d6": 6.1, "day_of_year": 225, "uuid": "6bfa7f64-ef3f-44c9-86b7-53d90b722e64", "inat_id": 91047865}}, {"type": "Feature", "geometry": {"type": "Point", "coordinates": [-105.7713916667, 39.8226305556]}, "properties": {"species": "Hydnellum suaveolens", "date": "2021-08-14", "location": "Winter Park, CO 80482, USA", "elevation": 3282.0, "land_cover_label": "Tree cover", "water_mask": false, "exclude_reason": "keep", "ndvi": null, "soil_moisture": 0.3245115322319389, "solar_exposure": 0.7514186501502991, "wind_exposure": 0.2535563707351684, "water_retention": 0.4055663645267486, "slope": 11.572701454162598, "aspect": 56.17609786987305, "num_identification_agreements": 2, "cluster": 2, "tavg": null, "tmin": 6.0, "tmax": 28.3, "prcp_d0": 4.631547927856445, "prcp_d1": 4.631547927856445, "prcp_d2": 0.0, "prcp_d3": 0.0, "prcp_d4": 0.0, "prcp_d5": 0.0, "prcp_d6": 0.0, "tmax_d0": 20.2, "tmax_d1": 16.7, "tmax_d2": 18.6, "tmax_d3": 20.1, "tmax_d4": 17.6, "tmax_d5": 17.9, "tmax_d6": 18.6, "tmin_d0": 6.4, "tmin_d1": 4.3, "tmin_d2": 8.4, "tmin_d3": 5.6, "tmin_d4": 6.0, "tmin_d5": 5.9, "tmin_d6": 3.4, "day_of_year": 226, "uuid": "de99d5ff-bec3-465e-af3a-39dc86a594b3", "inat_id": 91184701}}, {"type": "Feature", "geometry": {"type": "Point", "coordinates": [-105.7952018736, 39.8967685371]}, "properties": {"species": "Hydnellum suaveolens", "date": "2021-08-14", "location": "Grand County, US-CO, US", "elevation": 2824.0, "land_cover_label": "Tree cover", "water_mask": false, "exclude_reason": "keep", "ndvi": null, "soil_moisture": 0.3105848841403562, "solar_exposure": 0.798048734664917, "wind_exposure": 0.268049955368042, "water_retention": 0.5971682071685791, "slope": 4.063360691070557, "aspect": 336.476806640625, "num_identification_agreements": 1, "cluster": 2, "tavg": null, "tmin": 6.0, "tmax": 28.3, "prcp_d0": 2.797855854034424, "prcp_d1": 2.797855854034424, "prcp_d2": 0.0, "prcp_d3": 0.0, "prcp_d4": 0.0, "prcp_d5": 0.0, "prcp_d6": 0.0, "tmax_d0": 23.6, "tmax_d1": 21.1, "tmax_d2": 22.6, "tmax_d3": 22.8, "tmax_d4": 21.5, "tmax_d5": 21.8, "tmax_d6": 21.9, "tmin_d0": 6.7, "tmin_d1": 6.0, "tmin_d2": 8.7, "tmin_d3": 7.3, "tmin_d4": 8.3, "tmin_d5": 8.0, "tmin_d6": 4.9, "day_of_year": 226, "uuid": "f4967226-8598-4bb4-ad15-f14a780067b6", "inat_id": 91192685}}, {"type": "Feature", "geometry": {"type": "Point", "coordinates": [-105.8228792903, 39.8652310297]}, "properties": {"species": "Hydnellum suaveolens", "date": "2021-08-14", "location": "Grand County, US-CO, US", "elevation": 2879.0, "land_cover_label": "Tree cover", "water_mask": false, "exclude_reason": "keep", "ndvi": null, "soil_moisture": 0.3142048657346015, "solar_exposure": 0.8478504419326782, "wind_exposure": 0.1125507652759552, "water_retention": 0.2823489308357239, "slope": 13.200050354003906, "aspect": 104.74755096435548, "num_identification_agreements": 3, "cluster": 2, "tavg": null, "tmin": 6.0, "tmax": 28.3, "prcp_d0": 3.007849931716919, "prcp_d1": 3.007849931716919, "prcp_d2": 3.007849931716919, "prcp_d3": 0.0, "prcp_d4": 0.0, "prcp_d5": 0.0, "prcp_d6": 0.0, "tmax_d0": 22.9, "tmax_d1": 20.4, "tmax_d2": 21.9, "tmax_d3": 22.1, "tmax_d4": 20.8, "tmax_d5": 21.1, "tmax_d6": 21.2, "tmin_d0": 6.0, "tmin_d1": 5.3, "tmin_d2": 8.0, "tmin_d3": 6.6, "tmin_d4": 7.6, "tmin_d5": 7.3, "tmin_d6": 4.2, "day_of_year": 226, "uuid": "dd280520-87e1-491d-a814-01a3fed3424a", "inat_id": 91200297}}, {"type": "Feature", "geometry": {"type": "Point", "coordinates": [-105.7951333333, 39.9052166667]}, "properties": {"species": "Hydnellum suaveolens", "date": "2021-08-14", "location": "Arapaho & Roosevelt National Forests Pawnee National Grassland, Winter Park, CO, US", "elevation": 2766.0, "land_cover_label": "Tree cover", "water_mask": false, "exclude_reason": "keep", "ndvi": null, "soil_moisture": 0.3062616936830717, "solar_exposure": 0.8014716506004333, "wind_exposure": 0.298814058303833, "water_retention": 0.5736369490623474, "slope": 6.104280471801758, "aspect": 300.5002746582031, "num_identification_agreements": 3, "cluster": 2, "tavg": null, "tmin": 6.0, "tmax": 28.3, "prcp_d0": 0.0, "prcp_d1": 6.066195011138916, "prcp_d2": 0.0, "prcp_d3": 0.0, "prcp_d4": 0.0, "prcp_d5": 0.0, "prcp_d6": 0.0, "tmax_d0": 24.0, "tmax_d1": 21.5, "tmax_d2": 22.9, "tmax_d3": 23.1, "tmax_d4": 21.9, "tmax_d5": 22.1, "tmax_d6": 22.3, "tmin_d0": 7.0, "tmin_d1": 6.3, "tmin_d2": 9.0, "tmin_d3": 7.7, "tmin_d4": 8.7, "tmin_d5": 8.4, "tmin_d6": 5.3, "day_of_year": 226, "uuid": "1f12c606-b5e7-445d-bb0b-5840f1d99b1b", "inat_id": 91249815}}, {"type": "Feature", "geometry": {"type": "Point", "coordinates": [-105.6247672381, 39.9871384316]}, "properties": {"species": "Hydnellum suaveolens", "date": "2021-08-15", "location": "Boulder County, US-CO, US", "elevation": 3038.0, "land_cover_label": "Tree cover", "water_mask": false, "exclude_reason": "keep", "ndvi": null, "soil_moisture": 0.2832872895111607, "solar_exposure": 0.9091813564300536, "wind_exposure": 0.1926683783531189, "water_retention": 0.5393968224525452, "slope": 9.788434982299805, "aspect": 215.1136016845703, "num_identification_agreements": 1, "cluster": 2, "tavg": null, "tmin": 6.8, "tmax": 22.9, "prcp_d0": 3.5014209747314453, "prcp_d1": 0.0, "prcp_d2": 3.5014209747314453, "prcp_d3": 0.0, "prcp_d4": 0.0, "prcp_d5": 0.0, "prcp_d6": 0.0, "tmax_d0": 18.7, "tmax_d1": 21.5, "tmax_d2": 16.7, "tmax_d3": 20.1, "tmax_d4": 21.0, "tmax_d5": 19.2, "tmax_d6": 19.1, "tmin_d0": 7.0, "tmin_d1": 6.3, "tmin_d2": 5.5, "tmin_d3": 6.2, "tmin_d4": 6.0, "tmin_d5": 6.5, "tmin_d6": 9.0, "day_of_year": 227, "uuid": "2a79e980-f712-4548-b6cd-b929413e94ca", "inat_id": 91425724}}, {"type": "Feature", "geometry": {"type": "Point", "coordinates": [-105.697005, 40.8850166667]}, "properties": {"species": "Hydnellum suaveolens", "date": "2022-07-26", "location": "Arapaho & Roosevelt National Forests Pawnee National Grassland, Red Feather Lakes, CO, US", "elevation": 2852.0, "land_cover_label": "Tree cover", "water_mask": false, "exclude_reason": "keep", "ndvi": null, "soil_moisture": 0.2546218253178357, "solar_exposure": 0.6814186573028564, "wind_exposure": 0.3299951553344726, "water_retention": 0.1520231515169143, "slope": 13.034734725952148, "aspect": 15.995305061340332, "num_identification_agreements": 1, "cluster": 1, "tavg": null, "tmin": 12.6, "tmax": 22.4, "prcp_d0": 0.0, "prcp_d1": 0.0, "prcp_d2": 10.511093139648438, "prcp_d3": 0.0, "prcp_d4": 0.0, "prcp_d5": 0.0, "prcp_d6": 0.0, "tmax_d0": 22.3, "tmax_d1": 22.3, "tmax_d2": 18.5, "tmax_d3": 23.6, "tmax_d4": 23.7, "tmax_d5": 23.6, "tmax_d6": 22.7, "tmin_d0": 9.7, "tmin_d1": 7.6, "tmin_d2": 8.2, "tmin_d3": 11.4, "tmin_d4": 8.6, "tmin_d5": 9.2, "tmin_d6": 9.2, "day_of_year": 207, "uuid": "6e07304e-d1b1-45db-a598-5332f8543465", "inat_id": 129195584}}, {"type": "Feature", "geometry": {"type": "Point", "coordinates": [-105.3952716667, 39.5617833333]}, "properties": {"species": "Hydnellum suaveolens", "date": "2022-07-31", "location": "Arapaho & Roosevelt National Forests Pawnee National Grassland, Conifer, CO, US", "elevation": 2733.0, "land_cover_label": "Tree cover", "water_mask": false, "exclude_reason": "keep", "ndvi": null, "soil_moisture": 0.3466360043269903, "solar_exposure": 0.8969992399215698, "wind_exposure": 0.3450909554958343, "water_retention": 0.2065454721450805, "slope": 5.888103008270264, "aspect": 180.0, "num_identification_agreements": 1, "cluster": 0, "tavg": null, "tmin": 4.0, "tmax": 13.6, "prcp_d0": 0.0, "prcp_d1": 0.0, "prcp_d2": 0.0, "prcp_d3": 14.92923355102539, "prcp_d4": 0.0, "prcp_d5": 0.0, "prcp_d6": 20.309484481811523, "tmax_d0": 21.3, "tmax_d1": 20.9, "tmax_d2": 17.3, "tmax_d3": 19.5, "tmax_d4": 23.2, "tmax_d5": 21.4, "tmax_d6": 21.6, "tmin_d0": 8.9, "tmin_d1": 7.3, "tmin_d2": 10.8, "tmin_d3": 10.1, "tmin_d4": 9.0, "tmin_d5": 8.6, "tmin_d6": 8.3, "day_of_year": 212, "uuid": "d42b7f71-8df2-4298-a329-fd4ea99aa4fe", "inat_id": 128928383}}, {"type": "Feature", "geometry": {"type": "Point", "coordinates": [-107.9079411425, 37.4983708287]}, "properties": {"species": "Hydnellum suaveolens", "date": "2022-08-04", "location": "Colorado, US", "elevation": 2429.0, "land_cover_label": "Tree cover", "water_mask": false, "exclude_reason": "keep", "ndvi": null, "soil_moisture": null, "solar_exposure": null, "wind_exposure": null, "water_retention": null, "slope": null, "aspect": null, "num_identification_agreements": 2, "cluster": 2, "tavg": null, "tmin": 15.6, "tmax": 30.0, "prcp_d0": 0.0, "prcp_d1": 0.0, "prcp_d2": 0.0, "prcp_d3": 0.0, "prcp_d4": 19.629375457763672, "prcp_d5": 0.0, "prcp_d6": 0.0, "tmax_d0": 25.6, "tmax_d1": 26.2, "tmax_d2": 24.4, "tmax_d3": 24.4, "tmax_d4": 21.2, "tmax_d5": 20.2, "tmax_d6": 20.2, "tmin_d0": 9.6, "tmin_d1": 8.8, "tmin_d2": 8.8, "tmin_d3": 8.5, "tmin_d4": 8.9, "tmin_d5": 8.9, "tmin_d6": 11.7, "day_of_year": 216, "uuid": "94801679-91b3-4588-888f-d305949b7aa3", "inat_id": 129492500}}, {"type": "Feature", "geometry": {"type": "Point", "coordinates": [-105.0968695, 37.9421366667]}, "properties": {"species": "Hydnellum suaveolens", "date": "2022-08-06", "location": "Pike and San Isabel National Forests, Gardner, CO, US", "elevation": 3439.0, "land_cover_label": "Tree cover", "water_mask": false, "exclude_reason": "keep", "ndvi": null, "soil_moisture": null, "solar_exposure": null, "wind_exposure": null, "water_retention": null, "slope": null, "aspect": null, "num_identification_agreements": 2, "cluster": 2, "tavg": null, "tmin": 19.5, "tmax": 32.8, "prcp_d0": 0.0, "prcp_d1": 4.248195171356201, "prcp_d2": 6.372292518615723, "prcp_d3": 4.248195171356201, "prcp_d4": 2.1240975856781006, "prcp_d5": 0.0, "prcp_d6": 0.0, "tmax_d0": 18.9, "tmax_d1": 19.3, "tmax_d2": 17.8, "tmax_d3": 15.6, "tmax_d4": 19.4, "tmax_d5": 17.7, "tmax_d6": 17.4, "tmin_d0": 10.0, "tmin_d1": 9.0, "tmin_d2": 8.2, "tmin_d3": 8.4, "tmin_d4": 8.4, "tmin_d5": 7.8, "tmin_d6": 8.6, "day_of_year": 218, "uuid": "00c7fbfc-6f00-4bc1-8be2-62731d821080", "inat_id": 137440566}}, {"type": "Feature", "geometry": {"type": "Point", "coordinates": [-105.567638095, 40.0257600923]}, "properties": {"species": "Hydnellum suaveolens", "date": "2022-08-10", "location": "Arapaho & Roosevelt National Forests Pawnee National Grassland, Ward, CO, US", "elevation": 3100.0, "land_cover_label": "Tree cover", "water_mask": false, "exclude_reason": "keep", "ndvi": null, "soil_moisture": 0.3367720367608198, "solar_exposure": 0.7927959561347961, "wind_exposure": 0.3190219104290008, "water_retention": 0.4623326957225799, "slope": 9.749741554260254, "aspect": 71.5852279663086, "num_identification_agreements": 2, "cluster": 3, "tavg": null, "tmin": 18.0, "tmax": 35.0, "prcp_d0": 0.0, "prcp_d1": 0.0, "prcp_d2": 0.0, "prcp_d3": 18.02192687988281, "prcp_d4": 0.0, "prcp_d5": 3.9937798976898193, "prcp_d6": 0.0, "tmax_d0": 20.7, "tmax_d1": 20.8, "tmax_d2": 19.3, "tmax_d3": 19.0, "tmax_d4": 20.3, "tmax_d5": 21.3, "tmax_d6": 21.4, "tmin_d0": 8.5, "tmin_d1": 6.2, "tmin_d2": 5.4, "tmin_d3": 9.2, "tmin_d4": 8.0, "tmin_d5": 11.2, "tmin_d6": 8.1, "day_of_year": 222, "uuid": "fe275104-ac31-4838-825c-a7f7e19d1289", "inat_id": 130265955}}, {"type": "Feature", "geometry": {"type": "Point", "coordinates": [-107.9349971843, 37.7860569908]}, "properties": {"species": "Hydnellum suaveolens", "date": "2022-08-10", "location": "Dolores County, US-CO, US", "elevation": 3160.0, "land_cover_label": "Tree cover", "water_mask": false, "exclude_reason": "keep", "ndvi": null, "soil_moisture": null, "solar_exposure": null, "wind_exposure": null, "water_retention": null, "slope": null, "aspect": null, "num_identification_agreements": 2, "cluster": 0, "tavg": null, "tmin": 15.0, "tmax": 23.0, "prcp_d0": 0.0, "prcp_d1": 0.0, "prcp_d2": 0.0, "prcp_d3": 0.0, "prcp_d4": 0.0, "prcp_d5": 9.82844066619873, "prcp_d6": 8.670263290405273, "tmax_d0": 18.6, "tmax_d1": 20.4, "tmax_d2": 19.4, "tmax_d3": 18.9, "tmax_d4": 17.9, "tmax_d5": 17.8, "tmax_d6": 19.6, "tmin_d0": 8.3, "tmin_d1": 6.2, "tmin_d2": 7.5, "tmin_d3": 7.3, "tmin_d4": 8.3, "tmin_d5": 8.6, "tmin_d6": 9.2, "day_of_year": 222, "uuid": "f03cca65-2009-4947-b83d-7a6bc0f1f398", "inat_id": 130304052}}, {"type": "Feature", "geometry": {"type": "Point", "coordinates": [-107.826645, 37.8541333333]}, "properties": {"species": "Hydnellum suaveolens", "date": "2022-08-19", "location": "San Miguel County, US-CO, US", "elevation": 3047.0, "land_cover_label": "Tree cover", "water_mask": false, "exclude_reason": "keep", "ndvi": null, "soil_moisture": null, "solar_exposure": null, "wind_exposure": null, "water_retention": null, "slope": null, "aspect": null, "num_identification_agreements": 2, "cluster": 2, "tavg": null, "tmin": 10.0, "tmax": 17.0, "prcp_d0": 0.0, "prcp_d1": 0.0, "prcp_d2": 0.0, "prcp_d3": 0.0, "prcp_d4": 0.0, "prcp_d5": 0.0, "prcp_d6": 0.0, "tmax_d0": 17.4, "tmax_d1": 21.2, "tmax_d2": 16.8, "tmax_d3": 17.3, "tmax_d4": 18.8, "tmax_d5": 19.4, "tmax_d6": 19.1, "tmin_d0": 6.9, "tmin_d1": 6.1, "tmin_d2": 6.0, "tmin_d3": 6.4, "tmin_d4": 6.3, "tmin_d5": 6.6, "tmin_d6": 7.2, "day_of_year": 231, "uuid": "b38a4fc0-31c8-434d-a7b9-443e761692fa", "inat_id": 131492769}}, {"type": "Feature", "geometry": {"type": "Point", "coordinates": [-107.8265833333, 37.8540916667]}, "properties": {"species": "Hydnellum suaveolens", "date": "2022-08-19", "location": "San Miguel County, US-CO, US", "elevation": 3047.0, "land_cover_label": "Tree cover", "water_mask": false, "exclude_reason": "keep", "ndvi": null, "soil_moisture": null, "solar_exposure": null, "wind_exposure": null, "water_retention": null, "slope": null, "aspect": null, "num_identification_agreements": 1, "cluster": 2, "tavg": null, "tmin": 10.0, "tmax": 17.0, "prcp_d0": 0.0, "prcp_d1": 0.0, "prcp_d2": 0.0, "prcp_d3": 0.0, "prcp_d4": 0.0, "prcp_d5": 0.0, "prcp_d6": 0.0, "tmax_d0": 17.4, "tmax_d1": 21.2, "tmax_d2": 16.8, "tmax_d3": 17.3, "tmax_d4": 18.8, "tmax_d5": 19.4, "tmax_d6": 19.1, "tmin_d0": 6.9, "tmin_d1": 6.1, "tmin_d2": 6.0, "tmin_d3": 6.4, "tmin_d4": 6.3, "tmin_d5": 6.6, "tmin_d6": 7.2, "day_of_year": 231, "uuid": "ddd7a40d-c89d-4320-b966-211c1a451e46", "inat_id": 324088963}}, {"type": "Feature", "geometry": {"type": "Point", "coordinates": [-105.794586934, 39.8993839262]}, "properties": {"species": "Hydnellum suaveolens", "date": "2022-08-21", "location": "Arapahoe Rd, Winter Park, CO, US", "elevation": 2811.0, "land_cover_label": "Tree cover", "water_mask": false, "exclude_reason": "keep", "ndvi": null, "soil_moisture": 0.4108117197901963, "solar_exposure": 0.7914825677871704, "wind_exposure": 0.3177668452262878, "water_retention": 0.530562698841095, "slope": 11.173099517822266, "aspect": 284.3193054199219, "num_identification_agreements": 1, "cluster": 2, "tavg": null, "tmin": 0.5, "tmax": 10.3, "prcp_d0": 0.0, "prcp_d1": 0.0, "prcp_d2": 0.0, "prcp_d3": 0.0, "prcp_d4": 0.0, "prcp_d5": 0.0, "prcp_d6": 11.074262619018556, "tmax_d0": 16.9, "tmax_d1": 17.1, "tmax_d2": 18.6, "tmax_d3": 22.0, "tmax_d4": 20.9, "tmax_d5": 13.7, "tmax_d6": 20.0, "tmin_d0": 5.6, "tmin_d1": 7.1, "tmin_d2": 5.4, "tmin_d3": 4.9, "tmin_d4": 4.1, "tmin_d5": 9.3, "tmin_d6": 7.9, "day_of_year": 233, "uuid": "0e046e0e-7098-4991-a045-542c58bbe33e", "inat_id": 133240447}}, {"type": "Feature", "geometry": {"type": "Point", "coordinates": [-107.8932883333, 37.8134116667]}, "properties": {"species": "Hydnellum suaveolens", "date": "2022-08-22", "location": "Grand Mesa Uncompahgre and Gunnison National Forests, Ophir, CO, US", "elevation": 3094.0, "land_cover_label": "Tree cover", "water_mask": false, "exclude_reason": "keep", "ndvi": null, "soil_moisture": null, "solar_exposure": null, "wind_exposure": null, "water_retention": null, "slope": null, "aspect": null, "num_identification_agreements": 1, "cluster": 2, "tavg": null, "tmin": 8.0, "tmax": 20.0, "prcp_d0": 0.0, "prcp_d1": 0.0, "prcp_d2": 0.0, "prcp_d3": 0.0, "prcp_d4": 0.0, "prcp_d5": 0.0, "prcp_d6": 0.0, "tmax_d0": 15.7, "tmax_d1": 15.4, "tmax_d2": 13.2, "tmax_d3": 16.9, "tmax_d4": 20.2, "tmax_d5": 16.7, "tmax_d6": 16.9, "tmin_d0": 5.3, "tmin_d1": 2.5, "tmin_d2": 6.2, "tmin_d3": 7.3, "tmin_d4": 5.9, "tmin_d5": 5.6, "tmin_d6": 7.0, "day_of_year": 234, "uuid": "91020bb4-abf1-48ed-9fc1-a085a88cf104", "inat_id": 132154462}}, {"type": "Feature", "geometry": {"type": "Point", "coordinates": [-107.9349523411, 37.7860514587]}, "properties": {"species": "Hydnellum suaveolens", "date": "2022-08-27", "location": "Dolores County, US-CO, US", "elevation": 3160.0, "land_cover_label": "Tree cover", "water_mask": false, "exclude_reason": "keep", "ndvi": null, "soil_moisture": null, "solar_exposure": null, "wind_exposure": null, "water_retention": null, "slope": null, "aspect": null, "num_identification_agreements": 1, "cluster": 3, "tavg": null, "tmin": 7.0, "tmax": 20.0, "prcp_d0": 0.0, "prcp_d1": 11.770298957824709, "prcp_d2": 7.589012622833252, "prcp_d3": 0.0, "prcp_d4": 0.0, "prcp_d5": 0.0, "prcp_d6": 0.0, "tmax_d0": 16.3, "tmax_d1": 12.9, "tmax_d2": 16.7, "tmax_d3": 17.4, "tmax_d4": 17.0, "tmax_d5": 15.2, "tmax_d6": 14.9, "tmin_d0": 1.5, "tmin_d1": 5.5, "tmin_d2": 5.8, "tmin_d3": 5.5, "tmin_d4": 3.1, "tmin_d5": 4.8, "tmin_d6": 2.0, "day_of_year": 239, "uuid": "7916554e-dd61-456d-a043-eb2000f2bc11", "inat_id": 132615852}}, {"type": "Feature", "geometry": {"type": "Point", "coordinates": [-105.647225, 40.3140666667]}, "properties": {"species": "Hydnellum suaveolens", "date": "2022-08-30", "location": "Rocky Mountain National Park, Estes Park, CO, US", "elevation": 2905.0, "land_cover_label": "Tree cover", "water_mask": false, "exclude_reason": "keep", "ndvi": null, "soil_moisture": 0.341402300747882, "solar_exposure": 0.939911723136902, "wind_exposure": 0.2833206057548523, "water_retention": 0.2324808984994888, "slope": 11.89265251159668, "aspect": 191.650634765625, "num_identification_agreements": 1, "cluster": 2, "tavg": null, "tmin": 5.1, "tmax": 27.0, "prcp_d0": 0.0, "prcp_d1": 0.0, "prcp_d2": 10.664998054504396, "prcp_d3": 0.0, "prcp_d4": 0.0, "prcp_d5": 0.0, "prcp_d6": 0.0, "tmax_d0": 19.7, "tmax_d1": 18.7, "tmax_d2": 19.7, "tmax_d3": 18.5, "tmax_d4": 16.6, "tmax_d5": 18.2, "tmax_d6": 17.6, "tmin_d0": 4.4, "tmin_d1": 6.9, "tmin_d2": 8.0, "tmin_d3": 4.3, "tmin_d4": 6.5, "tmin_d5": 3.2, "tmin_d6": 3.9, "day_of_year": 242, "uuid": "152a1f9d-8482-4536-a8a2-118e892f6a7c", "inat_id": 133032293}}, {"type": "Feature", "geometry": {"type": "Point", "coordinates": [-105.5198323354, 40.1396512141]}, "properties": {"species": "Hydnellum suaveolens", "date": "2022-09-11", "location": "Boulder County, US-CO, US", "elevation": 2809.0, "land_cover_label": "Tree cover", "water_mask": false, "exclude_reason": "keep", "ndvi": null, "soil_moisture": 0.3367435759939426, "solar_exposure": 0.8994214534759521, "wind_exposure": 0.2526762187480926, "water_retention": 0.4203174114227295, "slope": 7.644974708557129, "aspect": 148.1246795654297, "num_identification_agreements": 1, "cluster": 2, "tavg": null, "tmin": 6.0, "tmax": 24.0, "prcp_d0": 0.0, "prcp_d1": 0.0, "prcp_d2": 0.0, "prcp_d3": 0.0, "prcp_d4": 0.0, "prcp_d5": 0.0, "prcp_d6": 0.0, "tmax_d0": 16.3, "tmax_d1": 6.3, "tmax_d2": 15.5, "tmax_d3": 24.4, "tmax_d4": 23.1, "tmax_d5": 24.2, "tmax_d6": 23.8, "tmin_d0": -0.1, "tmin_d1": 2.3, "tmin_d2": 5.5, "tmin_d3": 12.4, "tmin_d4": 14.1, "tmin_d5": 12.4, "tmin_d6": 11.3, "day_of_year": 254, "uuid": "da6e5cbc-b7b7-49a5-8996-ba42fed3388b", "inat_id": 134871440}}, {"type": "Feature", "geometry": {"type": "Point", "coordinates": [-105.5589941979, 40.037767931]}, "properties": {"species": "Hydnellum suaveolens", "date": "2022-09-17", "location": "Boulder County, US-CO, US", "elevation": 3168.0, "land_cover_label": "Tree cover", "water_mask": false, "exclude_reason": "keep", "ndvi": null, "soil_moisture": 0.301539538275586, "solar_exposure": 0.8704654574394226, "wind_exposure": 0.3035173416137695, "water_retention": 0.3217335939407348, "slope": 7.451111793518066, "aspect": 119.86983489990234, "num_identification_agreements": 3, "cluster": 2, "tavg": null, "tmin": 12.0, "tmax": 26.0, "prcp_d0": 0.0, "prcp_d1": 0.0, "prcp_d2": 0.0, "prcp_d3": 0.0, "prcp_d4": 0.0, "prcp_d5": 0.0, "prcp_d6": 0.0, "tmax_d0": 12.4, "tmax_d1": 11.9, "tmax_d2": 11.2, "tmax_d3": 12.3, "tmax_d4": 16.1, "tmax_d5": 16.7, "tmax_d6": 16.3, "tmin_d0": 1.1, "tmin_d1": 1.0, "tmin_d2": 1.9, "tmin_d3": 3.4, "tmin_d4": 5.4, "tmin_d5": 2.1, "tmin_d6": -2.4, "day_of_year": 260, "uuid": "6682371e-ecca-4528-9559-17e2e26b3d71", "inat_id": 135684004}}, {"type": "Feature", "geometry": {"type": "Point", "coordinates": [-105.4435964198, 39.6854685312]}, "properties": {"species": "Hydnellum suaveolens", "date": "2023-07-19", "location": "Evergreen, CO, US", "elevation": 2688.0, "land_cover_label": "Tree cover", "water_mask": false, "exclude_reason": "keep", "ndvi": null, "soil_moisture": 0.2445150110704289, "solar_exposure": 0.7295821905136108, "wind_exposure": 0.2958777844905853, "water_retention": 0.1382253170013427, "slope": 15.858616828918455, "aspect": 63.930274963378906, "num_identification_agreements": 1, "cluster": 1, "tavg": null, "tmin": 2.9, "tmax": 13.7, "prcp_d0": 5.568824768066406, "prcp_d1": 0.0, "prcp_d2": 0.0, "prcp_d3": 0.0, "prcp_d4": 0.0, "prcp_d5": 0.0, "prcp_d6": 8.370004653930664, "tmax_d0": 21.8, "tmax_d1": 24.6, "tmax_d2": 26.1, "tmax_d3": 24.8, "tmax_d4": 19.6, "tmax_d5": 21.6, "tmax_d6": 22.6, "tmin_d0": 10.2, "tmin_d1": 9.1, "tmin_d2": 7.3, "tmin_d3": 4.6, "tmin_d4": 6.5, "tmin_d5": 7.6, "tmin_d6": 8.3, "day_of_year": 200, "uuid": "4a4d43de-3275-4896-be4d-fb7784280065", "inat_id": 173835854}}, {"type": "Feature", "geometry": {"type": "Point", "coordinates": [-105.45105, 39.6819283333]}, "properties": {"species": "Hydnellum suaveolens", "date": "2023-08-08", "location": "Evergreen, CO, US", "elevation": 2713.0, "land_cover_label": "Tree cover", "water_mask": false, "exclude_reason": "keep", "ndvi": null, "soil_moisture": 0.4051115345239948, "solar_exposure": 0.8092910051345825, "wind_exposure": 0.2374254763126373, "water_retention": 0.4676406383514404, "slope": 2.8259780406951904, "aspect": 8.255877494812012, "num_identification_agreements": 1, "cluster": 0, "tavg": null, "tmin": -0.4, "tmax": 13.3, "prcp_d0": 0.0, "prcp_d1": 0.0, "prcp_d2": 0.0, "prcp_d3": 0.0, "prcp_d4": 0.0, "prcp_d5": 0.0, "prcp_d6": 13.34237575531006, "tmax_d0": 21.0, "tmax_d1": 20.2, "tmax_d2": 17.0, "tmax_d3": 20.4, "tmax_d4": 21.5, "tmax_d5": 19.6, "tmax_d6": 19.1, "tmin_d0": 4.4, "tmin_d1": 5.4, "tmin_d2": 6.8, "tmin_d3": 5.9, "tmin_d4": 6.1, "tmin_d5": 7.5, "tmin_d6": 8.0, "day_of_year": 220, "uuid": "e112a42a-c43f-45c3-9b1d-7397ad556a1d", "inat_id": 177469372}}, {"type": "Feature", "geometry": {"type": "Point", "coordinates": [-105.6134739518, 39.682069074]}, "properties": {"species": "Hydnellum suaveolens", "date": "2023-08-10", "location": "Clear Creek County, US-CO, US", "elevation": 2830.0, "land_cover_label": "Tree cover", "water_mask": false, "exclude_reason": "keep", "ndvi": null, "soil_moisture": 0.3598017814284501, "solar_exposure": 0.7524845004081726, "wind_exposure": 0.2081110775470733, "water_retention": 0.2366435974836349, "slope": 7.519217491149902, "aspect": 350.7290954589844, "num_identification_agreements": 1, "cluster": 2, "tavg": null, "tmin": 3.1, "tmax": 13.1, "prcp_d0": 0.0, "prcp_d1": 0.0, "prcp_d2": 0.0, "prcp_d3": 0.0, "prcp_d4": 0.0, "prcp_d5": 0.0, "prcp_d6": 0.0, "tmax_d0": 20.3, "tmax_d1": 20.5, "tmax_d2": 20.0, "tmax_d3": 20.0, "tmax_d4": 16.6, "tmax_d5": 20.1, "tmax_d6": 20.9, "tmin_d0": 7.6, "tmin_d1": 4.1, "tmin_d2": 6.3, "tmin_d3": 6.5, "tmin_d4": 7.4, "tmin_d5": 6.6, "tmin_d6": 7.4, "day_of_year": 222, "uuid": "135f5b78-def7-4fe9-a1dd-2a3b89635d3c", "inat_id": 177770361}}, {"type": "Feature", "geometry": {"type": "Point", "coordinates": [-105.3747783333, 39.56193]}, "properties": {"species": "Hydnellum suaveolens", "date": "2023-08-20", "location": "London Ln, Conifer, CO, US", "elevation": 2645.0, "land_cover_label": "Tree cover", "water_mask": false, "exclude_reason": "keep", "ndvi": null, "soil_moisture": 0.2524546519593085, "solar_exposure": 0.7912222146987915, "wind_exposure": 0.4202607274055481, "water_retention": 0.1646882444620132, "slope": 20.99296188354492, "aspect": 265.9442749023437, "num_identification_agreements": 1, "cluster": 1, "tavg": null, "tmin": 1.9, "tmax": 18.0, "prcp_d0": 0.0, "prcp_d1": 10.023014068603516, "prcp_d2": 10.023014068603516, "prcp_d3": 0.0, "prcp_d4": 0.0, "prcp_d5": 0.0, "prcp_d6": 0.0, "tmax_d0": 29.7, "tmax_d1": 28.8, "tmax_d2": 28.1, "tmax_d3": 27.5, "tmax_d4": 27.1, "tmax_d5": 25.4, "tmax_d6": 20.5, "tmin_d0": 11.2, "tmin_d1": 9.9, "tmin_d2": 13.9, "tmin_d3": 12.3, "tmin_d4": 12.3, "tmin_d5": 7.2, "tmin_d6": 8.3, "day_of_year": 232, "uuid": "995ced59-7d53-4bd4-97d0-e966c4bfc056", "inat_id": 179484236}}, {"type": "Feature", "geometry": {"type": "Point", "coordinates": [-105.6443111111, 39.9031027778]}, "properties": {"species": "Hydnellum suaveolens", "date": "2023-09-07", "location": "Gilpin County, CO, USA", "elevation": 2810.0, "land_cover_label": "Tree cover", "water_mask": false, "exclude_reason": "keep", "ndvi": null, "soil_moisture": 0.3331217361645587, "solar_exposure": 0.9359042048454284, "wind_exposure": 0.1205462589859962, "water_retention": 0.2704130113124847, "slope": 11.308774948120115, "aspect": 167.72125244140625, "num_identification_agreements": 3, "cluster": 2, "tavg": null, "tmin": 1.8, "tmax": 13.3, "prcp_d0": 0.0, "prcp_d1": 0.0, "prcp_d2": 0.0, "prcp_d3": 0.0, "prcp_d4": 8.436664581298828, "prcp_d5": 0.0, "prcp_d6": 0.0, "tmax_d0": 20.3, "tmax_d1": 21.6, "tmax_d2": 17.4, "tmax_d3": 19.6, "tmax_d4": 19.7, "tmax_d5": 22.5, "tmax_d6": 23.1, "tmin_d0": 7.3, "tmin_d1": 3.5, "tmin_d2": 3.8, "tmin_d3": 5.2, "tmin_d4": 7.8, "tmin_d5": 6.8, "tmin_d6": 7.9, "day_of_year": 250, "uuid": "922ba803-6ae0-484e-baf3-38ff017341f0", "inat_id": 182598912}}, {"type": "Feature", "geometry": {"type": "Point", "coordinates": [-105.430345, 39.69072]}, "properties": {"species": "Hydnellum suaveolens", "date": "2024-07-02", "location": "Evergreen, CO, US", "elevation": 2598.0, "land_cover_label": "Tree cover", "water_mask": false, "exclude_reason": "keep", "ndvi": null, "soil_moisture": 0.3186193755224629, "solar_exposure": 0.7164062857627869, "wind_exposure": 0.2731099128723144, "water_retention": 0.2433442771434784, "slope": 10.162948608398438, "aspect": 357.7338562011719, "num_identification_agreements": 3, "cluster": 2, "tavg": null, "tmin": 0.3, "tmax": 11.6, "prcp_d0": 0.0, "prcp_d1": 0.0, "prcp_d2": 0.0, "prcp_d3": 0.0, "prcp_d4": 0.0, "prcp_d5": 0.0, "prcp_d6": 0.0, "tmax_d0": 23.6, "tmax_d1": 24.4, "tmax_d2": 24.4, "tmax_d3": 23.4, "tmax_d4": 26.2, "tmax_d5": 26.5, "tmax_d6": 25.0, "tmin_d0": 10.0, "tmin_d1": 13.6, "tmin_d2": 11.2, "tmin_d3": 7.7, "tmin_d4": 10.5, "tmin_d5": 11.2, "tmin_d6": 10.9, "day_of_year": 184, "uuid": "fefdc1ba-dab5-4fdf-b862-ee3fb2b36f66", "inat_id": 227687726}}, {"type": "Feature", "geometry": {"type": "Point", "coordinates": [-106.80568, 36.0531611667]}, "properties": {"species": "Hydnellum suaveolens", "date": "2024-07-05", "location": "Santa Fe National Forest, Gallina, NM, US", "elevation": 2965.0, "land_cover_label": "Tree cover", "water_mask": false, "exclude_reason": "keep", "ndvi": null, "soil_moisture": null, "solar_exposure": null, "wind_exposure": null, "water_retention": null, "slope": null, "aspect": null, "num_identification_agreements": 1, "cluster": 2, "tavg": null, "tmin": null, "tmax": null, "prcp_d0": 0.0, "prcp_d1": 0.0, "prcp_d2": 0.0, "prcp_d3": 6.621901988983154, "prcp_d4": 6.621901988983154, "prcp_d5": 10.256189346313477, "prcp_d6": 0.0, "tmax_d0": 22.1, "tmax_d1": 22.9, "tmax_d2": 21.2, "tmax_d3": 21.0, "tmax_d4": 19.6, "tmax_d5": 21.5, "tmax_d6": 22.7, "tmin_d0": 8.8, "tmin_d1": 9.2, "tmin_d2": 9.2, "tmin_d3": 6.5, "tmin_d4": 8.4, "tmin_d5": 10.6, "tmin_d6": 10.5, "day_of_year": 187, "uuid": "0474d10e-d653-4d2d-b60f-cd43a3c27334", "inat_id": 227646681}}, {"type": "Feature", "geometry": {"type": "Point", "coordinates": [-107.092475, 38.8131166667]}, "properties": {"species": "Hydnellum suaveolens", "date": "2024-07-21", "location": "Grand Mesa Uncompahgre and Gunnison National Forests, Gunnison, CO, US", "elevation": 2928.0, "land_cover_label": "Tree cover", "water_mask": false, "exclude_reason": "keep", "ndvi": null, "soil_moisture": null, "solar_exposure": null, "wind_exposure": null, "water_retention": null, "slope": null, "aspect": null, "num_identification_agreements": 2, "cluster": 2, "tavg": null, "tmin": 10.6, "tmax": 26.1, "prcp_d0": 0.0, "prcp_d1": 0.0, "prcp_d2": 0.0, "prcp_d3": 0.0, "prcp_d4": 0.0, "prcp_d5": 0.0, "prcp_d6": 6.86054801940918, "tmax_d0": 20.2, "tmax_d1": 22.3, "tmax_d2": 20.1, "tmax_d3": 22.0, "tmax_d4": 21.3, "tmax_d5": 20.2, "tmax_d6": 22.0, "tmin_d0": 4.4, "tmin_d1": 4.8, "tmin_d2": 8.0, "tmin_d3": 4.5, "tmin_d4": 4.4, "tmin_d5": 3.9, "tmin_d6": 5.9, "day_of_year": 203, "uuid": "3fed6cc1-d2fc-4f5c-a4db-eb343111ff08", "inat_id": 230909209}}, {"type": "Feature", "geometry": {"type": "Point", "coordinates": [-107.7512966667, 37.7385116667]}, "properties": {"species": "Hydnellum suaveolens", "date": "2024-08-03", "location": "San Juan National Forest - Headquarters, Silverton, CO, US", "elevation": 3051.0, "land_cover_label": "Tree cover", "water_mask": false, "exclude_reason": "keep", "ndvi": null, "soil_moisture": null, "solar_exposure": null, "wind_exposure": null, "water_retention": null, "slope": null, "aspect": null, "num_identification_agreements": 1, "cluster": 2, "tavg": null, "tmin": 12.0, "tmax": 28.0, "prcp_d0": 0.0, "prcp_d1": 0.0, "prcp_d2": 0.0, "prcp_d3": 0.0, "prcp_d4": 0.0, "prcp_d5": 0.0, "prcp_d6": 0.0, "tmax_d0": 22.8, "tmax_d1": 23.3, "tmax_d2": 23.6, "tmax_d3": 22.7, "tmax_d4": 21.8, "tmax_d5": 20.4, "tmax_d6": 20.2, "tmin_d0": 5.8, "tmin_d1": 8.3, "tmin_d2": 5.8, "tmin_d3": 3.6, "tmin_d4": 3.9, "tmin_d5": 7.0, "tmin_d6": 7.0, "day_of_year": 216, "uuid": "dbdec28a-fd80-4969-b121-ca2eafb29cf8", "inat_id": 234083707}}, {"type": "Feature", "geometry": {"type": "Point", "coordinates": [-105.1317027778, 37.9671055556]}, "properties": {"species": "Hydnellum suaveolens", "date": "2024-08-03", "location": "Rye, CO 81069, USA", "elevation": 3246.0, "land_cover_label": "Grassland", "water_mask": false, "exclude_reason": "keep", "ndvi": null, "soil_moisture": null, "solar_exposure": null, "wind_exposure": null, "water_retention": null, "slope": null, "aspect": null, "num_identification_agreements": 1, "cluster": 2, "tavg": null, "tmin": 18.8, "tmax": 33.3, "prcp_d0": 0.0, "prcp_d1": 0.0, "prcp_d2": 0.0, "prcp_d3": 0.0, "prcp_d4": 0.0, "prcp_d5": 0.0, "prcp_d6": 0.0, "tmax_d0": 20.4, "tmax_d1": 20.5, "tmax_d2": 21.3, "tmax_d3": 22.6, "tmax_d4": 21.8, "tmax_d5": 20.3, "tmax_d6": 20.4, "tmin_d0": 11.6, "tmin_d1": 12.1, "tmin_d2": 8.5, "tmin_d3": 11.8, "tmin_d4": 11.7, "tmin_d5": 11.2, "tmin_d6": 9.5, "day_of_year": 216, "uuid": "a655776e-a9e2-4952-8e66-3e4db29b72a0", "inat_id": 248546722}}, {"type": "Feature", "geometry": {"type": "Point", "coordinates": [-105.3446667, 36.7580766]}, "properties": {"species": "Hydnellum suaveolens", "date": "2024-08-07", "location": "Red River, NM 87558, USA", "elevation": 3219.0, "land_cover_label": "Tree cover", "water_mask": false, "exclude_reason": "keep", "ndvi": null, "soil_moisture": null, "solar_exposure": null, "wind_exposure": null, "water_retention": null, "slope": null, "aspect": null, "num_identification_agreements": 1, "cluster": 3, "tavg": null, "tmin": 6.4, "tmax": 26.2, "prcp_d0": 7.733016967773437, "prcp_d1": 7.733016967773437, "prcp_d2": 10.647336959838867, "prcp_d3": 0.0, "prcp_d4": 0.0, "prcp_d5": 0.0, "prcp_d6": 0.0, "tmax_d0": 20.0, "tmax_d1": 19.9, "tmax_d2": 22.5, "tmax_d3": 22.6, "tmax_d4": 21.5, "tmax_d5": 22.2, "tmax_d6": 21.1, "tmin_d0": 10.5, "tmin_d1": 8.8, "tmin_d2": 10.1, "tmin_d3": 8.4, "tmin_d4": 9.3, "tmin_d5": 9.4, "tmin_d6": 9.8, "day_of_year": 220, "uuid": "418be5df-c6e9-409a-b3d7-3540e062e781", "inat_id": 234521896}}, {"type": "Feature", "geometry": {"type": "Point", "coordinates": [-105.7860033333, 35.8047783333]}, "properties": {"species": "Hydnellum suaveolens", "date": "2024-08-07", "location": "Santa Fe National Forest, Tererro, NM, US", "elevation": 3278.0, "land_cover_label": "Tree cover", "water_mask": false, "exclude_reason": "keep", "ndvi": null, "soil_moisture": null, "solar_exposure": null, "wind_exposure": null, "water_retention": null, "slope": null, "aspect": null, "num_identification_agreements": 1, "cluster": 3, "tavg": null, "tmin": 17.2, "tmax": 34.4, "prcp_d0": 0.0, "prcp_d1": 6.709542274475098, "prcp_d2": 9.968097686767578, "prcp_d3": 0.0, "prcp_d4": 0.0, "prcp_d5": 0.0, "prcp_d6": 9.968097686767578, "tmax_d0": 19.7, "tmax_d1": 19.7, "tmax_d2": 20.1, "tmax_d3": 19.9, "tmax_d4": 19.3, "tmax_d5": 19.0, "tmax_d6": 19.4, "tmin_d0": 9.5, "tmin_d1": 7.3, "tmin_d2": 8.3, "tmin_d3": 8.4, "tmin_d4": 8.7, "tmin_d5": 9.1, "tmin_d6": 10.1, "day_of_year": 220, "uuid": "35c4a32e-3a1a-4906-bcee-6348771a5792", "inat_id": 234541297}}, {"type": "Feature", "geometry": {"type": "Point", "coordinates": [-105.7949055556, 35.7969888889]}, "properties": {"species": "Hydnellum suaveolens", "date": "2024-08-07", "location": "Santa Fe County, NM, USA", "elevation": 3368.0, "land_cover_label": "Tree cover", "water_mask": false, "exclude_reason": "keep", "ndvi": null, "soil_moisture": null, "solar_exposure": null, "wind_exposure": null, "water_retention": null, "slope": null, "aspect": null, "num_identification_agreements": 1, "cluster": 0, "tavg": null, "tmin": 17.2, "tmax": 34.4, "prcp_d0": 0.0, "prcp_d1": 7.033227443695068, "prcp_d2": 5.258572101593018, "prcp_d3": 0.0, "prcp_d4": 0.0, "prcp_d5": 10.517144203186035, "prcp_d6": 5.258572101593018, "tmax_d0": 19.2, "tmax_d1": 19.2, "tmax_d2": 19.5, "tmax_d3": 19.3, "tmax_d4": 18.8, "tmax_d5": 18.5, "tmax_d6": 18.8, "tmin_d0": 9.0, "tmin_d1": 6.7, "tmin_d2": 7.8, "tmin_d3": 7.9, "tmin_d4": 8.1, "tmin_d5": 8.5, "tmin_d6": 9.5, "day_of_year": 220, "uuid": "b87c5a53-a5d0-4d23-ab59-8547f244e64b", "inat_id": 235960870}}, {"type": "Feature", "geometry": {"type": "Point", "coordinates": [-105.8012600872, 35.8038780818]}, "properties": {"species": "Hydnellum suaveolens", "date": "2024-08-12", "location": "Santa Fe National Forest, Tererro, NM, US", "elevation": 3326.0, "land_cover_label": "Tree cover", "water_mask": false, "exclude_reason": "keep", "ndvi": null, "soil_moisture": null, "solar_exposure": null, "wind_exposure": null, "water_retention": null, "slope": null, "aspect": null, "num_identification_agreements": 1, "cluster": 3, "tavg": null, "tmin": 18.9, "tmax": 32.8, "prcp_d0": 0.0, "prcp_d1": 0.0, "prcp_d2": 5.943536281585693, "prcp_d3": 11.887072563171388, "prcp_d4": 11.887072563171388, "prcp_d5": 0.0, "prcp_d6": 5.943536281585693, "tmax_d0": 17.9, "tmax_d1": 17.9, "tmax_d2": 16.3, "tmax_d3": 14.6, "tmax_d4": 17.6, "tmax_d5": 19.5, "tmax_d6": 19.5, "tmin_d0": 8.3, "tmin_d1": 9.6, "tmin_d2": 7.7, "tmin_d3": 7.1, "tmin_d4": 7.3, "tmin_d5": 9.3, "tmin_d6": 7.1, "day_of_year": 225, "uuid": "df2682cb-35b1-4d6c-a7d6-9f7da4c18de8", "inat_id": 235456902}}, {"type": "Feature", "geometry": {"type": "Point", "coordinates": [-107.9237133333, 37.78688]}, "properties": {"species": "Hydnellum suaveolens", "date": "2024-08-16", "location": "San Juan National Forest - Headquarters, Rico, CO, US", "elevation": 3207.0, "land_cover_label": "Tree cover", "water_mask": false, "exclude_reason": "keep", "ndvi": null, "soil_moisture": null, "solar_exposure": null, "wind_exposure": null, "water_retention": null, "slope": null, "aspect": null, "num_identification_agreements": 1, "cluster": 2, "tavg": null, "tmin": 12.0, "tmax": 25.0, "prcp_d0": 0.0, "prcp_d1": 0.0, "prcp_d2": 0.0, "prcp_d3": 0.0, "prcp_d4": 39.74578475952149, "prcp_d5": 0.0, "prcp_d6": 0.0, "tmax_d0": 19.5, "tmax_d1": 18.4, "tmax_d2": 16.4, "tmax_d3": 15.4, "tmax_d4": 18.2, "tmax_d5": 18.5, "tmax_d6": 17.1, "tmin_d0": 7.7, "tmin_d1": 4.3, "tmin_d2": 6.4, "tmin_d3": 7.0, "tmin_d4": 6.6, "tmin_d5": 7.3, "tmin_d6": 4.9, "day_of_year": 229, "uuid": "2f953e18-f154-4620-8305-2cb979e3cc67", "inat_id": 236346611}}, {"type": "Feature", "geometry": {"type": "Point", "coordinates": [-105.5714866667, 39.5117033333]}, "properties": {"species": "Hydnellum suaveolens", "date": "2024-08-17", "location": "Mount Evans Wilderness, Bailey, CO, US", "elevation": 2881.0, "land_cover_label": "Tree cover", "water_mask": false, "exclude_reason": "keep", "ndvi": null, "soil_moisture": 0.3187211678834366, "solar_exposure": 0.7298664450645447, "wind_exposure": 0.1847273260354995, "water_retention": 0.5946323871612549, "slope": 11.22373867034912, "aspect": 40.01327896118164, "num_identification_agreements": 1, "cluster": 2, "tavg": null, "tmin": 2.2, "tmax": 17.0, "prcp_d0": 0.0, "prcp_d1": 0.0, "prcp_d2": 0.0, "prcp_d3": 0.0, "prcp_d4": 0.0, "prcp_d5": 0.0, "prcp_d6": 0.0, "tmax_d0": 23.2, "tmax_d1": 22.9, "tmax_d2": 19.6, "tmax_d3": 19.0, "tmax_d4": 18.5, "tmax_d5": 19.4, "tmax_d6": 20.9, "tmin_d0": 7.7, "tmin_d1": 7.7, "tmin_d2": 5.7, "tmin_d3": 6.8, "tmin_d4": 7.9, "tmin_d5": 9.6, "tmin_d6": 7.7, "day_of_year": 230, "uuid": "3f942d62-011f-4f0e-8008-397d0f7de10b", "inat_id": 237396292}}, {"type": "Feature", "geometry": {"type": "Point", "coordinates": [-108.1889335625, 37.4795651762]}, "properties": {"species": "Hydnellum suaveolens", "date": "2024-08-17", "location": "San Juan National Forest - Headquarters, Mancos, CO, US", "elevation": 2919.0, "land_cover_label": "Tree cover", "water_mask": false, "exclude_reason": "keep", "ndvi": null, "soil_moisture": null, "solar_exposure": null, "wind_exposure": null, "water_retention": null, "slope": null, "aspect": null, "num_identification_agreements": 1, "cluster": 2, "tavg": null, "tmin": 13.0, "tmax": 32.0, "prcp_d0": 0.0, "prcp_d1": 0.0, "prcp_d2": 0.0, "prcp_d3": 0.0, "prcp_d4": 0.0, "prcp_d5": 0.0, "prcp_d6": 0.0, "tmax_d0": 23.0, "tmax_d1": 21.8, "tmax_d2": 20.8, "tmax_d3": 18.8, "tmax_d4": 18.6, "tmax_d5": 20.1, "tmax_d6": 20.2, "tmin_d0": 10.6, "tmin_d1": 11.2, "tmin_d2": 8.3, "tmin_d3": 8.2, "tmin_d4": 9.6, "tmin_d5": 10.4, "tmin_d6": 11.7, "day_of_year": 230, "uuid": "392a58e4-9ffb-4f6d-a9fc-25e9869575fe", "inat_id": 238298991}}, {"type": "Feature", "geometry": {"type": "Point", "coordinates": [-106.365202193, 39.5845701273]}, "properties": {"species": "Hydnellum suaveolens", "date": "2024-08-18", "location": "Colorado, US", "elevation": 2845.0, "land_cover_label": "Tree cover", "water_mask": false, "exclude_reason": "keep", "ndvi": null, "soil_moisture": null, "solar_exposure": null, "wind_exposure": null, "water_retention": null, "slope": null, "aspect": null, "num_identification_agreements": 1, "cluster": 2, "tavg": null, "tmin": 8.0, "tmax": 18.0, "prcp_d0": 5.405035018920898, "prcp_d1": 0.0, "prcp_d2": 0.0, "prcp_d3": 0.0, "prcp_d4": 0.0, "prcp_d5": 0.0, "prcp_d6": 0.0, "tmax_d0": 21.9, "tmax_d1": 23.0, "tmax_d2": 21.3, "tmax_d3": 19.1, "tmax_d4": 17.8, "tmax_d5": 18.4, "tmax_d6": 20.3, "tmin_d0": 6.0, "tmin_d1": 5.6, "tmin_d2": 3.9, "tmin_d3": 3.9, "tmin_d4": 4.3, "tmin_d5": 6.2, "tmin_d6": 6.1, "day_of_year": 231, "uuid": "3316e8b6-3c11-4085-abc9-4fc3ffa941d3", "inat_id": 236644069}}, {"type": "Feature", "geometry": {"type": "Point", "coordinates": [-107.6962054098, 39.0462360726]}, "properties": {"species": "Hydnellum suaveolens", "date": "2024-08-21", "location": "Grand Mesa Uncompahgre and Gunnison National Forests, Paonia, CO, US", "elevation": 3155.0, "land_cover_label": "Tree cover", "water_mask": false, "exclude_reason": "keep", "ndvi": null, "soil_moisture": null, "solar_exposure": null, "wind_exposure": null, "water_retention": null, "slope": null, "aspect": null, "num_identification_agreements": 1, "cluster": 2, "tavg": null, "tmin": 18.3, "tmax": 31.9, "prcp_d0": 5.06543493270874, "prcp_d1": 0.0, "prcp_d2": 0.0, "prcp_d3": 0.0, "prcp_d4": 0.0, "prcp_d5": 0.0, "prcp_d6": 0.0, "tmax_d0": 18.2, "tmax_d1": 20.3, "tmax_d2": 18.2, "tmax_d3": 18.4, "tmax_d4": 19.9, "tmax_d5": 19.4, "tmax_d6": 17.5, "tmin_d0": 9.4, "tmin_d1": 12.2, "tmin_d2": 9.6, "tmin_d3": 8.4, "tmin_d4": 12.9, "tmin_d5": 11.3, "tmin_d6": 7.9, "day_of_year": 234, "uuid": "df133e7c-cc58-4abf-a61c-518c2bf3f6a3", "inat_id": 237404872}}, {"type": "Feature", "geometry": {"type": "Point", "coordinates": [-107.4019146979, 37.5184803119]}, "properties": {"species": "Hydnellum suaveolens", "date": "2024-08-28", "location": "Colorado, US", "elevation": 2801.0, "land_cover_label": "Tree cover", "water_mask": false, "exclude_reason": "keep", "ndvi": null, "soil_moisture": null, "solar_exposure": null, "wind_exposure": null, "water_retention": null, "slope": null, "aspect": null, "num_identification_agreements": 1, "cluster": 2, "tavg": null, "tmin": null, "tmax": null, "prcp_d0": 0.4850103557109833, "prcp_d1": 0.1662425696849823, "prcp_d2": 5.111231327056885, "prcp_d3": 1.3219656944274902, "prcp_d4": 13.134580612182615, "prcp_d5": 1.918851375579834, "prcp_d6": 1.5511735677719116, "tmax_d0": 19.7, "tmax_d1": 21.1, "tmax_d2": 17.7, "tmax_d3": 18.4, "tmax_d4": 17.5, "tmax_d5": 18.6, "tmax_d6": 19.4, "tmin_d0": 6.0, "tmin_d1": 4.2, "tmin_d2": 6.3, "tmin_d3": 6.5, "tmin_d4": 7.9, "tmin_d5": 8.9, "tmin_d6": 7.1, "day_of_year": 241, "uuid": "2acbb388-d7a6-4bfc-81b5-33c5c37ef15c", "inat_id": 238493339}}, {"type": "Feature", "geometry": {"type": "Point", "coordinates": [-106.4595805556, 39.2504694444]}, "properties": {"species": "Hydnellum suaveolens", "date": "2024-08-28", "location": "Lake County, CO, USA", "elevation": 3243.0, "land_cover_label": "Tree cover", "water_mask": false, "exclude_reason": "keep", "ndvi": null, "soil_moisture": null, "solar_exposure": null, "wind_exposure": null, "water_retention": null, "slope": null, "aspect": null, "num_identification_agreements": 1, "cluster": 2, "tavg": null, "tmin": 3.9, "tmax": 21.7, "prcp_d0": 0.1720216274261474, "prcp_d1": 0.0546532496809959, "prcp_d2": 4.978272914886475, "prcp_d3": 1.1825388669967651, "prcp_d4": 3.835844039916992, "prcp_d5": 1.9249086380004885, "prcp_d6": 9.362519264221191, "tmax_d0": 17.0, "tmax_d1": 18.1, "tmax_d2": 15.9, "tmax_d3": 16.0, "tmax_d4": 15.7, "tmax_d5": 16.6, "tmax_d6": 15.5, "tmin_d0": 5.0, "tmin_d1": 3.1, "tmin_d2": 5.3, "tmin_d3": 5.0, "tmin_d4": 5.4, "tmin_d5": 5.3, "tmin_d6": 7.2, "day_of_year": 241, "uuid": "d3bece41-897a-4075-a4d2-e95d277cab98", "inat_id": 240405156}}, {"type": "Feature", "geometry": {"type": "Point", "coordinates": [-105.703732, 39.663175]}, "properties": {"species": "Hydnellum suaveolens", "date": "2024-09-03", "location": "Clear Creek County, US-CO, US", "elevation": 3040.0, "land_cover_label": "Tree cover", "water_mask": false, "exclude_reason": "keep", "ndvi": null, "soil_moisture": 0.301723914503019, "solar_exposure": 0.7968072891235352, "wind_exposure": 0.1166509762406349, "water_retention": 0.2652479112148285, "slope": 4.935819149017334, "aspect": 318.95758056640625, "num_identification_agreements": 1, "cluster": 2, "tavg": null, "tmin": 8.0, "tmax": 18.0, "prcp_d0": 0.0, "prcp_d1": 0.0, "prcp_d2": 0.0, "prcp_d3": 2.421909448457881e-05, "prcp_d4": 0.0048142848536372, "prcp_d5": 0.0311854351311922, "prcp_d6": 0.0, "tmax_d0": 20.2, "tmax_d1": 20.3, "tmax_d2": 17.4, "tmax_d3": 19.3, "tmax_d4": 19.5, "tmax_d5": 18.5, "tmax_d6": 21.6, "tmin_d0": 5.0, "tmin_d1": 4.6, "tmin_d2": 4.1, "tmin_d3": 3.3, "tmin_d4": 0.6, "tmin_d5": 5.2, "tmin_d6": 3.4, "day_of_year": 247, "uuid": "6ed5466d-8c3c-4996-8a75-08cdf3a1e776", "inat_id": 239703053}}, {"type": "Feature", "geometry": {"type": "Point", "coordinates": [-105.783882, 39.7775389722]}, "properties": {"species": "Hydnellum suaveolens", "date": "2024-09-05", "location": "Empire, CO 80438, USA", "elevation": 2983.0, "land_cover_label": "Tree cover", "water_mask": false, "exclude_reason": "keep", "ndvi": null, "soil_moisture": 0.2846599310789399, "solar_exposure": 0.9634559154510498, "wind_exposure": 0.1660842895507812, "water_retention": 0.4273650348186493, "slope": 15.478134155273438, "aspect": 178.53323364257812, "num_identification_agreements": 1, "cluster": 2, "tavg": null, "tmin": -2.7, "tmax": 7.1, "prcp_d0": 6.561957836151123, "prcp_d1": 0.0, "prcp_d2": 0.0, "prcp_d3": 0.0, "prcp_d4": 0.0, "prcp_d5": 0.0039729024283587, "prcp_d6": 0.0, "tmax_d0": 12.9, "tmax_d1": 17.2, "tmax_d2": 20.1, "tmax_d3": 19.7, "tmax_d4": 17.4, "tmax_d5": 19.6, "tmax_d6": 19.6, "tmin_d0": 2.1, "tmin_d1": 3.7, "tmin_d2": 4.5, "tmin_d3": 3.2, "tmin_d4": 4.6, "tmin_d5": 3.9, "tmin_d6": 0.8, "day_of_year": 249, "uuid": "a0d75fe8-8440-42f7-bd6f-b9f4bd324025", "inat_id": 240182804}}, {"type": "Feature", "geometry": {"type": "Point", "coordinates": [-105.1523459797, 38.0300683158]}, "properties": {"species": "Hydnellum suaveolens", "date": "2024-09-11", "location": "Custer County, US-CO, US", "elevation": 3063.0, "land_cover_label": "Tree cover", "water_mask": false, "exclude_reason": "keep", "ndvi": null, "soil_moisture": null, "solar_exposure": null, "wind_exposure": null, "water_retention": null, "slope": null, "aspect": null, "num_identification_agreements": 1, "cluster": 3, "tavg": null, "tmin": 14.6, "tmax": 30.5, "prcp_d0": 9.460046768188477, "prcp_d1": 0.0, "prcp_d2": 9.865985870361328, "prcp_d3": 19.731971740722656, "prcp_d4": 0.0, "prcp_d5": 0.0, "prcp_d6": 0.0, "tmax_d0": 17.5, "tmax_d1": 17.9, "tmax_d2": 17.5, "tmax_d3": 17.5, "tmax_d4": 18.2, "tmax_d5": 16.0, "tmax_d6": 12.3, "tmin_d0": 6.6, "tmin_d1": 8.5, "tmin_d2": 8.5, "tmin_d3": 7.4, "tmin_d4": 6.7, "tmin_d5": 2.5, "tmin_d6": 5.3, "day_of_year": 255, "uuid": "4023acd9-bf74-4753-8ab2-00178c0af5d2", "inat_id": 241913276}}, {"type": "Feature", "geometry": {"type": "Point", "coordinates": [-105.457278, 39.680795]}, "properties": {"species": "Hydnellum suaveolens", "date": "2024-09-17", "location": "Clear Creek County, US-CO, US", "elevation": 2760.0, "land_cover_label": "Tree cover", "water_mask": false, "exclude_reason": "keep", "ndvi": null, "soil_moisture": 0.286908522687614, "solar_exposure": 0.7408783435821533, "wind_exposure": 0.2417535036802292, "water_retention": 0.3598145246505737, "slope": 10.823427200317385, "aspect": 44.78344345092773, "num_identification_agreements": 1, "cluster": 2, "tavg": null, "tmin": -1.8, "tmax": 10.0, "prcp_d0": 0.0, "prcp_d1": 6.556233406066895, "prcp_d2": 0.0, "prcp_d3": 0.0, "prcp_d4": 0.0, "prcp_d5": 0.0, "prcp_d6": 7.437386035919189, "tmax_d0": 18.6, "tmax_d1": 18.8, "tmax_d2": 20.4, "tmax_d3": 21.3, "tmax_d4": 18.9, "tmax_d5": 21.3, "tmax_d6": 19.6, "tmin_d0": 3.9, "tmin_d1": 2.9, "tmin_d2": 4.5, "tmin_d3": 2.6, "tmin_d4": 3.8, "tmin_d5": 3.6, "tmin_d6": 5.0, "day_of_year": 261, "uuid": "9fd44f84-dc72-46d5-8a09-f03ddccb2a58", "inat_id": 244431057}}, {"type": "Feature", "geometry": {"type": "Point", "coordinates": [-105.6077483013, 39.8492722276]}, "properties": {"species": "Hydnellum suaveolens", "date": "2025-07-22", "location": "Colorado, US", "elevation": 3111.0, "land_cover_label": "Tree cover", "water_mask": false, "exclude_reason": "keep", "ndvi": null, "soil_moisture": 0.3244384367300596, "solar_exposure": 0.7072253823280334, "wind_exposure": 0.2784438729286194, "water_retention": 0.446637213230133, "slope": 11.108652114868164, "aspect": 14.637316703796388, "num_identification_agreements": 1, "cluster": 2, "tavg": null, "tmin": 3.9, "tmax": 14.7, "prcp_d0": 6.161933422088623, "prcp_d1": 0.0, "prcp_d2": 0.0, "prcp_d3": 0.0, "prcp_d4": 0.0, "prcp_d5": 0.0, "prcp_d6": 0.0, "tmax_d0": 19.8, "tmax_d1": 21.5, "tmax_d2": 20.2, "tmax_d3": 21.3, "tmax_d4": 19.3, "tmax_d5": 21.4, "tmax_d6": 20.9, "tmin_d0": 8.1, "tmin_d1": 5.7, "tmin_d2": 5.5, "tmin_d3": 6.7, "tmin_d4": 7.7, "tmin_d5": 5.5, "tmin_d6": 5.1, "day_of_year": 203, "uuid": "820cf2c8-9b9c-4159-b1d6-02ac7ad63d6f", "inat_id": 300389733}}, {"type": "Feature", "geometry": {"type": "Point", "coordinates": [-105.539202593, 39.586788078]}, "properties": {"species": "Hydnellum suaveolens", "date": "2025-07-24", "location": "Colorado, US", "elevation": 2959.0, "land_cover_label": "Tree cover", "water_mask": false, "exclude_reason": "keep", "ndvi": null, "soil_moisture": 0.3680334554857156, "solar_exposure": 0.7315837144851685, "wind_exposure": 0.2458675354719162, "water_retention": 0.2710667252540588, "slope": 17.582326889038086, "aspect": 69.96556854248047, "num_identification_agreements": 1, "cluster": 2, "tavg": null, "tmin": 0.6, "tmax": 13.4, "prcp_d0": 0.0, "prcp_d1": 15.359081268310549, "prcp_d2": 0.0, "prcp_d3": 0.0, "prcp_d4": 0.0, "prcp_d5": 0.0, "prcp_d6": 0.0, "tmax_d0": 19.9, "tmax_d1": 19.1, "tmax_d2": 23.4, "tmax_d3": 23.3, "tmax_d4": 21.4, "tmax_d5": 22.0, "tmax_d6": 22.1, "tmin_d0": 5.0, "tmin_d1": 8.9, "tmin_d2": 7.0, "tmin_d3": 6.2, "tmin_d4": 4.4, "tmin_d5": 5.1, "tmin_d6": 6.3, "day_of_year": 205, "uuid": "e8af85e7-b85e-46e1-8736-44e8a7cd0faf", "inat_id": 300807842}}, {"type": "Feature", "geometry": {"type": "Point", "coordinates": [-105.5685572167, 39.6374567366]}, "properties": {"species": "Hydnellum suaveolens", "date": "2025-07-27", "location": "Colorado, US", "elevation": 3104.0, "land_cover_label": "Tree cover", "water_mask": false, "exclude_reason": "keep", "ndvi": null, "soil_moisture": 0.3336056769512924, "solar_exposure": 0.6419380903244019, "wind_exposure": 0.35249063372612, "water_retention": 0.2579729557037353, "slope": 18.608213424682617, "aspect": 319.2608337402344, "num_identification_agreements": 1, "cluster": 1, "tavg": null, "tmin": 3.0, "tmax": 16.7, "prcp_d0": 0.0, "prcp_d1": 0.0, "prcp_d2": 0.0, "prcp_d3": 0.0, "prcp_d4": 14.68790054321289, "prcp_d5": 0.0, "prcp_d6": 0.0, "tmax_d0": 21.4, "tmax_d1": 18.9, "tmax_d2": 19.1, "tmax_d3": 18.2, "tmax_d4": 16.8, "tmax_d5": 19.6, "tmax_d6": 20.0, "tmin_d0": 6.0, "tmin_d1": 6.5, "tmin_d2": 6.9, "tmin_d3": 6.1, "tmin_d4": 7.1, "tmin_d5": 6.2, "tmin_d6": 7.1, "day_of_year": 208, "uuid": "d11e5695-f100-4b2c-96eb-fea2952047ff", "inat_id": 301755836}}, {"type": "Feature", "geometry": {"type": "Point", "coordinates": [-105.4275133333, 39.69062]}, "properties": {"species": "Hydnellum suaveolens", "date": "2025-08-03", "location": "Evergreen, CO, US", "elevation": 2606.0, "land_cover_label": "Tree cover", "water_mask": false, "exclude_reason": "keep", "ndvi": null, "soil_moisture": 0.3582164983355773, "solar_exposure": 0.7732456922531128, "wind_exposure": 0.2982861697673797, "water_retention": 0.3247837126255035, "slope": 7.125027656555176, "aspect": 321.4088134765625, "num_identification_agreements": 1, "cluster": 2, "tavg": null, "tmin": 2.0, "tmax": 13.3, "prcp_d0": 0.0, "prcp_d1": 0.0, "prcp_d2": 5.63757848739624, "prcp_d3": 3.064946174621582, "prcp_d4": 3.064946174621582, "prcp_d5": 3.064946174621582, "prcp_d6": 0.0, "tmax_d0": 24.5, "tmax_d1": 23.6, "tmax_d2": 23.8, "tmax_d3": 21.6, "tmax_d4": 19.2, "tmax_d5": 24.1, "tmax_d6": 27.5, "tmin_d0": 6.6, "tmin_d1": 8.3, "tmin_d2": 5.3, "tmin_d3": 6.4, "tmin_d4": 7.7, "tmin_d5": 11.8, "tmin_d6": 8.6, "day_of_year": 215, "uuid": "5db08c89-cfe9-416f-82b0-6cd219416e04", "inat_id": 303529397}}, {"type": "Feature", "geometry": {"type": "Point", "coordinates": [-105.7777850702, 39.7983193575]}, "properties": {"species": "Hydnellum suaveolens", "date": "2025-08-08", "location": "Empire, CO 80438, USA", "elevation": 3454.0, "land_cover_label": "Tree cover", "water_mask": false, "exclude_reason": "keep", "ndvi": null, "soil_moisture": 0.2331734006321958, "solar_exposure": 0.84292072057724, "wind_exposure": 0.2928450107574463, "water_retention": 0.2657273113727569, "slope": 4.901021957397461, "aspect": 97.2732162475586, "num_identification_agreements": 2, "cluster": 2, "tavg": null, "tmin": 5.0, "tmax": 14.7, "prcp_d0": 0.0, "prcp_d1": 0.0, "prcp_d2": 0.0, "prcp_d3": 0.0, "prcp_d4": 0.0, "prcp_d5": 0.0, "prcp_d6": 0.0, "tmax_d0": 18.4, "tmax_d1": 19.0, "tmax_d2": 18.8, "tmax_d3": 18.5, "tmax_d4": 19.2, "tmax_d5": 15.8, "tmax_d6": 15.6, "tmin_d0": 7.1, "tmin_d1": 6.8, "tmin_d2": 5.7, "tmin_d3": 6.4, "tmin_d4": 1.0, "tmin_d5": 3.9, "tmin_d6": 2.9, "day_of_year": 220, "uuid": "7fa4150e-32e7-4f34-bde0-c475501f4dc5", "inat_id": 305212381}}, {"type": "Feature", "geometry": {"type": "Point", "coordinates": [-105.4834063383, 40.3021107867]}, "properties": {"species": "Hydnellum suaveolens", "date": "2025-08-19", "location": "Rocky Mountain National Park, Larimer County, US-CO, US", "elevation": 2736.0, "land_cover_label": "Tree cover", "water_mask": false, "exclude_reason": "keep", "ndvi": null, "soil_moisture": 0.2840497404655595, "solar_exposure": 0.8097022771835327, "wind_exposure": 0.3129467070102691, "water_retention": 0.3371068835258484, "slope": 5.099925994873047, "aspect": 299.1143798828125, "num_identification_agreements": 2, "cluster": 2, "tavg": null, "tmin": 14.8, "tmax": 34.7, "prcp_d0": 0.0, "prcp_d1": 0.0, "prcp_d2": 0.0, "prcp_d3": 5.928908824920654, "prcp_d4": 8.739952087402344, "prcp_d5": 0.0, "prcp_d6": 0.0, "tmax_d0": 22.5, "tmax_d1": 23.4, "tmax_d2": 21.7, "tmax_d3": 21.5, "tmax_d4": 25.1, "tmax_d5": 25.6, "tmax_d6": 26.5, "tmin_d0": 7.7, "tmin_d1": 5.6, "tmin_d2": 8.5, "tmin_d3": 8.9, "tmin_d4": 6.6, "tmin_d5": 6.7, "tmin_d6": 5.7, "day_of_year": 231, "uuid": "32df4c44-48a6-4f24-af30-62d86494eef4", "inat_id": 307662774}}, {"type": "Feature", "geometry": {"type": "Point", "coordinates": [-104.9484912, 38.7422752]}, "properties": {"species": "Hydnellum suaveolens", "date": "2025-08-26", "location": "Manitou Springs, CO 80829, USA", "elevation": 3052.0, "land_cover_label": "Tree cover", "water_mask": false, "exclude_reason": "keep", "ndvi": null, "soil_moisture": null, "solar_exposure": null, "wind_exposure": null, "water_retention": null, "slope": null, "aspect": null, "num_identification_agreements": 2, "cluster": 3, "tavg": null, "tmin": 13.0, "tmax": 15.0, "prcp_d0": 0.0, "prcp_d1": 23.10459327697754, "prcp_d2": 23.10459327697754, "prcp_d3": 23.10459327697754, "prcp_d4": 11.55229663848877, "prcp_d5": 0.0, "prcp_d6": 0.0, "tmax_d0": 14.9, "tmax_d1": 14.6, "tmax_d2": 17.7, "tmax_d3": 16.4, "tmax_d4": 22.0, "tmax_d5": 22.3, "tmax_d6": 20.4, "tmin_d0": 7.8, "tmin_d1": 7.0, "tmin_d2": 8.2, "tmin_d3": 8.2, "tmin_d4": 10.6, "tmin_d5": 9.3, "tmin_d6": 8.8, "day_of_year": 238, "uuid": "b16e2dea-b38c-4eda-9b53-bcc0c7e24028", "inat_id": 309414625}}, {"type": "Feature", "geometry": {"type": "Point", "coordinates": [-105.79889588, 35.80219148]}, "properties": {"species": "Hydnellum suaveolens", "date": "2025-09-01", "location": "Santa Fe County, US-NM, US", "elevation": 3335.0, "land_cover_label": "Tree cover", "water_mask": false, "exclude_reason": "keep", "ndvi": null, "soil_moisture": null, "solar_exposure": null, "wind_exposure": null, "water_retention": null, "slope": null, "aspect": null, "num_identification_agreements": 1, "cluster": 0, "tavg": null, "tmin": 12.0, "tmax": 27.0, "prcp_d0": 0.0, "prcp_d1": 0.0, "prcp_d2": 0.0, "prcp_d3": 0.0, "prcp_d4": 0.0, "prcp_d5": 0.0, "prcp_d6": 62.1252326965332, "tmax_d0": 14.2, "tmax_d1": 13.9, "tmax_d2": 14.8, "tmax_d3": 15.3, "tmax_d4": 16.9, "tmax_d5": 13.3, "tmax_d6": 15.2, "tmin_d0": 3.5, "tmin_d1": 3.0, "tmin_d2": 4.8, "tmin_d3": 5.6, "tmin_d4": 4.8, "tmin_d5": 6.5, "tmin_d6": 6.2, "day_of_year": 244, "uuid": "d6fbb4f8-66e0-47a0-b778-50d0885b7faf", "inat_id": 310896825}}, {"type": "Feature", "geometry": {"type": "Point", "coordinates": [-105.79625559, 35.79522883]}, "properties": {"species": "Hydnellum suaveolens", "date": "2025-09-01", "location": "Santa Fe County, US-NM, US", "elevation": 3265.0, "land_cover_label": "Tree cover", "water_mask": false, "exclude_reason": "keep", "ndvi": null, "soil_moisture": null, "solar_exposure": null, "wind_exposure": null, "water_retention": null, "slope": null, "aspect": null, "num_identification_agreements": 1, "cluster": 0, "tavg": null, "tmin": 12.0, "tmax": 27.0, "prcp_d0": 0.0, "prcp_d1": 0.0, "prcp_d2": 0.0, "prcp_d3": 0.0, "prcp_d4": 0.0, "prcp_d5": 29.806293487548828, "prcp_d6": 29.806293487548828, "tmax_d0": 14.4, "tmax_d1": 14.0, "tmax_d2": 14.9, "tmax_d3": 15.5, "tmax_d4": 17.0, "tmax_d5": 13.5, "tmax_d6": 15.3, "tmin_d0": 3.6, "tmin_d1": 3.2, "tmin_d2": 4.9, "tmin_d3": 5.8, "tmin_d4": 5.0, "tmin_d5": 6.6, "tmin_d6": 6.4, "day_of_year": 244, "uuid": "16f16c8b-e7ad-4e88-93be-1f6a1f82a352", "inat_id": 310896601}}, {"type": "Feature", "geometry": {"type": "Point", "coordinates": [-105.5681711997, 39.5099749997]}, "properties": {"species": "Hydnellum suaveolens", "date": "2025-10-12", "location": "Bailey, CO 80421, USA", "elevation": 2872.0, "land_cover_label": "Tree cover", "water_mask": false, "exclude_reason": "keep", "ndvi": null, "soil_moisture": 0.4003062047366723, "solar_exposure": 0.6368775367736816, "wind_exposure": 0.2117345035076141, "water_retention": 0.1717748939990997, "slope": 19.05696678161621, "aspect": 41.04240798950195, "num_identification_agreements": 1, "cluster": 1, "tavg": null, "tmin": -7.5, "tmax": 0.0, "prcp_d0": 0.0, "prcp_d1": 0.0, "prcp_d2": 4.320700645446777, "prcp_d3": 0.0, "prcp_d4": 0.045372374355793, "prcp_d5": 1.3354036808013916, "prcp_d6": 4.661157131195068, "tmax_d0": 11.0, "tmax_d1": 12.0, "tmax_d2": 13.2, "tmax_d3": 16.0, "tmax_d4": 16.3, "tmax_d5": 10.8, "tmax_d6": 9.4, "tmin_d0": 2.5, "tmin_d1": 5.5, "tmin_d2": 5.7, "tmin_d3": -0.3, "tmin_d4": -0.9, "tmin_d5": -2.7, "tmin_d6": 0.7, "day_of_year": 285, "uuid": "2d48a428-ddb3-4fcc-a645-2b61bf506c29", "inat_id": 320513354}}]}