{"type": "FeatureCollection", "features": [{"type": "Feature", "geometry": {"type": "Point", "coordinates": [-122.184, 44.766]}, "properties": {"species": "Hydnum oregonense", "date": "2015-04-02", "location": "Detroit Ranger District, Willamette National Forest, Oregon, USA", "elevation": 667.0, "land_cover_label": "Tree cover", "water_mask": false, "exclude_reason": "keep", "ndvi": null, "soil_moisture": null, "solar_exposure": null, "wind_exposure": null, "water_retention": null, "slope": null, "aspect": null, "num_identification_agreements": 1, "cluster": 0, "tavg": null, "tmin": null, "tmax": null, "prcp_d0": 0.0, "prcp_d1": 0.0, "prcp_d2": 0.0, "prcp_d3": 0.0, "prcp_d4": 0.0, "prcp_d5": 0.0, "prcp_d6": 0.0, "tmax_d0": null, "tmax_d1": null, "tmax_d2": null, "tmax_d3": null, "tmax_d4": null, "tmax_d5": null, "tmax_d6": null, "tmin_d0": null, "tmin_d1": null, "tmin_d2": null, "tmin_d3": null, "tmin_d4": null, "tmin_d5": null, "tmin_d6": null, "day_of_year": 92, "uuid": "1e1ea778-ad91-4365-aeda-e892920c8a33", "inat_id": 65239650}}, {"type": "Feature", "geometry": {"type": "Point", "coordinates": [-121.81, 45.31605]}, "properties": {"species": "Hydnum oregonense", "date": "2019-01-13", "location": "SW Mount Hood, Clackamas Co., Oregon, USA", "elevation": 916.0, "land_cover_label": "Tree cover", "water_mask": false, "exclude_reason": "keep", "ndvi": null, "soil_moisture": null, "solar_exposure": null, "wind_exposure": null, "water_retention": null, "slope": null, "aspect": null, "num_identification_agreements": 1, "cluster": 2, "tavg": null, "tmin": null, "tmax": null, "prcp_d0": 0.0, "prcp_d1": 0.0, "prcp_d2": 0.0, "prcp_d3": 0.0, "prcp_d4": 14.13941764831543, "prcp_d5": 35.34854507446289, "prcp_d6": 0.0, "tmax_d0": null, "tmax_d1": null, "tmax_d2": null, "tmax_d3": null, "tmax_d4": null, "tmax_d5": null, "tmax_d6": null, "tmin_d0": null, "tmin_d1": null, "tmin_d2": null, "tmin_d3": null, "tmin_d4": null, "tmin_d5": null, "tmin_d6": null, "day_of_year": 13, "uuid": "6028748e-d456-4094-aaf3-a8ccbd426081", "inat_id": 19797852}}, {"type": "Feature", "geometry": {"type": "Point", "coordinates": [-121.81, 45.31605]}, "properties": {"species": "Hydnum oregonense", "date": "2019-02-02", "location": "SW Mount Hood, Clackamas Co., Oregon, USA", "elevation": 916.0, "land_cover_label": "Tree cover", "water_mask": false, "exclude_reason": "keep", "ndvi": null, "soil_moisture": null, "solar_exposure": null, "wind_exposure": null, "water_retention": null, "slope": null, "aspect": null, "num_identification_agreements": 1, "cluster": 1, "tavg": null, "tmin": null, "tmax": null, "prcp_d0": 0.0, "prcp_d1": 33.11867141723633, "prcp_d2": 0.0, "prcp_d3": 0.0, "prcp_d4": 0.0, "prcp_d5": 0.0, "prcp_d6": 0.0, "tmax_d0": null, "tmax_d1": null, "tmax_d2": null, "tmax_d3": null, "tmax_d4": null, "tmax_d5": null, "tmax_d6": null, "tmin_d0": null, "tmin_d1": null, "tmin_d2": null, "tmin_d3": null, "tmin_d4": null, "tmin_d5": null, "tmin_d6": null, "day_of_year": 33, "uuid": "e51fd53e-76ff-4cac-8770-8a92d4c40d00", "inat_id": 20069019}}, {"type": "Feature", "geometry": {"type": "Point", "coordinates": [-121.8292922974, 45.2654533386]}, "properties": {"species": "Hydnum oregonense", "date": "2019-09-13", "location": "Zigzag, OR 97049, USA", "elevation": 815.0, "land_cover_label": "Tree cover", "water_mask": false, "exclude_reason": "keep", "ndvi": null, "soil_moisture": null, "solar_exposure": null, "wind_exposure": null, "water_retention": null, "slope": null, "aspect": null, "num_identification_agreements": 1, "cluster": 2, "tavg": null, "tmin": null, "tmax": null, "prcp_d0": 0.0, "prcp_d1": 0.0, "prcp_d2": 0.0, "prcp_d3": 0.0, "prcp_d4": 0.0, "prcp_d5": 29.93491554260254, "prcp_d6": 0.0, "tmax_d0": null, "tmax_d1": null, "tmax_d2": null, "tmax_d3": null, "tmax_d4": null, "tmax_d5": null, "tmax_d6": null, "tmin_d0": null, "tmin_d1": null, "tmin_d2": null, "tmin_d3": null, "tmin_d4": null, "tmin_d5": null, "tmin_d6": null, "day_of_year": 256, "uuid": "057a569e-49c0-49d2-a790-b69d3f5f58bc", "inat_id": 32871328}}, {"type": "Feature", "geometry": {"type": "Point", "coordinates": [-121.9399299347, 45.2937643029]}, "properties": {"species": "Hydnum oregonense", "date": "2020-01-05", "location": "Oregon, US", "elevation": 497.0, "land_cover_label": "Tree cover", "water_mask": false, "exclude_reason": "keep", "ndvi": null, "soil_moisture": null, "solar_exposure": null, "wind_exposure": null, "water_retention": null, "slope": null, "aspect": null, "num_identification_agreements": 1, "cluster": 0, "tavg": null, "tmin": 5.0, "tmax": 8.9, "prcp_d0": 0.0, "prcp_d1": 0.0, "prcp_d2": 0.0, "prcp_d3": 0.0, "prcp_d4": 0.0, "prcp_d5": 0.0, "prcp_d6": 0.0, "tmax_d0": null, "tmax_d1": null, "tmax_d2": null, "tmax_d3": null, "tmax_d4": null, "tmax_d5": null, "tmax_d6": null, "tmin_d0": null, "tmin_d1": null, "tmin_d2": null, "tmin_d3": null, "tmin_d4": null, "tmin_d5": null, "tmin_d6": null, "day_of_year": 5, "uuid": "58b3b1dd-ff88-4c0d-8696-0ba064f44d0c", "inat_id": 39263083}}, {"type": "Feature", "geometry": {"type": "Point", "coordinates": [-121.9743586825, 45.2571037256]}, "properties": {"species": "Hydnum oregonense", "date": "2020-01-11", "location": "Oregon, US", "elevation": 859.0, "land_cover_label": "Tree cover", "water_mask": false, "exclude_reason": "keep", "ndvi": null, "soil_moisture": null, "solar_exposure": null, "wind_exposure": null, "water_retention": null, "slope": null, "aspect": null, "num_identification_agreements": 1, "cluster": 2, "tavg": null, "tmin": 6.1, "tmax": 8.3, "prcp_d0": 17.772987365722656, "prcp_d1": 0.0, "prcp_d2": 0.0, "prcp_d3": 0.0, "prcp_d4": 0.0, "prcp_d5": 46.61979675292969, "prcp_d6": 0.0, "tmax_d0": null, "tmax_d1": null, "tmax_d2": null, "tmax_d3": null, "tmax_d4": null, "tmax_d5": null, "tmax_d6": null, "tmin_d0": null, "tmin_d1": null, "tmin_d2": null, "tmin_d3": null, "tmin_d4": null, "tmin_d5": null, "tmin_d6": null, "day_of_year": 11, "uuid": "078f7080-9f94-49ee-875c-103efc85b7a3", "inat_id": 37590701}}, {"type": "Feature", "geometry": {"type": "Point", "coordinates": [-121.9894941898, 45.2698601364]}, "properties": {"species": "Hydnum oregonense", "date": "2020-01-28", "location": "Oregon, US", "elevation": 902.0, "land_cover_label": "Tree cover", "water_mask": false, "exclude_reason": "keep", "ndvi": null, "soil_moisture": null, "solar_exposure": null, "wind_exposure": null, "water_retention": null, "slope": null, "aspect": null, "num_identification_agreements": 1, "cluster": 1, "tavg": null, "tmin": 6.7, "tmax": 11.7, "prcp_d0": 39.849552154541016, "prcp_d1": 0.0, "prcp_d2": 0.0, "prcp_d3": 23.975244522094727, "prcp_d4": 0.0, "prcp_d5": 0.0, "prcp_d6": 0.0, "tmax_d0": null, "tmax_d1": null, "tmax_d2": null, "tmax_d3": null, "tmax_d4": null, "tmax_d5": null, "tmax_d6": null, "tmin_d0": null, "tmin_d1": null, "tmin_d2": null, "tmin_d3": null, "tmin_d4": null, "tmin_d5": null, "tmin_d6": null, "day_of_year": 28, "uuid": "794de17a-4f16-47de-909c-f0b3147f87c6", "inat_id": 39263210}}, {"type": "Feature", "geometry": {"type": "Point", "coordinates": [-122.3029420997, 45.210881]}, "properties": {"species": "Hydnum oregonense", "date": "2020-04-01", "location": "Estacada, OR 97023, USA", "elevation": 423.0, "land_cover_label": "Tree cover", "water_mask": false, "exclude_reason": "keep", "ndvi": null, "soil_moisture": null, "solar_exposure": null, "wind_exposure": null, "water_retention": null, "slope": null, "aspect": null, "num_identification_agreements": 1, "cluster": 1, "tavg": null, "tmin": 3.9, "tmax": 8.3, "prcp_d0": 0.0, "prcp_d1": 0.0, "prcp_d2": 70.17815399169922, "prcp_d3": 0.0, "prcp_d4": 0.0, "prcp_d5": 0.0, "prcp_d6": 0.0, "tmax_d0": null, "tmax_d1": null, "tmax_d2": null, "tmax_d3": null, "tmax_d4": null, "tmax_d5": null, "tmax_d6": null, "tmin_d0": null, "tmin_d1": null, "tmin_d2": null, "tmin_d3": null, "tmin_d4": null, "tmin_d5": null, "tmin_d6": null, "day_of_year": 92, "uuid": "9bfa5f64-6b1b-4eb6-a0cc-00c1f818edba", "inat_id": 41205117}}, {"type": "Feature", "geometry": {"type": "Point", "coordinates": [-121.8229032169, 45.3115914863]}, "properties": {"species": "Hydnum oregonense", "date": "2020-05-01", "location": "Clackamas County, US-OR, US", "elevation": 852.0, "land_cover_label": "Tree cover", "water_mask": false, "exclude_reason": "keep", "ndvi": null, "soil_moisture": null, "solar_exposure": null, "wind_exposure": null, "water_retention": null, "slope": null, "aspect": null, "num_identification_agreements": 1, "cluster": 0, "tavg": null, "tmin": null, "tmax": null, "prcp_d0": 0.0, "prcp_d1": 0.0, "prcp_d2": 0.0, "prcp_d3": 0.0, "prcp_d4": 0.0, "prcp_d5": 0.0, "prcp_d6": 0.0, "tmax_d0": null, "tmax_d1": null, "tmax_d2": null, "tmax_d3": null, "tmax_d4": null, "tmax_d5": null, "tmax_d6": null, "tmin_d0": null, "tmin_d1": null, "tmin_d2": null, "tmin_d3": null, "tmin_d4": null, "tmin_d5": null, "tmin_d6": null, "day_of_year": 122, "uuid": "d02df336-ce40-4d7d-a4d5-4a737d593e4c", "inat_id": 44658325}}, {"type": "Feature", "geometry": {"type": "Point", "coordinates": [-121.6165595824, 45.2810151399]}, "properties": {"species": "Hydnum oregonense", "date": "2021-05-09", "location": "Oregon, US", "elevation": 1097.0, "land_cover_label": "Tree cover", "water_mask": false, "exclude_reason": "keep", "ndvi": null, "soil_moisture": null, "solar_exposure": null, "wind_exposure": null, "water_retention": null, "slope": null, "aspect": null, "num_identification_agreements": 1, "cluster": 0, "tavg": null, "tmin": null, "tmax": null, "prcp_d0": 0.0, "prcp_d1": 0.0, "prcp_d2": 10.128281593322754, "prcp_d3": 0.0, "prcp_d4": 0.0, "prcp_d5": 0.0, "prcp_d6": 0.0, "tmax_d0": null, "tmax_d1": null, "tmax_d2": null, "tmax_d3": null, "tmax_d4": null, "tmax_d5": null, "tmax_d6": null, "tmin_d0": null, "tmin_d1": null, "tmin_d2": null, "tmin_d3": null, "tmin_d4": null, "tmin_d5": null, "tmin_d6": null, "day_of_year": 129, "uuid": "8ea18d44-57d2-4117-99f0-2c6d38648653", "inat_id": 78158548}}, {"type": "Feature", "geometry": {"type": "Point", "coordinates": [-122.4929283333, 45.0541278333]}, "properties": {"species": "Hydnum oregonense", "date": "2022-01-09", "location": "Molalla, OR, US", "elevation": 255.0, "land_cover_label": "Tree cover", "water_mask": false, "exclude_reason": "keep", "ndvi": null, "soil_moisture": null, "solar_exposure": null, "wind_exposure": null, "water_retention": null, "slope": null, "aspect": null, "num_identification_agreements": 1, "cluster": 2, "tavg": null, "tmin": -1.1, "tmax": 8.9, "prcp_d0": 7.397212028503418, "prcp_d1": 0.0, "prcp_d2": 22.191635131835938, "prcp_d3": 7.397212028503418, "prcp_d4": 24.92475318908692, "prcp_d5": 24.92475318908692, "prcp_d6": 0.0, "tmax_d0": null, "tmax_d1": null, "tmax_d2": null, "tmax_d3": null, "tmax_d4": null, "tmax_d5": null, "tmax_d6": null, "tmin_d0": null, "tmin_d1": null, "tmin_d2": null, "tmin_d3": null, "tmin_d4": null, "tmin_d5": null, "tmin_d6": null, "day_of_year": 9, "uuid": "eb8f32f5-1b95-469d-8c6d-51cba418c201", "inat_id": 105486595}}, {"type": "Feature", "geometry": {"type": "Point", "coordinates": [-122.561395, 44.929805]}, "properties": {"species": "Hydnum oregonense", "date": "2022-03-06", "location": "Silverton, OR, US", "elevation": 632.0, "land_cover_label": "Tree cover", "water_mask": false, "exclude_reason": "keep", "ndvi": null, "soil_moisture": null, "solar_exposure": null, "wind_exposure": null, "water_retention": null, "slope": null, "aspect": null, "num_identification_agreements": 2, "cluster": 2, "tavg": null, "tmin": 0.0, "tmax": 11.7, "prcp_d0": 0.0, "prcp_d1": 0.0, "prcp_d2": 0.0, "prcp_d3": 0.0, "prcp_d4": 104.088623046875, "prcp_d5": 0.0, "prcp_d6": 32.213722229003906, "tmax_d0": null, "tmax_d1": null, "tmax_d2": null, "tmax_d3": null, "tmax_d4": null, "tmax_d5": null, "tmax_d6": null, "tmin_d0": null, "tmin_d1": null, "tmin_d2": null, "tmin_d3": null, "tmin_d4": null, "tmin_d5": null, "tmin_d6": null, "day_of_year": 65, "uuid": "d65ce4a1-ccc5-4377-b7b8-9c80fa53a57a", "inat_id": 108072433}}, {"type": "Feature", "geometry": {"type": "Point", "coordinates": [-121.8924866667, 45.245105]}, "properties": {"species": "Hydnum oregonense", "date": "2022-03-26", "location": "Mt. Hood National Forest - Salmon-Huckleberry Wilderness, Welches, OR, US", "elevation": 735.0, "land_cover_label": "Tree cover", "water_mask": false, "exclude_reason": "keep", "ndvi": null, "soil_moisture": null, "solar_exposure": null, "wind_exposure": null, "water_retention": null, "slope": null, "aspect": null, "num_identification_agreements": 1, "cluster": 0, "tavg": null, "tmin": null, "tmax": null, "prcp_d0": 0.0, "prcp_d1": 0.0, "prcp_d2": 0.0, "prcp_d3": 0.0, "prcp_d4": 0.0, "prcp_d5": 0.0, "prcp_d6": 0.0, "tmax_d0": null, "tmax_d1": null, "tmax_d2": null, "tmax_d3": null, "tmax_d4": null, "tmax_d5": null, "tmax_d6": null, "tmin_d0": null, "tmin_d1": null, "tmin_d2": null, "tmin_d3": null, "tmin_d4": null, "tmin_d5": null, "tmin_d6": null, "day_of_year": 85, "uuid": "31695fa3-78ec-40a0-93ff-452214da8e49", "inat_id": 109604783}}, {"type": "Feature", "geometry": {"type": "Point", "coordinates": [-122.1167282438, 45.3004105394]}, "properties": {"species": "Hydnum oregonense", "date": "2023-10-28", "location": "Zigzag Ranger Station, Sandy, OR, US", "elevation": 549.0, "land_cover_label": "Tree cover", "water_mask": false, "exclude_reason": "keep", "ndvi": null, "soil_moisture": null, "solar_exposure": null, "wind_exposure": null, "water_retention": null, "slope": null, "aspect": null, "num_identification_agreements": 1, "cluster": 0, "tavg": null, "tmin": 3.9, "tmax": 12.2, "prcp_d0": 0.0, "prcp_d1": 0.0, "prcp_d2": 0.0, "prcp_d3": 17.174646377563477, "prcp_d4": 17.174646377563477, "prcp_d5": 0.0, "prcp_d6": 0.0, "tmax_d0": null, "tmax_d1": null, "tmax_d2": null, "tmax_d3": null, "tmax_d4": null, "tmax_d5": null, "tmax_d6": null, "tmin_d0": null, "tmin_d1": null, "tmin_d2": null, "tmin_d3": null, "tmin_d4": null, "tmin_d5": null, "tmin_d6": null, "day_of_year": 301, "uuid": "6e6f5e66-3c41-45e1-b4ef-6d0a31f99dc7", "inat_id": 189322730}}, {"type": "Feature", "geometry": {"type": "Point", "coordinates": [-122.3021801, 45.2109876997]}, "properties": {"species": "Hydnum oregonense", "date": "2023-12-24", "location": "Estacada, OR 97023, USA", "elevation": 423.0, "land_cover_label": "Tree cover", "water_mask": false, "exclude_reason": "keep", "ndvi": null, "soil_moisture": null, "solar_exposure": null, "wind_exposure": null, "water_retention": null, "slope": null, "aspect": null, "num_identification_agreements": 1, "cluster": 0, "tavg": null, "tmin": -0.6, "tmax": 6.7, "prcp_d0": 8.499775886535645, "prcp_d1": 0.0, "prcp_d2": 0.0, "prcp_d3": 0.0, "prcp_d4": 6.784434795379639, "prcp_d5": 10.17665195465088, "prcp_d6": 0.0, "tmax_d0": null, "tmax_d1": null, "tmax_d2": null, "tmax_d3": null, "tmax_d4": null, "tmax_d5": null, "tmax_d6": null, "tmin_d0": null, "tmin_d1": null, "tmin_d2": null, "tmin_d3": null, "tmin_d4": null, "tmin_d5": null, "tmin_d6": null, "day_of_year": 358, "uuid": "c06461cd-520d-41d6-8ba0-aabf6be8d35f", "inat_id": 194783883}}, {"type": "Feature", "geometry": {"type": "Point", "coordinates": [-122.1130122208, 45.2402037912]}, "properties": {"species": "Hydnum oregonense", "date": "2024-05-08", "location": "Clackamas County, OR, USA", "elevation": 1025.0, "land_cover_label": "Tree cover", "water_mask": false, "exclude_reason": "keep", "ndvi": null, "soil_moisture": null, "solar_exposure": null, "wind_exposure": null, "water_retention": null, "slope": null, "aspect": null, "num_identification_agreements": 2, "cluster": 2, "tavg": null, "tmin": 4.4, "tmax": 21.7, "prcp_d0": 0.0, "prcp_d1": 0.0, "prcp_d2": 0.0, "prcp_d3": 0.0, "prcp_d4": 124.44732666015624, "prcp_d5": 0.0, "prcp_d6": 0.0, "tmax_d0": null, "tmax_d1": null, "tmax_d2": null, "tmax_d3": null, "tmax_d4": null, "tmax_d5": null, "tmax_d6": null, "tmin_d0": null, "tmin_d1": null, "tmin_d2": null, "tmin_d3": null, "tmin_d4": null, "tmin_d5": null, "tmin_d6": null, "day_of_year": 129, "uuid": "b3e6035e-6506-433f-934b-6a876ae0b358", "inat_id": 227233568}}, {"type": "Feature", "geometry": {"type": "Point", "coordinates": [-122.4357216667, 45.2495716667]}, "properties": {"species": "Hydnum oregonense", "date": "2024-10-01", "location": "S Upper Highland Rd, Beavercreek, OR, US", "elevation": 413.0, "land_cover_label": "Tree cover", "water_mask": false, "exclude_reason": "keep", "ndvi": null, "soil_moisture": null, "solar_exposure": null, "wind_exposure": null, "water_retention": null, "slope": null, "aspect": null, "num_identification_agreements": 1, "cluster": 0, "tavg": null, "tmin": 7.2, "tmax": 26.1, "prcp_d0": 0.0, "prcp_d1": 0.0, "prcp_d2": 0.0, "prcp_d3": 0.0, "prcp_d4": 0.0, "prcp_d5": 0.0, "prcp_d6": 0.0, "tmax_d0": null, "tmax_d1": null, "tmax_d2": null, "tmax_d3": null, "tmax_d4": null, "tmax_d5": null, "tmax_d6": null, "tmin_d0": null, "tmin_d1": null, "tmin_d2": null, "tmin_d3": null, "tmin_d4": null, "tmin_d5": null, "tmin_d6": null, "day_of_year": 275, "uuid": "b8587082-ea08-414a-ba5f-0d693eb07ac3", "inat_id": 245177607}}, {"type": "Feature", "geometry": {"type": "Point", "coordinates": [-122.1201898903, 45.2485557849]}, "properties": {"species": "Hydnum oregonense", "date": "2024-10-13", "location": "Estacada, OR 97023, USA", "elevation": 923.0, "land_cover_label": "Tree cover", "water_mask": false, "exclude_reason": "keep", "ndvi": null, "soil_moisture": null, "solar_exposure": null, "wind_exposure": null, "water_retention": null, "slope": null, "aspect": null, "num_identification_agreements": 1, "cluster": 0, "tavg": null, "tmin": 8.9, "tmax": 23.9, "prcp_d0": 0.0, "prcp_d1": 0.0, "prcp_d2": 0.0, "prcp_d3": 0.0, "prcp_d4": 0.0, "prcp_d5": 0.0, "prcp_d6": 0.0, "tmax_d0": null, "tmax_d1": null, "tmax_d2": null, "tmax_d3": null, "tmax_d4": null, "tmax_d5": null, "tmax_d6": null, "tmin_d0": null, "tmin_d1": null, "tmin_d2": null, "tmin_d3": null, "tmin_d4": null, "tmin_d5": null, "tmin_d6": null, "day_of_year": 287, "uuid": "883f4d8f-3655-4247-b013-84ad88146ebb", "inat_id": 247586206}}, {"type": "Feature", "geometry": {"type": "Point", "coordinates": [-122.1158537641, 45.2571103676]}, "properties": {"species": "Hydnum oregonense", "date": "2024-10-13", "location": "Estacada, OR 97023, USA", "elevation": 833.0, "land_cover_label": "Tree cover", "water_mask": false, "exclude_reason": "keep", "ndvi": null, "soil_moisture": null, "solar_exposure": null, "wind_exposure": null, "water_retention": null, "slope": null, "aspect": null, "num_identification_agreements": 1, "cluster": 0, "tavg": null, "tmin": 8.9, "tmax": 23.9, "prcp_d0": 0.0, "prcp_d1": 0.0, "prcp_d2": 0.0, "prcp_d3": 0.0, "prcp_d4": 0.0, "prcp_d5": 0.0, "prcp_d6": 0.0, "tmax_d0": null, "tmax_d1": null, "tmax_d2": null, "tmax_d3": null, "tmax_d4": null, "tmax_d5": null, "tmax_d6": null, "tmin_d0": null, "tmin_d1": null, "tmin_d2": null, "tmin_d3": null, "tmin_d4": null, "tmin_d5": null, "tmin_d6": null, "day_of_year": 287, "uuid": "aa41347f-6cd3-458c-9e10-c62db2f7619f", "inat_id": 247586698}}, {"type": "Feature", "geometry": {"type": "Point", "coordinates": [-121.8651993757, 44.9770673658]}, "properties": {"species": "Hydnum oregonense", "date": "2024-10-13", "location": "Oregon, US", "elevation": 924.0, "land_cover_label": "Tree cover", "water_mask": false, "exclude_reason": "keep", "ndvi": null, "soil_moisture": null, "solar_exposure": null, "wind_exposure": null, "water_retention": null, "slope": null, "aspect": null, "num_identification_agreements": 1, "cluster": 0, "tavg": null, "tmin": null, "tmax": null, "prcp_d0": 0.0, "prcp_d1": 0.0, "prcp_d2": 9.346152305603027, "prcp_d3": 0.0, "prcp_d4": 0.0, "prcp_d5": 0.0, "prcp_d6": 0.0, "tmax_d0": null, "tmax_d1": null, "tmax_d2": null, "tmax_d3": null, "tmax_d4": null, "tmax_d5": null, "tmax_d6": null, "tmin_d0": null, "tmin_d1": null, "tmin_d2": null, "tmin_d3": null, "tmin_d4": null, "tmin_d5": null, "tmin_d6": null, "day_of_year": 287, "uuid": "82d314de-1fc0-4b00-861e-29104babe03c", "inat_id": 311265907}}, {"type": "Feature", "geometry": {"type": "Point", "coordinates": [-121.838005, 45.41242]}, "properties": {"species": "Hydnum oregonense", "date": "2024-12-28", "location": "Zigzag Ranger Station, Brightwood, OR, US", "elevation": 848.0, "land_cover_label": "Grassland", "water_mask": false, "exclude_reason": "keep", "ndvi": null, "soil_moisture": null, "solar_exposure": null, "wind_exposure": null, "water_retention": null, "slope": null, "aspect": null, "num_identification_agreements": 1, "cluster": 1, "tavg": null, "tmin": 3.3, "tmax": 8.9, "prcp_d0": 14.598172187805176, "prcp_d1": 29.19634437561035, "prcp_d2": 43.79451751708984, "prcp_d3": 20.838178634643555, "prcp_d4": 48.62241744995117, "prcp_d5": 0.0, "prcp_d6": 0.0, "tmax_d0": null, "tmax_d1": null, "tmax_d2": null, "tmax_d3": null, "tmax_d4": null, "tmax_d5": null, "tmax_d6": null, "tmin_d0": null, "tmin_d1": null, "tmin_d2": null, "tmin_d3": null, "tmin_d4": null, "tmin_d5": null, "tmin_d6": null, "day_of_year": 363, "uuid": "480e27b0-4ae5-4e15-bc04-6ed2f21ae6f1", "inat_id": 256910797}}, {"type": "Feature", "geometry": {"type": "Point", "coordinates": [-121.8566777778, 45.3940166667]}, "properties": {"species": "Hydnum oregonense", "date": "2025-01-07", "location": "Rhododendron, OR 97049, USA", "elevation": 700.0, "land_cover_label": "Tree cover", "water_mask": false, "exclude_reason": "keep", "ndvi": null, "soil_moisture": null, "solar_exposure": null, "wind_exposure": null, "water_retention": null, "slope": null, "aspect": null, "num_identification_agreements": 1, "cluster": 2, "tavg": null, "tmin": 0.7, "tmax": 4.9, "prcp_d0": 0.0, "prcp_d1": 14.424055099487305, "prcp_d2": 0.0, "prcp_d3": 0.0, "prcp_d4": 64.5643539428711, "prcp_d5": 0.0, "prcp_d6": 32.28217697143555, "tmax_d0": null, "tmax_d1": null, "tmax_d2": null, "tmax_d3": null, "tmax_d4": null, "tmax_d5": null, "tmax_d6": null, "tmin_d0": null, "tmin_d1": null, "tmin_d2": null, "tmin_d3": null, "tmin_d4": null, "tmin_d5": null, "tmin_d6": null, "day_of_year": 7, "uuid": "b4ad6a49-48f7-43a5-a698-c15d2349eb82", "inat_id": 258343622}}, {"type": "Feature", "geometry": {"type": "Point", "coordinates": [-122.0907479952, 44.9776313447]}, "properties": {"species": "Hydnum oregonense", "date": "2025-01-16", "location": "Mt. Hood National Forest, Molalla, OR, US", "elevation": 560.0, "land_cover_label": "Tree cover", "water_mask": false, "exclude_reason": "keep", "ndvi": null, "soil_moisture": null, "solar_exposure": null, "wind_exposure": null, "water_retention": null, "slope": null, "aspect": null, "num_identification_agreements": 1, "cluster": 0, "tavg": null, "tmin": null, "tmax": null, "prcp_d0": 0.0, "prcp_d1": 0.0, "prcp_d2": 0.0, "prcp_d3": 0.0, "prcp_d4": 0.0, "prcp_d5": 0.0, "prcp_d6": 0.0, "tmax_d0": null, "tmax_d1": null, "tmax_d2": null, "tmax_d3": null, "tmax_d4": null, "tmax_d5": null, "tmax_d6": null, "tmin_d0": null, "tmin_d1": null, "tmin_d2": null, "tmin_d3": null, "tmin_d4": null, "tmin_d5": null, "tmin_d6": null, "day_of_year": 16, "uuid": "96442ab2-818f-4648-929a-802447503ffb", "inat_id": 259404713}}, {"type": "Feature", "geometry": {"type": "Point", "coordinates": [-122.2965339968, 45.1558318706]}, "properties": {"species": "Hydnum oregonense", "date": "2025-11-02", "location": "Clackamas County, US-OR, US", "elevation": 820.0, "land_cover_label": "Tree cover", "water_mask": false, "exclude_reason": "keep", "ndvi": null, "soil_moisture": null, "solar_exposure": null, "wind_exposure": null, "water_retention": null, "slope": null, "aspect": null, "num_identification_agreements": 1, "cluster": 0, "tavg": null, "tmin": 5.0, "tmax": 14.0, "prcp_d0": 0.0, "prcp_d1": 0.0, "prcp_d2": 0.0, "prcp_d3": 0.0, "prcp_d4": 8.731026649475098, "prcp_d5": 0.0, "prcp_d6": 0.0, "tmax_d0": null, "tmax_d1": null, "tmax_d2": null, "tmax_d3": null, "tmax_d4": null, "tmax_d5": null, "tmax_d6": null, "tmin_d0": null, "tmin_d1": null, "tmin_d2": null, "tmin_d3": null, "tmin_d4": null, "tmin_d5": null, "tmin_d6": null, "day_of_year": 306, "uuid": "de484955-31fb-4487-a851-84bc1e09a201", "inat_id": 324775255}}, {"type": "Feature", "geometry": {"type": "Point", "coordinates": [-122.1087889481, 45.5154074992]}, "properties": {"species": "Hydnum oregonense", "date": "2025-11-15", "location": "Oregon, US", "elevation": 805.0, "land_cover_label": "Tree cover", "water_mask": false, "exclude_reason": "keep", "ndvi": null, "soil_moisture": null, "solar_exposure": null, "wind_exposure": null, "water_retention": null, "slope": null, "aspect": null, "num_identification_agreements": 1, "cluster": 0, "tavg": null, "tmin": 9.0, "tmax": 16.0, "prcp_d0": 0.0, "prcp_d1": 0.0, "prcp_d2": 0.0, "prcp_d3": 0.0, "prcp_d4": 0.0, "prcp_d5": 0.0, "prcp_d6": 0.0, "tmax_d0": null, "tmax_d1": null, "tmax_d2": null, "tmax_d3": null, "tmax_d4": null, "tmax_d5": null, "tmax_d6": null, "tmin_d0": null, "tmin_d1": null, "tmin_d2": null, "tmin_d3": null, "tmin_d4": null, "tmin_d5": null, "tmin_d6": null, "day_of_year": 319, "uuid": "a1a465a0-5dac-400c-a617-3bb138b94b09", "inat_id": 326904131}}, {"type": "Feature", "geometry": {"type": "Point", "coordinates": [-122.1994633333, 45.2052216667]}, "properties": {"species": "Hydnum oregonense", "date": "2025-11-29", "location": "Mt. Hood National Forest, Estacada, OR, US", "elevation": 656.0, "land_cover_label": "Tree cover", "water_mask": false, "exclude_reason": "keep", "ndvi": null, "soil_moisture": null, "solar_exposure": null, "wind_exposure": null, "water_retention": null, "slope": null, "aspect": null, "num_identification_agreements": 1, "cluster": 2, "tavg": null, "tmin": 6.0, "tmax": 9.0, "prcp_d0": 0.0864508524537086, "prcp_d1": 16.85189437866211, "prcp_d2": 2.357024908065796, "prcp_d3": 12.46061897277832, "prcp_d4": 7.928915977478027, "prcp_d5": 18.05655097961425, "prcp_d6": 5.089096546173096, "tmax_d0": null, "tmax_d1": null, "tmax_d2": null, "tmax_d3": null, "tmax_d4": null, "tmax_d5": null, "tmax_d6": null, "tmin_d0": null, "tmin_d1": null, "tmin_d2": null, "tmin_d3": null, "tmin_d4": null, "tmin_d5": null, "tmin_d6": null, "day_of_year": 333, "uuid": "fa3e60c6-c411-43ea-8e6d-dd1a7d07b4ad", "inat_id": 328831210}}, {"type": "Feature", "geometry": {"type": "Point", "coordinates": [-122.397522782, 45.1721650231]}, "properties": {"species": "Hydnum oregonense", "date": "2025-11-30", "location": "Clackamas County, US-OR, US", "elevation": 309.0, "land_cover_label": "Grassland", "water_mask": false, "exclude_reason": "keep", "ndvi": null, "soil_moisture": null, "solar_exposure": null, "wind_exposure": null, "water_retention": null, "slope": null, "aspect": null, "num_identification_agreements": 2, "cluster": 0, "tavg": null, "tmin": 2.0, "tmax": 11.0, "prcp_d0": 0.4135365784168243, "prcp_d1": 0.0405462570488452, "prcp_d2": 14.351739883422852, "prcp_d3": 2.431757688522339, "prcp_d4": 11.40414333343506, "prcp_d5": 4.98142671585083, "prcp_d6": 11.21585750579834, "tmax_d0": null, "tmax_d1": null, "tmax_d2": null, "tmax_d3": null, "tmax_d4": null, "tmax_d5": null, "tmax_d6": null, "tmin_d0": null, "tmin_d1": null, "tmin_d2": null, "tmin_d3": null, "tmin_d4": null, "tmin_d5": null, "tmin_d6": null, "day_of_year": 334, "uuid": "4196f34a-e06b-4edf-a134-1f9e409143b7", "inat_id": 329483010}}, {"type": "Feature", "geometry": {"type": "Point", "coordinates": [-122.2114965892, 44.6461972899]}, "properties": {"species": "Hydnum oregonense", "date": "2025-11-30", "location": "Oregon, US", "elevation": 830.0, "land_cover_label": "Tree cover", "water_mask": false, "exclude_reason": "keep", "ndvi": null, "soil_moisture": null, "solar_exposure": null, "wind_exposure": null, "water_retention": null, "slope": null, "aspect": null, "num_identification_agreements": 2, "cluster": 1, "tavg": null, "tmin": null, "tmax": null, "prcp_d0": 1.705919623374939, "prcp_d1": 0.2021821737289428, "prcp_d2": 28.68031311035156, "prcp_d3": 3.669974565505981, "prcp_d4": 17.791345596313477, "prcp_d5": 2.8831419944763184, "prcp_d6": 16.775480270385742, "tmax_d0": null, "tmax_d1": null, "tmax_d2": null, "tmax_d3": null, "tmax_d4": null, "tmax_d5": null, "tmax_d6": null, "tmin_d0": null, "tmin_d1": null, "tmin_d2": null, "tmin_d3": null, "tmin_d4": null, "tmin_d5": null, "tmin_d6": null, "day_of_year": 334, "uuid": "2bc9762c-8a35-4557-be1d-d4ec64dba414", "inat_id": 329142770}}, {"type": "Feature", "geometry": {"type": "Point", "coordinates": [-122.1841666351, 44.8910685252]}, "properties": {"species": "Hydnum oregonense", "date": "2025-12-12", "location": "Clackamas County, OR, USA", "elevation": 1083.0, "land_cover_label": "Tree cover", "water_mask": false, "exclude_reason": "keep", "ndvi": null, "soil_moisture": null, "solar_exposure": null, "wind_exposure": null, "water_retention": null, "slope": null, "aspect": null, "num_identification_agreements": 1, "cluster": 1, "tavg": null, "tmin": null, "tmax": null, "prcp_d0": 0.0, "prcp_d1": 0.0, "prcp_d2": 19.540340423583984, "prcp_d3": 78.16136169433594, "prcp_d4": 39.08068084716797, "prcp_d5": 19.540340423583984, "prcp_d6": 0.0, "tmax_d0": null, "tmax_d1": null, "tmax_d2": null, "tmax_d3": null, "tmax_d4": null, "tmax_d5": null, "tmax_d6": null, "tmin_d0": null, "tmin_d1": null, "tmin_d2": null, "tmin_d3": null, "tmin_d4": null, "tmin_d5": null, "tmin_d6": null, "day_of_year": 346, "uuid": "6bc804e4-0608-4ede-afbe-e2c350afe507", "inat_id": 343439158}}, {"type": "Feature", "geometry": {"type": "Point", "coordinates": [-122.1633030948, 45.374304972]}, "properties": {"species": "Hydnum oregonense", "date": "2026-04-11", "location": "Clackamas County, US-OR, US", "elevation": 403.0, "land_cover_label": "Tree cover", "water_mask": false, "exclude_reason": "keep", "ndvi": null, "soil_moisture": null, "solar_exposure": null, "wind_exposure": null, "water_retention": null, "slope": null, "aspect": null, "num_identification_agreements": 1, "cluster": 0, "tavg": null, "tmin": 10.0, "tmax": 17.8, "prcp_d0": 18.68922996520996, "prcp_d1": 8.895374298095703, "prcp_d2": 0.0, "prcp_d3": 0.0, "prcp_d4": 0.0, "prcp_d5": 0.0, "prcp_d6": 0.0, "tmax_d0": null, "tmax_d1": null, "tmax_d2": null, "tmax_d3": null, "tmax_d4": null, "tmax_d5": null, "tmax_d6": null, "tmin_d0": null, "tmin_d1": null, "tmin_d2": null, "tmin_d3": null, "tmin_d4": null, "tmin_d5": null, "tmin_d6": null, "day_of_year": 101, "uuid": "fbf2ac3d-3266-4183-99c0-3e2d145d6894", "inat_id": 349401152}}, {"type": "Feature", "geometry": {"type": "Point", "coordinates": [-122.1182032988, 45.2415577414]}, "properties": {"species": "Hydnum oregonense", "date": "2026-04-19", "location": "Clackamas County, OR, USA", "elevation": 1030.0, "land_cover_label": "Tree cover", "water_mask": false, "exclude_reason": "keep", "ndvi": null, "soil_moisture": null, "solar_exposure": null, "wind_exposure": null, "water_retention": null, "slope": null, "aspect": null, "num_identification_agreements": 1, "cluster": 0, "tavg": null, "tmin": 14.4, "tmax": 23.3, "prcp_d0": 0.0, "prcp_d1": 0.0, "prcp_d2": 0.0, "prcp_d3": 0.0, "prcp_d4": 11.765926361083984, "prcp_d5": 0.0, "prcp_d6": 0.0, "tmax_d0": null, "tmax_d1": null, "tmax_d2": null, "tmax_d3": null, "tmax_d4": null, "tmax_d5": null, "tmax_d6": null, "tmin_d0": null, "tmin_d1": null, "tmin_d2": null, "tmin_d3": null, "tmin_d4": null, "tmin_d5": null, "tmin_d6": null, "day_of_year": 109, "uuid": "b1e7b1fd-a79f-462f-a988-cdb3d3679a17", "inat_id": 351363141}}]}