{"type": "FeatureCollection", "features": [{"type": "Feature", "geometry": {"type": "Point", "coordinates": [-105.6118283877, 39.6819361283]}, "properties": {"species": "Hydnellum sp. 'caeruleum-PNW12'", "date": "2022-08-23", "location": "Arapaho & Roosevelt National Forests Pawnee National Grassland, Idaho Springs, CO, US", "elevation": 2879.0, "land_cover_label": "Tree cover", "water_mask": false, "exclude_reason": "keep", "ndvi": null, "soil_moisture": 0.4144361589117476, "solar_exposure": 0.7449145913124084, "wind_exposure": 0.3703753352165222, "water_retention": 0.5354642868041992, "slope": 22.778779983520508, "aspect": 275.1912841796875, "num_identification_agreements": 2, "cluster": 3, "tavg": null, "tmin": -0.1, "tmax": 12.0, "prcp_d0": 0.0, "prcp_d1": 0.0, "prcp_d2": 0.0, "prcp_d3": 0.0, "prcp_d4": 0.0, "prcp_d5": 0.0, "prcp_d6": 0.0, "tmax_d0": 18.3, "tmax_d1": 16.3, "tmax_d2": 14.9, "tmax_d3": 15.1, "tmax_d4": 17.9, "tmax_d5": 19.5, "tmax_d6": 17.6, "tmin_d0": 4.4, "tmin_d1": 6.2, "tmin_d2": 5.5, "tmin_d3": 7.9, "tmin_d4": 6.4, "tmin_d5": 6.4, "tmin_d6": 5.6, "day_of_year": 235, "uuid": "9cad2337-34c2-41bb-a2c9-f878fefb9821", "inat_id": 132081533}}, {"type": "Feature", "geometry": {"type": "Point", "coordinates": [-107.8242716667, 37.854905]}, "properties": {"species": "Hydnellum sp. 'caeruleum-PNW12'", "date": "2025-08-15", "location": "San Miguel County, US-CO, US", "elevation": 2983.0, "land_cover_label": "Tree cover", "water_mask": false, "exclude_reason": "keep", "ndvi": null, "soil_moisture": null, "solar_exposure": null, "wind_exposure": null, "water_retention": null, "slope": null, "aspect": null, "num_identification_agreements": 2, "cluster": 0, "tavg": null, "tmin": 11.0, "tmax": 21.0, "prcp_d0": 8.844578742980957, "prcp_d1": 0.0, "prcp_d2": 0.0, "prcp_d3": 0.0, "prcp_d4": 0.0, "prcp_d5": 0.0, "prcp_d6": 0.0, "tmax_d0": 19.7, "tmax_d1": 20.8, "tmax_d2": 21.3, "tmax_d3": 19.8, "tmax_d4": 18.5, "tmax_d5": 19.4, "tmax_d6": 20.4, "tmin_d0": 8.5, "tmin_d1": 9.2, "tmin_d2": 7.3, "tmin_d3": 6.1, "tmin_d4": 6.0, "tmin_d5": 9.6, "tmin_d6": 7.1, "day_of_year": 227, "uuid": "8b895a59-6f7d-4e2c-ac64-7c8ffdea53b5", "inat_id": 306563348}}]}