{"type": "FeatureCollection", "features": [{"type": "Feature", "geometry": {"type": "Point", "coordinates": [-105.7623903538, 35.8573397685]}, "properties": {"species": "Hydnellum cumulatum", "date": "2024-09-06", "location": "Santa Fe National Forest, Tererro, NM, US", "elevation": 3250.0, "land_cover_label": "Tree cover", "water_mask": false, "exclude_reason": "keep", "ndvi": null, "soil_moisture": null, "solar_exposure": null, "wind_exposure": null, "water_retention": null, "slope": null, "aspect": null, "num_identification_agreements": 1, "cluster": 2, "tavg": null, "tmin": 10.0, "tmax": 26.1, "prcp_d0": 5.232530117034912, "prcp_d1": 9.184829711914062, "prcp_d2": 0.0, "prcp_d3": 0.0, "prcp_d4": 0.0, "prcp_d5": 0.0, "prcp_d6": 0.0, "tmax_d0": 14.8, "tmax_d1": 15.4, "tmax_d2": 18.5, "tmax_d3": 17.1, "tmax_d4": 14.9, "tmax_d5": 15.0, "tmax_d6": 16.1, "tmin_d0": 1.7, "tmin_d1": 3.7, "tmin_d2": 5.8, "tmin_d3": 3.8, "tmin_d4": 1.6, "tmin_d5": 5.0, "tmin_d6": 5.0, "day_of_year": 250, "uuid": "7252e842-5c1b-4045-8f2e-eefc47b62aa1", "inat_id": 240255438}}]}