{"type": "FeatureCollection", "features": [{"type": "Feature", "geometry": {"type": "Point", "coordinates": [-105.536595, 40.035367]}, "properties": {"species": "Hydnellum decurratum", "date": "2022-09-17", "location": "Denver Botanic Gardens, Denver, CO, US", "elevation": 2970.0, "land_cover_label": "Tree cover", "water_mask": false, "exclude_reason": "keep", "ndvi": null, "soil_moisture": 0.2964075166007435, "solar_exposure": 0.8479024767875671, "wind_exposure": 0.3634287416934967, "water_retention": 0.2075652778148651, "slope": 5.800324440002441, "aspect": 102.34130096435548, "num_identification_agreements": 4, "cluster": 0, "tavg": null, "tmin": 12.0, "tmax": 26.0, "prcp_d0": 0.0, "prcp_d1": 0.0, "prcp_d2": 0.0, "prcp_d3": 0.0, "prcp_d4": 0.0, "prcp_d5": 0.0, "prcp_d6": 0.0, "tmax_d0": 13.1, "tmax_d1": 14.3, "tmax_d2": 12.8, "tmax_d3": 15.2, "tmax_d4": 16.5, "tmax_d5": 17.9, "tmax_d6": 15.1, "tmin_d0": 3.6, "tmin_d1": 3.4, "tmin_d2": 4.6, "tmin_d3": 6.9, "tmin_d4": 6.8, "tmin_d5": 4.0, "tmin_d6": -1.3, "day_of_year": 260, "uuid": "845f09cd-8038-49db-876f-5051e7946252", "inat_id": 152842558}}, {"type": "Feature", "geometry": {"type": "Point", "coordinates": [-105.32656, 40.02181]}, "properties": {"species": "Hydnellum decurratum", "date": "2022-09-17", "location": "Niwot Ridge, CO, US", "elevation": 1835.0, "land_cover_label": "Tree cover", "water_mask": false, "exclude_reason": "keep", "ndvi": null, "soil_moisture": 0.2270597725268413, "solar_exposure": 0.8664924502372742, "wind_exposure": 0.3844877183437347, "water_retention": 0.2495370358228683, "slope": 23.56107521057129, "aspect": 243.37863159179688, "num_identification_agreements": 3, "cluster": 0, "tavg": null, "tmin": 12.0, "tmax": 26.0, "prcp_d0": 5.767069339752197, "prcp_d1": 0.0, "prcp_d2": 0.0, "prcp_d3": 6.532974243164063, "prcp_d4": 0.0, "prcp_d5": 0.0, "prcp_d6": 0.0, "tmax_d0": 21.6, "tmax_d1": 23.2, "tmax_d2": 19.1, "tmax_d3": 23.7, "tmax_d4": 25.6, "tmax_d5": 25.6, "tmax_d6": 20.6, "tmin_d0": 10.3, "tmin_d1": 8.9, "tmin_d2": 12.5, "tmin_d3": 13.8, "tmin_d4": 11.9, "tmin_d5": 7.1, "tmin_d6": 5.6, "day_of_year": 260, "uuid": "3ffeb3c0-05e5-4ab4-abb8-cb692be8571a", "inat_id": 152042459}}, {"type": "Feature", "geometry": {"type": "Point", "coordinates": [-105.571633, 40.039933]}, "properties": {"species": "Hydnellum decurratum", "date": "2023-08-12", "location": "Denver Botanic Gardens, Denver, CO, US", "elevation": 3250.0, "land_cover_label": "Tree cover", "water_mask": false, "exclude_reason": "keep", "ndvi": null, "soil_moisture": 0.2868653088702961, "solar_exposure": 0.8813804984092712, "wind_exposure": 0.3293531835079193, "water_retention": 0.3622342348098755, "slope": 7.010080814361572, "aspect": 131.46307373046875, "num_identification_agreements": 2, "cluster": 0, "tavg": null, "tmin": 17.0, "tmax": 28.0, "prcp_d0": 0.0, "prcp_d1": 0.0, "prcp_d2": 0.0, "prcp_d3": 0.0, "prcp_d4": 0.0, "prcp_d5": 8.326016426086426, "prcp_d6": 0.0, "tmax_d0": 16.1, "tmax_d1": 17.3, "tmax_d2": 16.0, "tmax_d3": 16.2, "tmax_d4": 16.5, "tmax_d5": 12.7, "tmax_d6": 12.2, "tmin_d0": 5.6, "tmin_d1": 5.3, "tmin_d2": 6.3, "tmin_d3": 1.1, "tmin_d4": 2.9, "tmin_d5": 2.6, "tmin_d6": 3.8, "day_of_year": 224, "uuid": "4c9f8620-1e26-4c56-a838-d4a634635b78", "inat_id": 191200380}}]}