{"type": "FeatureCollection", "features": [{"type": "Feature", "geometry": {"type": "Point", "coordinates": [-122.1938777778, 44.6954416667]}, "properties": {"species": "Hygrophorus albofloccosus", "date": "2025-11-16", "location": "Detroit, OR 97342, USA", "elevation": 532.0, "land_cover_label": "Tree cover", "water_mask": false, "exclude_reason": "keep", "ndvi": null, "soil_moisture": null, "solar_exposure": null, "wind_exposure": null, "water_retention": null, "slope": null, "aspect": null, "num_identification_agreements": 1, "cluster": 0, "tavg": null, "tmin": null, "tmax": null, "prcp_d0": 0.0, "prcp_d1": 0.0, "prcp_d2": 0.0, "prcp_d3": 27.58173561096192, "prcp_d4": 0.0, "prcp_d5": 0.0, "prcp_d6": 0.0, "tmax_d0": 15.3, "tmax_d1": 17.5, "tmax_d2": 13.3, "tmax_d3": 18.4, "tmax_d4": 19.4, "tmax_d5": 19.6, "tmax_d6": 18.7, "tmin_d0": 3.3, "tmin_d1": 7.8, "tmin_d2": 6.4, "tmin_d3": 8.4, "tmin_d4": 8.4, "tmin_d5": 6.5, "tmin_d6": 5.3, "day_of_year": 320, "uuid": "36a08982-25ed-44b9-8eeb-6d6ef8ab872e", "inat_id": 327040382}}]}