{"type": "FeatureCollection", "features": [{"type": "Feature", "geometry": {"type": "Point", "coordinates": [-108.0085111023, 39.0159230757]}, "properties": {"species": "Hygrophorus pustulatoides", "date": "2024-08-20", "location": "Grand Mesa Uncompahgre and Gunnison National Forests, Cedaredge, CO, US", "elevation": 3097.0, "land_cover_label": "Tree cover", "water_mask": false, "exclude_reason": "keep", "ndvi": null, "soil_moisture": null, "solar_exposure": null, "wind_exposure": null, "water_retention": null, "slope": null, "aspect": null, "num_identification_agreements": 2, "cluster": 0, "tavg": null, "tmin": 16.5, "tmax": 34.3, "prcp_d0": 0.0, "prcp_d1": 0.0, "prcp_d2": 0.0, "prcp_d3": 0.0, "prcp_d4": 0.0, "prcp_d5": 0.0, "prcp_d6": 9.482915878295898, "tmax_d0": 20.6, "tmax_d1": 18.6, "tmax_d2": 18.5, "tmax_d3": 20.1, "tmax_d4": 19.8, "tmax_d5": 18.7, "tmax_d6": 15.6, "tmin_d0": 8.4, "tmin_d1": 8.2, "tmin_d2": 8.0, "tmin_d3": 11.2, "tmin_d4": 9.1, "tmin_d5": 7.0, "tmin_d6": 6.8, "day_of_year": 233, "uuid": "e4af844b-27c0-4f09-9051-1e1b72040411", "inat_id": 237047503}}, {"type": "Feature", "geometry": {"type": "Point", "coordinates": [-107.9976366667, 39.0060416667]}, "properties": {"species": "Hygrophorus pustulatoides", "date": "2024-08-20", "location": "Grand Mesa Uncompahgre and Gunnison National Forests, Cedaredge, CO, US", "elevation": 2967.0, "land_cover_label": "Tree cover", "water_mask": false, "exclude_reason": "keep", "ndvi": null, "soil_moisture": null, "solar_exposure": null, "wind_exposure": null, "water_retention": null, "slope": null, "aspect": null, "num_identification_agreements": 2, "cluster": 0, "tavg": null, "tmin": 16.5, "tmax": 34.3, "prcp_d0": 0.0, "prcp_d1": 0.0, "prcp_d2": 0.0, "prcp_d3": 0.0, "prcp_d4": 0.0, "prcp_d5": 0.0, "prcp_d6": 19.62216758728028, "tmax_d0": 21.4, "tmax_d1": 19.4, "tmax_d2": 19.3, "tmax_d3": 20.9, "tmax_d4": 20.6, "tmax_d5": 19.5, "tmax_d6": 16.4, "tmin_d0": 9.2, "tmin_d1": 9.0, "tmin_d2": 8.8, "tmin_d3": 12.0, "tmin_d4": 9.9, "tmin_d5": 7.8, "tmin_d6": 7.6, "day_of_year": 233, "uuid": "fbbb8c6e-150f-46e9-901a-d53372d66389", "inat_id": 237023575}}]}