{"type": "FeatureCollection", "features": [{"type": "Feature", "geometry": {"type": "Point", "coordinates": [-105.5297098365, 40.2222379751]}, "properties": {"species": "Hygrophorus chrysodon", "date": "2017-08-12", "location": "12650 Peak To Peak Hwy, Allenspark, CO, US", "elevation": 2584.0, "land_cover_label": "Tree cover", "water_mask": false, "exclude_reason": "keep", "ndvi": null, "soil_moisture": 0.4105529833051993, "solar_exposure": 0.8982630968093872, "wind_exposure": 0.3429223597049713, "water_retention": 0.1695536226034164, "slope": 10.120975494384766, "aspect": 134.37681579589844, "num_identification_agreements": 1, "cluster": 0, "tavg": null, "tmin": 13.6, "tmax": 28.3, "prcp_d0": 0.0, "prcp_d1": 0.0, "prcp_d2": 21.11594581604004, "prcp_d3": 0.0, "prcp_d4": 0.0, "prcp_d5": 0.0, "prcp_d6": 0.0, "tmax_d0": 19.9, "tmax_d1": 18.2, "tmax_d2": 16.9, "tmax_d3": 15.6, "tmax_d4": 16.5, "tmax_d5": 12.8, "tmax_d6": 15.4, "tmin_d0": 7.4, "tmin_d1": 5.7, "tmin_d2": 5.8, "tmin_d3": 8.8, "tmin_d4": 4.5, "tmin_d5": 8.9, "tmin_d6": 6.8, "day_of_year": 224, "uuid": "ed52755e-7dbe-47d0-873f-bf0c75756a34", "inat_id": 7463319}}, {"type": "Feature", "geometry": {"type": "Point", "coordinates": [-121.8716659546, 45.300239563]}, "properties": {"species": "Hygrophorus chrysodon", "date": "2019-11-10", "location": "Zigzag, OR 97049, USA", "elevation": 707.0, "land_cover_label": "Tree cover", "water_mask": false, "exclude_reason": "keep", "ndvi": null, "soil_moisture": null, "solar_exposure": null, "wind_exposure": null, "water_retention": null, "slope": null, "aspect": null, "num_identification_agreements": 1, "cluster": 0, "tavg": null, "tmin": 10.6, "tmax": 13.9, "prcp_d0": 9.809616088867188, "prcp_d1": 0.0, "prcp_d2": 0.0, "prcp_d3": 0.0, "prcp_d4": 0.0, "prcp_d5": 0.0, "prcp_d6": 0.0, "tmax_d0": 12.7, "tmax_d1": 13.4, "tmax_d2": 18.6, "tmax_d3": 14.5, "tmax_d4": 13.5, "tmax_d5": 18.4, "tmax_d6": 16.6, "tmin_d0": 8.4, "tmin_d1": 5.1, "tmin_d2": 4.1, "tmin_d3": 5.3, "tmin_d4": 1.3, "tmin_d5": 5.7, "tmin_d6": 4.1, "day_of_year": 314, "uuid": "2bd65c45-148a-480f-912c-70369846af87", "inat_id": 35552602}}, {"type": "Feature", "geometry": {"type": "Point", "coordinates": [-105.973654, 39.937107]}, "properties": {"species": "Hygrophorus chrysodon", "date": "2021-08-13", "location": "Grand County, CO, USA", "elevation": 3036.0, "land_cover_label": "Tree cover", "water_mask": false, "exclude_reason": "keep", "ndvi": null, "soil_moisture": 0.2827853365035507, "solar_exposure": 0.8577459454536438, "wind_exposure": 0.2863994538784027, "water_retention": 0.1919342279434204, "slope": 7.298957824707031, "aspect": 109.81717681884766, "num_identification_agreements": 2, "cluster": 0, "tavg": null, "tmin": 7.7, "tmax": 27.3, "prcp_d0": 0.0, "prcp_d1": 0.0, "prcp_d2": 0.0, "prcp_d3": 0.0, "prcp_d4": 0.0, "prcp_d5": 0.0, "prcp_d6": 0.0, "tmax_d0": 20.3, "tmax_d1": 22.0, "tmax_d2": 21.8, "tmax_d3": 19.7, "tmax_d4": 20.1, "tmax_d5": 20.6, "tmax_d6": 16.6, "tmin_d0": 6.0, "tmin_d1": 8.6, "tmin_d2": 6.2, "tmin_d3": 6.6, "tmin_d4": 8.3, "tmin_d5": 4.6, "tmin_d6": 6.5, "day_of_year": 225, "uuid": "4913cff2-f300-4d66-a893-8318984ac6fc", "inat_id": 91124235}}, {"type": "Feature", "geometry": {"type": "Point", "coordinates": [-121.55535, 45.5206916667]}, "properties": {"species": "Hygrophorus chrysodon", "date": "2021-11-28", "location": "Mount Hood Parkdale, OR, US", "elevation": 585.0, "land_cover_label": "Tree cover", "water_mask": false, "exclude_reason": "keep", "ndvi": null, "soil_moisture": null, "solar_exposure": null, "wind_exposure": null, "water_retention": null, "slope": null, "aspect": null, "num_identification_agreements": 2, "cluster": 0, "tavg": null, "tmin": 8.9, "tmax": 18.3, "prcp_d0": 0.0, "prcp_d1": 0.0, "prcp_d2": 0.0, "prcp_d3": 0.0, "prcp_d4": 0.0, "prcp_d5": 24.577566146850582, "prcp_d6": 0.0, "tmax_d0": 12.7, "tmax_d1": 8.8, "tmax_d2": 9.3, "tmax_d3": 11.3, "tmax_d4": 3.9, "tmax_d5": 4.8, "tmax_d6": 6.3, "tmin_d0": 7.1, "tmin_d1": 4.4, "tmin_d2": 1.6, "tmin_d3": 0.1, "tmin_d4": -2.6, "tmin_d5": -2.2, "tmin_d6": -2.0, "day_of_year": 332, "uuid": "6006c95a-d6b3-44db-a77d-ee05bfb8cc71", "inat_id": 102140019}}, {"type": "Feature", "geometry": {"type": "Point", "coordinates": [-106.38948, 39.619745]}, "properties": {"species": "Hygrophorus chrysodon", "date": "2022-08-17", "location": "White River National Forest, Basalt, CO, US", "elevation": 3136.0, "land_cover_label": "Tree cover", "water_mask": false, "exclude_reason": "keep", "ndvi": null, "soil_moisture": null, "solar_exposure": null, "wind_exposure": null, "water_retention": null, "slope": null, "aspect": null, "num_identification_agreements": 1, "cluster": 1, "tavg": null, "tmin": 8.0, "tmax": 18.0, "prcp_d0": 0.0, "prcp_d1": 46.508567810058594, "prcp_d2": 0.0, "prcp_d3": 0.0, "prcp_d4": 0.0, "prcp_d5": 0.0, "prcp_d6": 0.0, "tmax_d0": 19.5, "tmax_d1": 12.5, "tmax_d2": 19.3, "tmax_d3": 20.3, "tmax_d4": 21.4, "tmax_d5": 20.6, "tmax_d6": 23.0, "tmin_d0": 2.1, "tmin_d1": 7.3, "tmin_d2": 4.9, "tmin_d3": 4.2, "tmin_d4": 3.5, "tmin_d5": 4.3, "tmin_d6": 3.3, "day_of_year": 229, "uuid": "fd3c4fe9-98e5-41bd-80d4-af0d648489f4", "inat_id": 131246457}}, {"type": "Feature", "geometry": {"type": "Point", "coordinates": [-106.0096708407, 39.4571948505]}, "properties": {"species": "Hygrophorus chrysodon", "date": "2022-08-20", "location": "White River National Forest, Breckenridge, CO, US", "elevation": 3278.0, "land_cover_label": "Tree cover", "water_mask": false, "exclude_reason": "keep", "ndvi": null, "soil_moisture": null, "solar_exposure": null, "wind_exposure": null, "water_retention": null, "slope": null, "aspect": null, "num_identification_agreements": 1, "cluster": 0, "tavg": null, "tmin": 7.2, "tmax": 14.4, "prcp_d0": 0.0, "prcp_d1": 0.0, "prcp_d2": 0.0, "prcp_d3": 0.0, "prcp_d4": 0.0, "prcp_d5": 0.0, "prcp_d6": 0.0, "tmax_d0": 12.8, "tmax_d1": 16.0, "tmax_d2": 17.7, "tmax_d3": 16.7, "tmax_d4": 10.9, "tmax_d5": 17.2, "tmax_d6": 20.0, "tmin_d0": 4.7, "tmin_d1": 4.0, "tmin_d2": 2.4, "tmin_d3": 4.6, "tmin_d4": 5.3, "tmin_d5": 4.2, "tmin_d6": 3.1, "day_of_year": 232, "uuid": "a656aa7b-1dca-452f-a9a5-f654157d8395", "inat_id": 131617543}}, {"type": "Feature", "geometry": {"type": "Point", "coordinates": [-107.9473219, 37.7995619]}, "properties": {"species": "Hygrophorus chrysodon", "date": "2022-08-20", "location": "Dolores, CO 81323, USA", "elevation": 3192.0, "land_cover_label": "Tree cover", "water_mask": false, "exclude_reason": "keep", "ndvi": null, "soil_moisture": null, "solar_exposure": null, "wind_exposure": null, "water_retention": null, "slope": null, "aspect": null, "num_identification_agreements": 2, "cluster": 0, "tavg": null, "tmin": 10.0, "tmax": 17.0, "prcp_d0": 0.0, "prcp_d1": 0.0, "prcp_d2": 0.0, "prcp_d3": 0.0, "prcp_d4": 11.528854370117188, "prcp_d5": 0.0, "prcp_d6": 0.0, "tmax_d0": 12.3, "tmax_d1": 16.0, "tmax_d2": 19.3, "tmax_d3": 15.8, "tmax_d4": 16.0, "tmax_d5": 17.5, "tmax_d6": 18.1, "tmin_d0": 5.3, "tmin_d1": 6.4, "tmin_d2": 5.0, "tmin_d3": 4.7, "tmin_d4": 6.1, "tmin_d5": 4.1, "tmin_d6": 6.6, "day_of_year": 232, "uuid": "642eea68-07d1-40dd-b850-b8ed7083622f", "inat_id": 131635222}}, {"type": "Feature", "geometry": {"type": "Point", "coordinates": [-106.0688465753, 39.4931337683]}, "properties": {"species": "Hygrophorus chrysodon", "date": "2022-08-22", "location": "White River National Forest, Breckenridge, CO, US", "elevation": 3075.0, "land_cover_label": "Tree cover", "water_mask": false, "exclude_reason": "keep", "ndvi": null, "soil_moisture": null, "solar_exposure": null, "wind_exposure": null, "water_retention": null, "slope": null, "aspect": null, "num_identification_agreements": 1, "cluster": 0, "tavg": null, "tmin": 7.0, "tmax": 16.0, "prcp_d0": 27.59966468811035, "prcp_d1": 0.0, "prcp_d2": 0.0, "prcp_d3": 0.0, "prcp_d4": 0.0, "prcp_d5": 0.0, "prcp_d6": 0.0, "tmax_d0": 16.8, "tmax_d1": 16.5, "tmax_d2": 14.5, "tmax_d3": 18.0, "tmax_d4": 19.6, "tmax_d5": 19.9, "tmax_d6": 12.6, "tmin_d0": 1.5, "tmin_d1": 2.6, "tmin_d2": 6.0, "tmin_d3": 3.2, "tmin_d4": 3.6, "tmin_d5": 3.6, "tmin_d6": 7.2, "day_of_year": 234, "uuid": "a24a21bd-06f5-4a9a-ace1-5c74e5e51b05", "inat_id": 131937738}}, {"type": "Feature", "geometry": {"type": "Point", "coordinates": [-106.7026762001, 40.3688960055]}, "properties": {"species": "Hygrophorus chrysodon", "date": "2022-08-24", "location": "Colorado, US", "elevation": 2924.0, "land_cover_label": "Tree cover", "water_mask": false, "exclude_reason": "keep", "ndvi": null, "soil_moisture": null, "solar_exposure": null, "wind_exposure": null, "water_retention": null, "slope": null, "aspect": null, "num_identification_agreements": 1, "cluster": 0, "tavg": null, "tmin": 7.5, "tmax": 27.7, "prcp_d0": 0.0, "prcp_d1": 0.0, "prcp_d2": 0.0, "prcp_d3": 0.0, "prcp_d4": 0.0, "prcp_d5": 0.0, "prcp_d6": 0.0, "tmax_d0": 20.6, "tmax_d1": 19.7, "tmax_d2": 20.2, "tmax_d3": 17.0, "tmax_d4": 15.9, "tmax_d5": 20.2, "tmax_d6": 21.9, "tmin_d0": 5.1, "tmin_d1": 4.9, "tmin_d2": 4.3, "tmin_d3": 5.3, "tmin_d4": 6.3, "tmin_d5": 6.4, "tmin_d6": 5.9, "day_of_year": 236, "uuid": "127c0cbc-5ebc-44fe-96e3-74e8d54ef709", "inat_id": 132191678}}, {"type": "Feature", "geometry": {"type": "Point", "coordinates": [-105.3338234997, 40.5686522]}, "properties": {"species": "Hygrophorus chrysodon", "date": "2023-06-18", "location": "Bellvue, CO 80512, USA", "elevation": 2025.0, "land_cover_label": "Tree cover", "water_mask": false, "exclude_reason": "keep", "ndvi": null, "soil_moisture": 0.4082928810078302, "solar_exposure": 0.627019464969635, "wind_exposure": 0.2770255506038666, "water_retention": 0.2445554733276367, "slope": 16.354284286499023, "aspect": 357.2309875488281, "num_identification_agreements": 1, "cluster": 1, "tavg": null, "tmin": 10.0, "tmax": 28.3, "prcp_d0": 0.0, "prcp_d1": 0.0, "prcp_d2": 27.107643127441406, "prcp_d3": 22.036109924316406, "prcp_d4": 0.0, "prcp_d5": 0.0, "prcp_d6": 22.036109924316406, "tmax_d0": 24.6, "tmax_d1": 15.5, "tmax_d2": 15.9, "tmax_d3": 17.5, "tmax_d4": 19.7, "tmax_d5": 16.3, "tmax_d6": 14.2, "tmin_d0": 5.9, "tmin_d1": 5.2, "tmin_d2": 7.5, "tmin_d3": 8.7, "tmin_d4": 4.7, "tmin_d5": 7.5, "tmin_d6": 8.8, "day_of_year": 169, "uuid": "c991e898-bf1c-4639-a15b-2e51d77e3bda", "inat_id": 168432515}}, {"type": "Feature", "geometry": {"type": "Point", "coordinates": [-105.4877383333, 42.2583383333]}, "properties": {"species": "Hygrophorus chrysodon", "date": "2023-06-26", "location": "Medicine Bow National Forest, Albany County, WY, USA", "elevation": 2297.0, "land_cover_label": "Tree cover", "water_mask": false, "exclude_reason": "keep", "ndvi": null, "soil_moisture": null, "solar_exposure": null, "wind_exposure": null, "water_retention": null, "slope": null, "aspect": null, "num_identification_agreements": 1, "cluster": 0, "tavg": null, "tmin": null, "tmax": null, "prcp_d0": 0.0, "prcp_d1": 0.0, "prcp_d2": 0.0, "prcp_d3": 0.0, "prcp_d4": 15.25027847290039, "prcp_d5": 7.625139236450195, "prcp_d6": 0.0, "tmax_d0": 22.2, "tmax_d1": 19.2, "tmax_d2": 20.3, "tmax_d3": 18.5, "tmax_d4": 15.8, "tmax_d5": 22.1, "tmax_d6": 23.5, "tmin_d0": 8.1, "tmin_d1": 5.0, "tmin_d2": 6.5, "tmin_d3": 8.0, "tmin_d4": 8.4, "tmin_d5": 8.8, "tmin_d6": 12.3, "day_of_year": 177, "uuid": "7ce2a5fc-8771-4639-a86a-c781185d7723", "inat_id": 175882289}}, {"type": "Feature", "geometry": {"type": "Point", "coordinates": [-121.6799359583, 45.2826264594]}, "properties": {"species": "Hygrophorus chrysodon", "date": "2023-10-19", "location": "Barlow Creek, Mount Hood Parkdale, OR, US", "elevation": 1228.0, "land_cover_label": "Tree cover", "water_mask": false, "exclude_reason": "keep", "ndvi": null, "soil_moisture": null, "solar_exposure": null, "wind_exposure": null, "water_retention": null, "slope": null, "aspect": null, "num_identification_agreements": 1, "cluster": 0, "tavg": null, "tmin": 9.2, "tmax": 24.5, "prcp_d0": 0.0, "prcp_d1": 0.0, "prcp_d2": 0.0, "prcp_d3": 28.428661346435547, "prcp_d4": 0.0, "prcp_d5": 0.0, "prcp_d6": 0.0, "tmax_d0": 20.4, "tmax_d1": 20.7, "tmax_d2": 13.5, "tmax_d3": 12.6, "tmax_d4": 14.4, "tmax_d5": 11.8, "tmax_d6": 12.2, "tmin_d0": 11.6, "tmin_d1": 7.5, "tmin_d2": 4.0, "tmin_d3": 9.2, "tmin_d4": 6.4, "tmin_d5": 5.2, "tmin_d6": 4.3, "day_of_year": 292, "uuid": "71f8b7e0-307e-40d6-881a-ec46d797ed36", "inat_id": 188223003}}, {"type": "Feature", "geometry": {"type": "Point", "coordinates": [-121.9394095463, 45.2988260441]}, "properties": {"species": "Hygrophorus chrysodon", "date": "2023-11-23", "location": "Clackamas County, OR, USA", "elevation": 484.0, "land_cover_label": "Tree cover", "water_mask": false, "exclude_reason": "keep", "ndvi": null, "soil_moisture": null, "solar_exposure": null, "wind_exposure": null, "water_retention": null, "slope": null, "aspect": null, "num_identification_agreements": 1, "cluster": 0, "tavg": null, "tmin": 1.7, "tmax": 13.3, "prcp_d0": 0.0, "prcp_d1": 0.0, "prcp_d2": 0.0, "prcp_d3": 0.0, "prcp_d4": 0.0, "prcp_d5": 0.0, "prcp_d6": 0.0, "tmax_d0": 9.0, "tmax_d1": 13.1, "tmax_d2": 16.7, "tmax_d3": 12.5, "tmax_d4": 11.1, "tmax_d5": 13.0, "tmax_d6": 14.1, "tmin_d0": 2.3, "tmin_d1": 7.9, "tmin_d2": 7.3, "tmin_d3": 1.3, "tmin_d4": 3.3, "tmin_d5": 6.5, "tmin_d6": 6.0, "day_of_year": 327, "uuid": "7542bae7-bcb8-4824-8838-ccf422d28b69", "inat_id": 193082073}}, {"type": "Feature", "geometry": {"type": "Point", "coordinates": [-107.904415, 37.816864]}, "properties": {"species": "Hygrophorus chrysodon", "date": "2024-08-17", "location": "Grand Mesa Uncompahgre and Gunnison National Forests, Telluride, CO, US", "elevation": 3196.0, "land_cover_label": "Tree cover", "water_mask": false, "exclude_reason": "keep", "ndvi": null, "soil_moisture": null, "solar_exposure": null, "wind_exposure": null, "water_retention": null, "slope": null, "aspect": null, "num_identification_agreements": 1, "cluster": 2, "tavg": null, "tmin": 12.0, "tmax": 23.0, "prcp_d0": 11.1704740524292, "prcp_d1": 0.0, "prcp_d2": 0.0, "prcp_d3": 0.0, "prcp_d4": 18.73969078063965, "prcp_d5": 18.73969078063965, "prcp_d6": 0.0, "tmax_d0": 20.4, "tmax_d1": 19.5, "tmax_d2": 18.4, "tmax_d3": 16.5, "tmax_d4": 15.5, "tmax_d5": 18.3, "tmax_d6": 18.6, "tmin_d0": 7.6, "tmin_d1": 7.8, "tmin_d2": 4.4, "tmin_d3": 6.5, "tmin_d4": 7.1, "tmin_d5": 6.7, "tmin_d6": 7.4, "day_of_year": 230, "uuid": "e9693264-dc49-4ede-9ab5-f9ad299cf622", "inat_id": 236669093}}, {"type": "Feature", "geometry": {"type": "Point", "coordinates": [-107.1654195, 38.8583716667]}, "properties": {"species": "Hygrophorus chrysodon", "date": "2024-09-01", "location": "Grand Mesa Uncompahgre and Gunnison National Forests, Somerset, CO, US", "elevation": 2738.0, "land_cover_label": "Tree cover", "water_mask": false, "exclude_reason": "keep", "ndvi": null, "soil_moisture": null, "solar_exposure": null, "wind_exposure": null, "water_retention": null, "slope": null, "aspect": null, "num_identification_agreements": 1, "cluster": 0, "tavg": null, "tmin": null, "tmax": null, "prcp_d0": 0.0, "prcp_d1": 0.0256904307752847, "prcp_d2": 0.6411107182502747, "prcp_d3": 0.2127877175807953, "prcp_d4": 0.7534376382827759, "prcp_d5": 0.3860150873661041, "prcp_d6": 6.573192119598389, "tmax_d0": 21.5, "tmax_d1": 22.0, "tmax_d2": 20.8, "tmax_d3": 20.6, "tmax_d4": 21.0, "tmax_d5": 20.5, "tmax_d6": 18.6, "tmin_d0": 6.2, "tmin_d1": 1.8, "tmin_d2": 2.8, "tmin_d3": 8.5, "tmin_d4": 4.2, "tmin_d5": 2.0, "tmin_d6": 6.4, "day_of_year": 245, "uuid": "77aa5c6e-daed-4bb6-b478-2d35e90107d7", "inat_id": 239249466}}, {"type": "Feature", "geometry": {"type": "Point", "coordinates": [-105.8345777778, 35.7466944444]}, "properties": {"species": "Hygrophorus chrysodon", "date": "2025-09-14", "location": "Santa Fe, NM 87501, USA", "elevation": 2709.0, "land_cover_label": "Tree cover", "water_mask": false, "exclude_reason": "keep", "ndvi": null, "soil_moisture": null, "solar_exposure": null, "wind_exposure": null, "water_retention": null, "slope": null, "aspect": null, "num_identification_agreements": 1, "cluster": 0, "tavg": null, "tmin": 7.0, "tmax": 24.0, "prcp_d0": 0.0, "prcp_d1": 12.701996803283691, "prcp_d2": 0.0, "prcp_d3": 0.0, "prcp_d4": 25.194618225097656, "prcp_d5": 0.0, "prcp_d6": 0.0, "tmax_d0": 15.9, "tmax_d1": 17.7, "tmax_d2": 19.3, "tmax_d3": 19.9, "tmax_d4": 21.5, "tmax_d5": 21.3, "tmax_d6": 20.4, "tmin_d0": 4.5, "tmin_d1": 7.6, "tmin_d2": 7.5, "tmin_d3": 9.2, "tmin_d4": 10.2, "tmin_d5": 7.0, "tmin_d6": 6.9, "day_of_year": 257, "uuid": "f6006c2a-87ed-4c69-a69e-1e3196b044c4", "inat_id": 314034482}}, {"type": "Feature", "geometry": {"type": "Point", "coordinates": [-106.3854153997, 35.8918652997]}, "properties": {"species": "Hygrophorus chrysodon", "date": "2025-09-21", "location": "Los Alamos County, NM, USA", "elevation": 2813.0, "land_cover_label": "Tree cover", "water_mask": false, "exclude_reason": "keep", "ndvi": null, "soil_moisture": null, "solar_exposure": null, "wind_exposure": null, "water_retention": null, "slope": null, "aspect": null, "num_identification_agreements": 1, "cluster": 0, "tavg": null, "tmin": 13.0, "tmax": 26.0, "prcp_d0": 0.0, "prcp_d1": 0.0, "prcp_d2": 0.0, "prcp_d3": 0.0, "prcp_d4": 0.0, "prcp_d5": 0.0, "prcp_d6": 0.0, "tmax_d0": 18.6, "tmax_d1": 17.7, "tmax_d2": 16.3, "tmax_d3": 18.3, "tmax_d4": 17.4, "tmax_d5": 18.0, "tmax_d6": 18.2, "tmin_d0": 5.2, "tmin_d1": 6.0, "tmin_d2": 7.2, "tmin_d3": 6.4, "tmin_d4": 6.2, "tmin_d5": 7.3, "tmin_d6": 5.2, "day_of_year": 264, "uuid": "ab205adc-5064-468c-bab8-03f3b864d354", "inat_id": 315609376}}]}