{"type": "FeatureCollection", "features": [{"type": "Feature", "geometry": {"type": "Point", "coordinates": [-105.0648805, 38.0545721667]}, "properties": {"species": "Hygrocybe conica", "date": "2017-07-31", "location": "San Isabel National Forest, Wetmore, CO, US", "elevation": 2586.0, "land_cover_label": "Tree cover", "water_mask": false, "exclude_reason": "keep", "ndvi": null, "soil_moisture": null, "solar_exposure": null, "wind_exposure": null, "water_retention": null, "slope": null, "aspect": null, "num_identification_agreements": 1, "cluster": 1, "tavg": null, "tmin": null, "tmax": null, "prcp_d0": 0.0, "prcp_d1": 11.416531562805176, "prcp_d2": 11.416531562805176, "prcp_d3": 11.416531562805176, "prcp_d4": 11.416531562805176, "prcp_d5": 11.416531562805176, "prcp_d6": 0.0, "tmax_d0": 18.9, "tmax_d1": 16.9, "tmax_d2": 17.7, "tmax_d3": 21.2, "tmax_d4": 19.1, "tmax_d5": 21.3, "tmax_d6": 23.6, "tmin_d0": 10.6, "tmin_d1": 12.3, "tmin_d2": 11.5, "tmin_d3": 14.3, "tmin_d4": 11.8, "tmin_d5": 13.6, "tmin_d6": 14.9, "day_of_year": 212, "uuid": "7ad013a5-f59f-4a3c-9829-8acbd2c6903f", "inat_id": 7303477}}, {"type": "Feature", "geometry": {"type": "Point", "coordinates": [-106.182245, 38.7091166667]}, "properties": {"species": "Hygrocybe conica", "date": "2021-07-23", "location": "Pike and San Isabel National Forests, Nathrop, CO, US", "elevation": 2734.0, "land_cover_label": "Grassland", "water_mask": false, "exclude_reason": "keep", "ndvi": null, "soil_moisture": null, "solar_exposure": null, "wind_exposure": null, "water_retention": null, "slope": null, "aspect": null, "num_identification_agreements": 1, "cluster": 0, "tavg": null, "tmin": 12.5, "tmax": 27.8, "prcp_d0": 10.502304077148438, "prcp_d1": 10.502304077148438, "prcp_d2": 10.502304077148438, "prcp_d3": 0.0, "prcp_d4": 0.0, "prcp_d5": 0.0, "prcp_d6": 0.0, "tmax_d0": 23.9, "tmax_d1": 23.9, "tmax_d2": 24.5, "tmax_d3": 24.9, "tmax_d4": 25.7, "tmax_d5": 25.4, "tmax_d6": 22.9, "tmin_d0": 11.0, "tmin_d1": 10.5, "tmin_d2": 11.2, "tmin_d3": 9.0, "tmin_d4": 8.7, "tmin_d5": 8.8, "tmin_d6": 8.8, "day_of_year": 204, "uuid": "2fdaf4c0-a0fb-4e2b-b26e-0b49ed57cd82", "inat_id": 89724792}}, {"type": "Feature", "geometry": {"type": "Point", "coordinates": [-105.1696939177, 38.8588122956]}, "properties": {"species": "Hygrocybe conica", "date": "2021-07-25", "location": "Teller County, CO, USA", "elevation": 2840.0, "land_cover_label": "Tree cover", "water_mask": false, "exclude_reason": "keep", "ndvi": null, "soil_moisture": null, "solar_exposure": null, "wind_exposure": null, "water_retention": null, "slope": null, "aspect": null, "num_identification_agreements": 1, "cluster": 0, "tavg": null, "tmin": 12.1, "tmax": 28.0, "prcp_d0": 0.0, "prcp_d1": 3.970837116241455, "prcp_d2": 0.0, "prcp_d3": 7.94167423248291, "prcp_d4": 7.94167423248291, "prcp_d5": 0.0, "prcp_d6": 0.0, "tmax_d0": 19.9, "tmax_d1": 17.5, "tmax_d2": 22.6, "tmax_d3": 22.1, "tmax_d4": 22.2, "tmax_d5": 24.4, "tmax_d6": 23.0, "tmin_d0": 8.5, "tmin_d1": 9.2, "tmin_d2": 11.0, "tmin_d3": 11.1, "tmin_d4": 11.4, "tmin_d5": 9.6, "tmin_d6": 8.8, "day_of_year": 206, "uuid": "40eaf6ad-bb89-4a98-9663-cd997dba537b", "inat_id": 89021861}}, {"type": "Feature", "geometry": {"type": "Point", "coordinates": [-105.3499504366, 36.6991862096]}, "properties": {"species": "Hygrocybe conica", "date": "2021-07-27", "location": "Taos County, US-NM, US", "elevation": 2999.0, "land_cover_label": "Tree cover", "water_mask": false, "exclude_reason": "keep", "ndvi": null, "soil_moisture": null, "solar_exposure": null, "wind_exposure": null, "water_retention": null, "slope": null, "aspect": null, "num_identification_agreements": 1, "cluster": 0, "tavg": null, "tmin": 8.2, "tmax": 21.0, "prcp_d0": 11.316534042358398, "prcp_d1": 11.316534042358398, "prcp_d2": 0.0, "prcp_d3": 10.019484519958496, "prcp_d4": 0.0, "prcp_d5": 10.019484519958496, "prcp_d6": 10.019484519958496, "tmax_d0": 19.4, "tmax_d1": 19.3, "tmax_d2": 18.6, "tmax_d3": 16.2, "tmax_d4": 20.5, "tmax_d5": 21.9, "tmax_d6": 21.8, "tmin_d0": 7.7, "tmin_d1": 7.7, "tmin_d2": 5.9, "tmin_d3": 7.5, "tmin_d4": 9.6, "tmin_d5": 10.5, "tmin_d6": 8.9, "day_of_year": 208, "uuid": "f41e4c25-2931-41f9-808c-1d83dbe7d6bb", "inat_id": 90470937}}, {"type": "Feature", "geometry": {"type": "Point", "coordinates": [-107.2077369053, 38.871715302]}, "properties": {"species": "Hygrocybe conica", "date": "2021-07-28", "location": "Gunnison County, CO, USA", "elevation": 2940.0, "land_cover_label": "Tree cover", "water_mask": false, "exclude_reason": "keep", "ndvi": null, "soil_moisture": null, "solar_exposure": null, "wind_exposure": null, "water_retention": null, "slope": null, "aspect": null, "num_identification_agreements": 1, "cluster": 0, "tavg": null, "tmin": 12.8, "tmax": 28.9, "prcp_d0": 0.0, "prcp_d1": 4.203766345977783, "prcp_d2": 0.0, "prcp_d3": 0.0, "prcp_d4": 8.991969108581543, "prcp_d5": 4.495984554290772, "prcp_d6": 4.495984554290772, "tmax_d0": 22.9, "tmax_d1": 21.6, "tmax_d2": 22.4, "tmax_d3": 20.1, "tmax_d4": 19.9, "tmax_d5": 21.8, "tmax_d6": 22.1, "tmin_d0": 9.4, "tmin_d1": 7.1, "tmin_d2": 6.3, "tmin_d3": 8.3, "tmin_d4": 9.0, "tmin_d5": 9.4, "tmin_d6": 10.0, "day_of_year": 209, "uuid": "51c16064-0d77-43f5-92bd-fbd24a0aab50", "inat_id": 89379369}}, {"type": "Feature", "geometry": {"type": "Point", "coordinates": [-105.2633980592, 38.8491618391]}, "properties": {"species": "Hygrocybe conica", "date": "2021-08-01", "location": "Mule Dr, Florissant, CO, US", "elevation": 2573.0, "land_cover_label": "Bare / sparse vegetation", "water_mask": false, "exclude_reason": "keep", "ndvi": null, "soil_moisture": null, "solar_exposure": null, "wind_exposure": null, "water_retention": null, "slope": null, "aspect": null, "num_identification_agreements": 1, "cluster": 0, "tavg": null, "tmin": 13.8, "tmax": 21.3, "prcp_d0": 0.0, "prcp_d1": 2.894887208938598, "prcp_d2": 2.894887208938598, "prcp_d3": 0.0, "prcp_d4": 0.0, "prcp_d5": 0.0, "prcp_d6": 5.789774417877197, "tmax_d0": 15.8, "tmax_d1": 20.0, "tmax_d2": 24.7, "tmax_d3": 26.0, "tmax_d4": 27.4, "tmax_d5": 25.2, "tmax_d6": 25.5, "tmin_d0": 10.3, "tmin_d1": 10.7, "tmin_d2": 10.2, "tmin_d3": 9.7, "tmin_d4": 10.4, "tmin_d5": 8.4, "tmin_d6": 8.4, "day_of_year": 213, "uuid": "14022069-63a9-4d03-988e-6e8de73a6eb0", "inat_id": 89734945}}, {"type": "Feature", "geometry": {"type": "Point", "coordinates": [-104.951705, 37.9200966667]}, "properties": {"species": "Hygrocybe conica", "date": "2021-08-02", "location": "Rye, CO, US", "elevation": 2187.0, "land_cover_label": "Tree cover", "water_mask": false, "exclude_reason": "keep", "ndvi": null, "soil_moisture": null, "solar_exposure": null, "wind_exposure": null, "water_retention": null, "slope": null, "aspect": null, "num_identification_agreements": 1, "cluster": 1, "tavg": null, "tmin": null, "tmax": null, "prcp_d0": 0.0, "prcp_d1": 47.46345520019531, "prcp_d2": 0.0, "prcp_d3": 0.0, "prcp_d4": 0.0, "prcp_d5": 0.0, "prcp_d6": 0.0, "tmax_d0": 20.7, "tmax_d1": 16.3, "tmax_d2": 27.4, "tmax_d3": 30.3, "tmax_d4": 30.2, "tmax_d5": 30.6, "tmax_d6": 26.9, "tmin_d0": 13.3, "tmin_d1": 13.5, "tmin_d2": 16.7, "tmin_d3": 17.8, "tmin_d4": 18.7, "tmin_d5": 17.6, "tmin_d6": 16.2, "day_of_year": 214, "uuid": "da62a262-774b-45f2-b3fe-4706382d772e", "inat_id": 96487593}}, {"type": "Feature", "geometry": {"type": "Point", "coordinates": [-106.0442428589, 39.4720191956]}, "properties": {"species": "Hygrocybe conica", "date": "2021-08-05", "location": "Breckenridge", "elevation": 2955.0, "land_cover_label": "Tree cover", "water_mask": false, "exclude_reason": "keep", "ndvi": null, "soil_moisture": null, "solar_exposure": null, "wind_exposure": null, "water_retention": null, "slope": null, "aspect": null, "num_identification_agreements": 1, "cluster": 2, "tavg": null, "tmin": 1.1, "tmax": 22.2, "prcp_d0": 0.0, "prcp_d1": 0.0, "prcp_d2": 20.8929386138916, "prcp_d3": 0.0, "prcp_d4": 20.8929386138916, "prcp_d5": 27.492618560791016, "prcp_d6": 9.164206504821776, "tmax_d0": 21.1, "tmax_d1": 18.0, "tmax_d2": 14.1, "tmax_d3": 18.1, "tmax_d4": 16.5, "tmax_d5": 18.6, "tmax_d6": 22.5, "tmin_d0": 5.6, "tmin_d1": 6.5, "tmin_d2": 7.9, "tmin_d3": 6.6, "tmin_d4": 8.0, "tmin_d5": 9.4, "tmin_d6": 7.1, "day_of_year": 217, "uuid": "d4f59252-ddcc-48a6-b72f-214d57256670", "inat_id": 90076076}}, {"type": "Feature", "geometry": {"type": "Point", "coordinates": [-105.670848079, 36.1911664327]}, "properties": {"species": "Hygrocybe conica", "date": "2021-08-07", "location": "Vadito", "elevation": 2276.0, "land_cover_label": "Tree cover", "water_mask": false, "exclude_reason": "keep", "ndvi": null, "soil_moisture": null, "solar_exposure": null, "wind_exposure": null, "water_retention": null, "slope": null, "aspect": null, "num_identification_agreements": 1, "cluster": 0, "tavg": null, "tmin": 13.3, "tmax": 30.0, "prcp_d0": 0.0, "prcp_d1": 0.0, "prcp_d2": 0.0, "prcp_d3": 0.0, "prcp_d4": 0.0, "prcp_d5": 0.0, "prcp_d6": 7.486071586608887, "tmax_d0": 27.9, "tmax_d1": 27.8, "tmax_d2": 25.9, "tmax_d3": 23.9, "tmax_d4": 23.9, "tmax_d5": 21.0, "tmax_d6": 21.6, "tmin_d0": 15.1, "tmin_d1": 12.8, "tmin_d2": 10.1, "tmin_d3": 10.1, "tmin_d4": 12.1, "tmin_d5": 13.2, "tmin_d6": 12.9, "day_of_year": 219, "uuid": "c3c71eae-610f-4834-842e-01f39c4af340", "inat_id": 90352890}}, {"type": "Feature", "geometry": {"type": "Point", "coordinates": [-105.5648178669, 38.0782060119]}, "properties": {"species": "Hygrocybe conica", "date": "2022-07-30", "location": "Pike and San Isabel National Forests, Westcliffe, CO, US", "elevation": 2787.0, "land_cover_label": "Tree cover", "water_mask": false, "exclude_reason": "keep", "ndvi": null, "soil_moisture": null, "solar_exposure": null, "wind_exposure": null, "water_retention": null, "slope": null, "aspect": null, "num_identification_agreements": 1, "cluster": 0, "tavg": null, "tmin": null, "tmax": null, "prcp_d0": 0.0, "prcp_d1": 0.0, "prcp_d2": 22.829599380493164, "prcp_d3": 0.0, "prcp_d4": 0.0, "prcp_d5": 0.0, "prcp_d6": 5.112401485443115, "tmax_d0": 22.0, "tmax_d1": 16.3, "tmax_d2": 18.9, "tmax_d3": 22.4, "tmax_d4": 22.7, "tmax_d5": 20.7, "tmax_d6": 24.3, "tmin_d0": 7.6, "tmin_d1": 9.6, "tmin_d2": 9.9, "tmin_d3": 9.1, "tmin_d4": 9.0, "tmin_d5": 8.3, "tmin_d6": 8.6, "day_of_year": 211, "uuid": "2ef70a4f-a186-4b9c-a242-acdd25555eec", "inat_id": 128869987}}, {"type": "Feature", "geometry": {"type": "Point", "coordinates": [-105.1030680165, 39.2714648298]}, "properties": {"species": "Hygrocybe conica", "date": "2022-07-31", "location": "Sedalia, CO 80135, USA", "elevation": 2711.0, "land_cover_label": "Tree cover", "water_mask": false, "exclude_reason": "keep", "ndvi": null, "soil_moisture": 0.2585210106848172, "solar_exposure": 0.8728450536727905, "wind_exposure": 0.3566390872001648, "water_retention": 0.2217227518558502, "slope": 4.707306385040283, "aspect": 136.47689819335938, "num_identification_agreements": 1, "cluster": 0, "tavg": null, "tmin": 18.3, "tmax": 31.1, "prcp_d0": 0.0, "prcp_d1": 0.0, "prcp_d2": 0.0, "prcp_d3": 15.827400207519531, "prcp_d4": 7.913700103759766, "prcp_d5": 0.0, "prcp_d6": 0.0, "tmax_d0": 23.9, "tmax_d1": 24.7, "tmax_d2": 21.3, "tmax_d3": 22.1, "tmax_d4": 26.8, "tmax_d5": 22.0, "tmax_d6": 23.5, "tmin_d0": 11.6, "tmin_d1": 9.7, "tmin_d2": 11.0, "tmin_d3": 11.3, "tmin_d4": 10.5, "tmin_d5": 11.3, "tmin_d6": 10.0, "day_of_year": 212, "uuid": "28aa93f7-fe79-4121-98f1-e9aad4d43314", "inat_id": 129986097}}, {"type": "Feature", "geometry": {"type": "Point", "coordinates": [-106.1688783333, 38.577305]}, "properties": {"species": "Hygrocybe conica", "date": "2022-08-02", "location": "Pike and San Isabel National Forests, Salida, CO, US", "elevation": 2763.0, "land_cover_label": "Tree cover", "water_mask": false, "exclude_reason": "keep", "ndvi": null, "soil_moisture": null, "solar_exposure": null, "wind_exposure": null, "water_retention": null, "slope": null, "aspect": null, "num_identification_agreements": 1, "cluster": 0, "tavg": null, "tmin": 13.2, "tmax": 28.4, "prcp_d0": 8.932738304138184, "prcp_d1": 0.0, "prcp_d2": 0.0, "prcp_d3": 0.0, "prcp_d4": 0.0, "prcp_d5": 0.0, "prcp_d6": 0.0, "tmax_d0": 24.6, "tmax_d1": 24.1, "tmax_d2": 23.1, "tmax_d3": 24.1, "tmax_d4": 18.9, "tmax_d5": 23.8, "tmax_d6": 24.7, "tmin_d0": 8.7, "tmin_d1": 8.3, "tmin_d2": 8.7, "tmin_d3": 6.7, "tmin_d4": 8.1, "tmin_d5": 10.8, "tmin_d6": 8.6, "day_of_year": 214, "uuid": "c66ffb5f-5ad3-4077-9f3b-80db6040573b", "inat_id": 129218796}}, {"type": "Feature", "geometry": {"type": "Point", "coordinates": [-105.5335444444, 36.5840861111]}, "properties": {"species": "Hygrocybe conica", "date": "2022-08-11", "location": "Valdez, NM 87580, USA", "elevation": 2869.0, "land_cover_label": "Tree cover", "water_mask": false, "exclude_reason": "keep", "ndvi": null, "soil_moisture": null, "solar_exposure": null, "wind_exposure": null, "water_retention": null, "slope": null, "aspect": null, "num_identification_agreements": 1, "cluster": 0, "tavg": null, "tmin": 10.0, "tmax": 28.9, "prcp_d0": 0.0, "prcp_d1": 0.0, "prcp_d2": 0.0, "prcp_d3": 0.0, "prcp_d4": 0.0, "prcp_d5": 9.751615524291992, "prcp_d6": 10.933785438537598, "tmax_d0": 21.6, "tmax_d1": 20.9, "tmax_d2": 21.1, "tmax_d3": 18.3, "tmax_d4": 19.8, "tmax_d5": 21.9, "tmax_d6": 22.0, "tmin_d0": 9.2, "tmin_d1": 10.4, "tmin_d2": 11.2, "tmin_d3": 11.1, "tmin_d4": 10.5, "tmin_d5": 12.2, "tmin_d6": 12.6, "day_of_year": 223, "uuid": "a6b4ed86-b131-43b2-84fc-b4f8aa950b81", "inat_id": 130432228}}, {"type": "Feature", "geometry": {"type": "Point", "coordinates": [-105.1543195, 39.1270028333]}, "properties": {"species": "Hygrocybe conica", "date": "2022-08-15", "location": "Pike and San Isabel National Forests, Woodland Park, CO, US", "elevation": 2393.0, "land_cover_label": "Tree cover", "water_mask": false, "exclude_reason": "keep", "ndvi": null, "soil_moisture": 0.1868869310523492, "solar_exposure": 0.8189258575439453, "wind_exposure": 0.3637056946754455, "water_retention": 0.2554771304130554, "slope": 8.516195297241211, "aspect": 276.2430725097656, "num_identification_agreements": 1, "cluster": 0, "tavg": null, "tmin": 6.8, "tmax": 19.2, "prcp_d0": 9.417742729187012, "prcp_d1": 0.0, "prcp_d2": 0.0, "prcp_d3": 4.708871364593506, "prcp_d4": 0.0, "prcp_d5": 0.0, "prcp_d6": 0.0, "tmax_d0": null, "tmax_d1": null, "tmax_d2": null, "tmax_d3": null, "tmax_d4": null, "tmax_d5": null, "tmax_d6": null, "tmin_d0": null, "tmin_d1": null, "tmin_d2": null, "tmin_d3": null, "tmin_d4": null, "tmin_d5": null, "tmin_d6": null, "day_of_year": 227, "uuid": "3a05c2e4-f1e8-4580-9b5e-ccef18f3d11b", "inat_id": 197613211}}, {"type": "Feature", "geometry": {"type": "Point", "coordinates": [-107.9390814, 37.7978299997]}, "properties": {"species": "Hygrocybe conica", "date": "2022-08-18", "location": "Dolores County, CO, USA", "elevation": 3071.0, "land_cover_label": "Moss and lichen", "water_mask": false, "exclude_reason": "keep", "ndvi": null, "soil_moisture": null, "solar_exposure": null, "wind_exposure": null, "water_retention": null, "slope": null, "aspect": null, "num_identification_agreements": 1, "cluster": 0, "tavg": null, "tmin": 9.0, "tmax": 23.0, "prcp_d0": 0.0, "prcp_d1": 0.0, "prcp_d2": 11.528854370117188, "prcp_d3": 0.0, "prcp_d4": 0.0, "prcp_d5": 0.0, "prcp_d6": 0.0, "tmax_d0": 20.1, "tmax_d1": 16.7, "tmax_d2": 16.9, "tmax_d3": 18.3, "tmax_d4": 18.9, "tmax_d5": 18.0, "tmax_d6": 18.7, "tmin_d0": 5.9, "tmin_d1": 5.5, "tmin_d2": 6.9, "tmin_d3": 5.0, "tmin_d4": 7.4, "tmin_d5": 6.0, "tmin_d6": 4.7, "day_of_year": 230, "uuid": "7d5834f9-a485-4a54-b143-b82a5a2dba87", "inat_id": 134388428}}, {"type": "Feature", "geometry": {"type": "Point", "coordinates": [-107.82635, 37.8542472222]}, "properties": {"species": "Hygrocybe conica", "date": "2022-08-19", "location": "Ophir, CO 81426, USA", "elevation": 2981.0, "land_cover_label": "Tree cover", "water_mask": false, "exclude_reason": "keep", "ndvi": null, "soil_moisture": null, "solar_exposure": null, "wind_exposure": null, "water_retention": null, "slope": null, "aspect": null, "num_identification_agreements": 1, "cluster": 0, "tavg": null, "tmin": 10.0, "tmax": 17.0, "prcp_d0": 0.0, "prcp_d1": 0.0, "prcp_d2": 0.0, "prcp_d3": 0.0, "prcp_d4": 0.0, "prcp_d5": 0.0, "prcp_d6": 0.0, "tmax_d0": 17.5, "tmax_d1": 21.3, "tmax_d2": 16.9, "tmax_d3": 17.4, "tmax_d4": 18.9, "tmax_d5": 19.5, "tmax_d6": 19.2, "tmin_d0": 7.0, "tmin_d1": 6.2, "tmin_d2": 6.1, "tmin_d3": 6.5, "tmin_d4": 6.4, "tmin_d5": 6.7, "tmin_d6": 7.3, "day_of_year": 231, "uuid": "fe7fc32b-a678-48e9-ac13-2052f5c9af84", "inat_id": 131495252}}, {"type": "Feature", "geometry": {"type": "Point", "coordinates": [-105.4431943566, 39.6113569608]}, "properties": {"species": "Hygrocybe conica", "date": "2022-08-24", "location": "Ranch Trail, Evergreen, CO, US", "elevation": 2476.0, "land_cover_label": "Tree cover", "water_mask": false, "exclude_reason": "keep", "ndvi": null, "soil_moisture": 0.3756270243676327, "solar_exposure": 0.8318983316421509, "wind_exposure": 0.2629666328430176, "water_retention": 0.2923976480960846, "slope": 3.3043196201324463, "aspect": 79.1623306274414, "num_identification_agreements": 1, "cluster": 0, "tavg": null, "tmin": 0.8, "tmax": 12.1, "prcp_d0": 0.0, "prcp_d1": 0.0, "prcp_d2": 0.0, "prcp_d3": 0.0, "prcp_d4": 8.553577423095703, "prcp_d5": 0.0, "prcp_d6": 0.0, "tmax_d0": 21.2, "tmax_d1": 20.7, "tmax_d2": 19.2, "tmax_d3": 17.6, "tmax_d4": 17.4, "tmax_d5": 19.3, "tmax_d6": 21.9, "tmin_d0": 7.9, "tmin_d1": 8.3, "tmin_d2": 9.4, "tmin_d3": 7.8, "tmin_d4": 10.2, "tmin_d5": 9.2, "tmin_d6": 9.1, "day_of_year": 236, "uuid": "632c531d-839d-402b-8de5-70af47d0d68b", "inat_id": 160862258}}, {"type": "Feature", "geometry": {"type": "Point", "coordinates": [-105.38962, 39.2652783333]}, "properties": {"species": "Hygrocybe conica", "date": "2022-08-27", "location": "Pike and San Isabel National Forests, Sedalia, CO, US", "elevation": 2864.0, "land_cover_label": "Tree cover", "water_mask": false, "exclude_reason": "keep", "ndvi": null, "soil_moisture": 0.3746927427216813, "solar_exposure": 0.7252262830734253, "wind_exposure": 0.1741905063390731, "water_retention": 0.3748005926609039, "slope": 10.597579002380373, "aspect": 29.50472068786621, "num_identification_agreements": 2, "cluster": 3, "tavg": null, "tmin": 3.3, "tmax": 15.7, "prcp_d0": 0.0, "prcp_d1": 0.0, "prcp_d2": 0.0, "prcp_d3": 0.0, "prcp_d4": 0.0, "prcp_d5": 0.0, "prcp_d6": 0.0, "tmax_d0": 19.2, "tmax_d1": 17.8, "tmax_d2": 20.6, "tmax_d3": 18.6, "tmax_d4": 17.2, "tmax_d5": 15.9, "tmax_d6": 16.9, "tmin_d0": 7.1, "tmin_d1": 7.5, "tmin_d2": 7.1, "tmin_d3": 6.4, "tmin_d4": 6.3, "tmin_d5": 8.0, "tmin_d6": 6.4, "day_of_year": 239, "uuid": "20c39e12-3d1e-4db9-a1a0-c21089d32e03", "inat_id": 132709623}}, {"type": "Feature", "geometry": {"type": "Point", "coordinates": [-106.1071750894, 39.0136431576]}, "properties": {"species": "Hygrocybe conica", "date": "2022-08-27", "location": "Buena Vista, CO 81211, USA", "elevation": 3411.0, "land_cover_label": "Tree cover", "water_mask": false, "exclude_reason": "keep", "ndvi": null, "soil_moisture": null, "solar_exposure": null, "wind_exposure": null, "water_retention": null, "slope": null, "aspect": null, "num_identification_agreements": 1, "cluster": 0, "tavg": null, "tmin": 6.2, "tmax": 24.0, "prcp_d0": 0.0, "prcp_d1": 0.0, "prcp_d2": 0.0, "prcp_d3": 0.0, "prcp_d4": 0.0, "prcp_d5": 0.0, "prcp_d6": 0.0, "tmax_d0": 14.8, "tmax_d1": 13.5, "tmax_d2": 16.5, "tmax_d3": 15.3, "tmax_d4": 15.3, "tmax_d5": 14.0, "tmax_d6": 14.5, "tmin_d0": 1.2, "tmin_d1": 1.4, "tmin_d2": 0.5, "tmin_d3": 0.7, "tmin_d4": 0.0, "tmin_d5": 0.9, "tmin_d6": -0.3, "day_of_year": 239, "uuid": "4c82d013-1415-4cfa-9027-38979e456c4f", "inat_id": 132938592}}, {"type": "Feature", "geometry": {"type": "Point", "coordinates": [-106.4523649774, 37.0187073781]}, "properties": {"species": "Hygrocybe conica", "date": "2022-09-04", "location": "Rio Grande National Forest, Antonito, CO, US", "elevation": 3063.0, "land_cover_label": "Tree cover", "water_mask": false, "exclude_reason": "keep", "ndvi": null, "soil_moisture": null, "solar_exposure": null, "wind_exposure": null, "water_retention": null, "slope": null, "aspect": null, "num_identification_agreements": 1, "cluster": 0, "tavg": null, "tmin": null, "tmax": null, "prcp_d0": 0.0, "prcp_d1": 0.0, "prcp_d2": 0.0, "prcp_d3": 0.0, "prcp_d4": 0.0, "prcp_d5": 0.0, "prcp_d6": 0.0, "tmax_d0": 21.1, "tmax_d1": 19.0, "tmax_d2": 21.4, "tmax_d3": 20.7, "tmax_d4": 20.3, "tmax_d5": 20.0, "tmax_d6": 18.7, "tmin_d0": 3.9, "tmin_d1": 6.6, "tmin_d2": 6.3, "tmin_d3": 6.1, "tmin_d4": 5.6, "tmin_d5": 6.7, "tmin_d6": 4.0, "day_of_year": 247, "uuid": "3ad9eeaa-7beb-44dd-b614-746f4e0f06dc", "inat_id": 133898790}}, {"type": "Feature", "geometry": {"type": "Point", "coordinates": [-105.2366363257, 39.6151415479]}, "properties": {"species": "Hygrocybe conica", "date": "2023-06-05", "location": "Indian Hills, CO, USA", "elevation": 2098.0, "land_cover_label": "Tree cover", "water_mask": false, "exclude_reason": "keep", "ndvi": null, "soil_moisture": 0.3977569818700596, "solar_exposure": 0.6549827456474304, "wind_exposure": 0.2954171895980835, "water_retention": 0.189202532172203, "slope": 14.936429023742676, "aspect": 16.994808197021484, "num_identification_agreements": 1, "cluster": 0, "tavg": null, "tmin": 10.6, "tmax": 20.0, "prcp_d0": 22.784217834472656, "prcp_d1": 0.0, "prcp_d2": 0.0, "prcp_d3": 0.0, "prcp_d4": 0.0, "prcp_d5": 0.0, "prcp_d6": 0.0, "tmax_d0": 15.8, "tmax_d1": 12.6, "tmax_d2": 14.2, "tmax_d3": 16.9, "tmax_d4": 18.2, "tmax_d5": 22.6, "tmax_d6": 23.1, "tmin_d0": 5.6, "tmin_d1": 8.0, "tmin_d2": 6.5, "tmin_d3": 5.8, "tmin_d4": 8.3, "tmin_d5": 8.3, "tmin_d6": 7.3, "day_of_year": 156, "uuid": "ed6310ba-d412-4bab-a728-d94a18a3ba5f", "inat_id": 165921882}}, {"type": "Feature", "geometry": {"type": "Point", "coordinates": [-105.3328803554, 40.5695683086]}, "properties": {"species": "Hygrocybe conica", "date": "2023-06-19", "location": "Bellvue, CO 80512, USA", "elevation": 1977.0, "land_cover_label": "Tree cover", "water_mask": false, "exclude_reason": "keep", "ndvi": null, "soil_moisture": 0.3683627315547298, "solar_exposure": 0.727745771408081, "wind_exposure": 0.2529206275939941, "water_retention": 0.3280099630355835, "slope": 9.660772323608398, "aspect": 343.0537414550781, "num_identification_agreements": 1, "cluster": 0, "tavg": null, "tmin": 12.0, "tmax": 30.7, "prcp_d0": 0.0, "prcp_d1": 0.0, "prcp_d2": 0.0, "prcp_d3": 27.107643127441406, "prcp_d4": 22.036109924316406, "prcp_d5": 0.0, "prcp_d6": 0.0, "tmax_d0": 26.3, "tmax_d1": 24.2, "tmax_d2": 15.1, "tmax_d3": 15.5, "tmax_d4": 17.1, "tmax_d5": 19.3, "tmax_d6": 15.9, "tmin_d0": 13.0, "tmin_d1": 5.5, "tmin_d2": 4.8, "tmin_d3": 7.1, "tmin_d4": 8.3, "tmin_d5": 4.3, "tmin_d6": 7.1, "day_of_year": 170, "uuid": "646abcb9-0f9d-4bbe-bd45-b0fcf15cdbde", "inat_id": 168433495}}, {"type": "Feature", "geometry": {"type": "Point", "coordinates": [-103.7333, 44.1036305]}, "properties": {"species": "Hygrocybe conica", "date": "2023-07-08", "location": "Black Hills National Forest, Hill City, SD, US", "elevation": 1797.0, "land_cover_label": "Tree cover", "water_mask": false, "exclude_reason": "keep", "ndvi": null, "soil_moisture": null, "solar_exposure": null, "wind_exposure": null, "water_retention": null, "slope": null, "aspect": null, "num_identification_agreements": 1, "cluster": 0, "tavg": null, "tmin": 10.3, "tmax": 20.9, "prcp_d0": 0.0, "prcp_d1": 18.21659278869629, "prcp_d2": 0.0, "prcp_d3": 0.0, "prcp_d4": 22.920942306518555, "prcp_d5": 0.0, "prcp_d6": 0.0, "tmax_d0": null, "tmax_d1": null, "tmax_d2": null, "tmax_d3": null, "tmax_d4": null, "tmax_d5": null, "tmax_d6": null, "tmin_d0": null, "tmin_d1": null, "tmin_d2": null, "tmin_d3": null, "tmin_d4": null, "tmin_d5": null, "tmin_d6": null, "day_of_year": 189, "uuid": "e4316a36-37da-4327-9662-9ac7bca2f6a7", "inat_id": 177086450}}, {"type": "Feature", "geometry": {"type": "Point", "coordinates": [-104.4353633333, 44.4431333333]}, "properties": {"species": "Hygrocybe conica", "date": "2023-07-15", "location": "Black Hills National Forest, Sundance, WY, US", "elevation": 1885.0, "land_cover_label": "Tree cover", "water_mask": false, "exclude_reason": "keep", "ndvi": null, "soil_moisture": null, "solar_exposure": null, "wind_exposure": null, "water_retention": null, "slope": null, "aspect": null, "num_identification_agreements": 1, "cluster": 0, "tavg": null, "tmin": 13.0, "tmax": 25.0, "prcp_d0": 0.0, "prcp_d1": 0.0, "prcp_d2": 0.0, "prcp_d3": 18.373573303222656, "prcp_d4": 0.0, "prcp_d5": 0.0, "prcp_d6": 0.0, "tmax_d0": null, "tmax_d1": null, "tmax_d2": null, "tmax_d3": null, "tmax_d4": null, "tmax_d5": null, "tmax_d6": null, "tmin_d0": null, "tmin_d1": null, "tmin_d2": null, "tmin_d3": null, "tmin_d4": null, "tmin_d5": null, "tmin_d6": null, "day_of_year": 196, "uuid": "00f2af65-0e5b-457f-97a7-edc0c1c90a4d", "inat_id": 211032467}}, {"type": "Feature", "geometry": {"type": "Point", "coordinates": [-105.5061633333, 40.4074883333]}, "properties": {"species": "Hygrocybe conica", "date": "2023-08-05", "location": "Rocky Mountain National Park, Estes Park, CO, US", "elevation": 2617.0, "land_cover_label": "Tree cover", "water_mask": false, "exclude_reason": "keep", "ndvi": null, "soil_moisture": 0.36050579496487, "solar_exposure": 0.903920829296112, "wind_exposure": 0.3945066630840301, "water_retention": 0.1825598180294037, "slope": 8.373220443725586, "aspect": 211.9869079589844, "num_identification_agreements": 1, "cluster": 0, "tavg": null, "tmin": 14.9, "tmax": 29.6, "prcp_d0": 0.0, "prcp_d1": 0.0, "prcp_d2": 0.0, "prcp_d3": 14.118603706359863, "prcp_d4": 42.35580825805664, "prcp_d5": 0.0, "prcp_d6": 0.0, "tmax_d0": null, "tmax_d1": null, "tmax_d2": null, "tmax_d3": null, "tmax_d4": null, "tmax_d5": null, "tmax_d6": null, "tmin_d0": null, "tmin_d1": null, "tmin_d2": null, "tmin_d3": null, "tmin_d4": null, "tmin_d5": null, "tmin_d6": null, "day_of_year": 217, "uuid": "7631414e-1b6a-4cf5-9a10-0fbe30513712", "inat_id": 176864813}}, {"type": "Feature", "geometry": {"type": "Point", "coordinates": [-103.4866104126, 43.8645896912]}, "properties": {"species": "Hygrocybe conica", "date": "2023-08-13", "location": "Keystone", "elevation": 1695.0, "land_cover_label": "Tree cover", "water_mask": false, "exclude_reason": "keep", "ndvi": null, "soil_moisture": null, "solar_exposure": null, "wind_exposure": null, "water_retention": null, "slope": null, "aspect": null, "num_identification_agreements": 1, "cluster": 0, "tavg": null, "tmin": 8.9, "tmax": 17.2, "prcp_d0": 18.961647033691406, "prcp_d1": 0.0, "prcp_d2": 0.0, "prcp_d3": 0.0, "prcp_d4": 0.0, "prcp_d5": 0.0, "prcp_d6": 0.0, "tmax_d0": null, "tmax_d1": null, "tmax_d2": null, "tmax_d3": null, "tmax_d4": null, "tmax_d5": null, "tmax_d6": null, "tmin_d0": null, "tmin_d1": null, "tmin_d2": null, "tmin_d3": null, "tmin_d4": null, "tmin_d5": null, "tmin_d6": null, "day_of_year": 225, "uuid": "aa646653-2c99-4f0e-94db-f3ead30c7d24", "inat_id": 268135429}}, {"type": "Feature", "geometry": {"type": "Point", "coordinates": [-105.1761307196, 40.1834549709]}, "properties": {"species": "Hygrocybe conica", "date": "2023-09-14", "location": "N 75th St, Longmont, CO, US", "elevation": 1551.0, "land_cover_label": "Grassland", "water_mask": false, "exclude_reason": "keep", "ndvi": null, "soil_moisture": 0.2557834789584836, "solar_exposure": 0.8712251782417297, "wind_exposure": 0.320606917142868, "water_retention": 0.3969451189041137, "slope": 3.504300594329834, "aspect": 152.41958618164062, "num_identification_agreements": 1, "cluster": 0, "tavg": null, "tmin": 10.5, "tmax": 23.5, "prcp_d0": 0.0, "prcp_d1": 0.0, "prcp_d2": 0.0, "prcp_d3": 25.248241424560547, "prcp_d4": 0.0, "prcp_d5": 0.0, "prcp_d6": 0.0, "tmax_d0": null, "tmax_d1": null, "tmax_d2": null, "tmax_d3": null, "tmax_d4": null, "tmax_d5": null, "tmax_d6": null, "tmin_d0": null, "tmin_d1": null, "tmin_d2": null, "tmin_d3": null, "tmin_d4": null, "tmin_d5": null, "tmin_d6": null, "day_of_year": 257, "uuid": "4c6dd1f5-f6c3-4bb7-867e-e1478c93cbfa", "inat_id": 220928893}}, {"type": "Feature", "geometry": {"type": "Point", "coordinates": [-105.5003666667, 36.5912216667]}, "properties": {"species": "Hygrocybe conica", "date": "2024-07-05", "location": "Carson National Forest, Taos, NM, US", "elevation": 2853.0, "land_cover_label": "Tree cover", "water_mask": false, "exclude_reason": "keep", "ndvi": null, "soil_moisture": null, "solar_exposure": null, "wind_exposure": null, "water_retention": null, "slope": null, "aspect": null, "num_identification_agreements": 1, "cluster": 0, "tavg": null, "tmin": 9.4, "tmax": 29.4, "prcp_d0": 0.0, "prcp_d1": 0.0, "prcp_d2": 0.0, "prcp_d3": 0.0, "prcp_d4": 0.0, "prcp_d5": 7.498932361602783, "prcp_d6": 0.0, "tmax_d0": null, "tmax_d1": null, "tmax_d2": null, "tmax_d3": null, "tmax_d4": null, "tmax_d5": null, "tmax_d6": null, "tmin_d0": null, "tmin_d1": null, "tmin_d2": null, "tmin_d3": null, "tmin_d4": null, "tmin_d5": null, "tmin_d6": null, "day_of_year": 187, "uuid": "44fd7d4b-d4ca-40c4-a464-a8978e579dad", "inat_id": 229776051}}, {"type": "Feature", "geometry": {"type": "Point", "coordinates": [-105.8583504911, 35.7434670254]}, "properties": {"species": "Hygrocybe conica", "date": "2024-07-07", "location": "Santa Fe County, NM, USA", "elevation": 2571.0, "land_cover_label": "Tree cover", "water_mask": false, "exclude_reason": "keep", "ndvi": null, "soil_moisture": null, "solar_exposure": null, "wind_exposure": null, "water_retention": null, "slope": null, "aspect": null, "num_identification_agreements": 1, "cluster": 2, "tavg": null, "tmin": 10.6, "tmax": 33.3, "prcp_d0": 0.0, "prcp_d1": 0.0, "prcp_d2": 0.0, "prcp_d3": 0.0, "prcp_d4": 0.0, "prcp_d5": 30.678205490112305, "prcp_d6": 0.0, "tmax_d0": null, "tmax_d1": null, "tmax_d2": null, "tmax_d3": null, "tmax_d4": null, "tmax_d5": null, "tmax_d6": null, "tmin_d0": null, "tmin_d1": null, "tmin_d2": null, "tmin_d3": null, "tmin_d4": null, "tmin_d5": null, "tmin_d6": null, "day_of_year": 189, "uuid": "111767f5-459a-47ef-be28-a5c8b60b34d4", "inat_id": 228054531}}, {"type": "Feature", "geometry": {"type": "Point", "coordinates": [-105.7045133333, 35.8176716667]}, "properties": {"species": "Hygrocybe conica", "date": "2024-07-27", "location": "Santa Fe National Forest, Tererro, NM, US", "elevation": 2866.0, "land_cover_label": "Tree cover", "water_mask": false, "exclude_reason": "keep", "ndvi": null, "soil_moisture": null, "solar_exposure": null, "wind_exposure": null, "water_retention": null, "slope": null, "aspect": null, "num_identification_agreements": 2, "cluster": 0, "tavg": null, "tmin": 13.9, "tmax": 31.1, "prcp_d0": 0.0, "prcp_d1": 0.0, "prcp_d2": 0.0, "prcp_d3": 0.0, "prcp_d4": 0.0, "prcp_d5": 0.0, "prcp_d6": 0.0, "tmax_d0": null, "tmax_d1": null, "tmax_d2": null, "tmax_d3": null, "tmax_d4": null, "tmax_d5": null, "tmax_d6": null, "tmin_d0": null, "tmin_d1": null, "tmin_d2": null, "tmin_d3": null, "tmin_d4": null, "tmin_d5": null, "tmin_d6": null, "day_of_year": 209, "uuid": "5794288d-25d2-41ee-b170-69298699d5b7", "inat_id": 232183767}}, {"type": "Feature", "geometry": {"type": "Point", "coordinates": [-105.7999194444, 35.7976138889]}, "properties": {"species": "Hygrocybe conica", "date": "2024-08-07", "location": "Santa Fe County, NM, USA", "elevation": 3238.0, "land_cover_label": "Tree cover", "water_mask": false, "exclude_reason": "keep", "ndvi": null, "soil_moisture": null, "solar_exposure": null, "wind_exposure": null, "water_retention": null, "slope": null, "aspect": null, "num_identification_agreements": 1, "cluster": 0, "tavg": null, "tmin": 17.2, "tmax": 34.4, "prcp_d0": 0.0, "prcp_d1": 7.033227443695068, "prcp_d2": 5.258572101593018, "prcp_d3": 0.0, "prcp_d4": 0.0, "prcp_d5": 10.517144203186035, "prcp_d6": 5.258572101593018, "tmax_d0": null, "tmax_d1": null, "tmax_d2": null, "tmax_d3": null, "tmax_d4": null, "tmax_d5": null, "tmax_d6": null, "tmin_d0": null, "tmin_d1": null, "tmin_d2": null, "tmin_d3": null, "tmin_d4": null, "tmin_d5": null, "tmin_d6": null, "day_of_year": 220, "uuid": "4f4fc4f0-b3a4-4f68-97b9-626385acc899", "inat_id": 235957040}}, {"type": "Feature", "geometry": {"type": "Point", "coordinates": [-103.402671814, 44.0534896851]}, "properties": {"species": "Hygrocybe conica", "date": "2025-06-06", "location": "Rapid City", "elevation": 1259.0, "land_cover_label": "Tree cover", "water_mask": false, "exclude_reason": "keep", "ndvi": null, "soil_moisture": null, "solar_exposure": null, "wind_exposure": null, "water_retention": null, "slope": null, "aspect": null, "num_identification_agreements": 1, "cluster": 0, "tavg": null, "tmin": 7.0, "tmax": 20.0, "prcp_d0": 0.0, "prcp_d1": 0.0, "prcp_d2": 0.0, "prcp_d3": 0.0, "prcp_d4": 11.45572566986084, "prcp_d5": 0.0, "prcp_d6": 0.0, "tmax_d0": null, "tmax_d1": null, "tmax_d2": null, "tmax_d3": null, "tmax_d4": null, "tmax_d5": null, "tmax_d6": null, "tmin_d0": null, "tmin_d1": null, "tmin_d2": null, "tmin_d3": null, "tmin_d4": null, "tmin_d5": null, "tmin_d6": null, "day_of_year": 157, "uuid": "0b55c8db-3e77-4357-beb5-e845d9fbbb0b", "inat_id": 287340013}}, {"type": "Feature", "geometry": {"type": "Point", "coordinates": [-105.4843675812, 40.7874058793]}, "properties": {"species": "Hygrocybe conica", "date": "2025-06-17", "location": "Girlscout Rd, Red Feather Lakes, CO, US", "elevation": 2387.0, "land_cover_label": "Grassland", "water_mask": false, "exclude_reason": "keep", "ndvi": null, "soil_moisture": 0.2788847609554823, "solar_exposure": 0.7910888195037842, "wind_exposure": 0.3361723124980926, "water_retention": 0.2271362990140915, "slope": 4.345588207244873, "aspect": 0.0, "num_identification_agreements": 1, "cluster": 0, "tavg": null, "tmin": 7.9, "tmax": 17.4, "prcp_d0": 6.97882080078125, "prcp_d1": 0.0, "prcp_d2": 0.0, "prcp_d3": 2.932255665655248e-05, "prcp_d4": 0.924916684627533, "prcp_d5": 3.990272283554077, "prcp_d6": 0.416345477104187, "tmax_d0": null, "tmax_d1": null, "tmax_d2": null, "tmax_d3": null, "tmax_d4": null, "tmax_d5": null, "tmax_d6": null, "tmin_d0": null, "tmin_d1": null, "tmin_d2": null, "tmin_d3": null, "tmin_d4": null, "tmin_d5": null, "tmin_d6": null, "day_of_year": 168, "uuid": "8b40d92c-9c5b-4666-b7c4-6adcf36ebd62", "inat_id": 290465573}}, {"type": "Feature", "geometry": {"type": "Point", "coordinates": [-103.740005, 44.1889616667]}, "properties": {"species": "Hygrocybe conica", "date": "2025-07-12", "location": "Lead, SD, US", "elevation": 1865.0, "land_cover_label": "Grassland", "water_mask": false, "exclude_reason": "keep", "ndvi": null, "soil_moisture": null, "solar_exposure": null, "wind_exposure": null, "water_retention": null, "slope": null, "aspect": null, "num_identification_agreements": 1, "cluster": 2, "tavg": null, "tmin": 10.0, "tmax": 27.0, "prcp_d0": 0.0, "prcp_d1": 8.798320770263672, "prcp_d2": 6.854366779327393, "prcp_d3": 0.0, "prcp_d4": 6.854366779327393, "prcp_d5": 20.563100814819336, "prcp_d6": 20.563100814819336, "tmax_d0": null, "tmax_d1": null, "tmax_d2": null, "tmax_d3": null, "tmax_d4": null, "tmax_d5": null, "tmax_d6": null, "tmin_d0": null, "tmin_d1": null, "tmin_d2": null, "tmin_d3": null, "tmin_d4": null, "tmin_d5": null, "tmin_d6": null, "day_of_year": 193, "uuid": "5fe8499c-2dfd-41c4-a2a6-043843ff7844", "inat_id": 297402365}}, {"type": "Feature", "geometry": {"type": "Point", "coordinates": [-103.9411166667, 44.3512083333]}, "properties": {"species": "Hygrocybe conica", "date": "2025-07-20", "location": "Lawrence County, SD, USA", "elevation": 1578.0, "land_cover_label": "Tree cover", "water_mask": false, "exclude_reason": "keep", "ndvi": null, "soil_moisture": null, "solar_exposure": null, "wind_exposure": null, "water_retention": null, "slope": null, "aspect": null, "num_identification_agreements": 1, "cluster": 0, "tavg": null, "tmin": 16.0, "tmax": 26.0, "prcp_d0": 0.0, "prcp_d1": 0.0, "prcp_d2": 0.0, "prcp_d3": 0.0, "prcp_d4": 11.11712646484375, "prcp_d5": 5.913347244262695, "prcp_d6": 0.0, "tmax_d0": null, "tmax_d1": null, "tmax_d2": null, "tmax_d3": null, "tmax_d4": null, "tmax_d5": null, "tmax_d6": null, "tmin_d0": null, "tmin_d1": null, "tmin_d2": null, "tmin_d3": null, "tmin_d4": null, "tmin_d5": null, "tmin_d6": null, "day_of_year": 201, "uuid": "7b2b0cc8-5a3a-4c50-b228-8318504e7b7e", "inat_id": 351872034}}, {"type": "Feature", "geometry": {"type": "Point", "coordinates": [-105.1100722, 39.2687497]}, "properties": {"species": "Hygrocybe conica", "date": "2025-08-02", "location": "Douglas County, US-CO, US", "elevation": 2786.0, "land_cover_label": "Tree cover", "water_mask": false, "exclude_reason": "keep", "ndvi": null, "soil_moisture": 0.2323577097035086, "solar_exposure": 0.6379289031028748, "wind_exposure": 0.4621417820453644, "water_retention": 0.1331709772348404, "slope": 17.0240535736084, "aspect": 332.4195861816406, "num_identification_agreements": 1, "cluster": 0, "tavg": null, "tmin": 11.1, "tmax": 28.9, "prcp_d0": 0.0, "prcp_d1": 0.0, "prcp_d2": 0.0, "prcp_d3": 4.415036678314209, "prcp_d4": 4.415036678314209, "prcp_d5": 0.0, "prcp_d6": 0.0, "tmax_d0": null, "tmax_d1": null, "tmax_d2": null, "tmax_d3": null, "tmax_d4": null, "tmax_d5": null, "tmax_d6": null, "tmin_d0": null, "tmin_d1": null, "tmin_d2": null, "tmin_d3": null, "tmin_d4": null, "tmin_d5": null, "tmin_d6": null, "day_of_year": 214, "uuid": "1a8692a3-6876-4dcc-a588-dad19d5ac95e", "inat_id": 303263802}}, {"type": "Feature", "geometry": {"type": "Point", "coordinates": [-105.6600033333, 39.5159416667]}, "properties": {"species": "Hygrocybe conica", "date": "2026-06-06", "location": "Grant, CO, US", "elevation": 3264.0, "land_cover_label": "Tree cover", "water_mask": false, "exclude_reason": "keep", "ndvi": null, "soil_moisture": 0.3166625015090858, "solar_exposure": 0.9065865874290466, "wind_exposure": 0.2208430469036102, "water_retention": 0.2136726826429367, "slope": 10.512823104858398, "aspect": 220.4921875, "num_identification_agreements": 1, "cluster": 0, "tavg": null, "tmin": 6.0, "tmax": 12.0, "prcp_d0": 0.0, "prcp_d1": 0.2607897818088531, "prcp_d2": 0.0, "prcp_d3": 4.615047931671143, "prcp_d4": 3.1527624130249023, "prcp_d5": 1.0664440393447876, "prcp_d6": 0.0203355513513088, "tmax_d0": null, "tmax_d1": null, "tmax_d2": null, "tmax_d3": null, "tmax_d4": null, "tmax_d5": null, "tmax_d6": null, "tmin_d0": null, "tmin_d1": null, "tmin_d2": null, "tmin_d3": null, "tmin_d4": null, "tmin_d5": null, "tmin_d6": null, "day_of_year": 157, "uuid": "05001916-837b-497a-9a2b-f478aeccc645", "inat_id": 369705525}}]}