{"type": "FeatureCollection", "features": [{"type": "Feature", "geometry": {"type": "Point", "coordinates": [-107.6220333333, 38.9623216667]}, "properties": {"species": "Hygrophorus sp. 'chrysodon-CA01'", "date": "2024-07-23", "location": "Grand Mesa Uncompahgre and Gunnison National Forests, Paonia, CO, US", "elevation": 2424.0, "land_cover_label": "Tree cover", "water_mask": false, "exclude_reason": "keep", "ndvi": null, "soil_moisture": null, "solar_exposure": null, "wind_exposure": null, "water_retention": null, "slope": null, "aspect": null, "num_identification_agreements": 2, "cluster": 0, "tavg": null, "tmin": 15.6, "tmax": 34.9, "prcp_d0": 0.0, "prcp_d1": 0.0, "prcp_d2": 0.0, "prcp_d3": 0.0, "prcp_d4": 0.0, "prcp_d5": 0.0, "prcp_d6": 0.0, "tmax_d0": 26.2, "tmax_d1": 24.6, "tmax_d2": 26.2, "tmax_d3": 27.0, "tmax_d4": 24.8, "tmax_d5": 25.3, "tmax_d6": 26.0, "tmin_d0": 11.5, "tmin_d1": 10.8, "tmin_d2": 11.7, "tmin_d3": 12.8, "tmin_d4": 11.7, "tmin_d5": 11.9, "tmin_d6": 12.4, "day_of_year": 205, "uuid": "0bfb3431-3681-42f8-8cd7-f1d344cae1dc", "inat_id": 231341758}}, {"type": "Feature", "geometry": {"type": "Point", "coordinates": [-107.900445, 37.9262783333]}, "properties": {"species": "Hygrophorus sp. 'chrysodon-CA01'", "date": "2024-08-14", "location": "Grand Mesa Uncompahgre and Gunnison National Forests, Ophir, CO, US", "elevation": 2508.0, "land_cover_label": "Tree cover", "water_mask": false, "exclude_reason": "keep", "ndvi": null, "soil_moisture": null, "solar_exposure": null, "wind_exposure": null, "water_retention": null, "slope": null, "aspect": null, "num_identification_agreements": 2, "cluster": 1, "tavg": null, "tmin": 9.0, "tmax": 20.0, "prcp_d0": 0.0, "prcp_d1": 24.89239501953125, "prcp_d2": 12.446197509765623, "prcp_d3": 0.0, "prcp_d4": 0.0, "prcp_d5": 0.0, "prcp_d6": 8.577743530273438, "tmax_d0": 21.6, "tmax_d1": 20.2, "tmax_d2": 21.7, "tmax_d3": 22.9, "tmax_d4": 21.6, "tmax_d5": 23.9, "tmax_d6": 26.4, "tmin_d0": 6.9, "tmin_d1": 8.8, "tmin_d2": 9.2, "tmin_d3": 9.9, "tmin_d4": 10.1, "tmin_d5": 13.1, "tmin_d6": 10.3, "day_of_year": 227, "uuid": "06685c83-267e-463c-ad4b-ce3df8a863a7", "inat_id": 235763674}}, {"type": "Feature", "geometry": {"type": "Point", "coordinates": [-107.89965, 37.8146033333]}, "properties": {"species": "Hygrophorus sp. 'chrysodon-CA01'", "date": "2024-08-16", "location": "Grand Mesa Uncompahgre and Gunnison National Forests, Telluride, CO, US", "elevation": 3083.0, "land_cover_label": "Tree cover", "water_mask": false, "exclude_reason": "keep", "ndvi": null, "soil_moisture": null, "solar_exposure": null, "wind_exposure": null, "water_retention": null, "slope": null, "aspect": null, "num_identification_agreements": 1, "cluster": 0, "tavg": null, "tmin": 12.0, "tmax": 25.0, "prcp_d0": 0.0, "prcp_d1": 0.0, "prcp_d2": 0.0, "prcp_d3": 43.5639533996582, "prcp_d4": 0.0, "prcp_d5": 0.0, "prcp_d6": 0.0, "tmax_d0": 20.2, "tmax_d1": 19.1, "tmax_d2": 17.2, "tmax_d3": 16.2, "tmax_d4": 19.0, "tmax_d5": 19.3, "tmax_d6": 17.8, "tmin_d0": 8.5, "tmin_d1": 5.1, "tmin_d2": 7.2, "tmin_d3": 7.8, "tmin_d4": 7.4, "tmin_d5": 8.1, "tmin_d6": 5.6, "day_of_year": 229, "uuid": "6a4396e5-ddd8-42c2-924c-15cade8b87da", "inat_id": 236175059}}, {"type": "Feature", "geometry": {"type": "Point", "coordinates": [-108.0632521487, 37.6361573072]}, "properties": {"species": "Hygrophorus sp. 'chrysodon-CA01'", "date": "2024-08-17", "location": "Montezuma County, US-CO, US", "elevation": 2577.0, "land_cover_label": "Tree cover", "water_mask": false, "exclude_reason": "keep", "ndvi": null, "soil_moisture": null, "solar_exposure": null, "wind_exposure": null, "water_retention": null, "slope": null, "aspect": null, "num_identification_agreements": 2, "cluster": 0, "tavg": null, "tmin": 12.0, "tmax": 23.0, "prcp_d0": 0.0, "prcp_d1": 0.0, "prcp_d2": 0.0, "prcp_d3": 0.0, "prcp_d4": 0.0, "prcp_d5": 0.0, "prcp_d6": 0.0, "tmax_d0": 24.4, "tmax_d1": 23.6, "tmax_d2": 23.0, "tmax_d3": 21.1, "tmax_d4": 19.2, "tmax_d5": 22.5, "tmax_d6": 22.4, "tmin_d0": 10.3, "tmin_d1": 8.9, "tmin_d2": 6.0, "tmin_d3": 8.6, "tmin_d4": 10.4, "tmin_d5": 8.3, "tmin_d6": 10.5, "day_of_year": 230, "uuid": "5c5130a5-9343-44cf-9729-b75a1ed2f8bb", "inat_id": 236336420}}, {"type": "Feature", "geometry": {"type": "Point", "coordinates": [-107.1607011929, 38.8638139954]}, "properties": {"species": "Hygrophorus sp. 'chrysodon-CA01'", "date": "2024-09-01", "location": "Somerset, CO 81434, USA", "elevation": 2706.0, "land_cover_label": "Tree cover", "water_mask": false, "exclude_reason": "keep", "ndvi": null, "soil_moisture": null, "solar_exposure": null, "wind_exposure": null, "water_retention": null, "slope": null, "aspect": null, "num_identification_agreements": 3, "cluster": 0, "tavg": null, "tmin": null, "tmax": null, "prcp_d0": 0.0, "prcp_d1": 0.0256904307752847, "prcp_d2": 0.6411107182502747, "prcp_d3": 0.2127877175807953, "prcp_d4": 0.7534376382827759, "prcp_d5": 0.3860150873661041, "prcp_d6": 6.573192119598389, "tmax_d0": 21.6, "tmax_d1": 22.1, "tmax_d2": 20.9, "tmax_d3": 20.7, "tmax_d4": 21.1, "tmax_d5": 20.6, "tmax_d6": 18.7, "tmin_d0": 6.3, "tmin_d1": 1.9, "tmin_d2": 2.9, "tmin_d3": 8.6, "tmin_d4": 4.3, "tmin_d5": 2.1, "tmin_d6": 6.5, "day_of_year": 245, "uuid": "824af5e6-f641-452d-8fc1-9a4d5ae1aa91", "inat_id": 239244805}}, {"type": "Feature", "geometry": {"type": "Point", "coordinates": [-105.8067159394, 39.6803316165]}, "properties": {"species": "Hygrophorus sp. 'chrysodon-CA01'", "date": "2024-09-26", "location": "Grizzly Gulch, Silver Plume, CO, US", "elevation": 3133.0, "land_cover_label": "Tree cover", "water_mask": false, "exclude_reason": "keep", "ndvi": null, "soil_moisture": 0.3352018891398507, "solar_exposure": 0.8163034319877625, "wind_exposure": 0.1553351581096649, "water_retention": 0.6729548573493958, "slope": 2.3222901821136475, "aspect": 339.5390014648437, "num_identification_agreements": 2, "cluster": 3, "tavg": null, "tmin": 3.8, "tmax": 13.7, "prcp_d0": 0.0, "prcp_d1": 0.0, "prcp_d2": 0.0, "prcp_d3": 0.0, "prcp_d4": 8.157153129577637, "prcp_d5": 0.0, "prcp_d6": 0.0, "tmax_d0": 19.3, "tmax_d1": 19.8, "tmax_d2": 15.4, "tmax_d3": 13.8, "tmax_d4": 9.1, "tmax_d5": 15.5, "tmax_d6": 18.5, "tmin_d0": 4.1, "tmin_d1": 0.9, "tmin_d2": 0.9, "tmin_d3": -0.6, "tmin_d4": -0.3, "tmin_d5": 1.2, "tmin_d6": 0.8, "day_of_year": 270, "uuid": "460b8ca9-b18f-4756-bf2b-76ec5e9fed5b", "inat_id": 244162935}}, {"type": "Feature", "geometry": {"type": "Point", "coordinates": [-105.04634936, 39.18980897]}, "properties": {"species": "Hygrophorus sp. 'chrysodon-CA01'", "date": "2025-09-06", "location": "Douglas County, US-CO, US", "elevation": 2723.0, "land_cover_label": "Tree cover", "water_mask": false, "exclude_reason": "keep", "ndvi": null, "soil_moisture": 0.2967704303765009, "solar_exposure": 0.8875652551651001, "wind_exposure": 0.347340315580368, "water_retention": 0.208987146615982, "slope": 11.250677108764648, "aspect": 124.96041870117188, "num_identification_agreements": 1, "cluster": 0, "tavg": null, "tmin": 8.0, "tmax": 22.0, "prcp_d0": 4.0687408447265625, "prcp_d1": 0.0, "prcp_d2": 0.0, "prcp_d3": 0.0, "prcp_d4": 0.0, "prcp_d5": 0.0, "prcp_d6": 0.0, "tmax_d0": 20.0, "tmax_d1": 15.3, "tmax_d2": 22.2, "tmax_d3": 21.1, "tmax_d4": 20.6, "tmax_d5": 19.7, "tmax_d6": 18.7, "tmin_d0": 4.1, "tmin_d1": 6.3, "tmin_d2": 6.4, "tmin_d3": 5.8, "tmin_d4": 4.1, "tmin_d5": 4.7, "tmin_d6": 4.3, "day_of_year": 249, "uuid": "1fd57ad8-e76e-4845-9736-74d00faf7279", "inat_id": 312047355}}, {"type": "Feature", "geometry": {"type": "Point", "coordinates": [-105.583725, 39.98457]}, "properties": {"species": "Hygrophorus sp. 'chrysodon-CA01'", "date": "2025-09-14", "location": "Nederland, CO, US", "elevation": 3031.0, "land_cover_label": "Tree cover", "water_mask": false, "exclude_reason": "keep", "ndvi": null, "soil_moisture": 0.3999138473998964, "solar_exposure": 0.7037064433097839, "wind_exposure": 0.3022303879261017, "water_retention": 0.4237737953662872, "slope": 11.169413566589355, "aspect": 8.255877494812012, "num_identification_agreements": 4, "cluster": 3, "tavg": null, "tmin": -3.4, "tmax": 3.9, "prcp_d0": 0.0, "prcp_d1": 15.456214904785156, "prcp_d2": 0.0, "prcp_d3": 15.456214904785156, "prcp_d4": 0.0, "prcp_d5": 15.626835823059082, "prcp_d6": 0.0, "tmax_d0": 10.4, "tmax_d1": 11.8, "tmax_d2": 16.2, "tmax_d3": 16.5, "tmax_d4": 18.0, "tmax_d5": 16.9, "tmax_d6": 15.4, "tmin_d0": 0.9, "tmin_d1": 1.3, "tmin_d2": 4.9, "tmin_d3": 6.6, "tmin_d4": 4.4, "tmin_d5": 3.8, "tmin_d6": 3.1, "day_of_year": 257, "uuid": "21d2d4c3-57db-4088-b479-19e3265a297f", "inat_id": 313956659}}]}