{"type": "FeatureCollection", "features": [{"type": "Feature", "geometry": {"type": "Point", "coordinates": [-121.81, 45.31605]}, "properties": {"species": "Hygrophorus camarophyllus", "date": "2019-10-05", "location": "SW Mount Hood, Clackamas Co., Oregon, USA", "elevation": 916.0, "land_cover_label": "Tree cover", "water_mask": false, "exclude_reason": "keep", "ndvi": null, "soil_moisture": null, "solar_exposure": null, "wind_exposure": null, "water_retention": null, "slope": null, "aspect": null, "num_identification_agreements": 2, "cluster": 0, "tavg": null, "tmin": null, "tmax": null, "prcp_d0": 0.0, "prcp_d1": 4.169913768768311, "prcp_d2": 9.204296112060549, "prcp_d3": 0.0, "prcp_d4": 0.0, "prcp_d5": 0.0, "prcp_d6": 0.0, "tmax_d0": 11.6, "tmax_d1": 8.4, "tmax_d2": 10.4, "tmax_d3": 12.3, "tmax_d4": 9.7, "tmax_d5": 5.0, "tmax_d6": 5.2, "tmin_d0": 1.7, "tmin_d1": 1.6, "tmin_d2": 4.7, "tmin_d3": -1.9, "tmin_d4": -3.1, "tmin_d5": -0.5, "tmin_d6": 0.3, "day_of_year": 278, "uuid": "2b7d034a-ff73-40ec-a0c3-65340c03cd17", "inat_id": 35019354}}, {"type": "Feature", "geometry": {"type": "Point", "coordinates": [-121.778486604, 45.3054124117]}, "properties": {"species": "Hygrophorus camarophyllus", "date": "2019-10-06", "location": "Mt. Hood National Forest, Government Camp, OR, US", "elevation": 1132.0, "land_cover_label": "Tree cover", "water_mask": false, "exclude_reason": "keep", "ndvi": null, "soil_moisture": null, "solar_exposure": null, "wind_exposure": null, "water_retention": null, "slope": null, "aspect": null, "num_identification_agreements": 1, "cluster": 0, "tavg": null, "tmin": null, "tmax": null, "prcp_d0": 0.0, "prcp_d1": 0.0, "prcp_d2": 0.0, "prcp_d3": 0.0, "prcp_d4": 0.0, "prcp_d5": 0.0, "prcp_d6": 0.0, "tmax_d0": 14.2, "tmax_d1": 9.9, "tmax_d2": 7.6, "tmax_d3": 8.1, "tmax_d4": 10.4, "tmax_d5": 8.0, "tmax_d6": 3.5, "tmin_d0": 1.9, "tmin_d1": 1.1, "tmin_d2": 1.4, "tmin_d3": 3.4, "tmin_d4": -1.1, "tmin_d5": -2.7, "tmin_d6": -1.6, "day_of_year": 279, "uuid": "29e62863-749b-497f-a383-69ce5321013a", "inat_id": 33971420}}, {"type": "Feature", "geometry": {"type": "Point", "coordinates": [-121.8625793457, 45.3024330139]}, "properties": {"species": "Hygrophorus camarophyllus", "date": "2019-11-10", "location": "Zigzag, OR 97049, USA", "elevation": 686.0, "land_cover_label": "Tree cover", "water_mask": false, "exclude_reason": "keep", "ndvi": null, "soil_moisture": null, "solar_exposure": null, "wind_exposure": null, "water_retention": null, "slope": null, "aspect": null, "num_identification_agreements": 1, "cluster": 0, "tavg": null, "tmin": null, "tmax": null, "prcp_d0": 9.809616088867188, "prcp_d1": 0.0, "prcp_d2": 0.0, "prcp_d3": 0.0, "prcp_d4": 0.0, "prcp_d5": 0.0, "prcp_d6": 0.0, "tmax_d0": 12.9, "tmax_d1": 13.6, "tmax_d2": 18.8, "tmax_d3": 14.7, "tmax_d4": 13.7, "tmax_d5": 18.6, "tmax_d6": 16.8, "tmin_d0": 8.6, "tmin_d1": 5.3, "tmin_d2": 4.3, "tmin_d3": 5.5, "tmin_d4": 1.5, "tmin_d5": 5.9, "tmin_d6": 4.3, "day_of_year": 314, "uuid": "38c220b1-5e3d-4048-aa3b-1655cc93ae9b", "inat_id": 35552979}}, {"type": "Feature", "geometry": {"type": "Point", "coordinates": [-121.9631333286, 45.2097910395]}, "properties": {"species": "Hygrophorus camarophyllus", "date": "2020-10-21", "location": "Oregon, US", "elevation": 1103.0, "land_cover_label": "Tree cover", "water_mask": false, "exclude_reason": "keep", "ndvi": null, "soil_moisture": null, "solar_exposure": null, "wind_exposure": null, "water_retention": null, "slope": null, "aspect": null, "num_identification_agreements": 2, "cluster": 0, "tavg": null, "tmin": null, "tmax": null, "prcp_d0": 0.0, "prcp_d1": 0.0, "prcp_d2": 0.0, "prcp_d3": 0.0, "prcp_d4": 0.0, "prcp_d5": 0.0, "prcp_d6": 0.0, "tmax_d0": 7.3, "tmax_d1": 9.5, "tmax_d2": 9.5, "tmax_d3": 10.3, "tmax_d4": 12.0, "tmax_d5": 14.2, "tmax_d6": 13.4, "tmin_d0": 2.7, "tmin_d1": 3.1, "tmin_d2": 6.4, "tmin_d3": 4.9, "tmin_d4": 7.6, "tmin_d5": 1.7, "tmin_d6": -1.8, "day_of_year": 295, "uuid": "10227651-e318-42f7-baa5-6848bf45cfe0", "inat_id": 63372305}}]}