{"type": "FeatureCollection", "features": [{"type": "Feature", "geometry": {"type": "Point", "coordinates": [-106.7962333333, 37.484255]}, "properties": {"species": "Hygrophorus pacificus", "date": "2024-08-18", "location": "Rio Grande National Forest, Creede, CO, US", "elevation": 3328.0, "land_cover_label": "Tree cover", "water_mask": false, "exclude_reason": "keep", "ndvi": null, "soil_moisture": null, "solar_exposure": null, "wind_exposure": null, "water_retention": null, "slope": null, "aspect": null, "num_identification_agreements": 5, "cluster": 0, "tavg": null, "tmin": 8.0, "tmax": 17.0, "prcp_d0": 0.0, "prcp_d1": 0.0, "prcp_d2": 0.0, "prcp_d3": 0.0, "prcp_d4": 0.0, "prcp_d5": 0.0, "prcp_d6": 0.0, "tmax_d0": 17.7, "tmax_d1": 19.9, "tmax_d2": 19.7, "tmax_d3": 17.6, "tmax_d4": 16.1, "tmax_d5": 15.2, "tmax_d6": 15.7, "tmin_d0": 7.1, "tmin_d1": 4.8, "tmin_d2": 7.1, "tmin_d3": 2.2, "tmin_d4": 2.2, "tmin_d5": 6.6, "tmin_d6": 5.9, "day_of_year": 231, "uuid": "4f52aa77-28a6-4419-b04c-0c0824cc7bd7", "inat_id": 236967295}}, {"type": "Feature", "geometry": {"type": "Point", "coordinates": [-105.79913333, 35.79629444]}, "properties": {"species": "Hygrophorus pacificus", "date": "2025-09-13", "location": "Santa Fe, New Mexico, United States", "elevation": 3238.0, "land_cover_label": "Tree cover", "water_mask": false, "exclude_reason": "keep", "ndvi": null, "soil_moisture": null, "solar_exposure": null, "wind_exposure": null, "water_retention": null, "slope": null, "aspect": null, "num_identification_agreements": 2, "cluster": 0, "tavg": null, "tmin": 9.0, "tmax": 19.0, "prcp_d0": 13.9441556930542, "prcp_d1": 0.0, "prcp_d2": 0.0, "prcp_d3": 25.404356002807617, "prcp_d4": 0.0, "prcp_d5": 0.0, "prcp_d6": 0.0, "tmax_d0": 14.3, "tmax_d1": 15.9, "tmax_d2": 16.0, "tmax_d3": 17.8, "tmax_d4": 17.8, "tmax_d5": 16.8, "tmax_d6": 15.7, "tmin_d0": 4.8, "tmin_d1": 5.9, "tmin_d2": 7.5, "tmin_d3": 7.3, "tmin_d4": 5.8, "tmin_d5": 6.5, "tmin_d6": 5.1, "day_of_year": 256, "uuid": "e9cdd83c-7703-476f-986a-15b313a11227", "inat_id": 313706006}}]}