{"type": "FeatureCollection", "features": [{"type": "Feature", "geometry": {"type": "Point", "coordinates": [-121.731383337, 45.2795013572]}, "properties": {"species": "Hygrophorus saxatilis", "date": "2019-09-11", "location": "Clackamas County, OR, USA", "elevation": 1115.0, "land_cover_label": "Tree cover", "water_mask": false, "exclude_reason": "keep", "ndvi": null, "soil_moisture": null, "solar_exposure": null, "wind_exposure": null, "water_retention": null, "slope": null, "aspect": null, "num_identification_agreements": 1, "cluster": 2, "tavg": null, "tmin": null, "tmax": null, "prcp_d0": 0.0, "prcp_d1": 0.0, "prcp_d2": 0.0, "prcp_d3": 39.04006576538086, "prcp_d4": 0.0, "prcp_d5": 117.12020111083984, "prcp_d6": 0.0, "tmax_d0": 17.5, "tmax_d1": 13.6, "tmax_d2": 13.0, "tmax_d3": 14.5, "tmax_d4": 23.9, "tmax_d5": 26.4, "tmax_d6": 28.1, "tmin_d0": 7.8, "tmin_d1": 8.0, "tmin_d2": 8.0, "tmin_d3": 8.8, "tmin_d4": 14.4, "tmin_d5": 14.1, "tmin_d6": 15.8, "day_of_year": 254, "uuid": "b986bdbc-af34-49e7-a48d-ac9beb0872b2", "inat_id": 32627550}}]}