{"type": "FeatureCollection", "features": [{"type": "Feature", "geometry": {"type": "Point", "coordinates": [-106.0650724546, 39.4822461158]}, "properties": {"species": "Hygrophorus olivaceoalbus", "date": "2016-09-05", "location": "Breckenridge Ski Area, Breckenridge, CO, US", "elevation": 3020.0, "land_cover_label": "Tree cover", "water_mask": false, "exclude_reason": "keep", "ndvi": null, "soil_moisture": null, "solar_exposure": null, "wind_exposure": null, "water_retention": null, "slope": null, "aspect": null, "num_identification_agreements": 2, "cluster": 0, "tavg": null, "tmin": 0.6, "tmax": 19.4, "prcp_d0": 0.0, "prcp_d1": 0.0, "prcp_d2": 0.0, "prcp_d3": 18.13105583190918, "prcp_d4": 0.0, "prcp_d5": 0.0, "prcp_d6": 0.0, "tmax_d0": 18.6, "tmax_d1": 16.8, "tmax_d2": 18.6, "tmax_d3": 17.8, "tmax_d4": 20.0, "tmax_d5": 19.1, "tmax_d6": 15.7, "tmin_d0": 3.6, "tmin_d1": 3.1, "tmin_d2": 5.1, "tmin_d3": 4.6, "tmin_d4": 4.4, "tmin_d5": 3.4, "tmin_d6": 3.3, "day_of_year": 249, "uuid": "28367552-b495-4345-8165-3ddb187b96ea", "inat_id": 4042285}}, {"type": "Feature", "geometry": {"type": "Point", "coordinates": [-105.5534176156, 40.0727800324]}, "properties": {"species": "Hygrophorus olivaceoalbus", "date": "2023-09-02", "location": "Nederland, CO 80466, USA", "elevation": 3227.0, "land_cover_label": "Tree cover", "water_mask": false, "exclude_reason": "keep", "ndvi": null, "soil_moisture": 0.3002402884968868, "solar_exposure": 0.8207286596298218, "wind_exposure": 0.3431911468505859, "water_retention": 0.227216824889183, "slope": 4.340421199798584, "aspect": 69.04898834228516, "num_identification_agreements": 1, "cluster": 0, "tavg": null, "tmin": 20.0, "tmax": 33.0, "prcp_d0": 0.0, "prcp_d1": 0.0, "prcp_d2": 0.0, "prcp_d3": 0.0, "prcp_d4": 0.0, "prcp_d5": 0.0, "prcp_d6": 0.0, "tmax_d0": 19.1, "tmax_d1": 19.8, "tmax_d2": 19.3, "tmax_d3": 18.9, "tmax_d4": 15.6, "tmax_d5": 13.6, "tmax_d6": 17.1, "tmin_d0": 6.9, "tmin_d1": 7.8, "tmin_d2": 6.3, "tmin_d3": 4.4, "tmin_d4": 3.6, "tmin_d5": 4.8, "tmin_d6": 4.5, "day_of_year": 245, "uuid": "da5c177e-2756-4800-baaa-c20ef26a5737", "inat_id": 181466503}}, {"type": "Feature", "geometry": {"type": "Point", "coordinates": [-105.8004386723, 35.7989527017]}, "properties": {"species": "Hygrophorus olivaceoalbus", "date": "2024-08-24", "location": "San Ildefonso Pueblo, NM 87506, USA", "elevation": 3208.0, "land_cover_label": "Tree cover", "water_mask": false, "exclude_reason": "keep", "ndvi": null, "soil_moisture": null, "solar_exposure": null, "wind_exposure": null, "water_retention": null, "slope": null, "aspect": null, "num_identification_agreements": 1, "cluster": 0, "tavg": null, "tmin": 16.7, "tmax": 30.0, "prcp_d0": 2.860374927520752, "prcp_d1": 2.655510663986206, "prcp_d2": 0.0123712448403239, "prcp_d3": 0.3429209291934967, "prcp_d4": 0.0, "prcp_d5": 0.0, "prcp_d6": 0.0, "tmax_d0": 18.3, "tmax_d1": 19.5, "tmax_d2": 21.3, "tmax_d3": 23.0, "tmax_d4": 24.0, "tmax_d5": 22.5, "tmax_d6": 21.8, "tmin_d0": 9.2, "tmin_d1": 9.0, "tmin_d2": 10.8, "tmin_d3": 10.4, "tmin_d4": 10.1, "tmin_d5": 10.7, "tmin_d6": 7.9, "day_of_year": 237, "uuid": "a4b04722-0cc5-4606-8788-df9aa173c477", "inat_id": 238098567}}, {"type": "Feature", "geometry": {"type": "Point", "coordinates": [-105.583525, 39.9856111111]}, "properties": {"species": "Hygrophorus olivaceoalbus", "date": "2024-08-27", "location": "Boulder County, CO, USA", "elevation": 3033.0, "land_cover_label": "Tree cover", "water_mask": false, "exclude_reason": "keep", "ndvi": null, "soil_moisture": 0.3020405932720311, "solar_exposure": 0.8366796374320984, "wind_exposure": 0.253399908542633, "water_retention": 0.2935340106487274, "slope": 6.477669715881348, "aspect": 92.7401123046875, "num_identification_agreements": 1, "cluster": 0, "tavg": null, "tmin": null, "tmax": null, "prcp_d0": 0.8540900349617004, "prcp_d1": 16.56193733215332, "prcp_d2": 0.2234682738780975, "prcp_d3": 0.953638792037964, "prcp_d4": 7.008443832397461, "prcp_d5": 13.548139572143556, "prcp_d6": 2.4542388916015625, "tmax_d0": 17.8, "tmax_d1": 16.3, "tmax_d2": 18.2, "tmax_d3": 19.1, "tmax_d4": 17.8, "tmax_d5": 15.5, "tmax_d6": 20.5, "tmin_d0": 3.3, "tmin_d1": 5.9, "tmin_d2": 7.3, "tmin_d3": 7.1, "tmin_d4": 4.7, "tmin_d5": 8.0, "tmin_d6": 8.6, "day_of_year": 240, "uuid": "1ad944e3-db7c-4096-9fed-0479e84ee9fb", "inat_id": 238663343}}, {"type": "Feature", "geometry": {"type": "Point", "coordinates": [-105.8004611111, 35.800225]}, "properties": {"species": "Hygrophorus olivaceoalbus", "date": "2024-08-29", "location": "Santa Fe County, NM, USA", "elevation": 3266.0, "land_cover_label": "Tree cover", "water_mask": false, "exclude_reason": "keep", "ndvi": null, "soil_moisture": null, "solar_exposure": null, "wind_exposure": null, "water_retention": null, "slope": null, "aspect": null, "num_identification_agreements": 1, "cluster": 0, "tavg": null, "tmin": 15.6, "tmax": 28.9, "prcp_d0": 2.6009390354156494, "prcp_d1": 0.3673924803733825, "prcp_d2": 4.04910135269165, "prcp_d3": 1.6150983572006226, "prcp_d4": 1.953336358070373, "prcp_d5": 3.0005476474761963, "prcp_d6": 2.667612075805664, "tmax_d0": 14.9, "tmax_d1": 15.9, "tmax_d2": 16.1, "tmax_d3": 14.8, "tmax_d4": 16.3, "tmax_d5": 16.5, "tmax_d6": 17.5, "tmin_d0": 3.8, "tmin_d1": 5.7, "tmin_d2": 6.5, "tmin_d3": 7.2, "tmin_d4": 6.5, "tmin_d5": 7.7, "tmin_d6": 8.6, "day_of_year": 242, "uuid": "37a5cf07-2664-4f5c-a011-1a015b3415d1", "inat_id": 239201911}}, {"type": "Feature", "geometry": {"type": "Point", "coordinates": [-105.4995081997, 39.6910303]}, "properties": {"species": "Hygrophorus olivaceoalbus", "date": "2025-08-30", "location": "Idaho Springs, CO 80452, USA", "elevation": 3162.0, "land_cover_label": "Tree cover", "water_mask": false, "exclude_reason": "keep", "ndvi": null, "soil_moisture": 0.4041672336618958, "solar_exposure": 0.6881209015846252, "wind_exposure": 0.3626374900341034, "water_retention": 0.1989442259073257, "slope": 13.000316619873049, "aspect": 23.52318000793457, "num_identification_agreements": 1, "cluster": 0, "tavg": null, "tmin": -1.4, "tmax": 7.2, "prcp_d0": 5.257194519042969, "prcp_d1": 0.0, "prcp_d2": 0.0, "prcp_d3": 6.340985298156738, "prcp_d4": 0.0, "prcp_d5": 9.472870826721191, "prcp_d6": 0.0, "tmax_d0": 13.2, "tmax_d1": 15.7, "tmax_d2": 15.6, "tmax_d3": 15.8, "tmax_d4": 14.6, "tmax_d5": 13.3, "tmax_d6": 15.8, "tmin_d0": 4.6, "tmin_d1": 1.5, "tmin_d2": 2.5, "tmin_d3": 4.8, "tmin_d4": 2.3, "tmin_d5": 2.9, "tmin_d6": 3.4, "day_of_year": 242, "uuid": "bf6c6128-5c9d-45ea-9731-136e9d23da69", "inat_id": 310295802}}, {"type": "Feature", "geometry": {"type": "Point", "coordinates": [-110.8129983269, 40.5939973283]}, "properties": {"species": "Hygrophorus olivaceoalbus", "date": "2026-08-01", "location": "Duchesne County, US-UT, US", "elevation": 3225.0, "land_cover_label": "Tree cover", "water_mask": false, "exclude_reason": "keep", "ndvi": null, "soil_moisture": null, "solar_exposure": null, "wind_exposure": null, "water_retention": null, "slope": null, "aspect": null, "num_identification_agreements": 2, "cluster": 0, "tavg": null, "tmin": null, "tmax": null, "prcp_d0": null, "prcp_d1": 0.0, "prcp_d2": 0.0, "prcp_d3": 0.0, "prcp_d4": 6.356283664703369, "prcp_d5": 0.0, "prcp_d6": 0.0, "tmax_d0": 23.8, "tmax_d1": 21.4, "tmax_d2": 18.2, "tmax_d3": 18.1, "tmax_d4": 19.1, "tmax_d5": 20.3, "tmax_d6": 22.2, "tmin_d0": 9.8, "tmin_d1": 8.4, "tmin_d2": 6.9, "tmin_d3": 9.2, "tmin_d4": 8.2, "tmin_d5": 10.7, "tmin_d6": 13.2, "day_of_year": 213, "uuid": "f17664aa-c446-42a5-a8a3-e304a04f802f", "inat_id": 387377890}}]}