{"type": "FeatureCollection", "features": [{"type": "Feature", "geometry": {"type": "Point", "coordinates": [-122.38913, 45.3130583333]}, "properties": {"species": "Hygrocybe punicea", "date": "2020-12-12", "location": "Milo McIver State Park, Eagle Creek, OR, US", "elevation": 129.0, "land_cover_label": "Tree cover", "water_mask": false, "exclude_reason": "keep", "ndvi": null, "soil_moisture": null, "solar_exposure": null, "wind_exposure": null, "water_retention": null, "slope": null, "aspect": null, "num_identification_agreements": 1, "cluster": 2, "tavg": null, "tmin": 1.1, "tmax": 7.8, "prcp_d0": 0.0, "prcp_d1": 0.0, "prcp_d2": 0.0, "prcp_d3": 0.0, "prcp_d4": 0.0, "prcp_d5": 25.893096923828125, "prcp_d6": 0.0, "tmax_d0": 9.3, "tmax_d1": 4.7, "tmax_d2": 8.6, "tmax_d3": 10.8, "tmax_d4": 12.2, "tmax_d5": 10.4, "tmax_d6": 10.2, "tmin_d0": -1.2, "tmin_d1": 3.2, "tmin_d2": 0.9, "tmin_d3": 6.7, "tmin_d4": 2.4, "tmin_d5": 2.7, "tmin_d6": 5.1, "day_of_year": 347, "uuid": "b15b972c-7534-4d07-9edd-3f118cf52dbe", "inat_id": 66551041}}, {"type": "Feature", "geometry": {"type": "Point", "coordinates": [-121.9402616667, 45.3028716667]}, "properties": {"species": "Hygrocybe punicea", "date": "2024-01-04", "location": "Zigzag Ranger Station, Welches, OR, US", "elevation": 472.0, "land_cover_label": "Tree cover", "water_mask": false, "exclude_reason": "keep", "ndvi": null, "soil_moisture": null, "solar_exposure": null, "wind_exposure": null, "water_retention": null, "slope": null, "aspect": null, "num_identification_agreements": 1, "cluster": 1, "tavg": null, "tmin": 3.3, "tmax": 8.9, "prcp_d0": 0.0, "prcp_d1": 16.302968978881836, "prcp_d2": 16.302968978881836, "prcp_d3": 0.0, "prcp_d4": 0.0, "prcp_d5": 8.198217391967773, "prcp_d6": 8.198217391967773, "tmax_d0": 7.0, "tmax_d1": 6.1, "tmax_d2": 7.2, "tmax_d3": 10.5, "tmax_d4": 9.6, "tmax_d5": 10.9, "tmax_d6": 11.9, "tmin_d0": 3.9, "tmin_d1": 3.5, "tmin_d2": 3.7, "tmin_d3": 1.3, "tmin_d4": 1.8, "tmin_d5": 6.7, "tmin_d6": 8.3, "day_of_year": 4, "uuid": "38cf4a9c-12c6-46bd-bb5d-4ba4425dfa0e", "inat_id": 195801591}}]}