{"type": "FeatureCollection", "features": [{"type": "Feature", "geometry": {"type": "Point", "coordinates": [-105.5255548283, 40.1943993308]}, "properties": {"species": "Hygrophoropsis aurantiaca", "date": "2025-09-09", "location": "Allenspark, CO, USA", "elevation": 2598.0, "num_identification_agreements": 1, "tavg": null, "tmin": 13.0, "tmax": 30.0, "day_of_year": 252, "uuid": "8a396aea-74de-4ccc-9ca3-0ed39ef081b1", "inat_id": 325232651}}, {"type": "Feature", "geometry": {"type": "Point", "coordinates": [-105.5712366667, 39.5115666667]}, "properties": {"species": "Hygrophoropsis aurantiaca", "date": "2025-10-12", "location": "Rosalle Trail, Bailey, CO, US", "elevation": 2881.0, "num_identification_agreements": 1, "tavg": null, "tmin": -7.5, "tmax": 0.0, "day_of_year": 285, "uuid": "c1cfd853-bb50-4d52-b6d3-e0881411f56d", "inat_id": 320574613}}, {"type": "Feature", "geometry": {"type": "Point", "coordinates": [-106.3022, 35.913825]}, "properties": {"species": "Hygrophoropsis aurantiaca", "date": "2025-10-11", "location": "Santa Fe National Forest, Los Alamos, NM, US", "elevation": 2223.0, "num_identification_agreements": 1, "tavg": null, "tmin": 12.0, "tmax": 17.0, "day_of_year": 284, "uuid": "e870699c-6ca8-4835-a83f-ebf56ef55357", "inat_id": 320241756}}, {"type": "Feature", "geometry": {"type": "Point", "coordinates": [-107.2069383333, 37.4910033333]}, "properties": {"species": "Hygrophoropsis aurantiaca", "date": "2025-09-14", "location": "Pagosa Springs, CO, US", "elevation": 2467.0, "num_identification_agreements": 1, "tavg": null, "tmin": 2.0, "tmax": 20.0, "day_of_year": 257, "uuid": "5df26ff5-4f3f-4cab-ac51-a8b653d13859", "inat_id": 313997621}}, {"type": "Feature", "geometry": {"type": "Point", "coordinates": [-106.3840292997, 35.8917506]}, "properties": {"species": "Hygrophoropsis aurantiaca", "date": "2025-09-11", "location": "Los Alamos County, NM, USA", "elevation": 2813.0, "num_identification_agreements": 1, "tavg": null, "tmin": 14.0, "tmax": 25.0, "day_of_year": 254, "uuid": "b6a4892d-6573-4cca-9db7-029d3a8ed352", "inat_id": 313254734}}, {"type": "Feature", "geometry": {"type": "Point", "coordinates": [-107.1223916667, 37.443325]}, "properties": {"species": "Hygrophoropsis aurantiaca", "date": "2025-09-10", "location": "County Road 634, Creede, CO, US", "elevation": 2653.0, "num_identification_agreements": 1, "tavg": null, "tmin": 8.0, "tmax": 24.0, "day_of_year": 253, "uuid": "900354b3-29db-41a5-84f4-910ab8d6bec6", "inat_id": 313034790}}]}