{"type": "FeatureCollection", "features": [{"type": "Feature", "geometry": {"type": "Point", "coordinates": [-105.1683570596, 38.97402555]}, "properties": {"species": "Hygrophorus speciosus", "date": "2018-08-20", "location": "Teller County, US-CO, US", "elevation": 2784.0, "land_cover_label": "Tree cover", "water_mask": false, "exclude_reason": "keep", "ndvi": null, "soil_moisture": null, "solar_exposure": null, "wind_exposure": null, "water_retention": null, "slope": null, "aspect": null, "num_identification_agreements": 2, "cluster": 0, "tavg": null, "tmin": 6.8, "tmax": 22.3, "prcp_d0": 0.0031418711878359, "prcp_d1": 0.1931193768978119, "prcp_d2": 4.100345611572266, "prcp_d3": 3.8618884086608887, "prcp_d4": 0.3765204548835754, "prcp_d5": 5.41730546951294, "prcp_d6": 5.41730546951294, "tmax_d0": 20.7, "tmax_d1": 16.0, "tmax_d2": 20.7, "tmax_d3": 22.4, "tmax_d4": 22.4, "tmax_d5": 21.8, "tmax_d6": 21.3, "tmin_d0": 5.7, "tmin_d1": 6.8, "tmin_d2": 11.1, "tmin_d3": 11.6, "tmin_d4": 12.9, "tmin_d5": 9.7, "tmin_d6": 8.8, "day_of_year": 232, "uuid": "0429c407-d33d-4394-ab6c-7692a4eda5bc", "inat_id": 15747222}}, {"type": "Feature", "geometry": {"type": "Point", "coordinates": [-105.2602383333, 39.9657633333]}, "properties": {"species": "Hygrophorus speciosus", "date": "2019-05-25", "location": "Boulder, Boulder, CO, US", "elevation": 1757.0, "land_cover_label": "Grassland", "water_mask": false, "exclude_reason": "keep", "ndvi": null, "soil_moisture": 0.4039259024958149, "solar_exposure": 0.8629019856452942, "wind_exposure": 0.3337673246860504, "water_retention": 0.2210854738950729, "slope": 4.751803874969482, "aspect": 121.49219512939452, "num_identification_agreements": 2, "cluster": 0, "tavg": null, "tmin": 7.0, "tmax": 23.0, "prcp_d0": 0.0, "prcp_d1": 0.0, "prcp_d2": 0.0, "prcp_d3": 0.0, "prcp_d4": 22.64017868041992, "prcp_d5": 6.241039752960205, "prcp_d6": 6.241039752960205, "tmax_d0": 21.8, "tmax_d1": 17.3, "tmax_d2": 5.5, "tmax_d3": 5.9, "tmax_d4": 1.7, "tmax_d5": 8.5, "tmax_d6": 13.7, "tmin_d0": 2.1, "tmin_d1": -1.1, "tmin_d2": 2.6, "tmin_d3": -0.8, "tmin_d4": -1.4, "tmin_d5": -0.4, "tmin_d6": 2.0, "day_of_year": 145, "uuid": "11998059-f041-4e21-a27a-9e6130e78775", "inat_id": 25781111}}, {"type": "Feature", "geometry": {"type": "Point", "coordinates": [-103.452805, 43.9121966667]}, "properties": {"species": "Hygrophorus speciosus", "date": "2019-06-15", "location": "Black Hills National Forest, Keystone, SD, US", "elevation": 1541.0, "land_cover_label": "Tree cover", "water_mask": false, "exclude_reason": "keep", "ndvi": null, "soil_moisture": null, "solar_exposure": null, "wind_exposure": null, "water_retention": null, "slope": null, "aspect": null, "num_identification_agreements": 1, "cluster": 0, "tavg": null, "tmin": 10.0, "tmax": 20.6, "prcp_d0": 1.4551242589950562, "prcp_d1": 9.356801986694336, "prcp_d2": 5.932332515716553, "prcp_d3": 2.0004806518554688, "prcp_d4": 5.536333084106445, "prcp_d5": 0.0, "prcp_d6": 0.0, "tmax_d0": 21.0, "tmax_d1": 21.8, "tmax_d2": 20.8, "tmax_d3": 16.0, "tmax_d4": 14.9, "tmax_d5": 18.2, "tmax_d6": 14.1, "tmin_d0": 10.7, "tmin_d1": 11.4, "tmin_d2": 8.6, "tmin_d3": 6.0, "tmin_d4": 7.5, "tmin_d5": 3.7, "tmin_d6": 3.1, "day_of_year": 166, "uuid": "1dd3d61f-da65-40e7-a47b-8b74ecad3f7c", "inat_id": 27065486}}, {"type": "Feature", "geometry": {"type": "Point", "coordinates": [-121.5295944214, 45.4113540649]}, "properties": {"species": "Hygrophorus speciosus", "date": "2019-10-04", "location": "MT HOOD PRKDL, OR 97041, USA", "elevation": 1299.0, "land_cover_label": "Tree cover", "water_mask": false, "exclude_reason": "keep", "ndvi": null, "soil_moisture": null, "solar_exposure": null, "wind_exposure": null, "water_retention": null, "slope": null, "aspect": null, "num_identification_agreements": 1, "cluster": 0, "tavg": null, "tmin": null, "tmax": null, "prcp_d0": 0.0, "prcp_d1": 0.0, "prcp_d2": 0.0, "prcp_d3": 0.0, "prcp_d4": 0.0, "prcp_d5": 0.0, "prcp_d6": 0.0, "tmax_d0": 6.8, "tmax_d1": 6.9, "tmax_d2": 8.9, "tmax_d3": 4.3, "tmax_d4": 1.1, "tmax_d5": 1.9, "tmax_d6": 4.4, "tmin_d0": 0.0, "tmin_d1": 1.5, "tmin_d2": -2.7, "tmin_d3": -6.1, "tmin_d4": -2.8, "tmin_d5": -1.5, "tmin_d6": -0.7, "day_of_year": 277, "uuid": "300b4b44-9da9-41cd-8cf0-9b1ec4bfa59f", "inat_id": 33876532}}, {"type": "Feature", "geometry": {"type": "Point", "coordinates": [-103.4133335, 43.7325177]}, "properties": {"species": "Hygrophorus speciosus", "date": "2023-06-12", "location": "South Dakota", "elevation": 1463.0, "land_cover_label": "Tree cover", "water_mask": false, "exclude_reason": "keep", "ndvi": null, "soil_moisture": null, "solar_exposure": null, "wind_exposure": null, "water_retention": null, "slope": null, "aspect": null, "num_identification_agreements": 1, "cluster": 0, "tavg": null, "tmin": 4.4, "tmax": 17.8, "prcp_d0": 0.0, "prcp_d1": 0.0, "prcp_d2": 17.707738876342773, "prcp_d3": 0.0, "prcp_d4": 0.0, "prcp_d5": 0.0, "prcp_d6": 0.0, "tmax_d0": 19.5, "tmax_d1": 16.4, "tmax_d2": 22.3, "tmax_d3": 24.2, "tmax_d4": 25.0, "tmax_d5": 24.6, "tmax_d6": 24.5, "tmin_d0": 9.1, "tmin_d1": 9.1, "tmin_d2": 12.8, "tmin_d3": 13.1, "tmin_d4": 15.6, "tmin_d5": 14.6, "tmin_d6": 14.2, "day_of_year": 163, "uuid": "1ae160fa-9968-4756-9f0a-b548626d8140", "inat_id": 174690872}}, {"type": "Feature", "geometry": {"type": "Point", "coordinates": [-103.4838416667, 43.6257583333]}, "properties": {"species": "Hygrophorus speciosus", "date": "2023-06-27", "location": "Wind Cave National Park, Custer, SD, US", "elevation": 1453.0, "land_cover_label": "Tree cover", "water_mask": false, "exclude_reason": "keep", "ndvi": null, "soil_moisture": null, "solar_exposure": null, "wind_exposure": null, "water_retention": null, "slope": null, "aspect": null, "num_identification_agreements": 1, "cluster": 0, "tavg": null, "tmin": 11.7, "tmax": 22.2, "prcp_d0": 4.123899936676025, "prcp_d1": 4.123899936676025, "prcp_d2": 0.0, "prcp_d3": 8.326762199401855, "prcp_d4": 8.326762199401855, "prcp_d5": 12.49014377593994, "prcp_d6": 4.163381099700928, "tmax_d0": 23.1, "tmax_d1": 19.7, "tmax_d2": 20.8, "tmax_d3": 17.3, "tmax_d4": 18.8, "tmax_d5": 20.2, "tmax_d6": 22.7, "tmin_d0": 12.3, "tmin_d1": 11.5, "tmin_d2": 8.5, "tmin_d3": 9.5, "tmin_d4": 12.8, "tmin_d5": 13.4, "tmin_d6": 13.6, "day_of_year": 178, "uuid": "91589614-744e-4477-81e0-12c6caba7018", "inat_id": 169813556}}, {"type": "Feature", "geometry": {"type": "Point", "coordinates": [-121.5373198875, 45.4083147739]}, "properties": {"species": "Hygrophorus speciosus", "date": "2023-10-17", "location": "Hood River County, US-OR, US", "elevation": 1325.0, "land_cover_label": "Tree cover", "water_mask": false, "exclude_reason": "keep", "ndvi": null, "soil_moisture": null, "solar_exposure": null, "wind_exposure": null, "water_retention": null, "slope": null, "aspect": null, "num_identification_agreements": 1, "cluster": 0, "tavg": null, "tmin": 9.9, "tmax": 17.6, "prcp_d0": 0.0, "prcp_d1": 11.2968111038208, "prcp_d2": 0.0, "prcp_d3": 11.166297912597656, "prcp_d4": 0.0, "prcp_d5": 0.0, "prcp_d6": 0.0, "tmax_d0": 14.3, "tmax_d1": 12.5, "tmax_d2": 14.6, "tmax_d3": 12.4, "tmax_d4": 12.5, "tmax_d5": 9.8, "tmax_d6": 6.8, "tmin_d0": 2.7, "tmin_d1": 8.4, "tmin_d2": 5.7, "tmin_d3": 4.1, "tmin_d4": 3.2, "tmin_d5": 4.3, "tmin_d6": 3.1, "day_of_year": 290, "uuid": "70dd6f66-6b62-415e-80ed-f2b7ebb77d8e", "inat_id": 187961066}}, {"type": "Feature", "geometry": {"type": "Point", "coordinates": [-106.6566533746, 35.9221399387]}, "properties": {"species": "Hygrophorus speciosus", "date": "2024-07-23", "location": "Sandoval County, US-NM, US", "elevation": 2578.0, "land_cover_label": "Tree cover", "water_mask": false, "exclude_reason": "keep", "ndvi": null, "soil_moisture": null, "solar_exposure": null, "wind_exposure": null, "water_retention": null, "slope": null, "aspect": null, "num_identification_agreements": 2, "cluster": 0, "tavg": null, "tmin": 12.8, "tmax": 26.1, "prcp_d0": 0.0, "prcp_d1": 0.0, "prcp_d2": 0.0, "prcp_d3": 0.0, "prcp_d4": 10.253584861755373, "prcp_d5": 10.253584861755373, "prcp_d6": 0.0, "tmax_d0": 22.1, "tmax_d1": 19.3, "tmax_d2": 21.3, "tmax_d3": 23.9, "tmax_d4": 25.2, "tmax_d5": 25.1, "tmax_d6": 24.6, "tmin_d0": 9.0, "tmin_d1": 9.1, "tmin_d2": 10.3, "tmin_d3": 12.6, "tmin_d4": 11.6, "tmin_d5": 10.6, "tmin_d6": 13.3, "day_of_year": 205, "uuid": "62d8067b-3d9d-4731-90ad-bd7fba8dff38", "inat_id": 232030877}}, {"type": "Feature", "geometry": {"type": "Point", "coordinates": [-103.4258042648, 44.0803336997]}, "properties": {"species": "Hygrophorus speciosus", "date": "2025-06-09", "location": "Johnson Siding, SD 57702, USA", "elevation": 1438.0, "land_cover_label": "Tree cover", "water_mask": false, "exclude_reason": "keep", "ndvi": null, "soil_moisture": null, "solar_exposure": null, "wind_exposure": null, "water_retention": null, "slope": null, "aspect": null, "num_identification_agreements": 1, "cluster": 0, "tavg": null, "tmin": 9.0, "tmax": 27.2, "prcp_d0": 0.0, "prcp_d1": 0.0, "prcp_d2": 0.0, "prcp_d3": 0.0, "prcp_d4": 0.0, "prcp_d5": 0.0, "prcp_d6": 0.0, "tmax_d0": 24.7, "tmax_d1": 18.8, "tmax_d2": 24.2, "tmax_d3": 17.6, "tmax_d4": 15.2, "tmax_d5": 16.1, "tmax_d6": 15.5, "tmin_d0": 10.2, "tmin_d1": 11.1, "tmin_d2": 8.6, "tmin_d3": 5.0, "tmin_d4": 5.7, "tmin_d5": 5.4, "tmin_d6": 7.1, "day_of_year": 160, "uuid": "d21d3c1d-7dd7-456c-b9a6-c2118928407c", "inat_id": 288241037}}, {"type": "Feature", "geometry": {"type": "Point", "coordinates": [-105.0955157369, 36.8036765799]}, "properties": {"species": "Hygrophorus speciosus", "date": "2025-08-04", "location": "Colfax County, US-NM, US", "elevation": 2514.0, "land_cover_label": "Tree cover", "water_mask": false, "exclude_reason": "keep", "ndvi": null, "soil_moisture": null, "solar_exposure": null, "wind_exposure": null, "water_retention": null, "slope": null, "aspect": null, "num_identification_agreements": 1, "cluster": 0, "tavg": null, "tmin": 5.3, "tmax": 25.8, "prcp_d0": 0.0, "prcp_d1": 0.0, "prcp_d2": 0.0, "prcp_d3": 0.0, "prcp_d4": 7.784571170806885, "prcp_d5": 0.0, "prcp_d6": 0.0, "tmax_d0": 27.2, "tmax_d1": 25.8, "tmax_d2": 25.1, "tmax_d3": 24.2, "tmax_d4": 21.4, "tmax_d5": 20.7, "tmax_d6": 23.6, "tmin_d0": 6.8, "tmin_d1": 5.6, "tmin_d2": 7.5, "tmin_d3": 8.9, "tmin_d4": 8.0, "tmin_d5": 10.2, "tmin_d6": 9.3, "day_of_year": 216, "uuid": "c098f020-059d-4650-a1a2-c7b953fe3ef9", "inat_id": 303875800}}]}