{"type": "FeatureCollection", "features": [{"type": "Feature", "geometry": {"type": "Point", "coordinates": [-105.4479050451, 39.676017277]}, "properties": {"species": "Hygrocybe miniata miniata", "date": "2022-08-13", "location": "Clear Creek County, US-CO, US", "elevation": 2793.0, "land_cover_label": "Tree cover", "water_mask": false, "exclude_reason": "keep", "ndvi": null, "soil_moisture": 0.2789515424449644, "solar_exposure": 0.7113667726516724, "wind_exposure": 0.3061303496360779, "water_retention": 0.3266373872756958, "slope": 10.818906784057615, "aspect": 15.048558235168455, "num_identification_agreements": 1, "cluster": 0, "tavg": null, "tmin": 4.1, "tmax": 14.2, "prcp_d0": 0.0, "prcp_d1": 0.0, "prcp_d2": 0.0, "prcp_d3": 0.0, "prcp_d4": 0.0, "prcp_d5": 0.0, "prcp_d6": 25.689178466796875, "tmax_d0": 22.9, "tmax_d1": 23.0, "tmax_d2": 24.1, "tmax_d3": 23.6, "tmax_d4": 22.6, "tmax_d5": 21.0, "tmax_d6": 20.8, "tmin_d0": 7.8, "tmin_d1": 9.0, "tmin_d2": 8.9, "tmin_d3": 7.3, "tmin_d4": 8.3, "tmin_d5": 7.0, "tmin_d6": 9.3, "day_of_year": 225, "uuid": "2a681a94-33aa-4345-b3d1-ec90477738d8", "inat_id": 130700003}}]}