{"type": "FeatureCollection", "features": [{"type": "Feature", "geometry": {"type": "Point", "coordinates": [-105.801445, 35.7901466667]}, "properties": {"species": "Hygrophorus russula", "date": "2025-09-23", "location": "Santa Fe National Forest, Tererro, NM, US", "elevation": 3207.0, "land_cover_label": "Tree cover", "water_mask": false, "exclude_reason": "keep", "ndvi": null, "soil_moisture": null, "solar_exposure": null, "wind_exposure": null, "water_retention": null, "slope": null, "aspect": null, "num_identification_agreements": 1, "cluster": 0, "tavg": null, "tmin": 8.0, "tmax": 26.0, "prcp_d0": 0.0, "prcp_d1": 0.0, "prcp_d2": 0.0, "prcp_d3": 0.0, "prcp_d4": 0.0, "prcp_d5": 0.0, "prcp_d6": 0.0, "tmax_d0": 11.6, "tmax_d1": 14.7, "tmax_d2": 15.4, "tmax_d3": 14.4, "tmax_d4": 13.6, "tmax_d5": 14.4, "tmax_d6": 14.8, "tmin_d0": 2.0, "tmin_d1": 6.4, "tmin_d2": 5.4, "tmin_d3": 4.6, "tmin_d4": 3.1, "tmin_d5": 4.0, "tmin_d6": 3.8, "day_of_year": 266, "uuid": "e995f000-77ba-4cec-9a11-4e8b3f42ae97", "inat_id": 316119153}}]}