{"type": "FeatureCollection", "features": [{"type": "Feature", "geometry": {"type": "Point", "coordinates": [-105.439475, 36.57548]}, "properties": {"species": "Hypholoma capnoides", "date": "2016-08-26", "location": "Carson National Forest, Valdez, NM, US", "elevation": 3128.0, "land_cover_label": "Tree cover", "water_mask": false, "exclude_reason": "keep", "ndvi": null, "soil_moisture": null, "solar_exposure": null, "wind_exposure": null, "water_retention": null, "slope": null, "aspect": null, "num_identification_agreements": 2, "cluster": 0, "tavg": null, "tmin": null, "tmax": null, "prcp_d0": 0.0, "prcp_d1": 0.0, "prcp_d2": 0.0, "prcp_d3": 0.0, "prcp_d4": 6.376074314117432, "prcp_d5": 6.376074314117432, "prcp_d6": 0.0, "tmax_d0": 14.3, "tmax_d1": 15.4, "tmax_d2": 14.9, "tmax_d3": 16.7, "tmax_d4": 16.1, "tmax_d5": 16.9, "tmax_d6": 16.6, "tmin_d0": 3.6, "tmin_d1": 3.1, "tmin_d2": 5.8, "tmin_d3": 4.8, "tmin_d4": 4.9, "tmin_d5": 5.7, "tmin_d6": 5.8, "day_of_year": 239, "uuid": "1c344bbe-a595-4e0d-8b25-341cda935894", "inat_id": 3977901}}, {"type": "Feature", "geometry": {"type": "Point", "coordinates": [-122.0374, 45.3838222222]}, "properties": {"species": "Hypholoma capnoides", "date": "2019-10-04", "location": "Clackamas County, OR, USA", "elevation": 355.0, "land_cover_label": "Tree cover", "water_mask": false, "exclude_reason": "keep", "ndvi": null, "soil_moisture": null, "solar_exposure": null, "wind_exposure": null, "water_retention": null, "slope": null, "aspect": null, "num_identification_agreements": 3, "cluster": 0, "tavg": null, "tmin": 9.4, "tmax": 17.2, "prcp_d0": 0.0, "prcp_d1": 0.0, "prcp_d2": 0.0, "prcp_d3": 0.0, "prcp_d4": 0.0, "prcp_d5": 0.0, "prcp_d6": 0.0, "tmax_d0": 12.1, "tmax_d1": 13.4, "tmax_d2": 16.0, "tmax_d3": 15.1, "tmax_d4": 12.6, "tmax_d5": 9.3, "tmax_d6": 10.9, "tmin_d0": 6.4, "tmin_d1": 8.8, "tmin_d2": 2.9, "tmin_d3": 1.0, "tmin_d4": 4.3, "tmin_d5": 4.2, "tmin_d6": 5.9, "day_of_year": 277, "uuid": "24be6d16-a5c3-49b9-b666-55b531862390", "inat_id": 34220681}}, {"type": "Feature", "geometry": {"type": "Point", "coordinates": [-122.2108908837, 44.8479179526]}, "properties": {"species": "Hypholoma capnoides", "date": "2019-10-12", "location": "Marion County, US-OR, US", "elevation": 638.0, "land_cover_label": "Tree cover", "water_mask": false, "exclude_reason": "keep", "ndvi": null, "soil_moisture": null, "solar_exposure": null, "wind_exposure": null, "water_retention": null, "slope": null, "aspect": null, "num_identification_agreements": 1, "cluster": 0, "tavg": null, "tmin": null, "tmax": null, "prcp_d0": 0.0, "prcp_d1": 0.0, "prcp_d2": 0.0, "prcp_d3": 0.0, "prcp_d4": 0.0, "prcp_d5": 0.0, "prcp_d6": 0.0, "tmax_d0": 17.1, "tmax_d1": 17.9, "tmax_d2": 13.9, "tmax_d3": 9.9, "tmax_d4": 15.3, "tmax_d5": 18.2, "tmax_d6": 19.7, "tmin_d0": 2.0, "tmin_d1": 0.4, "tmin_d2": -0.3, "tmin_d3": 2.2, "tmin_d4": 6.2, "tmin_d5": 5.6, "tmin_d6": 2.9, "day_of_year": 285, "uuid": "71dbbe2d-9ff4-4987-b355-95aa6a43184d", "inat_id": 34335081}}, {"type": "Feature", "geometry": {"type": "Point", "coordinates": [-121.9437776507, 44.6397297923]}, "properties": {"species": "Hypholoma capnoides", "date": "2019-11-13", "location": "Linn County, US-OR, US", "elevation": 747.0, "land_cover_label": "Tree cover", "water_mask": false, "exclude_reason": "keep", "ndvi": null, "soil_moisture": null, "solar_exposure": null, "wind_exposure": null, "water_retention": null, "slope": null, "aspect": null, "num_identification_agreements": 1, "cluster": 0, "tavg": null, "tmin": null, "tmax": null, "prcp_d0": 0.506733238697052, "prcp_d1": 0.6762725710868835, "prcp_d2": 0.6907327175140381, "prcp_d3": 10.077322006225586, "prcp_d4": 0.0, "prcp_d5": 0.0, "prcp_d6": 0.0, "tmax_d0": 17.7, "tmax_d1": 13.4, "tmax_d2": 16.8, "tmax_d3": 15.4, "tmax_d4": 17.0, "tmax_d5": 20.3, "tmax_d6": 18.2, "tmin_d0": 0.6, "tmin_d1": 4.8, "tmin_d2": 4.2, "tmin_d3": 8.6, "tmin_d4": 6.6, "tmin_d5": 4.3, "tmin_d6": 2.5, "day_of_year": 317, "uuid": "6f086f4d-3584-4d8d-9acb-a3913fda9bfe", "inat_id": 35662724}}, {"type": "Feature", "geometry": {"type": "Point", "coordinates": [-121.9640586365, 45.480430323]}, "properties": {"species": "Hypholoma capnoides", "date": "2020-10-03", "location": "Oregon, US", "elevation": 1111.0, "land_cover_label": "Tree cover", "water_mask": false, "exclude_reason": "keep", "ndvi": null, "soil_moisture": null, "solar_exposure": null, "wind_exposure": null, "water_retention": null, "slope": null, "aspect": null, "num_identification_agreements": 1, "cluster": 0, "tavg": null, "tmin": 12.8, "tmax": 25.0, "prcp_d0": 0.0, "prcp_d1": 0.0, "prcp_d2": 0.0, "prcp_d3": 0.0, "prcp_d4": 0.0, "prcp_d5": 0.0, "prcp_d6": 0.0, "tmax_d0": 20.9, "tmax_d1": 22.7, "tmax_d2": 24.6, "tmax_d3": 22.7, "tmax_d4": 22.4, "tmax_d5": 18.7, "tmax_d6": 16.0, "tmin_d0": 9.1, "tmin_d1": 11.4, "tmin_d2": 9.6, "tmin_d3": 10.7, "tmin_d4": 7.8, "tmin_d5": 8.3, "tmin_d6": 5.4, "day_of_year": 277, "uuid": "e881c608-00c4-49ac-98e6-10ad43c749f5", "inat_id": 61751589}}, {"type": "Feature", "geometry": {"type": "Point", "coordinates": [-121.9271127043, 45.2565380722]}, "properties": {"species": "Hypholoma capnoides", "date": "2020-10-22", "location": "Oregon, US", "elevation": 786.0, "land_cover_label": "Tree cover", "water_mask": false, "exclude_reason": "keep", "ndvi": null, "soil_moisture": null, "solar_exposure": null, "wind_exposure": null, "water_retention": null, "slope": null, "aspect": null, "num_identification_agreements": 2, "cluster": 0, "tavg": null, "tmin": 2.8, "tmax": 15.0, "prcp_d0": 0.0, "prcp_d1": 0.0, "prcp_d2": 0.0, "prcp_d3": 0.0, "prcp_d4": 0.0, "prcp_d5": 0.0, "prcp_d6": 0.0, "tmax_d0": 9.8, "tmax_d1": 9.6, "tmax_d2": 10.5, "tmax_d3": 12.0, "tmax_d4": 12.0, "tmax_d5": 13.2, "tmax_d6": 15.4, "tmin_d0": -2.7, "tmin_d1": 4.4, "tmin_d2": 5.1, "tmin_d3": 8.9, "tmin_d4": 7.6, "tmin_d5": 10.2, "tmin_d6": 7.0, "day_of_year": 296, "uuid": "a8c9e4ad-2bc0-497c-ade8-0b0dd593f828", "inat_id": 63293597}}, {"type": "Feature", "geometry": {"type": "Point", "coordinates": [-122.2652283333, 45.4819416667]}, "properties": {"species": "Hypholoma capnoides", "date": "2020-11-22", "location": "SE Trout Creek Rd, Corbett, OR, US", "elevation": 224.0, "land_cover_label": "Tree cover", "water_mask": false, "exclude_reason": "keep", "ndvi": null, "soil_moisture": null, "solar_exposure": null, "wind_exposure": null, "water_retention": null, "slope": null, "aspect": null, "num_identification_agreements": 1, "cluster": 2, "tavg": null, "tmin": 5.6, "tmax": 8.9, "prcp_d0": 0.0, "prcp_d1": 0.0, "prcp_d2": 0.0, "prcp_d3": 11.77902889251709, "prcp_d4": 11.77902889251709, "prcp_d5": 35.33708572387695, "prcp_d6": 0.0, "tmax_d0": 8.2, "tmax_d1": 13.4, "tmax_d2": 10.6, "tmax_d3": 9.0, "tmax_d4": 11.2, "tmax_d5": 14.5, "tmax_d6": 14.6, "tmin_d0": 1.6, "tmin_d1": -1.3, "tmin_d2": 0.4, "tmin_d3": 5.2, "tmin_d4": 6.4, "tmin_d5": 9.5, "tmin_d6": 7.1, "day_of_year": 327, "uuid": "2c7d4713-b45f-48c1-85f9-3c983e1b92d3", "inat_id": 65432322}}, {"type": "Feature", "geometry": {"type": "Point", "coordinates": [-122.2921998895, 45.3503926326]}, "properties": {"species": "Hypholoma capnoides", "date": "2020-12-04", "location": "SE Iron Rd, Eagle Creek, OR, US", "elevation": 273.0, "land_cover_label": "Tree cover", "water_mask": false, "exclude_reason": "keep", "ndvi": null, "soil_moisture": null, "solar_exposure": null, "wind_exposure": null, "water_retention": null, "slope": null, "aspect": null, "num_identification_agreements": 1, "cluster": 0, "tavg": null, "tmin": 3.9, "tmax": 9.4, "prcp_d0": 0.0, "prcp_d1": 0.0, "prcp_d2": 0.0, "prcp_d3": 0.0, "prcp_d4": 0.0, "prcp_d5": 0.0, "prcp_d6": 0.0, "tmax_d0": 15.0, "tmax_d1": 10.5, "tmax_d2": 12.0, "tmax_d3": 10.9, "tmax_d4": 8.3, "tmax_d5": 12.6, "tmax_d6": 7.1, "tmin_d0": -0.3, "tmin_d1": 4.9, "tmin_d2": 5.2, "tmin_d3": 0.7, "tmin_d4": 2.5, "tmin_d5": 3.6, "tmin_d6": 0.3, "day_of_year": 339, "uuid": "021b6004-b62f-47b4-8bc5-d6cbeb7d0443", "inat_id": 66162621}}, {"type": "Feature", "geometry": {"type": "Point", "coordinates": [-107.2867811099, 40.6003173298]}, "properties": {"species": "Hypholoma capnoides", "date": "2021-08-06", "location": "Hayden, CO 81639, USA", "elevation": 1981.0, "land_cover_label": "Grassland", "water_mask": false, "exclude_reason": "keep", "ndvi": null, "soil_moisture": null, "solar_exposure": null, "wind_exposure": null, "water_retention": null, "slope": null, "aspect": null, "num_identification_agreements": 1, "cluster": 0, "tavg": null, "tmin": 13.9, "tmax": 30.6, "prcp_d0": 0.0, "prcp_d1": 0.0, "prcp_d2": 0.0, "prcp_d3": 0.0, "prcp_d4": 0.0, "prcp_d5": 8.647064208984375, "prcp_d6": 2.934203147888184, "tmax_d0": 28.9, "tmax_d1": 29.7, "tmax_d2": 27.2, "tmax_d3": 23.6, "tmax_d4": 26.3, "tmax_d5": 27.6, "tmax_d6": 26.7, "tmin_d0": 15.0, "tmin_d1": 12.7, "tmin_d2": 9.7, "tmin_d3": 13.2, "tmin_d4": 14.7, "tmin_d5": 15.2, "tmin_d6": 14.3, "day_of_year": 218, "uuid": "d7778274-a6c7-4699-843f-b80be5a9ebad", "inat_id": 136880898}}, {"type": "Feature", "geometry": {"type": "Point", "coordinates": [-122.1233333333, 45.5327777778]}, "properties": {"species": "Hypholoma capnoides", "date": "2021-11-08", "location": "Corbett, OR 97019, USA", "elevation": 734.0, "land_cover_label": "Tree cover", "water_mask": false, "exclude_reason": "keep", "ndvi": null, "soil_moisture": null, "solar_exposure": null, "wind_exposure": null, "water_retention": null, "slope": null, "aspect": null, "num_identification_agreements": 1, "cluster": 0, "tavg": null, "tmin": 4.4, "tmax": 12.2, "prcp_d0": 0.0, "prcp_d1": 0.0, "prcp_d2": 0.0, "prcp_d3": 0.0, "prcp_d4": 22.6761417388916, "prcp_d5": 0.0, "prcp_d6": 11.3380708694458, "tmax_d0": 6.5, "tmax_d1": 4.3, "tmax_d2": 5.9, "tmax_d3": 7.4, "tmax_d4": 9.0, "tmax_d5": 13.0, "tmax_d6": 8.2, "tmin_d0": -1.6, "tmin_d1": 0.3, "tmin_d2": -0.0, "tmin_d3": 4.4, "tmin_d4": 5.3, "tmin_d5": 4.3, "tmin_d6": 1.5, "day_of_year": 312, "uuid": "2ae7ad5d-c063-43a6-9fb5-e5fb749137f1", "inat_id": 100659743}}, {"type": "Feature", "geometry": {"type": "Point", "coordinates": [-121.87258, 45.6606333333]}, "properties": {"species": "Hypholoma capnoides", "date": "2022-04-10", "location": "Columbia River Gorge National Scenic Area - Headquarters, Cascade Locks, OR, US", "elevation": 218.0, "land_cover_label": "Tree cover", "water_mask": false, "exclude_reason": "keep", "ndvi": null, "soil_moisture": null, "solar_exposure": null, "wind_exposure": null, "water_retention": null, "slope": null, "aspect": null, "num_identification_agreements": 1, "cluster": 0, "tavg": null, "tmin": 3.9, "tmax": 8.3, "prcp_d0": 0.0, "prcp_d1": 0.0, "prcp_d2": 0.0, "prcp_d3": 0.0, "prcp_d4": 0.0, "prcp_d5": 0.0, "prcp_d6": 0.0, "tmax_d0": 6.4, "tmax_d1": 7.9, "tmax_d2": 16.9, "tmax_d3": 16.6, "tmax_d4": 13.0, "tmax_d5": 8.7, "tmax_d6": 10.1, "tmin_d0": 2.1, "tmin_d1": 2.8, "tmin_d2": 7.6, "tmin_d3": 4.6, "tmin_d4": 0.2, "tmin_d5": 1.6, "tmin_d6": 5.5, "day_of_year": 100, "uuid": "bc8e9557-5a3c-456d-9405-6a994f72f44c", "inat_id": 112014108}}, {"type": "Feature", "geometry": {"type": "Point", "coordinates": [-107.8384383333, 37.94343]}, "properties": {"species": "Hypholoma capnoides", "date": "2022-08-17", "location": "Grand Mesa Uncompahgre and Gunnison National Forests, Telluride, CO, US", "elevation": 2659.0, "land_cover_label": "Grassland", "water_mask": false, "exclude_reason": "keep", "ndvi": null, "soil_moisture": null, "solar_exposure": null, "wind_exposure": null, "water_retention": null, "slope": null, "aspect": null, "num_identification_agreements": 3, "cluster": 2, "tavg": null, "tmin": 11.0, "tmax": 18.0, "prcp_d0": 0.0, "prcp_d1": 0.0, "prcp_d2": 0.0, "prcp_d3": 0.0, "prcp_d4": 0.0, "prcp_d5": 18.12041664123535, "prcp_d6": 18.12041664123535, "tmax_d0": 19.4, "tmax_d1": 20.1, "tmax_d2": 21.7, "tmax_d3": 23.1, "tmax_d4": 22.1, "tmax_d5": 22.0, "tmax_d6": 21.9, "tmin_d0": 6.3, "tmin_d1": 8.0, "tmin_d2": 8.1, "tmin_d3": 7.3, "tmin_d4": 8.3, "tmin_d5": 7.8, "tmin_d6": 8.4, "day_of_year": 229, "uuid": "71b80ff3-b8f4-4f30-b587-d90e5ad06d15", "inat_id": 131222634}}, {"type": "Feature", "geometry": {"type": "Point", "coordinates": [-122.5848138927, 45.2246036022]}, "properties": {"species": "Hypholoma capnoides", "date": "2022-12-30", "location": "Oregon, US", "elevation": 71.0, "land_cover_label": "Grassland", "water_mask": false, "exclude_reason": "keep", "ndvi": null, "soil_moisture": null, "solar_exposure": null, "wind_exposure": null, "water_retention": null, "slope": null, "aspect": null, "num_identification_agreements": 2, "cluster": 2, "tavg": null, "tmin": 7.2, "tmax": 12.2, "prcp_d0": 0.0, "prcp_d1": 13.3844633102417, "prcp_d2": 6.69223165512085, "prcp_d3": 20.07669448852539, "prcp_d4": 33.461158752441406, "prcp_d5": 0.0, "prcp_d6": 33.041996002197266, "tmax_d0": 10.4, "tmax_d1": 9.2, "tmax_d2": 7.8, "tmax_d3": 12.4, "tmax_d4": 13.9, "tmax_d5": 12.8, "tmax_d6": 8.4, "tmin_d0": 7.5, "tmin_d1": 4.7, "tmin_d2": 4.6, "tmin_d3": 6.6, "tmin_d4": 7.2, "tmin_d5": 6.3, "tmin_d6": -0.8, "day_of_year": 364, "uuid": "a5034e54-6425-4842-98a3-948bfd34d436", "inat_id": 145459242}}, {"type": "Feature", "geometry": {"type": "Point", "coordinates": [-107.8531131009, 37.8827343342]}, "properties": {"species": "Hypholoma capnoides", "date": "2023-08-16", "location": "San Miguel County, US-CO, US", "elevation": 3367.0, "land_cover_label": "Tree cover", "water_mask": false, "exclude_reason": "keep", "ndvi": null, "soil_moisture": null, "solar_exposure": null, "wind_exposure": null, "water_retention": null, "slope": null, "aspect": null, "num_identification_agreements": 3, "cluster": 0, "tavg": null, "tmin": 12.0, "tmax": 26.0, "prcp_d0": 0.0, "prcp_d1": 0.0, "prcp_d2": 23.71377944946289, "prcp_d3": 0.0, "prcp_d4": 0.0, "prcp_d5": 0.0, "prcp_d6": 0.0, "tmax_d0": 18.2, "tmax_d1": 16.3, "tmax_d2": 15.5, "tmax_d3": 15.8, "tmax_d4": 14.9, "tmax_d5": 15.8, "tmax_d6": 16.0, "tmin_d0": 3.8, "tmin_d1": 3.1, "tmin_d2": 4.8, "tmin_d3": 3.9, "tmin_d4": 5.6, "tmin_d5": 3.3, "tmin_d6": 2.3, "day_of_year": 228, "uuid": "be39c9b1-eab9-499c-b357-b02733807c65", "inat_id": 178916211}}, {"type": "Feature", "geometry": {"type": "Point", "coordinates": [-107.9553688366, 37.8863276305]}, "properties": {"species": "Hypholoma capnoides", "date": "2023-08-16", "location": "Colorado, US", "elevation": 3067.0, "land_cover_label": "Tree cover", "water_mask": false, "exclude_reason": "keep", "ndvi": null, "soil_moisture": null, "solar_exposure": null, "wind_exposure": null, "water_retention": null, "slope": null, "aspect": null, "num_identification_agreements": 1, "cluster": 0, "tavg": null, "tmin": 12.0, "tmax": 26.0, "prcp_d0": 0.0, "prcp_d1": 7.140628337860107, "prcp_d2": 7.140628337860107, "prcp_d3": 0.0, "prcp_d4": 0.0, "prcp_d5": 0.0, "prcp_d6": 0.0, "tmax_d0": 20.7, "tmax_d1": 19.1, "tmax_d2": 18.9, "tmax_d3": 19.4, "tmax_d4": 17.8, "tmax_d5": 18.8, "tmax_d6": 19.4, "tmin_d0": 5.6, "tmin_d1": 5.6, "tmin_d2": 6.1, "tmin_d3": 4.0, "tmin_d4": 7.6, "tmin_d5": 5.4, "tmin_d6": 5.4, "day_of_year": 228, "uuid": "02a9131b-8cc1-4cee-942f-d391e251d239", "inat_id": 178801542}}, {"type": "Feature", "geometry": {"type": "Point", "coordinates": [-107.8513716667, 37.885855]}, "properties": {"species": "Hypholoma capnoides", "date": "2023-08-19", "location": "Grand Mesa Uncompahgre and Gunnison National Forests, Telluride, CO, US", "elevation": 3377.0, "land_cover_label": "Tree cover", "water_mask": false, "exclude_reason": "keep", "ndvi": null, "soil_moisture": null, "solar_exposure": null, "wind_exposure": null, "water_retention": null, "slope": null, "aspect": null, "num_identification_agreements": 1, "cluster": 0, "tavg": null, "tmin": 12.0, "tmax": 26.0, "prcp_d0": 0.0, "prcp_d1": 0.0, "prcp_d2": 0.0, "prcp_d3": 0.0, "prcp_d4": 0.0, "prcp_d5": 23.71377944946289, "prcp_d6": 0.0, "tmax_d0": 18.0, "tmax_d1": 17.0, "tmax_d2": 18.8, "tmax_d3": 18.2, "tmax_d4": 16.3, "tmax_d5": 15.5, "tmax_d6": 15.8, "tmin_d0": 3.0, "tmin_d1": 4.0, "tmin_d2": 2.8, "tmin_d3": 3.8, "tmin_d4": 3.1, "tmin_d5": 4.8, "tmin_d6": 3.9, "day_of_year": 231, "uuid": "ecd89967-bd77-4354-a257-98c6e27faa9a", "inat_id": 179220921}}, {"type": "Feature", "geometry": {"type": "Point", "coordinates": [-105.8295156524, 39.4142194639]}, "properties": {"species": "Hypholoma capnoides", "date": "2023-08-29", "location": "Colorado, US", "elevation": 3022.0, "land_cover_label": "Tree cover", "water_mask": false, "exclude_reason": "keep", "ndvi": null, "soil_moisture": 0.3489974788620238, "solar_exposure": 0.8612528443336487, "wind_exposure": 0.3357719779014587, "water_retention": 0.2403206378221511, "slope": 3.5760014057159424, "aspect": 127.44369506835938, "num_identification_agreements": 2, "cluster": 0, "tavg": null, "tmin": 0.8, "tmax": 13.6, "prcp_d0": 0.0, "prcp_d1": 0.0, "prcp_d2": 0.0, "prcp_d3": 0.0, "prcp_d4": 0.0, "prcp_d5": 0.0, "prcp_d6": 0.0, "tmax_d0": 18.0, "tmax_d1": 17.5, "tmax_d2": 19.4, "tmax_d3": 15.9, "tmax_d4": 16.6, "tmax_d5": 20.1, "tmax_d6": 20.8, "tmin_d0": 1.2, "tmin_d1": 2.7, "tmin_d2": 3.8, "tmin_d3": 7.3, "tmin_d4": 5.4, "tmin_d5": 4.7, "tmin_d6": 3.1, "day_of_year": 241, "uuid": "a98dc806-ff31-4e69-97cd-d9d6f0d4ab6b", "inat_id": 180876028}}, {"type": "Feature", "geometry": {"type": "Point", "coordinates": [-106.1985116364, 39.6490787404]}, "properties": {"species": "Hypholoma capnoides", "date": "2023-09-02", "location": "Summit County, US-CO, US", "elevation": 3604.0, "land_cover_label": "Moss and lichen", "water_mask": false, "exclude_reason": "keep", "ndvi": null, "soil_moisture": null, "solar_exposure": null, "wind_exposure": null, "water_retention": null, "slope": null, "aspect": null, "num_identification_agreements": 2, "cluster": 0, "tavg": null, "tmin": 12.0, "tmax": 20.0, "prcp_d0": 0.0, "prcp_d1": 0.0, "prcp_d2": 0.0, "prcp_d3": 0.0, "prcp_d4": 0.0, "prcp_d5": 0.0, "prcp_d6": 0.0, "tmax_d0": 17.1, "tmax_d1": 17.5, "tmax_d2": 16.9, "tmax_d3": 16.7, "tmax_d4": 16.2, "tmax_d5": 14.6, "tmax_d6": 15.2, "tmin_d0": 2.3, "tmin_d1": 0.5, "tmin_d2": -1.0, "tmin_d3": -0.2, "tmin_d4": -0.9, "tmin_d5": 0.6, "tmin_d6": 2.1, "day_of_year": 245, "uuid": "00b3d6d4-39e1-402e-adec-97241ad7692a", "inat_id": 182344077}}, {"type": "Feature", "geometry": {"type": "Point", "coordinates": [-121.9403156733, 45.2876908467]}, "properties": {"species": "Hypholoma capnoides", "date": "2023-11-13", "location": "Old Salmon River Trail, Clackamas Cty, OR, USA", "elevation": 489.0, "land_cover_label": "Tree cover", "water_mask": false, "exclude_reason": "keep", "ndvi": null, "soil_moisture": null, "solar_exposure": null, "wind_exposure": null, "water_retention": null, "slope": null, "aspect": null, "num_identification_agreements": 1, "cluster": 1, "tavg": null, "tmin": 5.6, "tmax": 13.9, "prcp_d0": 0.0, "prcp_d1": 0.0, "prcp_d2": 29.368881225585938, "prcp_d3": 0.0, "prcp_d4": 0.0, "prcp_d5": 0.0, "prcp_d6": 32.48865509033203, "tmax_d0": 12.2, "tmax_d1": 13.6, "tmax_d2": 8.9, "tmax_d3": 10.1, "tmax_d4": 13.5, "tmax_d5": 10.7, "tmax_d6": 7.9, "tmin_d0": 6.6, "tmin_d1": 5.9, "tmin_d2": 5.5, "tmin_d3": 4.6, "tmin_d4": 3.1, "tmin_d5": 2.3, "tmin_d6": 5.8, "day_of_year": 317, "uuid": "b6986644-61c3-42a2-883b-8ecf658c596c", "inat_id": 194632522}}, {"type": "Feature", "geometry": {"type": "Point", "coordinates": [-122.0813916667, 45.6373027778]}, "properties": {"species": "Hypholoma capnoides", "date": "2023-11-23", "location": "Archer Mountain area, Skamania County, Washington, USA", "elevation": 308.0, "land_cover_label": "Tree cover", "water_mask": false, "exclude_reason": "keep", "ndvi": null, "soil_moisture": null, "solar_exposure": null, "wind_exposure": null, "water_retention": null, "slope": null, "aspect": null, "num_identification_agreements": 1, "cluster": 0, "tavg": null, "tmin": 1.7, "tmax": 13.3, "prcp_d0": 0.0, "prcp_d1": 0.0, "prcp_d2": 21.54094314575196, "prcp_d3": 0.0, "prcp_d4": 0.0, "prcp_d5": 0.0, "prcp_d6": 0.0, "tmax_d0": 8.8, "tmax_d1": 9.5, "tmax_d2": 10.7, "tmax_d3": 8.3, "tmax_d4": 6.3, "tmax_d5": 5.8, "tmax_d6": 7.0, "tmin_d0": 0.7, "tmin_d1": 6.1, "tmin_d2": 1.3, "tmin_d3": -0.1, "tmin_d4": 2.9, "tmin_d5": 1.6, "tmin_d6": 2.0, "day_of_year": 327, "uuid": "e3c13585-165e-4ef9-a861-e2d03cb689f4", "inat_id": 198974141}}, {"type": "Feature", "geometry": {"type": "Point", "coordinates": [-121.9540033333, 45.6277783333]}, "properties": {"species": "Hypholoma capnoides", "date": "2023-11-26", "location": "Columbia River Gorge National Scenic Area, Cascade Locks, OR, US", "elevation": 112.0, "land_cover_label": "Tree cover", "water_mask": false, "exclude_reason": "keep", "ndvi": null, "soil_moisture": null, "solar_exposure": null, "wind_exposure": null, "water_retention": null, "slope": null, "aspect": null, "num_identification_agreements": 1, "cluster": 0, "tavg": null, "tmin": -1.8, "tmax": 4.0, "prcp_d0": 0.0, "prcp_d1": 0.0, "prcp_d2": 0.0, "prcp_d3": 0.0, "prcp_d4": 0.0, "prcp_d5": 24.77068519592285, "prcp_d6": 0.0, "tmax_d0": 6.4, "tmax_d1": 8.2, "tmax_d2": 9.7, "tmax_d3": 10.6, "tmax_d4": 11.4, "tmax_d5": 9.3, "tmax_d6": 10.8, "tmin_d0": 0.2, "tmin_d1": -0.9, "tmin_d2": -0.2, "tmin_d3": 4.4, "tmin_d4": 6.0, "tmin_d5": 4.4, "tmin_d6": 2.8, "day_of_year": 330, "uuid": "588cf8e4-f824-48d0-adab-b503a74c7ded", "inat_id": 192261977}}, {"type": "Feature", "geometry": {"type": "Point", "coordinates": [-122.2255859799, 45.3065560426]}, "properties": {"species": "Hypholoma capnoides", "date": "2024-02-22", "location": "Clackamas County, OR, USA", "elevation": 370.0, "land_cover_label": "Tree cover", "water_mask": false, "exclude_reason": "keep", "ndvi": null, "soil_moisture": null, "solar_exposure": null, "wind_exposure": null, "water_retention": null, "slope": null, "aspect": null, "num_identification_agreements": 1, "cluster": 1, "tavg": null, "tmin": 7.2, "tmax": 15.0, "prcp_d0": 0.0, "prcp_d1": 56.978736877441406, "prcp_d2": 0.0, "prcp_d3": 58.26405334472656, "prcp_d4": 0.0, "prcp_d5": 14.56601333618164, "prcp_d6": 0.0, "tmax_d0": 12.6, "tmax_d1": 12.0, "tmax_d2": 14.7, "tmax_d3": 13.3, "tmax_d4": 12.4, "tmax_d5": 6.6, "tmax_d6": 5.5, "tmin_d0": 3.5, "tmin_d1": 5.2, "tmin_d2": 3.6, "tmin_d3": 6.1, "tmin_d4": 1.7, "tmin_d5": 1.6, "tmin_d6": 0.7, "day_of_year": 53, "uuid": "87486154-7eeb-4ec5-b469-221d491dffc4", "inat_id": 208845018}}, {"type": "Feature", "geometry": {"type": "Point", "coordinates": [-107.7766583333, 37.8074833333]}, "properties": {"species": "Hypholoma capnoides", "date": "2024-08-11", "location": "San Juan National Forest - Headquarters, Silverton, CO, US", "elevation": 3025.0, "land_cover_label": "Tree cover", "water_mask": false, "exclude_reason": "keep", "ndvi": null, "soil_moisture": null, "solar_exposure": null, "wind_exposure": null, "water_retention": null, "slope": null, "aspect": null, "num_identification_agreements": 1, "cluster": 2, "tavg": null, "tmin": 12.0, "tmax": 22.0, "prcp_d0": 0.0, "prcp_d1": 0.0, "prcp_d2": 0.0, "prcp_d3": 22.96158790588379, "prcp_d4": 0.0, "prcp_d5": 45.92317581176758, "prcp_d6": 11.16364288330078, "tmax_d0": 19.7, "tmax_d1": 18.7, "tmax_d2": 17.6, "tmax_d3": 22.2, "tmax_d4": 20.6, "tmax_d5": 20.8, "tmax_d6": 21.9, "tmin_d0": 7.0, "tmin_d1": 6.3, "tmin_d2": 9.1, "tmin_d3": 5.5, "tmin_d4": 6.7, "tmin_d5": 8.6, "tmin_d6": 6.4, "day_of_year": 224, "uuid": "65c0ce24-1679-48cb-b8fd-1e57f5d50a18", "inat_id": 235409179}}, {"type": "Feature", "geometry": {"type": "Point", "coordinates": [-106.72181072, 37.47114109]}, "properties": {"species": "Hypholoma capnoides", "date": "2024-08-12", "location": "Mineral County, US-CO, US", "elevation": 3110.0, "land_cover_label": "Tree cover", "water_mask": false, "exclude_reason": "keep", "ndvi": null, "soil_moisture": null, "solar_exposure": null, "wind_exposure": null, "water_retention": null, "slope": null, "aspect": null, "num_identification_agreements": 3, "cluster": 2, "tavg": null, "tmin": 5.0, "tmax": 13.0, "prcp_d0": 0.0, "prcp_d1": 44.0706672668457, "prcp_d2": 0.0, "prcp_d3": 0.0, "prcp_d4": 0.0, "prcp_d5": 13.9573335647583, "prcp_d6": 41.87199783325195, "tmax_d0": 17.4, "tmax_d1": 17.1, "tmax_d2": 15.8, "tmax_d3": 16.0, "tmax_d4": 20.2, "tmax_d5": 20.7, "tmax_d6": 18.0, "tmin_d0": 6.6, "tmin_d1": 6.0, "tmin_d2": 6.1, "tmin_d3": 7.8, "tmin_d4": 6.4, "tmin_d5": 7.9, "tmin_d6": 6.8, "day_of_year": 225, "uuid": "784d7e8e-fd8a-4344-a65f-bc51775eee14", "inat_id": 235426677}}, {"type": "Feature", "geometry": {"type": "Point", "coordinates": [-106.0721138333, 39.4218966667]}, "properties": {"species": "Hypholoma capnoides", "date": "2024-08-13", "location": "White River National Forest, Breckenridge, CO, US", "elevation": 3373.0, "land_cover_label": "Tree cover", "water_mask": false, "exclude_reason": "keep", "ndvi": null, "soil_moisture": null, "solar_exposure": null, "wind_exposure": null, "water_retention": null, "slope": null, "aspect": null, "num_identification_agreements": 1, "cluster": 0, "tavg": null, "tmin": 8.3, "tmax": 18.3, "prcp_d0": 0.0, "prcp_d1": 0.0, "prcp_d2": 0.0, "prcp_d3": 0.0, "prcp_d4": 0.0, "prcp_d5": 0.0, "prcp_d6": 0.0, "tmax_d0": 15.3, "tmax_d1": 16.9, "tmax_d2": 16.1, "tmax_d3": 16.3, "tmax_d4": 16.9, "tmax_d5": 19.1, "tmax_d6": 19.9, "tmin_d0": 4.9, "tmin_d1": 5.0, "tmin_d2": 3.2, "tmin_d3": 3.6, "tmin_d4": 7.1, "tmin_d5": 5.1, "tmin_d6": 5.5, "day_of_year": 226, "uuid": "4f3d491b-df0c-40d2-9fd5-35c544f9bf9b", "inat_id": 235912639}}, {"type": "Feature", "geometry": {"type": "Point", "coordinates": [-107.8542644474, 37.887684094]}, "properties": {"species": "Hypholoma capnoides", "date": "2024-08-13", "location": "San Miguel County, US-CO, US", "elevation": 3327.0, "land_cover_label": "Tree cover", "water_mask": false, "exclude_reason": "keep", "ndvi": null, "soil_moisture": null, "solar_exposure": null, "wind_exposure": null, "water_retention": null, "slope": null, "aspect": null, "num_identification_agreements": 1, "cluster": 0, "tavg": null, "tmin": 10.0, "tmax": 18.0, "prcp_d0": 43.863800048828125, "prcp_d1": 0.0, "prcp_d2": 0.0, "prcp_d3": 0.0, "prcp_d4": 0.0, "prcp_d5": 9.916695594787598, "prcp_d6": 0.0, "tmax_d0": 14.2, "tmax_d1": 16.4, "tmax_d2": 17.2, "tmax_d3": 16.2, "tmax_d4": 16.9, "tmax_d5": 20.4, "tmax_d6": 18.1, "tmin_d0": 4.7, "tmin_d1": 4.7, "tmin_d2": 5.1, "tmin_d3": 5.3, "tmin_d4": 7.5, "tmin_d5": 6.4, "tmin_d6": 7.2, "day_of_year": 226, "uuid": "3e6a2cef-d7f0-4700-9fa8-ca816ea5b4c7", "inat_id": 237371765}}, {"type": "Feature", "geometry": {"type": "Point", "coordinates": [-107.83365, 37.9241666667]}, "properties": {"species": "Hypholoma capnoides", "date": "2024-08-15", "location": "Telluride Ski Resort, Telluride, CO, US", "elevation": 3225.0, "land_cover_label": "Tree cover", "water_mask": false, "exclude_reason": "keep", "ndvi": null, "soil_moisture": null, "solar_exposure": null, "wind_exposure": null, "water_retention": null, "slope": null, "aspect": null, "num_identification_agreements": 1, "cluster": 0, "tavg": null, "tmin": 9.0, "tmax": 23.0, "prcp_d0": 0.0, "prcp_d1": 0.0, "prcp_d2": 0.0, "prcp_d3": 35.675926208496094, "prcp_d4": 0.0, "prcp_d5": 0.0, "prcp_d6": 0.0, "tmax_d0": 18.3, "tmax_d1": 15.9, "tmax_d2": 14.6, "tmax_d3": 16.8, "tmax_d4": 17.6, "tmax_d5": 16.5, "tmax_d6": 17.2, "tmin_d0": 3.9, "tmin_d1": 3.5, "tmin_d2": 5.0, "tmin_d3": 5.1, "tmin_d4": 5.4, "tmin_d5": 5.7, "tmin_d6": 7.8, "day_of_year": 228, "uuid": "04ca46a7-b6d3-4bdd-98d6-700a42522c2e", "inat_id": 236839144}}, {"type": "Feature", "geometry": {"type": "Point", "coordinates": [-107.8337472222, 37.9238138889]}, "properties": {"species": "Hypholoma capnoides", "date": "2024-08-16", "location": "Mountain Village, CO 81435, USA", "elevation": 3225.0, "land_cover_label": "Tree cover", "water_mask": false, "exclude_reason": "keep", "ndvi": null, "soil_moisture": null, "solar_exposure": null, "wind_exposure": null, "water_retention": null, "slope": null, "aspect": null, "num_identification_agreements": 1, "cluster": 0, "tavg": null, "tmin": 12.0, "tmax": 25.0, "prcp_d0": 0.0, "prcp_d1": 0.0, "prcp_d2": 0.0, "prcp_d3": 0.0, "prcp_d4": 35.675926208496094, "prcp_d5": 0.0, "prcp_d6": 0.0, "tmax_d0": 19.7, "tmax_d1": 18.3, "tmax_d2": 15.9, "tmax_d3": 14.6, "tmax_d4": 16.8, "tmax_d5": 17.6, "tmax_d6": 16.5, "tmin_d0": 3.5, "tmin_d1": 3.9, "tmin_d2": 3.5, "tmin_d3": 5.0, "tmin_d4": 5.1, "tmin_d5": 5.4, "tmin_d6": 5.7, "day_of_year": 229, "uuid": "2d7adc9f-118e-448f-823f-cf1989d9bc66", "inat_id": 236208791}}, {"type": "Feature", "geometry": {"type": "Point", "coordinates": [-107.8883444858, 37.8609868332]}, "properties": {"species": "Hypholoma capnoides", "date": "2024-08-16", "location": "Colorado, US", "elevation": 2905.0, "land_cover_label": "Grassland", "water_mask": false, "exclude_reason": "keep", "ndvi": null, "soil_moisture": null, "solar_exposure": null, "wind_exposure": null, "water_retention": null, "slope": null, "aspect": null, "num_identification_agreements": 1, "cluster": 0, "tavg": null, "tmin": 12.0, "tmax": 25.0, "prcp_d0": 0.0, "prcp_d1": 0.0, "prcp_d2": 0.0, "prcp_d3": 43.863800048828125, "prcp_d4": 0.0, "prcp_d5": 0.0, "prcp_d6": 0.0, "tmax_d0": 22.3, "tmax_d1": 20.7, "tmax_d2": 18.7, "tmax_d3": 17.0, "tmax_d4": 19.2, "tmax_d5": 20.4, "tmax_d6": 19.0, "tmin_d0": 6.4, "tmin_d1": 6.1, "tmin_d2": 6.1, "tmin_d3": 6.9, "tmin_d4": 7.2, "tmin_d5": 7.9, "tmin_d6": 7.9, "day_of_year": 229, "uuid": "b54c43d1-b917-4192-b19b-46ba58dba492", "inat_id": 236366993}}, {"type": "Feature", "geometry": {"type": "Point", "coordinates": [-107.831325345, 37.9213939419]}, "properties": {"species": "Hypholoma capnoides", "date": "2024-08-17", "location": "Telluride Ski Resort, Telluride, CO, US", "elevation": 3264.0, "land_cover_label": "Tree cover", "water_mask": false, "exclude_reason": "keep", "ndvi": null, "soil_moisture": null, "solar_exposure": null, "wind_exposure": null, "water_retention": null, "slope": null, "aspect": null, "num_identification_agreements": 1, "cluster": 2, "tavg": null, "tmin": 12.0, "tmax": 23.0, "prcp_d0": 14.55306339263916, "prcp_d1": 0.0, "prcp_d2": 0.0, "prcp_d3": 0.0, "prcp_d4": 0.0, "prcp_d5": 35.675926208496094, "prcp_d6": 0.0, "tmax_d0": 19.1, "tmax_d1": 19.7, "tmax_d2": 18.3, "tmax_d3": 15.9, "tmax_d4": 14.6, "tmax_d5": 16.8, "tmax_d6": 17.6, "tmin_d0": 3.4, "tmin_d1": 3.5, "tmin_d2": 3.9, "tmin_d3": 3.5, "tmin_d4": 5.0, "tmin_d5": 5.1, "tmin_d6": 5.4, "day_of_year": 230, "uuid": "729d85dd-064f-4cf2-af79-9a2bdaec696e", "inat_id": 236334315}}, {"type": "Feature", "geometry": {"type": "Point", "coordinates": [-107.8585666667, 37.8799783333]}, "properties": {"species": "Hypholoma capnoides", "date": "2024-08-17", "location": "Grand Mesa Uncompahgre and Gunnison National Forests, Telluride, CO, US", "elevation": 3275.0, "land_cover_label": "Tree cover", "water_mask": false, "exclude_reason": "keep", "ndvi": null, "soil_moisture": null, "solar_exposure": null, "wind_exposure": null, "water_retention": null, "slope": null, "aspect": null, "num_identification_agreements": 3, "cluster": 0, "tavg": null, "tmin": 12.0, "tmax": 23.0, "prcp_d0": 14.800861358642578, "prcp_d1": 0.0, "prcp_d2": 0.0, "prcp_d3": 0.0, "prcp_d4": 43.863800048828125, "prcp_d5": 0.0, "prcp_d6": 0.0, "tmax_d0": 19.1, "tmax_d1": 19.6, "tmax_d2": 18.3, "tmax_d3": 15.9, "tmax_d4": 14.5, "tmax_d5": 16.7, "tmax_d6": 17.5, "tmin_d0": 3.4, "tmin_d1": 3.4, "tmin_d2": 3.9, "tmin_d3": 3.4, "tmin_d4": 5.0, "tmin_d5": 5.0, "tmin_d6": 5.4, "day_of_year": 230, "uuid": "d5daffce-5634-4911-b30c-5132d8c7d2e4", "inat_id": 236400302}}, {"type": "Feature", "geometry": {"type": "Point", "coordinates": [-105.6322033333, 36.0018277833]}, "properties": {"species": "Hypholoma capnoides", "date": "2024-08-18", "location": "Carson National Forest, Cordova, NM, US", "elevation": 3371.0, "land_cover_label": "Tree cover", "water_mask": false, "exclude_reason": "keep", "ndvi": null, "soil_moisture": null, "solar_exposure": null, "wind_exposure": null, "water_retention": null, "slope": null, "aspect": null, "num_identification_agreements": 1, "cluster": 0, "tavg": null, "tmin": null, "tmax": null, "prcp_d0": 0.0, "prcp_d1": 0.0, "prcp_d2": 0.0, "prcp_d3": 0.0, "prcp_d4": 0.0, "prcp_d5": 0.0, "prcp_d6": 0.0, "tmax_d0": 18.4, "tmax_d1": 20.8, "tmax_d2": 19.2, "tmax_d3": 18.7, "tmax_d4": 16.4, "tmax_d5": 16.9, "tmax_d6": 18.2, "tmin_d0": 7.8, "tmin_d1": 8.7, "tmin_d2": 8.7, "tmin_d3": 6.4, "tmin_d4": 6.3, "tmin_d5": 7.2, "tmin_d6": 7.4, "day_of_year": 231, "uuid": "27a42a93-e090-4da9-8f85-28a7ead5bbbf", "inat_id": 236642837}}, {"type": "Feature", "geometry": {"type": "Point", "coordinates": [-107.2890139722, 39.9883769722]}, "properties": {"species": "Hypholoma capnoides", "date": "2024-09-11", "location": "Garfield County, US-CO, US", "elevation": 2885.0, "land_cover_label": "Tree cover", "water_mask": false, "exclude_reason": "keep", "ndvi": null, "soil_moisture": null, "solar_exposure": null, "wind_exposure": null, "water_retention": null, "slope": null, "aspect": null, "num_identification_agreements": 1, "cluster": 0, "tavg": null, "tmin": 7.8, "tmax": 25.0, "prcp_d0": 6.115240573883057, "prcp_d1": 0.0, "prcp_d2": 0.0, "prcp_d3": 0.0, "prcp_d4": 0.0, "prcp_d5": 0.0, "prcp_d6": 0.0, "tmax_d0": 17.0, "tmax_d1": 18.2, "tmax_d2": 18.5, "tmax_d3": 19.3, "tmax_d4": 19.0, "tmax_d5": 19.1, "tmax_d6": 18.0, "tmin_d0": 3.3, "tmin_d1": 3.9, "tmin_d2": 4.9, "tmin_d3": 4.5, "tmin_d4": 3.5, "tmin_d5": 1.4, "tmin_d6": 2.4, "day_of_year": 255, "uuid": "6ba5ab91-99a5-4241-8901-88a2c4a92b38", "inat_id": 244428955}}, {"type": "Feature", "geometry": {"type": "Point", "coordinates": [-106.1287388333, 39.6304283333]}, "properties": {"species": "Hypholoma capnoides", "date": "2024-09-21", "location": "White River National Forest, Silverthorne, CO, US", "elevation": 2940.0, "land_cover_label": "Tree cover", "water_mask": false, "exclude_reason": "keep", "ndvi": null, "soil_moisture": null, "solar_exposure": null, "wind_exposure": null, "water_retention": null, "slope": null, "aspect": null, "num_identification_agreements": 1, "cluster": 0, "tavg": null, "tmin": 2.0, "tmax": 15.0, "prcp_d0": 0.0, "prcp_d1": 0.0, "prcp_d2": 0.0, "prcp_d3": 0.0, "prcp_d4": 0.0, "prcp_d5": 0.0, "prcp_d6": 0.0, "tmax_d0": 15.6, "tmax_d1": 18.7, "tmax_d2": 17.2, "tmax_d3": 15.1, "tmax_d4": 15.7, "tmax_d5": 16.1, "tmax_d6": 17.3, "tmin_d0": -1.1, "tmin_d1": -0.4, "tmin_d2": -2.3, "tmin_d3": 0.1, "tmin_d4": 0.8, "tmin_d5": 0.1, "tmin_d6": 0.1, "day_of_year": 265, "uuid": "37adfe1b-62eb-4fcd-9053-457cd736fdbc", "inat_id": 243228162}}, {"type": "Feature", "geometry": {"type": "Point", "coordinates": [-121.8717843947, 45.3794607008]}, "properties": {"species": "Hypholoma capnoides", "date": "2024-10-29", "location": "Clackamas County, US-OR, US", "elevation": 627.0, "land_cover_label": "Tree cover", "water_mask": false, "exclude_reason": "keep", "ndvi": null, "soil_moisture": null, "solar_exposure": null, "wind_exposure": null, "water_retention": null, "slope": null, "aspect": null, "num_identification_agreements": 1, "cluster": 0, "tavg": null, "tmin": 3.1, "tmax": 11.8, "prcp_d0": 0.0, "prcp_d1": 0.0, "prcp_d2": 0.0, "prcp_d3": 0.0, "prcp_d4": 0.0, "prcp_d5": 0.0, "prcp_d6": 0.0, "tmax_d0": 7.1, "tmax_d1": 8.0, "tmax_d2": 15.7, "tmax_d3": 17.3, "tmax_d4": 17.5, "tmax_d5": 13.8, "tmax_d6": 11.6, "tmin_d0": 4.5, "tmin_d1": 3.8, "tmin_d2": 7.4, "tmin_d3": 9.4, "tmin_d4": 4.4, "tmin_d5": -2.2, "tmin_d6": 1.0, "day_of_year": 303, "uuid": "3f29c4f8-3a61-47e9-86b2-8e9b8799972b", "inat_id": 249704442}}, {"type": "Feature", "geometry": {"type": "Point", "coordinates": [-122.2887586802, 45.4936363197]}, "properties": {"species": "Hypholoma capnoides", "date": "2024-11-07", "location": "FPW6+82V, Corbett, OR 97080, USA", "elevation": 128.0, "land_cover_label": "Tree cover", "water_mask": false, "exclude_reason": "keep", "ndvi": null, "soil_moisture": null, "solar_exposure": null, "wind_exposure": null, "water_retention": null, "slope": null, "aspect": null, "num_identification_agreements": 1, "cluster": 0, "tavg": null, "tmin": 10.0, "tmax": 15.6, "prcp_d0": 0.0, "prcp_d1": 0.0, "prcp_d2": 0.0, "prcp_d3": 0.0, "prcp_d4": 0.0, "prcp_d5": 0.0, "prcp_d6": 0.0, "tmax_d0": 15.1, "tmax_d1": 13.8, "tmax_d2": 10.4, "tmax_d3": 11.7, "tmax_d4": 11.1, "tmax_d5": 11.1, "tmax_d6": 12.3, "tmin_d0": 3.9, "tmin_d1": 2.0, "tmin_d2": 5.8, "tmin_d3": 6.1, "tmin_d4": 7.1, "tmin_d5": 6.8, "tmin_d6": 7.3, "day_of_year": 312, "uuid": "22102d07-599b-4bce-ad5d-84cc572caad8", "inat_id": 250907129}}, {"type": "Feature", "geometry": {"type": "Point", "coordinates": [-122.2284068326, 45.3072521162]}, "properties": {"species": "Hypholoma capnoides", "date": "2024-12-05", "location": "Clackamas County, US-OR, US", "elevation": 413.0, "land_cover_label": "Tree cover", "water_mask": false, "exclude_reason": "keep", "ndvi": null, "soil_moisture": null, "solar_exposure": null, "wind_exposure": null, "water_retention": null, "slope": null, "aspect": null, "num_identification_agreements": 1, "cluster": 0, "tavg": null, "tmin": 3.9, "tmax": 6.1, "prcp_d0": 0.0, "prcp_d1": 0.0, "prcp_d2": 0.0, "prcp_d3": 0.0, "prcp_d4": 0.0, "prcp_d5": 0.0, "prcp_d6": 0.0, "tmax_d0": 11.6, "tmax_d1": 12.5, "tmax_d2": 12.6, "tmax_d3": 11.9, "tmax_d4": 13.3, "tmax_d5": 7.0, "tmax_d6": 4.8, "tmin_d0": 1.1, "tmin_d1": 1.6, "tmin_d2": 1.2, "tmin_d3": -1.2, "tmin_d4": -2.9, "tmin_d5": -4.3, "tmin_d6": -4.7, "day_of_year": 340, "uuid": "f760f2b2-51ec-4390-b180-8f178727506f", "inat_id": 254272874}}, {"type": "Feature", "geometry": {"type": "Point", "coordinates": [-122.3113458863, 45.3284702614]}, "properties": {"species": "Hypholoma capnoides", "date": "2025-03-20", "location": "SE Eagle Fern Rd, Eagle Creek, OR, US", "elevation": 141.0, "land_cover_label": "Tree cover", "water_mask": false, "exclude_reason": "keep", "ndvi": null, "soil_moisture": null, "solar_exposure": null, "wind_exposure": null, "water_retention": null, "slope": null, "aspect": null, "num_identification_agreements": 1, "cluster": 1, "tavg": null, "tmin": 6.7, "tmax": 9.4, "prcp_d0": 0.0, "prcp_d1": 64.03925323486328, "prcp_d2": 0.0, "prcp_d3": 0.0, "prcp_d4": 0.0, "prcp_d5": 0.0, "prcp_d6": 0.0, "tmax_d0": 12.5, "tmax_d1": 13.5, "tmax_d2": 9.5, "tmax_d3": 10.1, "tmax_d4": 8.7, "tmax_d5": 9.9, "tmax_d6": 9.2, "tmin_d0": 4.7, "tmin_d1": 2.4, "tmin_d2": 1.2, "tmin_d3": 2.8, "tmin_d4": 4.5, "tmin_d5": 4.3, "tmin_d6": 1.1, "day_of_year": 79, "uuid": "914233ba-e7fd-48a6-873d-b1d117a69a82", "inat_id": 266138412}}, {"type": "Feature", "geometry": {"type": "Point", "coordinates": [-107.6226017879, 38.9453266265]}, "properties": {"species": "Hypholoma capnoides", "date": "2025-07-28", "location": "Paonia, CO, US", "elevation": 2503.0, "land_cover_label": "Tree cover", "water_mask": false, "exclude_reason": "keep", "ndvi": null, "soil_moisture": null, "solar_exposure": null, "wind_exposure": null, "water_retention": null, "slope": null, "aspect": null, "num_identification_agreements": 1, "cluster": 0, "tavg": null, "tmin": 13.5, "tmax": 39.4, "prcp_d0": 0.0, "prcp_d1": 0.0, "prcp_d2": 0.0, "prcp_d3": 0.0, "prcp_d4": 0.0, "prcp_d5": 0.0, "prcp_d6": 0.0, "tmax_d0": 26.1, "tmax_d1": 24.7, "tmax_d2": 23.0, "tmax_d3": 23.6, "tmax_d4": 23.1, "tmax_d5": 21.2, "tmax_d6": 21.6, "tmin_d0": 13.5, "tmin_d1": 12.2, "tmin_d2": 13.6, "tmin_d3": 13.2, "tmin_d4": 12.8, "tmin_d5": 13.4, "tmin_d6": 11.8, "day_of_year": 209, "uuid": "933f9b70-2a20-4fa4-8dac-2f7f8b99291a", "inat_id": 302003044}}, {"type": "Feature", "geometry": {"type": "Point", "coordinates": [-107.8887083333, 39.0298944444]}, "properties": {"species": "Hypholoma capnoides", "date": "2025-08-10", "location": "Cedaredge, CO 81413, USA", "elevation": 3173.0, "land_cover_label": "Tree cover", "water_mask": false, "exclude_reason": "keep", "ndvi": null, "soil_moisture": null, "solar_exposure": null, "wind_exposure": null, "water_retention": null, "slope": null, "aspect": null, "num_identification_agreements": 2, "cluster": 0, "tavg": null, "tmin": 19.0, "tmax": 32.6, "prcp_d0": 2.908294677734375, "prcp_d1": 0.0, "prcp_d2": 0.0, "prcp_d3": 0.0, "prcp_d4": 0.0, "prcp_d5": 0.0, "prcp_d6": 0.0, "tmax_d0": 17.8, "tmax_d1": 20.1, "tmax_d2": 21.3, "tmax_d3": 22.4, "tmax_d4": 21.2, "tmax_d5": 21.8, "tmax_d6": 21.5, "tmin_d0": 8.8, "tmin_d1": 8.6, "tmin_d2": 9.2, "tmin_d3": 9.8, "tmin_d4": 9.8, "tmin_d5": 8.6, "tmin_d6": 7.7, "day_of_year": 222, "uuid": "0f3c7429-5a75-4c59-979e-2e8fb0657dae", "inat_id": 305809536}}, {"type": "Feature", "geometry": {"type": "Point", "coordinates": [-107.88788611, 37.81425]}, "properties": {"species": "Hypholoma capnoides", "date": "2025-08-12", "location": "San Miguel, Colorado, United States", "elevation": 3130.0, "land_cover_label": "Tree cover", "water_mask": false, "exclude_reason": "keep", "ndvi": null, "soil_moisture": null, "solar_exposure": null, "wind_exposure": null, "water_retention": null, "slope": null, "aspect": null, "num_identification_agreements": 2, "cluster": 0, "tavg": null, "tmin": 10.0, "tmax": 24.0, "prcp_d0": 0.0, "prcp_d1": 0.0, "prcp_d2": 0.0, "prcp_d3": 0.0, "prcp_d4": 0.0, "prcp_d5": 0.0, "prcp_d6": 0.0, "tmax_d0": 19.2, "tmax_d1": 19.1, "tmax_d2": 19.8, "tmax_d3": 20.9, "tmax_d4": 20.9, "tmax_d5": 22.3, "tmax_d6": 19.7, "tmin_d0": 5.0, "tmin_d1": 2.2, "tmin_d2": 7.5, "tmin_d3": 6.7, "tmin_d4": 10.5, "tmin_d5": 10.2, "tmin_d6": 10.3, "day_of_year": 224, "uuid": "c0bf0d61-7872-4887-af57-1f990b8bb328", "inat_id": 306010346}}, {"type": "Feature", "geometry": {"type": "Point", "coordinates": [-107.873825, 37.8108]}, "properties": {"species": "Hypholoma capnoides", "date": "2025-08-12", "location": "San Miguel, Colorado, United States", "elevation": 3077.0, "land_cover_label": "Tree cover", "water_mask": false, "exclude_reason": "keep", "ndvi": null, "soil_moisture": null, "solar_exposure": null, "wind_exposure": null, "water_retention": null, "slope": null, "aspect": null, "num_identification_agreements": 2, "cluster": 0, "tavg": null, "tmin": 10.0, "tmax": 24.0, "prcp_d0": 0.0, "prcp_d1": 0.0, "prcp_d2": 0.0, "prcp_d3": 0.0, "prcp_d4": 0.0, "prcp_d5": 0.0, "prcp_d6": 0.0, "tmax_d0": 18.5, "tmax_d1": 17.6, "tmax_d2": 18.2, "tmax_d3": 19.7, "tmax_d4": 19.8, "tmax_d5": 21.1, "tmax_d6": 18.7, "tmin_d0": 4.6, "tmin_d1": 2.1, "tmin_d2": 7.6, "tmin_d3": 5.4, "tmin_d4": 10.8, "tmin_d5": 10.0, "tmin_d6": 10.7, "day_of_year": 224, "uuid": "74e29419-aeb6-4f3a-a489-a890d709b45e", "inat_id": 306625986}}, {"type": "Feature", "geometry": {"type": "Point", "coordinates": [-107.8728027778, 37.8111305556]}, "properties": {"species": "Hypholoma capnoides", "date": "2025-08-13", "location": "San Miguel County, CO, USA", "elevation": 3040.0, "land_cover_label": "Tree cover", "water_mask": false, "exclude_reason": "keep", "ndvi": null, "soil_moisture": null, "solar_exposure": null, "wind_exposure": null, "water_retention": null, "slope": null, "aspect": null, "num_identification_agreements": 4, "cluster": 0, "tavg": null, "tmin": 13.0, "tmax": 26.0, "prcp_d0": 0.0, "prcp_d1": 0.0, "prcp_d2": 0.0, "prcp_d3": 0.0, "prcp_d4": 0.0, "prcp_d5": 0.0, "prcp_d6": 0.0, "tmax_d0": 20.8, "tmax_d1": 18.7, "tmax_d2": 17.8, "tmax_d3": 18.4, "tmax_d4": 19.9, "tmax_d5": 20.0, "tmax_d6": 21.3, "tmin_d0": 6.5, "tmin_d1": 4.8, "tmin_d2": 2.3, "tmin_d3": 7.8, "tmin_d4": 5.6, "tmin_d5": 11.0, "tmin_d6": 10.2, "day_of_year": 225, "uuid": "b6067e86-578a-4a2c-ad6f-215b434c3713", "inat_id": 306117304}}, {"type": "Feature", "geometry": {"type": "Point", "coordinates": [-107.9810561612, 39.0414716825]}, "properties": {"species": "Hypholoma capnoides", "date": "2025-08-31", "location": "Cedaredge, CO 81413, USA", "elevation": 3152.0, "land_cover_label": "Tree cover", "water_mask": false, "exclude_reason": "keep", "ndvi": null, "soil_moisture": null, "solar_exposure": null, "wind_exposure": null, "water_retention": null, "slope": null, "aspect": null, "num_identification_agreements": 1, "cluster": 0, "tavg": null, "tmin": 11.0, "tmax": 33.0, "prcp_d0": 0.0, "prcp_d1": 0.0, "prcp_d2": 4.999212265014648, "prcp_d3": 0.0, "prcp_d4": 0.0, "prcp_d5": 0.0, "prcp_d6": 0.0, "tmax_d0": 16.8, "tmax_d1": 13.6, "tmax_d2": 15.6, "tmax_d3": 14.7, "tmax_d4": 14.6, "tmax_d5": 14.4, "tmax_d6": 15.7, "tmin_d0": 6.2, "tmin_d1": 2.3, "tmin_d2": 6.1, "tmin_d3": 5.4, "tmin_d4": 6.9, "tmin_d5": 7.2, "tmin_d6": 7.2, "day_of_year": 243, "uuid": "d32924f4-b2be-4d20-8767-f97a9717c053", "inat_id": 311362448}}, {"type": "Feature", "geometry": {"type": "Point", "coordinates": [-107.9811095059, 39.0426399572]}, "properties": {"species": "Hypholoma capnoides", "date": "2025-08-31", "location": "Grand Mesa Uncompahgre and Gunnison National Forests, Cedaredge, CO, US", "elevation": 3132.0, "land_cover_label": "Tree cover", "water_mask": false, "exclude_reason": "keep", "ndvi": null, "soil_moisture": null, "solar_exposure": null, "wind_exposure": null, "water_retention": null, "slope": null, "aspect": null, "num_identification_agreements": 1, "cluster": 0, "tavg": null, "tmin": 11.0, "tmax": 33.0, "prcp_d0": 0.0, "prcp_d1": 0.0, "prcp_d2": 4.999212265014648, "prcp_d3": 0.0, "prcp_d4": 0.0, "prcp_d5": 0.0, "prcp_d6": 0.0, "tmax_d0": 17.0, "tmax_d1": 13.7, "tmax_d2": 15.7, "tmax_d3": 14.9, "tmax_d4": 14.7, "tmax_d5": 14.6, "tmax_d6": 15.9, "tmin_d0": 6.3, "tmin_d1": 2.5, "tmin_d2": 6.2, "tmin_d3": 5.5, "tmin_d4": 7.1, "tmin_d5": 7.3, "tmin_d6": 7.3, "day_of_year": 243, "uuid": "43cfc999-2546-418a-b659-42b37e880ff8", "inat_id": 311169850}}, {"type": "Feature", "geometry": {"type": "Point", "coordinates": [-107.9814013784, 39.0423624168]}, "properties": {"species": "Hypholoma capnoides", "date": "2025-08-31", "location": "Grand Mesa Uncompahgre and Gunnison National Forests, Cedaredge, CO, US", "elevation": 3129.0, "land_cover_label": "Tree cover", "water_mask": false, "exclude_reason": "keep", "ndvi": null, "soil_moisture": null, "solar_exposure": null, "wind_exposure": null, "water_retention": null, "slope": null, "aspect": null, "num_identification_agreements": 1, "cluster": 0, "tavg": null, "tmin": 11.0, "tmax": 33.0, "prcp_d0": 0.0, "prcp_d1": 0.0, "prcp_d2": 4.999212265014648, "prcp_d3": 0.0, "prcp_d4": 0.0, "prcp_d5": 0.0, "prcp_d6": 0.0, "tmax_d0": 16.9, "tmax_d1": 13.7, "tmax_d2": 15.7, "tmax_d3": 14.8, "tmax_d4": 14.7, "tmax_d5": 14.5, "tmax_d6": 15.8, "tmin_d0": 6.3, "tmin_d1": 2.4, "tmin_d2": 6.2, "tmin_d3": 5.5, "tmin_d4": 7.0, "tmin_d5": 7.3, "tmin_d6": 7.3, "day_of_year": 243, "uuid": "b961ed6f-17fc-491a-ad48-a31b2fd7cb4a", "inat_id": 311715306}}, {"type": "Feature", "geometry": {"type": "Point", "coordinates": [-107.0557416015, 38.8600711404]}, "properties": {"species": "Hypholoma capnoides", "date": "2025-09-14", "location": "Gunnison County, US-CO, US", "elevation": 3011.0, "land_cover_label": "Tree cover", "water_mask": false, "exclude_reason": "keep", "ndvi": null, "soil_moisture": null, "solar_exposure": null, "wind_exposure": null, "water_retention": null, "slope": null, "aspect": null, "num_identification_agreements": 2, "cluster": 1, "tavg": null, "tmin": 3.0, "tmax": 19.0, "prcp_d0": 0.0, "prcp_d1": 35.865264892578125, "prcp_d2": 0.0, "prcp_d3": 0.0, "prcp_d4": 0.0, "prcp_d5": 0.0, "prcp_d6": 0.0, "tmax_d0": 12.2, "tmax_d1": 11.2, "tmax_d2": 13.7, "tmax_d3": 16.6, "tmax_d4": 18.4, "tmax_d5": 19.0, "tmax_d6": 18.6, "tmin_d0": -0.6, "tmin_d1": 0.9, "tmin_d2": 3.5, "tmin_d3": 4.2, "tmin_d4": 3.8, "tmin_d5": 2.3, "tmin_d6": 3.8, "day_of_year": 257, "uuid": "e784ad43-6a12-4a75-a633-e3fc15fd3018", "inat_id": 314331514}}, {"type": "Feature", "geometry": {"type": "Point", "coordinates": [-105.5846862793, 39.9844322205]}, "properties": {"species": "Hypholoma capnoides", "date": "2025-10-05", "location": "Boulder County, US-CO, US", "elevation": 3031.0, "land_cover_label": "Tree cover", "water_mask": false, "exclude_reason": "keep", "ndvi": null, "soil_moisture": 0.3692460120620243, "solar_exposure": 0.7270920872688293, "wind_exposure": 0.2861250638961792, "water_retention": 0.4319558441638946, "slope": 9.91997241973877, "aspect": 21.39346504211425, "num_identification_agreements": 2, "cluster": 3, "tavg": null, "tmin": -6.7, "tmax": 3.0, "prcp_d0": 0.0, "prcp_d1": 0.0, "prcp_d2": 0.0, "prcp_d3": 0.0, "prcp_d4": 0.0, "prcp_d5": 0.0, "prcp_d6": 0.0, "tmax_d0": 6.8, "tmax_d1": 12.9, "tmax_d2": 16.7, "tmax_d3": 16.1, "tmax_d4": 12.0, "tmax_d5": 12.7, "tmax_d6": 10.9, "tmin_d0": -4.0, "tmin_d1": 2.2, "tmin_d2": 2.0, "tmin_d3": 1.4, "tmin_d4": 2.5, "tmin_d5": 1.1, "tmin_d6": 0.0, "day_of_year": 278, "uuid": "393b5d0e-723f-463a-8988-33de60596843", "inat_id": 319057858}}, {"type": "Feature", "geometry": {"type": "Point", "coordinates": [-121.9381366298, 45.2721337063]}, "properties": {"species": "Hypholoma capnoides", "date": "2025-11-18", "location": "Rhododendron, OR 97049, USA", "elevation": 516.0, "land_cover_label": "Tree cover", "water_mask": false, "exclude_reason": "keep", "ndvi": null, "soil_moisture": null, "solar_exposure": null, "wind_exposure": null, "water_retention": null, "slope": null, "aspect": null, "num_identification_agreements": 1, "cluster": 2, "tavg": null, "tmin": 4.0, "tmax": 10.0, "prcp_d0": 0.0, "prcp_d1": 0.0, "prcp_d2": 0.0, "prcp_d3": 0.0, "prcp_d4": 0.0, "prcp_d5": 31.27838897705078, "prcp_d6": 0.0, "tmax_d0": 6.3, "tmax_d1": 11.0, "tmax_d2": 13.6, "tmax_d3": 15.6, "tmax_d4": 12.2, "tmax_d5": 18.3, "tmax_d6": 18.1, "tmin_d0": -0.1, "tmin_d1": 6.4, "tmin_d2": 7.9, "tmin_d3": 9.6, "tmin_d4": 7.9, "tmin_d5": 10.5, "tmin_d6": 10.9, "day_of_year": 322, "uuid": "fe1f1847-2012-4414-a4a7-5115468d3f78", "inat_id": 327306858}}, {"type": "Feature", "geometry": {"type": "Point", "coordinates": [-122.2253070345, 45.3082681478]}, "properties": {"species": "Hypholoma capnoides", "date": "2025-11-21", "location": "Clackamas County, OR, USA", "elevation": 370.0, "land_cover_label": "Tree cover", "water_mask": false, "exclude_reason": "keep", "ndvi": null, "soil_moisture": null, "solar_exposure": null, "wind_exposure": null, "water_retention": null, "slope": null, "aspect": null, "num_identification_agreements": 1, "cluster": 0, "tavg": null, "tmin": 1.0, "tmax": 11.0, "prcp_d0": 0.0175871513783931, "prcp_d1": 0.0, "prcp_d2": 0.0, "prcp_d3": 0.0, "prcp_d4": 0.0, "prcp_d5": 0.0, "prcp_d6": 0.0, "tmax_d0": 10.0, "tmax_d1": 10.9, "tmax_d2": 11.8, "tmax_d3": 7.5, "tmax_d4": 10.8, "tmax_d5": 13.2, "tmax_d6": 14.8, "tmin_d0": 0.8, "tmin_d1": 4.9, "tmin_d2": -0.0, "tmin_d3": 0.9, "tmin_d4": 6.9, "tmin_d5": 7.0, "tmin_d6": 10.3, "day_of_year": 325, "uuid": "c4d3fda6-ef90-473d-afa9-ba63ffc42447", "inat_id": 327618192}}, {"type": "Feature", "geometry": {"type": "Point", "coordinates": [-107.9000727861, 37.8077500196]}, "properties": {"species": "Hypholoma capnoides", "date": "2026-08-16", "location": "San Miguel County, US-CO, US", "elevation": 3175.0, "land_cover_label": "Tree cover", "water_mask": false, "exclude_reason": "keep", "ndvi": null, "soil_moisture": null, "solar_exposure": null, "wind_exposure": null, "water_retention": null, "slope": null, "aspect": null, "num_identification_agreements": 1, "cluster": null, "tavg": null, "tmin": 8.0, "tmax": 23.0, "prcp_d0": null, "prcp_d1": null, "prcp_d2": null, "prcp_d3": null, "prcp_d4": null, "prcp_d5": null, "prcp_d6": null, "tmax_d0": 19.4, "tmax_d1": 17.3, "tmax_d2": 16.7, "tmax_d3": 16.3, "tmax_d4": 18.6, "tmax_d5": 20.0, "tmax_d6": 20.1, "tmin_d0": 5.0, "tmin_d1": 6.0, "tmin_d2": 5.1, "tmin_d3": 7.8, "tmin_d4": 8.8, "tmin_d5": 8.5, "tmin_d6": 8.2, "day_of_year": 228, "uuid": "3e518a76-0173-4e93-913c-506080bf292e", "inat_id": 391964538}}]}