{"type": "FeatureCollection", "features": [{"type": "Feature", "geometry": {"type": "Point", "coordinates": [-121.7381652107, 45.2790580315]}, "properties": {"species": "Hypholoma elongatum", "date": "2022-10-15", "location": "Clackamas County, OR, USA", "elevation": 1143.0, "land_cover_label": "Tree cover", "water_mask": false, "exclude_reason": "keep", "ndvi": null, "soil_moisture": null, "solar_exposure": null, "wind_exposure": null, "water_retention": null, "slope": null, "aspect": null, "num_identification_agreements": 2, "cluster": 0, "tavg": null, "tmin": 10.2, "tmax": 24.3, "prcp_d0": 0.0, "prcp_d1": 0.0, "prcp_d2": 0.0, "prcp_d3": 0.0, "prcp_d4": 9.365456581115724, "prcp_d5": 0.0, "prcp_d6": 0.0, "tmax_d0": 22.4, "tmax_d1": 24.4, "tmax_d2": 22.9, "tmax_d3": 23.2, "tmax_d4": 20.5, "tmax_d5": 21.7, "tmax_d6": 23.3, "tmin_d0": 10.9, "tmin_d1": 9.8, "tmin_d2": 10.2, "tmin_d3": 10.2, "tmin_d4": 6.5, "tmin_d5": 12.5, "tmin_d6": 10.1, "day_of_year": 288, "uuid": "65e07b43-2865-4834-b234-c2ac454be97b", "inat_id": 139377929}}, {"type": "Feature", "geometry": {"type": "Point", "coordinates": [-121.715095, 45.2946366667]}, "properties": {"species": "Hypholoma elongatum", "date": "2024-09-21", "location": "Mt. Hood Park Division Recreation Area, Government Camp, OR, US", "elevation": 1282.0, "land_cover_label": "Tree cover", "water_mask": false, "exclude_reason": "keep", "ndvi": null, "soil_moisture": null, "solar_exposure": null, "wind_exposure": null, "water_retention": null, "slope": null, "aspect": null, "num_identification_agreements": 1, "cluster": 0, "tavg": null, "tmin": 8.4, "tmax": 23.7, "prcp_d0": 0.0, "prcp_d1": 0.0, "prcp_d2": 0.0, "prcp_d3": 5.210668087005615, "prcp_d4": 0.0, "prcp_d5": 0.0, "prcp_d6": 0.0, "tmax_d0": 17.6, "tmax_d1": 13.4, "tmax_d2": 15.5, "tmax_d3": 13.9, "tmax_d4": 14.8, "tmax_d5": 17.8, "tmax_d6": 12.5, "tmin_d0": 4.3, "tmin_d1": 3.8, "tmin_d2": 6.1, "tmin_d3": 7.5, "tmin_d4": 6.5, "tmin_d5": 4.8, "tmin_d6": 4.0, "day_of_year": 265, "uuid": "1c8ec31b-515a-4871-9bec-a87c0d738acb", "inat_id": 243261106}}]}