{"type": "FeatureCollection", "features": [{"type": "Feature", "geometry": {"type": "Point", "coordinates": [-107.8821989722, 37.832348]}, "properties": {"species": "Hypomyces luteovirens", "date": "2026-08-13", "location": "Ophir, CO 81426, USA", "elevation": 2966.0, "num_identification_agreements": 1, "tavg": null, "tmin": 10.0, "tmax": 17.0, "day_of_year": 225, "uuid": "05d0aab7-7d4a-483b-b1c9-5e5aa885f22e", "inat_id": 390976897}}, {"type": "Feature", "geometry": {"type": "Point", "coordinates": [-105.51384596, 39.84536881]}, "properties": {"species": "Hypomyces luteovirens", "date": "2025-08-20", "location": "Gilpin County, US-CO, US", "elevation": 2792.0, "num_identification_agreements": 3, "tavg": null, "tmin": 0.7, "tmax": 16.0, "day_of_year": 232, "uuid": "5f711a64-fd66-41ed-a0e8-f6d5dd2a36be", "inat_id": 308712556}}, {"type": "Feature", "geometry": {"type": "Point", "coordinates": [-105.5137983997, 39.8453599997]}, "properties": {"species": "Hypomyces luteovirens", "date": "2025-08-20", "location": "Black Hawk, CO 80422, USA", "elevation": 2792.0, "num_identification_agreements": 2, "tavg": null, "tmin": 0.7, "tmax": 16.0, "day_of_year": 232, "uuid": "3a06adbb-c7d4-4ee0-980a-3d9695c4dc50", "inat_id": 308568660}}, {"type": "Feature", "geometry": {"type": "Point", "coordinates": [-104.8896902096, 38.7015684429]}, "properties": {"species": "Hypomyces luteovirens", "date": "2025-08-22", "location": "Colorado, US", "elevation": 2355.0, "num_identification_agreements": 1, "tavg": null, "tmin": 16.0, "tmax": 28.0, "day_of_year": 234, "uuid": "f58bc22f-a509-4920-963b-e380ff33cf70", "inat_id": 308359883}}, {"type": "Feature", "geometry": {"type": "Point", "coordinates": [-105.5138466667, 39.8453666667]}, "properties": {"species": "Hypomyces luteovirens", "date": "2025-08-20", "location": "Black Hawk, CO, US", "elevation": 2792.0, "num_identification_agreements": 1, "tavg": null, "tmin": 0.7, "tmax": 16.0, "day_of_year": 232, "uuid": "b79bc2b0-0706-4fa7-a36d-dea810590440", "inat_id": 307976981}}, {"type": "Feature", "geometry": {"type": "Point", "coordinates": [-104.9636814424, 38.6425974815]}, "properties": {"species": "Hypomyces luteovirens", "date": "2017-08-13", "location": "Colorado, US", "elevation": 2774.0, "num_identification_agreements": 1, "tavg": null, "tmin": 12.4, "tmax": 26.8, "day_of_year": 225, "uuid": "feb7ab6e-81de-47e7-912b-902ed79be9fa", "inat_id": 254582063}}, {"type": "Feature", "geometry": {"type": "Point", "coordinates": [-105.6926283333, 39.49358]}, "properties": {"species": "Hypomyces luteovirens", "date": "2024-09-02", "location": "Pike and San Isabel National Forests, Bailey, CO, US", "elevation": 2811.0, "num_identification_agreements": 1, "tavg": null, "tmin": null, "tmax": null, "day_of_year": 246, "uuid": "b9b5f839-a1bb-403d-8e23-410ca36ac4f3", "inat_id": 239724829}}, {"type": "Feature", "geometry": {"type": "Point", "coordinates": [-107.8803466667, 37.833845]}, "properties": {"species": "Hypomyces luteovirens", "date": "2024-08-15", "location": "Grand Mesa Uncompahgre and Gunnison National Forests, Ophir, CO, US", "elevation": 2930.0, "num_identification_agreements": 1, "tavg": null, "tmin": 9.0, "tmax": 23.0, "day_of_year": 228, "uuid": "5bc0405b-2387-4eaa-bc8b-25c256d3b665", "inat_id": 236098229}}, {"type": "Feature", "geometry": {"type": "Point", "coordinates": [-107.8265263858, 37.8566132364]}, "properties": {"species": "Hypomyces luteovirens", "date": "2024-08-15", "location": "San Miguel County, US-CO, US", "elevation": 3014.0, "num_identification_agreements": 2, "tavg": null, "tmin": 9.0, "tmax": 23.0, "day_of_year": 228, "uuid": "dcb7d58d-70eb-45de-ad18-9358f410961c", "inat_id": 235993746}}, {"type": "Feature", "geometry": {"type": "Point", "coordinates": [-105.7111167535, 39.5949864574]}, "properties": {"species": "Hypomyces luteovirens", "date": "2024-08-15", "location": "Keystone, CO 80435, USA", "elevation": 3558.0, "num_identification_agreements": 2, "tavg": null, "tmin": -0.6, "tmax": 12.8, "day_of_year": 228, "uuid": "93a6ec4c-02bb-4daf-9be9-1b98011c2ceb", "inat_id": 235936020}}, {"type": "Feature", "geometry": {"type": "Point", "coordinates": [-105.7863616667, 35.80418]}, "properties": {"species": "Hypomyces luteovirens", "date": "2024-08-07", "location": "Santa Fe National Forest, Tererro, NM, US", "elevation": 3278.0, "num_identification_agreements": 1, "tavg": null, "tmin": 17.2, "tmax": 34.4, "day_of_year": 220, "uuid": "35f437cd-155f-46d5-9005-26b50460280e", "inat_id": 234540835}}, {"type": "Feature", "geometry": {"type": "Point", "coordinates": [-108.1261511393, 37.5700666435]}, "properties": {"species": "Hypomyces luteovirens", "date": "2024-07-21", "location": "La Plata County, US-CO, US", "elevation": 2822.0, "num_identification_agreements": 1, "tavg": null, "tmin": 11.0, "tmax": 22.0, "day_of_year": 203, "uuid": "808cd5fb-52f5-470c-a876-0a08cd288229", "inat_id": 231669843}}, {"type": "Feature", "geometry": {"type": "Point", "coordinates": [-107.665255, 37.8209883333]}, "properties": {"species": "Hypomyces luteovirens", "date": "2024-07-19", "location": "Silverton, CO 81433, USA", "elevation": 2895.0, "num_identification_agreements": 1, "tavg": null, "tmin": 11.0, "tmax": 23.0, "day_of_year": 201, "uuid": "b4ce98df-d9ce-441a-8b4e-65be89d6eec3", "inat_id": 230401364}}, {"type": "Feature", "geometry": {"type": "Point", "coordinates": [-105.0159139931, 39.0661421152]}, "properties": {"species": "Hypomyces luteovirens", "date": "2023-09-17", "location": "El Paso County, US-CO, US", "elevation": 2834.0, "num_identification_agreements": 2, "tavg": null, "tmin": 4.5, "tmax": 24.6, "day_of_year": 260, "uuid": "46d2d1e6-0369-4943-961a-e4cfc09c2631", "inat_id": 183710696}}, {"type": "Feature", "geometry": {"type": "Point", "coordinates": [-105.1716313631, 39.2780744137]}, "properties": {"species": "Hypomyces luteovirens", "date": "2023-09-10", "location": "Colorado, US", "elevation": 2382.0, "num_identification_agreements": 2, "tavg": null, "tmin": 4.4, "tmax": 16.4, "day_of_year": 253, "uuid": "69658d7c-0240-4100-83dc-9afb399867ed", "inat_id": 182742730}}, {"type": "Feature", "geometry": {"type": "Point", "coordinates": [-105.0107081607, 39.0615315303]}, "properties": {"species": "Hypomyces luteovirens", "date": "2023-09-04", "location": "Colorado Springs, CO 80921, USA", "elevation": 2818.0, "num_identification_agreements": 2, "tavg": null, "tmin": 11.2, "tmax": 29.9, "day_of_year": 247, "uuid": "ab80e907-2f65-4a27-8ad0-0bee5a8f8c37", "inat_id": 181779576}}, {"type": "Feature", "geometry": {"type": "Point", "coordinates": [-107.812875, 37.93745]}, "properties": {"species": "Hypomyces luteovirens", "date": "2023-08-18", "location": "Grand Mesa Uncompahgre and Gunnison National Forests, Telluride, CO, US", "elevation": 2675.0, "num_identification_agreements": 1, "tavg": null, "tmin": 11.0, "tmax": 22.0, "day_of_year": 230, "uuid": "5c4d0d45-5729-45eb-9053-022bef040912", "inat_id": 179062372}}, {"type": "Feature", "geometry": {"type": "Point", "coordinates": [-105.1507289827, 38.9154703337]}, "properties": {"species": "Hypomyces luteovirens", "date": "2023-08-10", "location": "Teller County, US-CO, US", "elevation": 2867.0, "num_identification_agreements": 2, "tavg": null, "tmin": 11.7, "tmax": 28.1, "day_of_year": 222, "uuid": "bdf8d3b5-f716-4afa-993d-2eec1eb73708", "inat_id": 178483749}}, {"type": "Feature", "geometry": {"type": "Point", "coordinates": [-105.0908703357, 38.9226331835]}, "properties": {"species": "Hypomyces luteovirens", "date": "2023-08-05", "location": "Woodland Park, CO 80863, USA", "elevation": 2921.0, "num_identification_agreements": 2, "tavg": null, "tmin": 13.6, "tmax": 24.5, "day_of_year": 217, "uuid": "e1871383-fef5-445c-8b47-6f7920073398", "inat_id": 176886180}}, {"type": "Feature", "geometry": {"type": "Point", "coordinates": [-104.91455, 38.7369366667]}, "properties": {"species": "Hypomyces luteovirens", "date": "2022-08-24", "location": "Pike and San Isabel National Forests, Colorado Springs, CO, US", "elevation": 2770.0, "num_identification_agreements": 2, "tavg": null, "tmin": 15.0, "tmax": 25.0, "day_of_year": 236, "uuid": "33b86af0-52e6-49f0-abb2-ff067a9625bf", "inat_id": 132266017}}, {"type": "Feature", "geometry": {"type": "Point", "coordinates": [-104.9146214785, 38.7369867965]}, "properties": {"species": "Hypomyces luteovirens", "date": "2022-08-24", "location": "El Paso County, US-CO, US", "elevation": 2794.0, "num_identification_agreements": 1, "tavg": null, "tmin": 15.0, "tmax": 25.0, "day_of_year": 236, "uuid": "d28fb5ec-78a2-4f03-aee4-8a4e09a4d147", "inat_id": 132229375}}, {"type": "Feature", "geometry": {"type": "Point", "coordinates": [-105.7095846636, 39.752895106]}, "properties": {"species": "Hypomyces luteovirens", "date": "2022-08-10", "location": "Colorado, US", "elevation": 3013.0, "num_identification_agreements": 1, "tavg": null, "tmin": 1.8, "tmax": 16.3, "day_of_year": 222, "uuid": "327e9824-ac28-471f-a9b7-b329f1233227", "inat_id": 131544190}}, {"type": "Feature", "geometry": {"type": "Point", "coordinates": [-106.936102329, 37.4956450808]}, "properties": {"species": "Hypomyces luteovirens", "date": "2012-08-25", "location": "Mineral County, CO, USA", "elevation": 2708.0, "num_identification_agreements": 2, "tavg": null, "tmin": null, "tmax": null, "day_of_year": 238, "uuid": "03e35d6c-e8a6-4bb6-97d2-ea4bdc9b157c", "inat_id": 99603257}}, {"type": "Feature", "geometry": {"type": "Point", "coordinates": [-107.8048166667, 37.9314833333]}, "properties": {"species": "Hypomyces luteovirens", "date": "2021-08-18", "location": "Grand Mesa Uncompahgre and Gunnison National Forests, Telluride, CO, US", "elevation": 2708.0, "num_identification_agreements": 1, "tavg": null, "tmin": 11.0, "tmax": 21.0, "day_of_year": 230, "uuid": "ef34a551-787f-4fe5-9517-ed4459c4cac1", "inat_id": 95856804}}, {"type": "Feature", "geometry": {"type": "Point", "coordinates": [-108.0824486854, 37.5411327675]}, "properties": {"species": "Hypomyces luteovirens", "date": "2021-08-07", "location": "La Plata County, US-CO, US", "elevation": 3245.0, "num_identification_agreements": 1, "tavg": null, "tmin": 10.0, "tmax": 27.8, "day_of_year": 219, "uuid": "5857d6d3-4da6-4bb5-9f84-44e463584c55", "inat_id": 90351720}}, {"type": "Feature", "geometry": {"type": "Point", "coordinates": [-108.0502083333, 37.424795]}, "properties": {"species": "Hypomyces luteovirens", "date": "2021-08-07", "location": "San Juan National Forest, Hesperus, CO, US", "elevation": 3093.0, "num_identification_agreements": 1, "tavg": null, "tmin": 10.0, "tmax": 27.8, "day_of_year": 219, "uuid": "44bcb33d-3f5f-4674-9627-a090ce63ce03", "inat_id": 90329894}}, {"type": "Feature", "geometry": {"type": "Point", "coordinates": [-107.8250656128, 37.8542137146]}, "properties": {"species": "Hypomyces luteovirens", "date": "2018-08-18", "location": "908 Granite Ave, Ophir, CO 81320, USA", "elevation": 2981.0, "num_identification_agreements": 2, "tavg": null, "tmin": 11.0, "tmax": 21.0, "day_of_year": 230, "uuid": "544525cb-0866-418e-8e5f-f6210b090d82", "inat_id": 15686613}}]}