{"type": "FeatureCollection", "features": [{"type": "Feature", "geometry": {"type": "Point", "coordinates": [-107.9161706123, 37.8516662899]}, "properties": {"species": "Hypomyces lateritius", "date": "2022-08-19", "location": "Colorado, US", "elevation": 3212.0, "land_cover_label": "Tree cover", "water_mask": false, "exclude_reason": "keep", "ndvi": null, "soil_moisture": null, "solar_exposure": null, "wind_exposure": null, "water_retention": null, "slope": null, "aspect": null, "num_identification_agreements": 3, "cluster": 0, "tavg": null, "tmin": 10.0, "tmax": 17.0, "prcp_d0": 0.0, "prcp_d1": 0.0, "prcp_d2": 0.0, "prcp_d3": 0.0, "prcp_d4": 33.15773391723633, "prcp_d5": 0.0, "prcp_d6": 0.0, "tmax_d0": null, "tmax_d1": null, "tmax_d2": null, "tmax_d3": null, "tmax_d4": null, "tmax_d5": null, "tmax_d6": null, "tmin_d0": null, "tmin_d1": null, "tmin_d2": null, "tmin_d3": null, "tmin_d4": null, "tmin_d5": null, "tmin_d6": null, "day_of_year": 231, "uuid": "b1364bc8-efcf-4430-a4a5-89de1548092b", "inat_id": 131939100}}, {"type": "Feature", "geometry": {"type": "Point", "coordinates": [-104.9942648783, 39.0364391632]}, "properties": {"species": "Hypomyces lateritius", "date": "2023-08-19", "location": "Colorado Springs, CO 80921, USA", "elevation": 2790.0, "land_cover_label": "Tree cover", "water_mask": false, "exclude_reason": "keep", "ndvi": null, "soil_moisture": 0.2411583331201731, "solar_exposure": 0.8548877239227295, "wind_exposure": 0.3178968131542206, "water_retention": 0.2101702690124511, "slope": 5.581921100616455, "aspect": 109.46498107910156, "num_identification_agreements": 1, "cluster": 0, "tavg": null, "tmin": 13.5, "tmax": 33.5, "prcp_d0": 0.0, "prcp_d1": 0.0, "prcp_d2": 0.0, "prcp_d3": 0.0, "prcp_d4": 0.0, "prcp_d5": 0.0, "prcp_d6": 0.0, "tmax_d0": null, "tmax_d1": null, "tmax_d2": null, "tmax_d3": null, "tmax_d4": null, "tmax_d5": null, "tmax_d6": null, "tmin_d0": null, "tmin_d1": null, "tmin_d2": null, "tmin_d3": null, "tmin_d4": null, "tmin_d5": null, "tmin_d6": null, "day_of_year": 231, "uuid": "381f6724-4ee6-4aa2-9244-9d683d7d1053", "inat_id": 179276204}}, {"type": "Feature", "geometry": {"type": "Point", "coordinates": [-105.4178783333, 39.2727366667]}, "properties": {"species": "Hypomyces lateritius", "date": "2024-08-23", "location": "Pike and San Isabel National Forests, Hartsel, CO, US", "elevation": 3005.0, "land_cover_label": "Tree cover", "water_mask": false, "exclude_reason": "keep", "ndvi": null, "soil_moisture": 0.2478072108844084, "solar_exposure": 0.7626946568489075, "wind_exposure": 0.1822874248027801, "water_retention": 0.2943944931030273, "slope": 11.099151611328123, "aspect": 60.130165100097656, "num_identification_agreements": 2, "cluster": 0, "tavg": null, "tmin": 5.3, "tmax": 18.5, "prcp_d0": 1.80869209766388, "prcp_d1": 5.583683967590332, "prcp_d2": 2.9529476165771484, "prcp_d3": 0.0, "prcp_d4": 0.0, "prcp_d5": 0.0, "prcp_d6": 0.0, "tmax_d0": null, "tmax_d1": null, "tmax_d2": null, "tmax_d3": null, "tmax_d4": null, "tmax_d5": null, "tmax_d6": null, "tmin_d0": null, "tmin_d1": null, "tmin_d2": null, "tmin_d3": null, "tmin_d4": null, "tmin_d5": null, "tmin_d6": null, "day_of_year": 236, "uuid": "b75eee63-f0a1-4f4b-a28a-fd71591a7102", "inat_id": 237585249}}, {"type": "Feature", "geometry": {"type": "Point", "coordinates": [-105.5704507175, 39.5109810516]}, "properties": {"species": "Hypomyces lateritius", "date": "2024-08-23", "location": "Colorado, US", "elevation": 2858.0, "land_cover_label": "Tree cover", "water_mask": false, "exclude_reason": "keep", "ndvi": null, "soil_moisture": 0.3566232210950668, "solar_exposure": 0.6014372706413269, "wind_exposure": 0.2166309654712677, "water_retention": 0.5486681461334229, "slope": 21.422657012939453, "aspect": 39.22047424316406, "num_identification_agreements": 1, "cluster": 3, "tavg": null, "tmin": 0.9, "tmax": 13.4, "prcp_d0": 3.7040741443634033, "prcp_d1": 9.463807106018066, "prcp_d2": 3.2966387271881104, "prcp_d3": 0.0, "prcp_d4": 0.0, "prcp_d5": 0.0, "prcp_d6": 0.0, "tmax_d0": null, "tmax_d1": null, "tmax_d2": null, "tmax_d3": null, "tmax_d4": null, "tmax_d5": null, "tmax_d6": null, "tmin_d0": null, "tmin_d1": null, "tmin_d2": null, "tmin_d3": null, "tmin_d4": null, "tmin_d5": null, "tmin_d6": null, "day_of_year": 236, "uuid": "b99f7d0d-95a7-4a99-bf8c-1baee57eee97", "inat_id": 237548922}}]}