{"type": "FeatureCollection", "features": [{"type": "Feature", "geometry": {"type": "Point", "coordinates": [-121.58058, 45.1432333333]}, "properties": {"species": "Hypomyces aurantius", "date": "2019-06-02", "location": "Mt. Hood National Forest, Maupin, OR, US", "elevation": 961.0, "land_cover_label": "Tree cover", "water_mask": false, "exclude_reason": "keep", "ndvi": null, "soil_moisture": null, "solar_exposure": null, "wind_exposure": null, "water_retention": null, "slope": null, "aspect": null, "num_identification_agreements": 2, "cluster": 0, "tavg": null, "tmin": null, "tmax": null, "prcp_d0": 0.0, "prcp_d1": 0.0, "prcp_d2": 0.0, "prcp_d3": 0.0, "prcp_d4": 0.0, "prcp_d5": 0.0, "prcp_d6": 0.0, "tmax_d0": 23.5, "tmax_d1": 24.8, "tmax_d2": 23.8, "tmax_d3": 21.3, "tmax_d4": 20.5, "tmax_d5": 18.9, "tmax_d6": 16.2, "tmin_d0": 10.3, "tmin_d1": 10.7, "tmin_d2": 8.7, "tmin_d3": 8.4, "tmin_d4": 8.5, "tmin_d5": 8.5, "tmin_d6": 5.9, "day_of_year": 153, "uuid": "1ca686cc-95ca-4af2-9bf9-60a929950dbb", "inat_id": 27476751}}, {"type": "Feature", "geometry": {"type": "Point", "coordinates": [-121.826638038, 45.3204743026]}, "properties": {"species": "Hypomyces aurantius", "date": "2020-05-01", "location": "Clackamas County, OR, USA", "elevation": 862.0, "land_cover_label": "Tree cover", "water_mask": false, "exclude_reason": "keep", "ndvi": null, "soil_moisture": null, "solar_exposure": null, "wind_exposure": null, "water_retention": null, "slope": null, "aspect": null, "num_identification_agreements": 3, "cluster": 0, "tavg": null, "tmin": null, "tmax": null, "prcp_d0": 0.0, "prcp_d1": 0.0, "prcp_d2": 0.0, "prcp_d3": 0.0, "prcp_d4": 0.0, "prcp_d5": 0.0, "prcp_d6": 0.0, "tmax_d0": 14.3, "tmax_d1": 12.7, "tmax_d2": 17.0, "tmax_d3": 17.5, "tmax_d4": 13.1, "tmax_d5": 14.7, "tmax_d6": 10.2, "tmin_d0": -1.4, "tmin_d1": 4.1, "tmin_d2": 7.1, "tmin_d3": 5.9, "tmin_d4": 5.2, "tmin_d5": 0.6, "tmin_d6": 5.3, "day_of_year": 122, "uuid": "6e472636-9dcc-44f6-909e-64b349a15525", "inat_id": 44657071}}, {"type": "Feature", "geometry": {"type": "Point", "coordinates": [-121.9397824677, 45.2970614838]}, "properties": {"species": "Hypomyces aurantius", "date": "2023-11-23", "location": "Clackamas County, OR, USA", "elevation": 469.0, "land_cover_label": "Tree cover", "water_mask": false, "exclude_reason": "keep", "ndvi": null, "soil_moisture": null, "solar_exposure": null, "wind_exposure": null, "water_retention": null, "slope": null, "aspect": null, "num_identification_agreements": 1, "cluster": 0, "tavg": null, "tmin": 1.7, "tmax": 13.3, "prcp_d0": 0.0, "prcp_d1": 0.0, "prcp_d2": 0.0, "prcp_d3": 0.0, "prcp_d4": 0.0, "prcp_d5": 0.0, "prcp_d6": 0.0, "tmax_d0": 9.0, "tmax_d1": 13.1, "tmax_d2": 16.7, "tmax_d3": 12.5, "tmax_d4": 11.1, "tmax_d5": 13.0, "tmax_d6": 14.1, "tmin_d0": 2.3, "tmin_d1": 7.9, "tmin_d2": 7.3, "tmin_d3": 1.3, "tmin_d4": 3.3, "tmin_d5": 6.5, "tmin_d6": 6.0, "day_of_year": 327, "uuid": "6a5936db-6e20-4809-a36c-ec8e978c1ace", "inat_id": 193084739}}, {"type": "Feature", "geometry": {"type": "Point", "coordinates": [-122.2266523284, 45.3087134998]}, "properties": {"species": "Hypomyces aurantius", "date": "2023-12-14", "location": "Clackamas County, OR, USA", "elevation": 383.0, "land_cover_label": "Tree cover", "water_mask": false, "exclude_reason": "keep", "ndvi": null, "soil_moisture": null, "solar_exposure": null, "wind_exposure": null, "water_retention": null, "slope": null, "aspect": null, "num_identification_agreements": 1, "cluster": 2, "tavg": null, "tmin": 8.3, "tmax": 10.6, "prcp_d0": 9.805292129516602, "prcp_d1": 0.0, "prcp_d2": 0.0, "prcp_d3": 0.0, "prcp_d4": 34.146724700927734, "prcp_d5": 11.382242202758787, "prcp_d6": 0.0, "tmax_d0": 10.5, "tmax_d1": 11.3, "tmax_d2": 9.3, "tmax_d3": 10.1, "tmax_d4": 10.2, "tmax_d5": 6.7, "tmax_d6": 4.6, "tmin_d0": 6.3, "tmin_d1": 5.2, "tmin_d2": 4.6, "tmin_d3": 7.9, "tmin_d4": 3.7, "tmin_d5": -2.2, "tmin_d6": 1.1, "day_of_year": 348, "uuid": "35222195-ec62-44af-b8f1-7476d321940e", "inat_id": 227916885}}, {"type": "Feature", "geometry": {"type": "Point", "coordinates": [-121.7908916916, 45.0325336637]}, "properties": {"species": "Hypomyces aurantius", "date": "2025-05-30", "location": "Clackamas County, OR, USA", "elevation": 1288.0, "land_cover_label": "Tree cover", "water_mask": false, "exclude_reason": "keep", "ndvi": null, "soil_moisture": null, "solar_exposure": null, "wind_exposure": null, "water_retention": null, "slope": null, "aspect": null, "num_identification_agreements": 1, "cluster": 0, "tavg": null, "tmin": null, "tmax": null, "prcp_d0": 0.0, "prcp_d1": 0.0, "prcp_d2": 0.0, "prcp_d3": 0.0, "prcp_d4": 0.0, "prcp_d5": 0.0, "prcp_d6": 0.0, "tmax_d0": 25.4, "tmax_d1": 19.9, "tmax_d2": 24.0, "tmax_d3": 20.8, "tmax_d4": 15.3, "tmax_d5": 17.4, "tmax_d6": 21.3, "tmin_d0": 4.1, "tmin_d1": 6.5, "tmin_d2": 7.5, "tmin_d3": 2.4, "tmin_d4": 5.3, "tmin_d5": 5.6, "tmin_d6": 1.3, "day_of_year": 150, "uuid": "c0947e73-6f8e-4896-912a-1578c6128dce", "inat_id": 290755382}}]}