{"type": "FeatureCollection", "features": [{"type": "Feature", "geometry": {"type": "Point", "coordinates": [-121.6839216667, 45.756425]}, "properties": {"species": "Hypomyces lactifluorum", "date": "2026-08-29", "location": "Bingen, WA, US", "elevation": 582.0, "land_cover_label": "Tree cover", "water_mask": false, "exclude_reason": "keep", "ndvi": null, "soil_moisture": null, "solar_exposure": null, "wind_exposure": null, "water_retention": null, "slope": null, "aspect": null, "num_identification_agreements": 1, "cluster": null, "tavg": null, "tmin": 14.4, "tmax": 22.9, "prcp_d0": null, "prcp_d1": null, "prcp_d2": null, "prcp_d3": null, "prcp_d4": null, "prcp_d5": null, "prcp_d6": null, "tmax_d0": 20.5, "tmax_d1": 21.5, "tmax_d2": 23.9, "tmax_d3": 27.9, "tmax_d4": 29.7, "tmax_d5": 28.6, "tmax_d6": 22.4, "tmin_d0": 9.4, "tmin_d1": 8.7, "tmin_d2": 14.0, "tmin_d3": 11.0, "tmin_d4": 16.7, "tmin_d5": 11.6, "tmin_d6": 12.1, "day_of_year": 241, "uuid": "e1cb96f3-766a-4d27-8737-c712857758bf", "inat_id": 395666832}}]}