{"type": "FeatureCollection", "features": [{"type": "Feature", "geometry": {"type": "Point", "coordinates": [-107.9815305556, 37.77]}, "properties": {"species": "Infundibulicybe geotropa", "date": "2025-08-13", "location": "Durango, CO 81301, USA", "elevation": 2847.0, "num_identification_agreements": 3, "tavg": null, "tmin": 13.0, "tmax": 26.0, "day_of_year": 225, "uuid": "e9098059-64f9-4e1f-83a2-a762de7696f0", "inat_id": 306246962}}, {"type": "Feature", "geometry": {"type": "Point", "coordinates": [-107.98146111, 37.77019444]}, "properties": {"species": "Infundibulicybe geotropa", "date": "2025-08-13", "location": "Dolores, Colorado, United States", "elevation": 2847.0, "num_identification_agreements": 1, "tavg": null, "tmin": 13.0, "tmax": 26.0, "day_of_year": 225, "uuid": "1fe1d473-e5fa-4761-a3bc-4c7fa447e93f", "inat_id": 306096714}}, {"type": "Feature", "geometry": {"type": "Point", "coordinates": [-107.98143, 37.7701716667]}, "properties": {"species": "Infundibulicybe geotropa", "date": "2025-08-13", "location": "San Juan National Forest - Headquarters, Rico, CO, US", "elevation": 2847.0, "num_identification_agreements": 2, "tavg": null, "tmin": 13.0, "tmax": 26.0, "day_of_year": 225, "uuid": "ee1e3490-4f16-458b-ba1e-852ac0b55861", "inat_id": 306095903}}, {"type": "Feature", "geometry": {"type": "Point", "coordinates": [-107.981445, 37.7701416667]}, "properties": {"species": "Infundibulicybe geotropa", "date": "2025-08-13", "location": "Rico, CO, US", "elevation": 2847.0, "num_identification_agreements": 1, "tavg": null, "tmin": 13.0, "tmax": 26.0, "day_of_year": 225, "uuid": "5715e39c-3ea3-4091-9e40-3dd11c889e64", "inat_id": 306092317}}, {"type": "Feature", "geometry": {"type": "Point", "coordinates": [-105.8581405329, 39.7375330834]}, "properties": {"species": "Infundibulicybe geotropa", "date": "2020-08-02", "location": "Colorado, US", "elevation": 3305.0, "num_identification_agreements": 1, "tavg": null, "tmin": 10.0, "tmax": 18.0, "day_of_year": 215, "uuid": "1bcf9351-db79-4343-9f62-e3ad5cad3ec6", "inat_id": 55291609}}]}