{"type": "FeatureCollection", "features": [{"type": "Feature", "geometry": {"type": "Point", "coordinates": [-121.4288, 45.3981]}, "properties": {"species": "Infundibulicybe squamulosa", "date": "2019-05-23", "location": "Barlow Ranger District, Mount Hood National Forest, Hood River and Wasco Cos., Oregon, USA", "elevation": 1108.0, "land_cover_label": "Tree cover", "water_mask": false, "exclude_reason": "keep", "ndvi": null, "soil_moisture": null, "solar_exposure": null, "wind_exposure": null, "water_retention": null, "slope": null, "aspect": null, "num_identification_agreements": 1, "cluster": 2, "tavg": null, "tmin": 12.2, "tmax": 28.3, "prcp_d0": 0.0, "prcp_d1": 0.0, "prcp_d2": 0.0, "prcp_d3": 7.189863681793213, "prcp_d4": 14.35880184173584, "prcp_d5": 0.0, "prcp_d6": 0.0, "tmax_d0": 18.4, "tmax_d1": 14.5, "tmax_d2": 9.2, "tmax_d3": 9.8, "tmax_d4": 11.7, "tmax_d5": 12.5, "tmax_d6": 10.5, "tmin_d0": 9.9, "tmin_d1": 7.3, "tmin_d2": 1.9, "tmin_d3": 5.6, "tmin_d4": 4.1, "tmin_d5": 1.9, "tmin_d6": 4.4, "day_of_year": 143, "uuid": "5c1bcfed-bc78-4f70-8461-ec0fe2e29444", "inat_id": 65244615}}, {"type": "Feature", "geometry": {"type": "Point", "coordinates": [-121.56904667, 45.36737]}, "properties": {"species": "Infundibulicybe squamulosa", "date": "2020-05-09", "location": "Mt. Hood Park Division Recreation Area, Mount Hood Parkdale, OR, US", "elevation": 1011.0, "land_cover_label": "Tree cover", "water_mask": false, "exclude_reason": "keep", "ndvi": null, "soil_moisture": null, "solar_exposure": null, "wind_exposure": null, "water_retention": null, "slope": null, "aspect": null, "num_identification_agreements": 2, "cluster": 2, "tavg": null, "tmin": 7.8, "tmax": 30.0, "prcp_d0": 0.0, "prcp_d1": 0.0, "prcp_d2": 0.0, "prcp_d3": 0.0, "prcp_d4": 0.0, "prcp_d5": 0.0, "prcp_d6": 0.0, "tmax_d0": 20.1, "tmax_d1": 16.4, "tmax_d2": 13.3, "tmax_d3": 13.7, "tmax_d4": 15.7, "tmax_d5": 15.3, "tmax_d6": 7.7, "tmin_d0": 6.1, "tmin_d1": 3.9, "tmin_d2": -0.0, "tmin_d3": 1.0, "tmin_d4": 5.0, "tmin_d5": -0.1, "tmin_d6": 0.3, "day_of_year": 130, "uuid": "15503d2c-1b18-47c4-9ad3-1c7a3e74654d", "inat_id": 45447242}}, {"type": "Feature", "geometry": {"type": "Point", "coordinates": [-121.5037444444, 45.2408361111]}, "properties": {"species": "Infundibulicybe squamulosa", "date": "2020-06-22", "location": "Tygh Valley, OR 97063, USA", "elevation": 1263.0, "land_cover_label": "Tree cover", "water_mask": false, "exclude_reason": "keep", "ndvi": null, "soil_moisture": null, "solar_exposure": null, "wind_exposure": null, "water_retention": null, "slope": null, "aspect": null, "num_identification_agreements": 1, "cluster": 2, "tavg": null, "tmin": 13.9, "tmax": 33.3, "prcp_d0": 0.0, "prcp_d1": 0.0, "prcp_d2": 0.0, "prcp_d3": 0.0, "prcp_d4": 0.0, "prcp_d5": 0.0, "prcp_d6": 14.719405174255373, "tmax_d0": 24.5, "tmax_d1": 17.7, "tmax_d2": 22.2, "tmax_d3": 23.4, "tmax_d4": 19.9, "tmax_d5": 14.9, "tmax_d6": 9.1, "tmin_d0": 7.4, "tmin_d1": 8.1, "tmin_d2": 11.6, "tmin_d3": 10.8, "tmin_d4": 6.0, "tmin_d5": 3.8, "tmin_d6": 1.9, "day_of_year": 174, "uuid": "df30d552-bdb7-466e-a297-7c94ee72edbc", "inat_id": 50933649}}, {"type": "Feature", "geometry": {"type": "Point", "coordinates": [-121.38876389, 45.25521111]}, "properties": {"species": "Infundibulicybe squamulosa", "date": "2022-04-29", "location": "Wasco, Oregon, United States", "elevation": 661.0, "land_cover_label": "Tree cover", "water_mask": false, "exclude_reason": "keep", "ndvi": null, "soil_moisture": null, "solar_exposure": null, "wind_exposure": null, "water_retention": null, "slope": null, "aspect": null, "num_identification_agreements": 1, "cluster": 2, "tavg": null, "tmin": 6.7, "tmax": 19.4, "prcp_d0": 0.0, "prcp_d1": 0.0, "prcp_d2": 0.0, "prcp_d3": 0.0, "prcp_d4": 0.0, "prcp_d5": 0.0, "prcp_d6": 0.0, "tmax_d0": 13.5, "tmax_d1": 11.1, "tmax_d2": 11.0, "tmax_d3": 11.6, "tmax_d4": 17.3, "tmax_d5": 17.5, "tmax_d6": 14.7, "tmin_d0": 1.0, "tmin_d1": 1.2, "tmin_d2": 2.3, "tmin_d3": 3.3, "tmin_d4": 4.6, "tmin_d5": -0.0, "tmin_d6": -0.2, "day_of_year": 119, "uuid": "0dc8a5bd-981d-41e1-97fa-e608e4d1a440", "inat_id": 129608023}}, {"type": "Feature", "geometry": {"type": "Point", "coordinates": [-121.4229369164, 45.1850871946]}, "properties": {"species": "Infundibulicybe squamulosa", "date": "2022-05-13", "location": "Maupin, OR 97037, USA", "elevation": 753.0, "land_cover_label": "Tree cover", "water_mask": false, "exclude_reason": "keep", "ndvi": null, "soil_moisture": null, "solar_exposure": null, "wind_exposure": null, "water_retention": null, "slope": null, "aspect": null, "num_identification_agreements": 1, "cluster": 2, "tavg": null, "tmin": null, "tmax": null, "prcp_d0": 0.0, "prcp_d1": 0.0, "prcp_d2": 0.0, "prcp_d3": 0.0, "prcp_d4": 0.0, "prcp_d5": 0.0, "prcp_d6": 12.93964958190918, "tmax_d0": 13.0, "tmax_d1": 11.8, "tmax_d2": 14.0, "tmax_d3": 11.6, "tmax_d4": 9.3, "tmax_d5": 7.9, "tmax_d6": 12.2, "tmin_d0": -0.7, "tmin_d1": 3.5, "tmin_d2": -0.5, "tmin_d3": -0.2, "tmin_d4": 0.3, "tmin_d5": -1.2, "tmin_d6": 3.7, "day_of_year": 133, "uuid": "2acb3021-d265-4db1-88f0-4bb5915eb2c8", "inat_id": 117695198}}, {"type": "Feature", "geometry": {"type": "Point", "coordinates": [-121.577419425, 45.7911932238]}, "properties": {"species": "Infundibulicybe squamulosa", "date": "2022-05-18", "location": "White Salmon, WA, US", "elevation": 607.0, "land_cover_label": "Tree cover", "water_mask": false, "exclude_reason": "keep", "ndvi": null, "soil_moisture": null, "solar_exposure": null, "wind_exposure": null, "water_retention": null, "slope": null, "aspect": null, "num_identification_agreements": 2, "cluster": 3, "tavg": null, "tmin": 7.8, "tmax": 13.9, "prcp_d0": 14.39571762084961, "prcp_d1": 0.0, "prcp_d2": 0.0, "prcp_d3": 0.0, "prcp_d4": 26.36361694335937, "prcp_d5": 0.0, "prcp_d6": 0.0, "tmax_d0": 14.8, "tmax_d1": 15.1, "tmax_d2": 16.3, "tmax_d3": 16.2, "tmax_d4": 14.4, "tmax_d5": 10.6, "tmax_d6": 11.8, "tmin_d0": 5.2, "tmin_d1": 2.3, "tmin_d2": 8.5, "tmin_d3": 6.8, "tmin_d4": 4.4, "tmin_d5": 1.1, "tmin_d6": 3.6, "day_of_year": 138, "uuid": "465578e2-399c-41a6-a8bb-9ca6be3d9839", "inat_id": 117686684}}, {"type": "Feature", "geometry": {"type": "Point", "coordinates": [-121.5539333333, 45.3960716667]}, "properties": {"species": "Infundibulicybe squamulosa", "date": "2022-06-19", "location": "Forest Service U.S. Department of Agriculture, Mount Hood Parkdale, OR, US", "elevation": 1284.0, "land_cover_label": "Tree cover", "water_mask": false, "exclude_reason": "keep", "ndvi": null, "soil_moisture": null, "solar_exposure": null, "wind_exposure": null, "water_retention": null, "slope": null, "aspect": null, "num_identification_agreements": 1, "cluster": 2, "tavg": null, "tmin": 10.0, "tmax": 18.1, "prcp_d0": 1.2753227949142456, "prcp_d1": 1.128494143486023, "prcp_d2": 21.265655517578125, "prcp_d3": 0.8070968985557556, "prcp_d4": 0.0, "prcp_d5": 0.0, "prcp_d6": 0.0, "tmax_d0": 10.6, "tmax_d1": 10.1, "tmax_d2": 13.2, "tmax_d3": 14.5, "tmax_d4": 16.4, "tmax_d5": 8.3, "tmax_d6": 5.7, "tmin_d0": 3.5, "tmin_d1": 3.4, "tmin_d2": 4.9, "tmin_d3": 4.5, "tmin_d4": 2.0, "tmin_d5": 1.7, "tmin_d6": 1.3, "day_of_year": 170, "uuid": "cde2b754-ef82-4682-8c2f-e5d7aa8a5cad", "inat_id": 122582577}}, {"type": "Feature", "geometry": {"type": "Point", "coordinates": [-121.5703346116, 45.4096442275]}, "properties": {"species": "Infundibulicybe squamulosa", "date": "2024-05-19", "location": "Hood River County, US-OR, US", "elevation": 918.0, "land_cover_label": "Tree cover", "water_mask": false, "exclude_reason": "keep", "ndvi": null, "soil_moisture": null, "solar_exposure": null, "wind_exposure": null, "water_retention": null, "slope": null, "aspect": null, "num_identification_agreements": 1, "cluster": 2, "tavg": null, "tmin": 6.8, "tmax": 16.2, "prcp_d0": 3.657167434692383, "prcp_d1": 0.4151964485645294, "prcp_d2": 3.964698553085327, "prcp_d3": 0.497102677822113, "prcp_d4": 0.0, "prcp_d5": 0.0, "prcp_d6": 0.0, "tmax_d0": 9.4, "tmax_d1": 11.2, "tmax_d2": 14.0, "tmax_d3": 20.8, "tmax_d4": 22.4, "tmax_d5": 19.6, "tmax_d6": 19.4, "tmin_d0": 1.8, "tmin_d1": 0.8, "tmin_d2": 2.5, "tmin_d3": 8.7, "tmin_d4": 9.5, "tmin_d5": 4.9, "tmin_d6": 8.5, "day_of_year": 140, "uuid": "acc3948b-c696-4c23-9366-58cf30068445", "inat_id": 216942988}}, {"type": "Feature", "geometry": {"type": "Point", "coordinates": [-121.5169222222, 45.2122333333]}, "properties": {"species": "Infundibulicybe squamulosa", "date": "2024-06-08", "location": "Maupin, OR 97037, USA", "elevation": 1167.0, "land_cover_label": "Tree cover", "water_mask": false, "exclude_reason": "keep", "ndvi": null, "soil_moisture": null, "solar_exposure": null, "wind_exposure": null, "water_retention": null, "slope": null, "aspect": null, "num_identification_agreements": 1, "cluster": 2, "tavg": null, "tmin": null, "tmax": null, "prcp_d0": 0.0, "prcp_d1": 0.0, "prcp_d2": 0.0, "prcp_d3": 0.0, "prcp_d4": 0.0, "prcp_d5": 28.60335922241211, "prcp_d6": 0.0, "tmax_d0": 22.7, "tmax_d1": 23.0, "tmax_d2": 23.3, "tmax_d3": 20.1, "tmax_d4": 11.8, "tmax_d5": 9.8, "tmax_d6": 13.7, "tmin_d0": 10.8, "tmin_d1": 8.2, "tmin_d2": 6.9, "tmin_d3": 5.8, "tmin_d4": 4.3, "tmin_d5": 5.2, "tmin_d6": 7.4, "day_of_year": 160, "uuid": "2adc1956-4c91-4512-99ab-c2962861cba8", "inat_id": 221617725}}, {"type": "Feature", "geometry": {"type": "Point", "coordinates": [-121.8050860274, 45.351278566]}, "properties": {"species": "Infundibulicybe squamulosa", "date": "2024-06-21", "location": "Zigzag Ranger Station, Rhododendron, OR, US", "elevation": 1281.0, "land_cover_label": "Tree cover", "water_mask": false, "exclude_reason": "keep", "ndvi": null, "soil_moisture": null, "solar_exposure": null, "wind_exposure": null, "water_retention": null, "slope": null, "aspect": null, "num_identification_agreements": 1, "cluster": 2, "tavg": null, "tmin": 12.3, "tmax": 32.1, "prcp_d0": 0.0, "prcp_d1": 0.0, "prcp_d2": 0.0, "prcp_d3": 0.0, "prcp_d4": 0.0, "prcp_d5": 0.0, "prcp_d6": 21.26814651489257, "tmax_d0": 23.2, "tmax_d1": 22.0, "tmax_d2": 19.4, "tmax_d3": 14.4, "tmax_d4": 6.1, "tmax_d5": 7.9, "tmax_d6": 10.5, "tmin_d0": 8.9, "tmin_d1": 7.2, "tmin_d2": 4.5, "tmin_d3": 2.1, "tmin_d4": 1.4, "tmin_d5": -0.2, "tmin_d6": 1.7, "day_of_year": 173, "uuid": "da45f3ef-7374-4424-b4e9-7848a15191f2", "inat_id": 225253416}}, {"type": "Feature", "geometry": {"type": "Point", "coordinates": [-106.1750691999, 36.712149]}, "properties": {"species": "Infundibulicybe squamulosa", "date": "2024-08-25", "location": "Rio Arriba, New Mexico, United States", "elevation": 2755.0, "land_cover_label": "Tree cover", "water_mask": false, "exclude_reason": "keep", "ndvi": null, "soil_moisture": null, "solar_exposure": null, "wind_exposure": null, "water_retention": null, "slope": null, "aspect": null, "num_identification_agreements": 1, "cluster": 2, "tavg": null, "tmin": null, "tmax": null, "prcp_d0": 8.240242958068848, "prcp_d1": 9.618624687194824, "prcp_d2": 6.321015357971191, "prcp_d3": 1.9758803844451904, "prcp_d4": 1.833719253540039, "prcp_d5": 0.0, "prcp_d6": 0.0, "tmax_d0": 20.5, "tmax_d1": 20.8, "tmax_d2": 21.2, "tmax_d3": 22.6, "tmax_d4": 25.1, "tmax_d5": 24.9, "tmax_d6": 25.2, "tmin_d0": 6.2, "tmin_d1": 8.4, "tmin_d2": 8.3, "tmin_d3": 9.2, "tmin_d4": 9.5, "tmin_d5": 11.1, "tmin_d6": 10.6, "day_of_year": 238, "uuid": "54f3a1dc-1c40-4c16-bbe9-7bb43ff15f26", "inat_id": 350118919}}, {"type": "Feature", "geometry": {"type": "Point", "coordinates": [-105.2242366667, 36.53393]}, "properties": {"species": "Infundibulicybe squamulosa", "date": "2024-09-06", "location": "Cimarron Canyon State Park, Ute Park, NM, US", "elevation": 2488.0, "land_cover_label": "Tree cover", "water_mask": false, "exclude_reason": "keep", "ndvi": null, "soil_moisture": null, "solar_exposure": null, "wind_exposure": null, "water_retention": null, "slope": null, "aspect": null, "num_identification_agreements": 1, "cluster": 2, "tavg": null, "tmin": 3.9, "tmax": 20.9, "prcp_d0": 5.983032703399658, "prcp_d1": 9.74350357055664, "prcp_d2": 0.0, "prcp_d3": 0.0, "prcp_d4": 0.0, "prcp_d5": 0.0, "prcp_d6": 1.2962918845005331e-06, "tmax_d0": 19.4, "tmax_d1": 20.6, "tmax_d2": 23.5, "tmax_d3": 22.8, "tmax_d4": 20.3, "tmax_d5": 19.8, "tmax_d6": 21.3, "tmin_d0": 3.5, "tmin_d1": 7.6, "tmin_d2": 7.5, "tmin_d3": 4.4, "tmin_d4": 5.4, "tmin_d5": 7.7, "tmin_d6": 4.4, "day_of_year": 250, "uuid": "44fd7781-d28c-4bc3-925d-e252fec9ea87", "inat_id": 240557407}}, {"type": "Feature", "geometry": {"type": "Point", "coordinates": [-105.3051133333, 39.4662966667]}, "properties": {"species": "Infundibulicybe squamulosa", "date": "2025-08-23", "location": "S Baird Rd, Conifer, CO, US", "elevation": 2436.0, "land_cover_label": "Tree cover", "water_mask": false, "exclude_reason": "keep", "ndvi": null, "soil_moisture": 0.2712847853507979, "solar_exposure": 0.9513826370239258, "wind_exposure": 0.2536745965480804, "water_retention": 0.195926159620285, "slope": 13.57387638092041, "aspect": 188.4408416748047, "num_identification_agreements": 1, "cluster": 2, "tavg": null, "tmin": 13.9, "tmax": 27.2, "prcp_d0": 0.0, "prcp_d1": 0.0, "prcp_d2": 0.0, "prcp_d3": 0.0, "prcp_d4": 0.0, "prcp_d5": 0.0, "prcp_d6": 0.0, "tmax_d0": 20.1, "tmax_d1": 26.2, "tmax_d2": 27.8, "tmax_d3": 27.6, "tmax_d4": 25.2, "tmax_d5": 24.9, "tmax_d6": 25.5, "tmin_d0": 10.5, "tmin_d1": 10.8, "tmin_d2": 12.7, "tmin_d3": 10.8, "tmin_d4": 11.0, "tmin_d5": 8.1, "tmin_d6": 10.3, "day_of_year": 235, "uuid": "9c94c54d-cb1b-460a-86e4-98492f07e0a8", "inat_id": 308514794}}, {"type": "Feature", "geometry": {"type": "Point", "coordinates": [-105.1194805556, 36.6109]}, "properties": {"species": "Infundibulicybe squamulosa", "date": "2025-08-31", "location": "Cimarron, NM 87714, USA", "elevation": 2661.0, "land_cover_label": "Tree cover", "water_mask": false, "exclude_reason": "keep", "ndvi": null, "soil_moisture": null, "solar_exposure": null, "wind_exposure": null, "water_retention": null, "slope": null, "aspect": null, "num_identification_agreements": 1, "cluster": 2, "tavg": null, "tmin": 3.0, "tmax": 19.0, "prcp_d0": 0.0, "prcp_d1": 0.0, "prcp_d2": 0.0, "prcp_d3": 0.0, "prcp_d4": 7.479828834533691, "prcp_d5": 22.43948745727539, "prcp_d6": 0.0, "tmax_d0": 18.6, "tmax_d1": 19.7, "tmax_d2": 21.8, "tmax_d3": 22.7, "tmax_d4": 22.4, "tmax_d5": 18.6, "tmax_d6": 20.8, "tmin_d0": 6.1, "tmin_d1": 6.8, "tmin_d2": 6.6, "tmin_d3": 6.5, "tmin_d4": 9.0, "tmin_d5": 8.6, "tmin_d6": 7.1, "day_of_year": 243, "uuid": "7293c76a-1fe0-4941-9721-728f2b163997", "inat_id": 311379017}}, {"type": "Feature", "geometry": {"type": "Point", "coordinates": [-105.80033, 35.7965133333]}, "properties": {"species": "Infundibulicybe squamulosa", "date": "2025-09-13", "location": "NM-475, Tererro, NM, US", "elevation": 3166.0, "land_cover_label": "Tree cover", "water_mask": false, "exclude_reason": "keep", "ndvi": null, "soil_moisture": null, "solar_exposure": null, "wind_exposure": null, "water_retention": null, "slope": null, "aspect": null, "num_identification_agreements": 1, "cluster": 1, "tavg": null, "tmin": 9.0, "tmax": 19.0, "prcp_d0": 13.416844367980955, "prcp_d1": 0.0, "prcp_d2": 0.0, "prcp_d3": 23.24263381958008, "prcp_d4": 0.0, "prcp_d5": 0.0, "prcp_d6": 0.0, "tmax_d0": 14.7, "tmax_d1": 16.2, "tmax_d2": 16.4, "tmax_d3": 18.1, "tmax_d4": 18.2, "tmax_d5": 17.2, "tmax_d6": 16.0, "tmin_d0": 5.2, "tmin_d1": 6.3, "tmin_d2": 7.9, "tmin_d3": 7.7, "tmin_d4": 6.2, "tmin_d5": 6.8, "tmin_d6": 5.5, "day_of_year": 256, "uuid": "a9875cea-28bc-4367-a5a3-3e8e6af70c82", "inat_id": 313881517}}, {"type": "Feature", "geometry": {"type": "Point", "coordinates": [-105.9121042097, 35.740724247]}, "properties": {"species": "Infundibulicybe squamulosa", "date": "2026-07-20", "location": "New Mexico, US", "elevation": 2164.0, "land_cover_label": "Tree cover", "water_mask": false, "exclude_reason": "keep", "ndvi": null, "soil_moisture": null, "solar_exposure": null, "wind_exposure": null, "water_retention": null, "slope": null, "aspect": null, "num_identification_agreements": 1, "cluster": 2, "tavg": null, "tmin": 17.8, "tmax": 32.2, "prcp_d0": 0.0, "prcp_d1": 0.0, "prcp_d2": 0.0, "prcp_d3": 0.0, "prcp_d4": 0.0, "prcp_d5": 0.0, "prcp_d6": 0.0, "tmax_d0": 29.3, "tmax_d1": 28.6, "tmax_d2": 27.4, "tmax_d3": 25.9, "tmax_d4": 26.6, "tmax_d5": 25.9, "tmax_d6": 28.0, "tmin_d0": 14.8, "tmin_d1": 14.3, "tmin_d2": 13.3, "tmin_d3": 14.0, "tmin_d4": 11.6, "tmin_d5": 15.8, "tmin_d6": 15.5, "day_of_year": 201, "uuid": "704d03ff-b205-4943-bd74-0e59d876e6f0", "inat_id": 384085687}}, {"type": "Feature", "geometry": {"type": "Point", "coordinates": [-105.6879533652, 35.6743223602]}, "properties": {"species": "Infundibulicybe squamulosa", "date": "2026-07-25", "location": "New Mexico, US", "elevation": 2234.0, "land_cover_label": "Grassland", "water_mask": false, "exclude_reason": "keep", "ndvi": null, "soil_moisture": null, "solar_exposure": null, "wind_exposure": null, "water_retention": null, "slope": null, "aspect": null, "num_identification_agreements": 1, "cluster": 2, "tavg": null, "tmin": 18.3, "tmax": 31.7, "prcp_d0": 22.20157623291016, "prcp_d1": 0.0, "prcp_d2": 0.0, "prcp_d3": 0.0, "prcp_d4": 0.0, "prcp_d5": 0.0, "prcp_d6": 0.0, "tmax_d0": 27.7, "tmax_d1": 29.0, "tmax_d2": 26.8, "tmax_d3": 27.0, "tmax_d4": 28.2, "tmax_d5": 27.7, "tmax_d6": 27.5, "tmin_d0": 12.9, "tmin_d1": 12.5, "tmin_d2": 13.5, "tmin_d3": 11.7, "tmin_d4": 11.0, "tmin_d5": 10.8, "tmin_d6": 9.7, "day_of_year": 206, "uuid": "856012a9-6501-435a-b0b0-ffcde3a70509", "inat_id": 385388193}}, {"type": "Feature", "geometry": {"type": "Point", "coordinates": [-106.5855688584, 35.8216082381]}, "properties": {"species": "Infundibulicybe squamulosa", "date": "2026-07-25", "location": "Sandoval County, NM, USA", "elevation": 2480.0, "land_cover_label": "Tree cover", "water_mask": false, "exclude_reason": "keep", "ndvi": null, "soil_moisture": null, "solar_exposure": null, "wind_exposure": null, "water_retention": null, "slope": null, "aspect": null, "num_identification_agreements": 1, "cluster": 1, "tavg": null, "tmin": 20.7, "tmax": 31.3, "prcp_d0": 0.0, "prcp_d1": 42.22801971435547, "prcp_d2": 0.0, "prcp_d3": 0.0, "prcp_d4": 0.0, "prcp_d5": 0.0, "prcp_d6": 0.0, "tmax_d0": 26.3, "tmax_d1": 28.9, "tmax_d2": 23.7, "tmax_d3": 24.9, "tmax_d4": 25.1, "tmax_d5": 26.3, "tmax_d6": 25.8, "tmin_d0": 10.9, "tmin_d1": 11.5, "tmin_d2": 12.6, "tmin_d3": 12.5, "tmin_d4": 11.5, "tmin_d5": 11.1, "tmin_d6": 9.3, "day_of_year": 206, "uuid": "99337ed3-eb12-41ae-a34f-bb542370140c", "inat_id": 385288335}}, {"type": "Feature", "geometry": {"type": "Point", "coordinates": [-105.4408796021, 36.137993162]}, "properties": {"species": "Infundibulicybe squamulosa", "date": "2026-07-30", "location": "New Mexico, US", "elevation": 2997.0, "land_cover_label": "Tree cover", "water_mask": false, "exclude_reason": "keep", "ndvi": null, "soil_moisture": null, "solar_exposure": null, "wind_exposure": null, "water_retention": null, "slope": null, "aspect": null, "num_identification_agreements": 1, "cluster": 1, "tavg": null, "tmin": 7.0, "tmax": 29.8, "prcp_d0": 0.0, "prcp_d1": 5.474803924560547, "prcp_d2": 10.949607849121094, "prcp_d3": 5.474803924560547, "prcp_d4": 0.0, "prcp_d5": 21.05378532409668, "prcp_d6": 21.05378532409668, "tmax_d0": 25.5, "tmax_d1": 24.7, "tmax_d2": 25.8, "tmax_d3": 26.1, "tmax_d4": 26.7, "tmax_d5": 23.8, "tmax_d6": 24.3, "tmin_d0": 12.0, "tmin_d1": 11.3, "tmin_d2": 11.8, "tmin_d3": 12.3, "tmin_d4": 11.2, "tmin_d5": 12.2, "tmin_d6": 11.8, "day_of_year": 211, "uuid": "988e800f-b9d3-41df-aa4d-30c765e6d7ae", "inat_id": 388002889}}]}