{"type": "FeatureCollection", "features": [{"type": "Feature", "geometry": {"type": "Point", "coordinates": [-105.6776458975, 39.5321140803]}, "properties": {"species": "Lacrymaria lacrymabunda", "date": "2024-09-02", "location": "Colorado, US", "elevation": 3315.0, "num_identification_agreements": 2, "tavg": null, "tmin": null, "tmax": null, "day_of_year": 246, "uuid": "b443f766-ff3a-4fa4-9d73-63b14c0bb078", "inat_id": 239562632}}, {"type": "Feature", "geometry": {"type": "Point", "coordinates": [-105.5368583333, 40.0318083333]}, "properties": {"species": "Lacrymaria lacrymabunda", "date": "2023-08-12", "location": "County Road 116, Ward, CO, US", "elevation": 2911.0, "num_identification_agreements": 4, "tavg": null, "tmin": 17.0, "tmax": 28.0, "day_of_year": 224, "uuid": "fe77a68f-8a72-4a5a-a913-78a4bbe323cc", "inat_id": 178098317}}, {"type": "Feature", "geometry": {"type": "Point", "coordinates": [-107.8863299702, 37.8850866897]}, "properties": {"species": "Lacrymaria lacrymabunda", "date": "2022-08-18", "location": "Mountain Village, CO 81435, USA", "elevation": 2965.0, "num_identification_agreements": 2, "tavg": null, "tmin": 9.0, "tmax": 23.0, "day_of_year": 230, "uuid": "34608c1b-8c11-467d-9853-52cdd903ca0a", "inat_id": 131415409}}, {"type": "Feature", "geometry": {"type": "Point", "coordinates": [-107.505, 37.4471]}, "properties": {"species": "Lacrymaria lacrymabunda", "date": "2016-08-12", "location": "Pine River Campground, Bayfield, Colorado, USA", "elevation": 2426.0, "num_identification_agreements": 1, "tavg": null, "tmin": 9.4, "tmax": 28.3, "day_of_year": 225, "uuid": "752275eb-a3dd-466d-afec-d201292fd011", "inat_id": 7001458}}]}