{"type": "FeatureCollection", "features": [{"type": "Feature", "geometry": {"type": "Point", "coordinates": [-105.79671389, 35.80116667]}, "properties": {"species": "Lactarius deliciosus areolatus", "date": "2025-08-05", "location": "Santa Fe, New Mexico, United States", "elevation": 3319.0, "num_identification_agreements": 2, "tavg": null, "tmin": 12.8, "tmax": 35.0, "day_of_year": 217, "uuid": "66c464f1-de13-46ac-ab89-f017ab88dd02", "inat_id": 304278785}}, {"type": "Feature", "geometry": {"type": "Point", "coordinates": [-107.6463215, 39.08474375]}, "properties": {"species": "Lactarius deliciosus areolatus", "date": "2024-07-23", "location": "Overland Reservoir, Paonia, CO, US", "elevation": 3013.0, "num_identification_agreements": 2, "tavg": null, "tmin": 7.5, "tmax": 20.8, "day_of_year": 205, "uuid": "727de524-e6b4-4647-9446-b37e9149e4a7", "inat_id": 231343782}}, {"type": "Feature", "geometry": {"type": "Point", "coordinates": [-105.0130001083, 38.7355999866]}, "properties": {"species": "Lactarius deliciosus areolatus", "date": "2024-06-29", "location": "Manitou Springs, CO 80829, USA", "elevation": 2944.0, "num_identification_agreements": 3, "tavg": null, "tmin": 15.0, "tmax": 25.0, "day_of_year": 181, "uuid": "f3e2aa73-3cb1-4013-be90-ffa19c51a72c", "inat_id": 226022760}}]}