{"type": "FeatureCollection", "features": [{"type": "Feature", "geometry": {"type": "Point", "coordinates": [-107.5378368, 37.9338849]}, "properties": {"species": "Lactarius nanus", "date": "2012-08-15", "location": "Cinnamon Pass, Colorado 81235, USA", "elevation": 3841.0, "land_cover_label": "Moss and lichen", "water_mask": false, "exclude_reason": "keep", "ndvi": null, "soil_moisture": null, "solar_exposure": null, "wind_exposure": null, "water_retention": null, "slope": null, "aspect": null, "num_identification_agreements": 4, "cluster": 3, "tavg": null, "tmin": null, "tmax": null, "prcp_d0": 0.0, "prcp_d1": 34.973731994628906, "prcp_d2": 0.0, "prcp_d3": 0.0, "prcp_d4": 0.0, "prcp_d5": 0.0, "prcp_d6": 36.77439880371094, "tmax_d0": null, "tmax_d1": null, "tmax_d2": null, "tmax_d3": null, "tmax_d4": null, "tmax_d5": null, "tmax_d6": null, "tmin_d0": null, "tmin_d1": null, "tmin_d2": null, "tmin_d3": null, "tmin_d4": null, "tmin_d5": null, "tmin_d6": null, "day_of_year": 228, "uuid": "e7d425d9-975b-4d25-9c9d-99c8efe61eee", "inat_id": 141307165}}]}