{"type": "FeatureCollection", "features": [{"type": "Feature", "geometry": {"type": "Point", "coordinates": [-121.432805, 45.352803]}, "properties": {"species": "Lactarius crassus", "date": "2022-06-28", "location": "Friend, OR", "elevation": 1322.0, "land_cover_label": "Tree cover", "water_mask": false, "exclude_reason": "keep", "ndvi": null, "soil_moisture": null, "solar_exposure": null, "wind_exposure": null, "water_retention": null, "slope": null, "aspect": null, "num_identification_agreements": 2, "cluster": 2, "tavg": null, "tmin": 19.4, "tmax": 28.3, "prcp_d0": 0.0, "prcp_d1": 0.0, "prcp_d2": 0.0, "prcp_d3": 0.0, "prcp_d4": 0.0, "prcp_d5": 0.0, "prcp_d6": 0.0, "tmax_d0": 23.9, "tmax_d1": 27.9, "tmax_d2": 26.0, "tmax_d3": 21.6, "tmax_d4": 18.5, "tmax_d5": 19.1, "tmax_d6": 21.7, "tmin_d0": 10.2, "tmin_d1": 14.9, "tmin_d2": 10.0, "tmin_d3": 7.2, "tmin_d4": 5.0, "tmin_d5": 3.9, "tmin_d6": 9.3, "day_of_year": 179, "uuid": "acbf3989-f1df-4430-b886-435b09f7a06a", "inat_id": 146734818}}]}