{"type": "FeatureCollection", "features": [{"type": "Feature", "geometry": {"type": "Point", "coordinates": [-110.8184771804, 40.7289857376]}, "properties": {"species": "Lactarius deliciosus", "date": "2026-08-07", "location": "Utah, US", "elevation": 3235.0, "num_identification_agreements": 1, "tavg": null, "tmin": null, "tmax": null, "day_of_year": 219, "uuid": "1a6214b3-a89e-4346-973a-5e2b3d4470d2", "inat_id": 389437430}}, {"type": "Feature", "geometry": {"type": "Point", "coordinates": [-103.8399542845, 44.1506911031]}, "properties": {"species": "Lactarius deliciosus", "date": "2024-08-31", "location": "Black Hills National Forest, Lead, SD, US", "elevation": 1820.0, "num_identification_agreements": 2, "tavg": null, "tmin": null, "tmax": null, "day_of_year": 244, "uuid": "561ea22c-06c2-4fb3-b17c-5536369d0361", "inat_id": 340084904}}, {"type": "Feature", "geometry": {"type": "Point", "coordinates": [-105.0654930997, 40.4958985997]}, "properties": {"species": "Lactarius deliciosus", "date": "2025-09-13", "location": "Fort Collins, CO 80525, USA", "elevation": 1508.0, "num_identification_agreements": 1, "tavg": null, "tmin": 14.0, "tmax": 24.0, "day_of_year": 256, "uuid": "d4e45548-c804-45d2-a0c3-62dd2d3837f3", "inat_id": 313641149}}, {"type": "Feature", "geometry": {"type": "Point", "coordinates": [-105.586525, 40.1844783333]}, "properties": {"species": "Lactarius deliciosus", "date": "2025-08-03", "location": "Confusion Junction-Pear Lake Trail, Ward, CO, US", "elevation": 3095.0, "num_identification_agreements": 1, "tavg": null, "tmin": 4.2, "tmax": 25.5, "day_of_year": 215, "uuid": "5245fb3b-e649-4bf1-a424-36272940ff03", "inat_id": 303889726}}, {"type": "Feature", "geometry": {"type": "Point", "coordinates": [-106.7495631427, 39.2447156081]}, "properties": {"species": "Lactarius deliciosus", "date": "2025-08-01", "location": "Snowmass, CO 81654, USA", "elevation": 2714.0, "num_identification_agreements": 2, "tavg": null, "tmin": 10.6, "tmax": 23.3, "day_of_year": 213, "uuid": "985e8c69-2a21-420e-a698-3bb983dff661", "inat_id": 303133475}}, {"type": "Feature", "geometry": {"type": "Point", "coordinates": [-105.6621528566, 35.9542194976]}, "properties": {"species": "Lactarius deliciosus", "date": "2025-07-20", "location": "Cleveland, NM, US", "elevation": 3598.0, "num_identification_agreements": 1, "tavg": null, "tmin": null, "tmax": null, "day_of_year": 201, "uuid": "fd5c16fa-bd77-469a-aa07-351aac01b025", "inat_id": 299621665}}, {"type": "Feature", "geometry": {"type": "Point", "coordinates": [-105.7941547163, 35.7918159518]}, "properties": {"species": "Lactarius deliciosus", "date": "2025-07-18", "location": "Santa Fe County, US-NM, US", "elevation": 3277.0, "num_identification_agreements": 1, "tavg": null, "tmin": 16.1, "tmax": 31.7, "day_of_year": 199, "uuid": "6a5e974e-0085-4a81-a1d5-6cd4b02f0796", "inat_id": 299077196}}, {"type": "Feature", "geometry": {"type": "Point", "coordinates": [-106.0907666667, 39.3859555556]}, "properties": {"species": "Lactarius deliciosus", "date": "2022-08-17", "location": "Summit County, CO, USA", "elevation": 3479.0, "num_identification_agreements": 1, "tavg": null, "tmin": 7.2, "tmax": 16.1, "day_of_year": 229, "uuid": "5b7d46ea-087c-41a6-83eb-f9c372218df7", "inat_id": 274741340}}, {"type": "Feature", "geometry": {"type": "Point", "coordinates": [-107.3559309722, 40.0426509722]}, "properties": {"species": "Lactarius deliciosus", "date": "2024-09-10", "location": "Rio Blanco County, US-CO, US", "elevation": 3100.0, "num_identification_agreements": 1, "tavg": null, "tmin": 6.1, "tmax": 26.1, "day_of_year": 254, "uuid": "0dc4a7a8-ddaf-492b-afcf-d223d563eba2", "inat_id": 244428413}}, {"type": "Feature", "geometry": {"type": "Point", "coordinates": [-107.3228809722, 40.053989]}, "properties": {"species": "Lactarius deliciosus", "date": "2024-09-10", "location": "Rio Blanco County, US-CO, US", "elevation": 2610.0, "num_identification_agreements": 1, "tavg": null, "tmin": 6.1, "tmax": 26.1, "day_of_year": 254, "uuid": "b221e8ef-1be1-4409-8202-c08dec871e33", "inat_id": 244427021}}, {"type": "Feature", "geometry": {"type": "Point", "coordinates": [-106.1176305, 39.6230883333]}, "properties": {"species": "Lactarius deliciosus", "date": "2024-09-21", "location": "Summit County, US-CO, US", "elevation": 3048.0, "num_identification_agreements": 1, "tavg": null, "tmin": 2.0, "tmax": 15.0, "day_of_year": 265, "uuid": "c8045746-44f2-4ff1-ad53-9b7353b9a76b", "inat_id": 243212796}}, {"type": "Feature", "geometry": {"type": "Point", "coordinates": [-105.1679163707, 38.021775638]}, "properties": {"species": "Lactarius deliciosus", "date": "2024-09-11", "location": "Custer County, US-CO, US", "elevation": 3236.0, "num_identification_agreements": 1, "tavg": null, "tmin": 14.6, "tmax": 30.5, "day_of_year": 255, "uuid": "693d3b5b-78ed-4f0f-b436-bd8b67a08d45", "inat_id": 241137097}}, {"type": "Feature", "geometry": {"type": "Point", "coordinates": [-105.7111167535, 39.5949864574]}, "properties": {"species": "Lactarius deliciosus", "date": "2024-08-15", "location": "Keystone, CO 80435, USA", "elevation": 3558.0, "num_identification_agreements": 1, "tavg": null, "tmin": -0.6, "tmax": 12.8, "day_of_year": 228, "uuid": "bd855df9-1d9d-4163-9659-f8ce5281b396", "inat_id": 235935510}}, {"type": "Feature", "geometry": {"type": "Point", "coordinates": [-105.7954944444, 35.7692416667]}, "properties": {"species": "Lactarius deliciosus", "date": "2024-08-14", "location": "Santa Fe County, NM, USA", "elevation": 3265.0, "num_identification_agreements": 1, "tavg": null, "tmin": 15.6, "tmax": 30.0, "day_of_year": 227, "uuid": "e51c86cc-f49a-4513-9f79-6f801af5d4e3", "inat_id": 235824415}}, {"type": "Feature", "geometry": {"type": "Point", "coordinates": [-106.6640879354, 35.9031804599]}, "properties": {"species": "Lactarius deliciosus", "date": "2024-08-10", "location": "Sandoval County, US-NM, US", "elevation": 2672.0, "num_identification_agreements": 1, "tavg": null, "tmin": 15.5, "tmax": 22.0, "day_of_year": 223, "uuid": "cd9a223c-3c42-45eb-be6d-b5bf36850e59", "inat_id": 235468810}}, {"type": "Feature", "geometry": {"type": "Point", "coordinates": [-107.824255, 37.854855]}, "properties": {"species": "Lactarius deliciosus", "date": "2023-08-18", "location": "Grand Mesa Uncompahgre and Gunnison National Forests, Ophir, CO, US", "elevation": 2983.0, "num_identification_agreements": 1, "tavg": null, "tmin": 11.0, "tmax": 22.0, "day_of_year": 230, "uuid": "8caf4872-e9c8-4db4-a8d5-3bcb78c9ffbe", "inat_id": 179703379}}, {"type": "Feature", "geometry": {"type": "Point", "coordinates": [-105.1618150994, 38.8845664827]}, "properties": {"species": "Lactarius deliciosus", "date": "2023-07-29", "location": "Mueller State Park", "elevation": 2834.0, "num_identification_agreements": 1, "tavg": null, "tmin": 10.8, "tmax": 30.1, "day_of_year": 210, "uuid": "663537af-1760-409c-b3b5-304296671bab", "inat_id": 175664986}}, {"type": "Feature", "geometry": {"type": "Point", "coordinates": [-105.732375, 39.5105944444]}, "properties": {"species": "Lactarius deliciosus", "date": "2022-09-29", "location": "Keystone, CO 80435, USA", "elevation": 2958.0, "num_identification_agreements": 1, "tavg": null, "tmin": -1.1, "tmax": 9.3, "day_of_year": 272, "uuid": "6a2e05d2-6ab2-4f47-9262-2cd0102e7031", "inat_id": 137016650}}, {"type": "Feature", "geometry": {"type": "Point", "coordinates": [-107.8322833333, 37.930375]}, "properties": {"species": "Lactarius deliciosus", "date": "2022-08-18", "location": "Mountain Village, CO, USA", "elevation": 3211.0, "num_identification_agreements": 1, "tavg": null, "tmin": 9.0, "tmax": 23.0, "day_of_year": 230, "uuid": "9a982a85-68d3-437d-9a00-06dc56a195ae", "inat_id": 136601884}}, {"type": "Feature", "geometry": {"type": "Point", "coordinates": [-107.8265872, 37.929326]}, "properties": {"species": "Lactarius deliciosus", "date": "2022-08-16", "location": "Mountain Village, CO, USA", "elevation": 3075.0, "num_identification_agreements": 2, "tavg": null, "tmin": 11.0, "tmax": 17.0, "day_of_year": 228, "uuid": "c8414c53-c610-4972-b2b7-20821d8db7d1", "inat_id": 134347410}}, {"type": "Feature", "geometry": {"type": "Point", "coordinates": [-105.5335383333, 40.0835833333]}, "properties": {"species": "Lactarius deliciosus", "date": "2022-09-03", "location": "Sourdough, Ward, CO, US", "elevation": 3044.0, "num_identification_agreements": 1, "tavg": null, "tmin": 17.0, "tmax": 31.0, "day_of_year": 246, "uuid": "435f0728-5acf-4356-b680-22c51e8ea04b", "inat_id": 133686270}}, {"type": "Feature", "geometry": {"type": "Point", "coordinates": [-105.6464616667, 40.3132666667]}, "properties": {"species": "Lactarius deliciosus", "date": "2022-08-30", "location": "Rocky Mountain National Park, Estes Park, CO, US", "elevation": 2905.0, "num_identification_agreements": 1, "tavg": null, "tmin": 5.1, "tmax": 27.0, "day_of_year": 242, "uuid": "0e4fd757-b8f2-4101-8f3f-7a3d6a7d7ffe", "inat_id": 133032544}}, {"type": "Feature", "geometry": {"type": "Point", "coordinates": [-105.5827502392, 40.0519431789]}, "properties": {"species": "Lactarius deliciosus", "date": "2022-08-29", "location": "Boulder County, US-CO, US", "elevation": 3435.0, "num_identification_agreements": 5, "tavg": null, "tmin": 2.6, "tmax": 24.2, "day_of_year": 241, "uuid": "0cf7765e-51fa-4c23-90f2-c020415727ad", "inat_id": 132889027}}, {"type": "Feature", "geometry": {"type": "Point", "coordinates": [-106.2573783333, 41.3579666667]}, "properties": {"species": "Lactarius deliciosus", "date": "2022-08-28", "location": "Medicine Bow-Routt National Forest & Thunder Basin National Grassland, Laramie, WY, US", "elevation": 3204.0, "num_identification_agreements": 2, "tavg": null, "tmin": 16.0, "tmax": 26.0, "day_of_year": 240, "uuid": "15bc5414-f0b7-4f01-bd80-9956c228bddd", "inat_id": 132709305}}, {"type": "Feature", "geometry": {"type": "Point", "coordinates": [-106.182, 39.4856916667]}, "properties": {"species": "Lactarius deliciosus", "date": "2022-08-21", "location": "White River National Forest, Frisco, CO, US", "elevation": 3333.0, "num_identification_agreements": 1, "tavg": null, "tmin": 7.2, "tmax": 15.0, "day_of_year": 233, "uuid": "100f5b55-44e1-4e8f-ade4-632156d26a85", "inat_id": 131887613}}, {"type": "Feature", "geometry": {"type": "Point", "coordinates": [-106.0670388333, 39.4912333333]}, "properties": {"species": "Lactarius deliciosus", "date": "2022-08-13", "location": "White River National Forest, Breckenridge, CO, US", "elevation": 3035.0, "num_identification_agreements": 1, "tavg": null, "tmin": 12.0, "tmax": 18.0, "day_of_year": 225, "uuid": "f5c8fe1d-4819-4881-94d0-50e84cc83141", "inat_id": 131837018}}, {"type": "Feature", "geometry": {"type": "Point", "coordinates": [-105.7870725072, 39.717066202]}, "properties": {"species": "Lactarius deliciosus", "date": "2022-08-13", "location": "Colorado, US", "elevation": 3776.0, "num_identification_agreements": 1, "tavg": null, "tmin": 4.1, "tmax": 14.2, "day_of_year": 225, "uuid": "0dad6843-33d2-4337-ad6d-ebef3fda6052", "inat_id": 130731415}}, {"type": "Feature", "geometry": {"type": "Point", "coordinates": [-106.0556036945, 39.4773055551]}, "properties": {"species": "Lactarius deliciosus", "date": "2022-08-08", "location": "White River National Forest, Breckenridge, CO, US", "elevation": 2980.0, "num_identification_agreements": 1, "tavg": null, "tmin": 6.7, "tmax": 22.8, "day_of_year": 220, "uuid": "a637de96-9d35-4dda-a9f0-d77118d3789e", "inat_id": 130040602}}, {"type": "Feature", "geometry": {"type": "Point", "coordinates": [-105.7800908695, 39.8093677422]}, "properties": {"species": "Lactarius deliciosus", "date": "2022-08-06", "location": "Grand County, US-CO, US", "elevation": 3330.0, "num_identification_agreements": 2, "tavg": null, "tmin": 5.4, "tmax": 16.7, "day_of_year": 218, "uuid": "70766342-081f-4057-8756-975ada554110", "inat_id": 129734035}}, {"type": "Feature", "geometry": {"type": "Point", "coordinates": [-105.5502700556, 40.0708503611]}, "properties": {"species": "Lactarius deliciosus", "date": "2022-07-31", "location": "Nederland, CO 80466, USA", "elevation": 3219.0, "num_identification_agreements": 1, "tavg": null, "tmin": 18.0, "tmax": 31.0, "day_of_year": 212, "uuid": "694d9b94-8ecb-421f-87e7-6ceaf4dd1c12", "inat_id": 128912124}}, {"type": "Feature", "geometry": {"type": "Point", "coordinates": [-106.7500321192, 39.2446945046]}, "properties": {"species": "Lactarius deliciosus", "date": "2022-07-29", "location": "Pitkin County, US-CO, US", "elevation": 2684.0, "num_identification_agreements": 2, "tavg": null, "tmin": 9.4, "tmax": 23.9, "day_of_year": 210, "uuid": "6209dce0-a61f-456e-8539-df1d4bc834bd", "inat_id": 128496656}}, {"type": "Feature", "geometry": {"type": "Point", "coordinates": [-106.1519555, 39.4921383333]}, "properties": {"species": "Lactarius deliciosus", "date": "2021-08-23", "location": "Copper Mountain, Frisco, CO, US", "elevation": 3205.0, "num_identification_agreements": 1, "tavg": null, "tmin": 3.3, "tmax": 20.6, "day_of_year": 235, "uuid": "f60f5de1-32c3-4375-bc09-dd5adaa81788", "inat_id": 92467216}}, {"type": "Feature", "geometry": {"type": "Point", "coordinates": [-109.8266270814, 40.7723472934]}, "properties": {"species": "Lactarius deliciosus", "date": "2021-08-16", "location": "Uintah County, UT, USA", "elevation": 3430.0, "num_identification_agreements": 1, "tavg": null, "tmin": 15.0, "tmax": 32.2, "day_of_year": 228, "uuid": "54b4ec7b-d794-4548-8f80-a2f9413cfed8", "inat_id": 91647243}}, {"type": "Feature", "geometry": {"type": "Point", "coordinates": [-107.5678021833, 38.2645963049]}, "properties": {"species": "Lactarius deliciosus", "date": "2021-08-15", "location": "Gunnison, CO 81230, USA", "elevation": 2877.0, "num_identification_agreements": 1, "tavg": null, "tmin": 17.8, "tmax": 33.3, "day_of_year": 227, "uuid": "1981150b-5d94-45ba-b81a-3c8d2e543e9c", "inat_id": 91544145}}, {"type": "Feature", "geometry": {"type": "Point", "coordinates": [-105.7951333333, 39.9052166667]}, "properties": {"species": "Lactarius deliciosus", "date": "2021-08-14", "location": "Winter Park, CO 80482, USA", "elevation": 2766.0, "num_identification_agreements": 2, "tavg": null, "tmin": 6.0, "tmax": 28.3, "day_of_year": 226, "uuid": "b4259da6-b863-4ba7-a159-7d38d4fb8e7f", "inat_id": 91328858}}, {"type": "Feature", "geometry": {"type": "Point", "coordinates": [-105.7753972222, 39.795975]}, "properties": {"species": "Lactarius deliciosus", "date": "2021-08-14", "location": "Clear Creek County, CO, USA", "elevation": 3464.0, "num_identification_agreements": 1, "tavg": null, "tmin": 6.0, "tmax": 28.3, "day_of_year": 226, "uuid": "2f9c8329-6cbd-47c4-a877-5ec9801520f0", "inat_id": 91185875}}, {"type": "Feature", "geometry": {"type": "Point", "coordinates": [-105.762809, 39.871704]}, "properties": {"species": "Lactarius deliciosus", "date": "2021-08-14", "location": "Winter Park, CO 80482, USA", "elevation": 2998.0, "num_identification_agreements": 1, "tavg": null, "tmin": 6.0, "tmax": 28.3, "day_of_year": 226, "uuid": "9c1e547b-f23a-48a1-ab3f-c210f8a0a812", "inat_id": 91147768}}, {"type": "Feature", "geometry": {"type": "Point", "coordinates": [-105.973654, 39.937107]}, "properties": {"species": "Lactarius deliciosus", "date": "2021-08-13", "location": "Grand County, CO, USA", "elevation": 3036.0, "num_identification_agreements": 2, "tavg": null, "tmin": 7.7, "tmax": 27.3, "day_of_year": 225, "uuid": "de1e6f05-a6b0-4e6b-8712-b5dfdba6697e", "inat_id": 91123886}}, {"type": "Feature", "geometry": {"type": "Point", "coordinates": [-105.973654, 39.937107]}, "properties": {"species": "Lactarius deliciosus", "date": "2021-08-13", "location": "Grand County, CO, USA", "elevation": 3036.0, "num_identification_agreements": 2, "tavg": null, "tmin": 7.7, "tmax": 27.3, "day_of_year": 225, "uuid": "3df6903e-707d-4e76-99f7-369b697d471c", "inat_id": 91123636}}, {"type": "Feature", "geometry": {"type": "Point", "coordinates": [-105.5095367222, 39.7118606389]}, "properties": {"species": "Lactarius deliciosus", "date": "2021-08-04", "location": "Idaho Springs, CO 80452, USA", "elevation": 2673.0, "num_identification_agreements": 1, "tavg": null, "tmin": 16.0, "tmax": 28.0, "day_of_year": 216, "uuid": "ffccb3f9-1c13-4570-8f37-335dd66b6cae", "inat_id": 89978512}}, {"type": "Feature", "geometry": {"type": "Point", "coordinates": [-105.7183763222, 39.6090175121]}, "properties": {"species": "Lactarius deliciosus", "date": "2021-08-03", "location": "Clear Creek County, US-CO, US", "elevation": 3323.0, "num_identification_agreements": 2, "tavg": null, "tmin": 7.0, "tmax": 12.0, "day_of_year": 215, "uuid": "5bf0ae81-8824-4f2f-88c5-d1c728e2ea92", "inat_id": 89829979}}, {"type": "Feature", "geometry": {"type": "Point", "coordinates": [-107.836, 37.9421]}, "properties": {"species": "Lactarius deliciosus", "date": "2018-08-16", "location": "Telluride, Colorado, USA", "elevation": 2652.0, "num_identification_agreements": 1, "tavg": null, "tmin": 11.0, "tmax": 23.0, "day_of_year": 228, "uuid": "92409735-ad86-4138-bac6-805774d4cef8", "inat_id": 40349104}}, {"type": "Feature", "geometry": {"type": "Point", "coordinates": [-106.1635666667, 39.4906283333]}, "properties": {"species": "Lactarius deliciosus", "date": "2019-09-02", "location": "Copper Mountain, Frisco, CO, US", "elevation": 3213.0, "num_identification_agreements": 1, "tavg": null, "tmin": 4.4, "tmax": 25.6, "day_of_year": 245, "uuid": "cce25b32-aece-4214-adcb-29163de18fda", "inat_id": 32107498}}, {"type": "Feature", "geometry": {"type": "Point", "coordinates": [-106.1602638333, 39.4907833333]}, "properties": {"species": "Lactarius deliciosus", "date": "2019-08-30", "location": "Copper Mountain, Frisco, CO, US", "elevation": 3191.0, "num_identification_agreements": 1, "tavg": null, "tmin": 2.8, "tmax": 21.7, "day_of_year": 242, "uuid": "84ba0b24-c6eb-46bf-bab6-d607635d1781", "inat_id": 31942860}}, {"type": "Feature", "geometry": {"type": "Point", "coordinates": [-106.1193166667, 38.8420366667]}, "properties": {"species": "Lactarius deliciosus", "date": "2019-08-17", "location": "San Isabel National Forest, Buena Vista, CO, US", "elevation": 2418.0, "num_identification_agreements": 2, "tavg": null, "tmin": 7.6, "tmax": 27.4, "day_of_year": 229, "uuid": "f968cfeb-2dca-454f-816a-bcbd7eeb7fe9", "inat_id": 31677739}}, {"type": "Feature", "geometry": {"type": "Point", "coordinates": [-107.8547701334, 37.4685841939]}, "properties": {"species": "Lactarius deliciosus", "date": "2019-08-19", "location": "La Plata County, US-CO, US", "elevation": 2449.0, "num_identification_agreements": 1, "tavg": null, "tmin": 9.4, "tmax": 30.6, "day_of_year": 231, "uuid": "b066ed38-b369-4b59-94b4-5486a5c1d5c9", "inat_id": 31159205}}, {"type": "Feature", "geometry": {"type": "Point", "coordinates": [-105.4357616667, 36.5711666667]}, "properties": {"species": "Lactarius deliciosus", "date": "2016-08-26", "location": "Carson National Forest, Valdez, NM, US", "elevation": 3184.0, "num_identification_agreements": 2, "tavg": null, "tmin": null, "tmax": null, "day_of_year": 239, "uuid": "dc38aeba-a568-4d59-a898-7c1db64a8036", "inat_id": 3977796}}, {"type": "Feature", "geometry": {"type": "Point", "coordinates": [-106.5375216667, 39.1343945]}, "properties": {"species": "Lactarius deliciosus", "date": "2014-09-07", "location": "Lake County, US-CO, US", "elevation": 3473.0, "num_identification_agreements": 1, "tavg": null, "tmin": 2.2, "tmax": 16.7, "day_of_year": 250, "uuid": "5bd7dce8-b2db-485d-ac41-7915a317796f", "inat_id": 878621}}, {"type": "Feature", "geometry": {"type": "Point", "coordinates": [-106.5361783333, 39.1282195]}, "properties": {"species": "Lactarius deliciosus", "date": "2014-09-07", "location": "Lake County, US-CO, US", "elevation": 3413.0, "num_identification_agreements": 2, "tavg": null, "tmin": 2.2, "tmax": 16.7, "day_of_year": 250, "uuid": "59012b29-c896-4bc0-a1db-0863f485f444", "inat_id": 878574}}]}