{"type": "FeatureCollection", "features": [{"type": "Feature", "geometry": {"type": "Point", "coordinates": [-104.8195480936, 38.7207161916]}, "properties": {"species": "Lactarius barrowsii", "date": "2025-09-08", "location": "Colorado, US", "elevation": 1860.0, "land_cover_label": "Bare / sparse vegetation", "water_mask": false, "exclude_reason": "keep", "ndvi": null, "soil_moisture": null, "solar_exposure": null, "wind_exposure": null, "water_retention": null, "slope": null, "aspect": null, "num_identification_agreements": 1, "cluster": 0, "tavg": null, "tmin": 13.7, "tmax": 25.1, "prcp_d0": 0.0, "prcp_d1": 0.0, "prcp_d2": 0.0, "prcp_d3": 0.0, "prcp_d4": 0.0, "prcp_d5": 0.0, "prcp_d6": 0.0, "tmax_d0": 25.8, "tmax_d1": 23.4, "tmax_d2": 21.8, "tmax_d3": 24.3, "tmax_d4": 28.2, "tmax_d5": 27.4, "tmax_d6": 24.0, "tmin_d0": 11.2, "tmin_d1": 12.9, "tmin_d2": 9.0, "tmin_d3": 10.3, "tmin_d4": 10.2, "tmin_d5": 11.6, "tmin_d6": 10.9, "day_of_year": 251, "uuid": "5f7047f9-7af9-4246-a890-81005271f58e", "inat_id": 312599497}}]}