{"type": "FeatureCollection", "features": [{"type": "Feature", "geometry": {"type": "Point", "coordinates": [-121.795, 45.30895]}, "properties": {"species": "Lactarius fallax concolor", "date": "2018-09-26", "location": "Barlow Trail, Laurel Ridge, Government Camp, Zigzag Ranger District, Mount Hood National Forest, Clackamas Co., Oregon, USA", "elevation": 1029.0, "land_cover_label": "Tree cover", "water_mask": false, "exclude_reason": "keep", "ndvi": null, "soil_moisture": null, "solar_exposure": null, "wind_exposure": null, "water_retention": null, "slope": null, "aspect": null, "num_identification_agreements": 1, "cluster": 0, "tavg": null, "tmin": null, "tmax": null, "prcp_d0": 0.0, "prcp_d1": 0.0, "prcp_d2": 0.0, "prcp_d3": 0.0, "prcp_d4": 6.330986022949219, "prcp_d5": 0.0, "prcp_d6": 0.0, "tmax_d0": 24.7, "tmax_d1": 19.2, "tmax_d2": 17.9, "tmax_d3": 9.5, "tmax_d4": 16.3, "tmax_d5": 19.5, "tmax_d6": 14.4, "tmin_d0": 8.2, "tmin_d1": 7.0, "tmin_d2": 3.4, "tmin_d3": 4.1, "tmin_d4": 8.9, "tmin_d5": 8.2, "tmin_d6": 5.6, "day_of_year": 269, "uuid": "a735b0cc-88e1-48d3-9aa9-baa9cf85dc51", "inat_id": 16987283}}, {"type": "Feature", "geometry": {"type": "Point", "coordinates": [-121.8133906263, 45.2881750811]}, "properties": {"species": "Lactarius fallax concolor", "date": "2020-10-24", "location": "Oregon, US", "elevation": 1263.0, "land_cover_label": "Tree cover", "water_mask": false, "exclude_reason": "keep", "ndvi": null, "soil_moisture": null, "solar_exposure": null, "wind_exposure": null, "water_retention": null, "slope": null, "aspect": null, "num_identification_agreements": 2, "cluster": 0, "tavg": null, "tmin": null, "tmax": null, "prcp_d0": 0.0, "prcp_d1": 0.0, "prcp_d2": 0.0, "prcp_d3": 0.0, "prcp_d4": 0.0, "prcp_d5": 0.0, "prcp_d6": 0.0, "tmax_d0": 6.8, "tmax_d1": 5.4, "tmax_d2": 5.9, "tmax_d3": 6.3, "tmax_d4": 7.5, "tmax_d5": 9.1, "tmax_d6": 8.8, "tmin_d0": -1.4, "tmin_d1": -2.4, "tmin_d2": -4.3, "tmin_d3": 1.5, "tmin_d4": 2.0, "tmin_d5": 5.7, "tmin_d6": 4.4, "day_of_year": 298, "uuid": "dfebf444-52e2-453e-ae32-de179df867a1", "inat_id": 64796459}}, {"type": "Feature", "geometry": {"type": "Point", "coordinates": [-121.8094830418, 45.2917452181]}, "properties": {"species": "Lactarius fallax concolor", "date": "2020-10-24", "location": "Oregon, US", "elevation": 1352.0, "land_cover_label": "Tree cover", "water_mask": false, "exclude_reason": "keep", "ndvi": null, "soil_moisture": null, "solar_exposure": null, "wind_exposure": null, "water_retention": null, "slope": null, "aspect": null, "num_identification_agreements": 0, "cluster": 0, "tavg": null, "tmin": null, "tmax": null, "prcp_d0": 0.0, "prcp_d1": 0.0, "prcp_d2": 0.0, "prcp_d3": 0.0, "prcp_d4": 0.0, "prcp_d5": 0.0, "prcp_d6": 0.0, "tmax_d0": 6.8, "tmax_d1": 5.4, "tmax_d2": 5.9, "tmax_d3": 6.3, "tmax_d4": 7.5, "tmax_d5": 9.1, "tmax_d6": 8.8, "tmin_d0": -1.4, "tmin_d1": -2.4, "tmin_d2": -4.3, "tmin_d3": 1.5, "tmin_d4": 2.0, "tmin_d5": 5.7, "tmin_d6": 4.4, "day_of_year": 298, "uuid": "eb08ebac-5fdc-42a2-aac7-8fb6de18e0fb", "inat_id": 63495561}}, {"type": "Feature", "geometry": {"type": "Point", "coordinates": [-121.8663, 45.300286]}, "properties": {"species": "Lactarius fallax concolor", "date": "2023-10-18", "location": "Clackamas County, OR, USA", "elevation": 713.0, "land_cover_label": "Tree cover", "water_mask": false, "exclude_reason": "keep", "ndvi": null, "soil_moisture": null, "solar_exposure": null, "wind_exposure": null, "water_retention": null, "slope": null, "aspect": null, "num_identification_agreements": 1, "cluster": 1, "tavg": null, "tmin": 8.8, "tmax": 20.3, "prcp_d0": 0.0, "prcp_d1": 0.0, "prcp_d2": 36.595359802246094, "prcp_d3": 0.0, "prcp_d4": 0.0, "prcp_d5": 0.0, "prcp_d6": 0.0, "tmax_d0": 25.5, "tmax_d1": 17.1, "tmax_d2": 18.2, "tmax_d3": 20.0, "tmax_d4": 15.5, "tmax_d5": 17.5, "tmax_d6": 15.3, "tmin_d0": 8.3, "tmin_d1": 7.5, "tmin_d2": 12.0, "tmin_d3": 9.2, "tmin_d4": 8.6, "tmin_d5": 8.4, "tmin_d6": 6.3, "day_of_year": 291, "uuid": "f806eb11-cc33-4471-b579-979f007acb42", "inat_id": 188483290}}]}