{"type": "FeatureCollection", "features": [{"type": "Feature", "geometry": {"type": "Point", "coordinates": [-105.7192692997, 39.6082991]}, "properties": {"species": "Lactarius olympianus", "date": "2026-08-05", "location": "Dillon, CO 80435, USA", "elevation": 3389.0, "num_identification_agreements": 1, "tavg": null, "tmin": 5.0, "tmax": 16.0, "day_of_year": 217, "uuid": "b2dc63b2-7604-4f79-97d9-508bfbf8fc31", "inat_id": 388639700}}, {"type": "Feature", "geometry": {"type": "Point", "coordinates": [-107.0356722032, 38.8805254106]}, "properties": {"species": "Lactarius olympianus", "date": "2025-08-31", "location": "Gunnison County, US-CO, US", "elevation": 3208.0, "num_identification_agreements": 1, "tavg": null, "tmin": 4.0, "tmax": 24.0, "day_of_year": 243, "uuid": "641130d6-9639-4c13-8d9a-60865af79a72", "inat_id": 310696449}}, {"type": "Feature", "geometry": {"type": "Point", "coordinates": [-105.7811782997, 39.8096966]}, "properties": {"species": "Lactarius olympianus", "date": "2025-08-20", "location": "Winter Park, CO 80482, USA", "elevation": 3330.0, "num_identification_agreements": 1, "tavg": null, "tmin": 0.7, "tmax": 16.0, "day_of_year": 232, "uuid": "fb58b9f6-48be-490e-a58b-1d7aec6743b0", "inat_id": 307799408}}, {"type": "Feature", "geometry": {"type": "Point", "coordinates": [-105.7872482389, 39.8094526741]}, "properties": {"species": "Lactarius olympianus", "date": "2024-09-04", "location": "Winter Park, CO 80482, USA", "elevation": 3399.0, "num_identification_agreements": 2, "tavg": null, "tmin": 0.9, "tmax": 12.8, "day_of_year": 248, "uuid": "872a5435-f929-4ee0-ba6f-5dbffd4d6e28", "inat_id": 239873841}}, {"type": "Feature", "geometry": {"type": "Point", "coordinates": [-105.9221962094, 39.678211443]}, "properties": {"species": "Lactarius olympianus", "date": "2026-08-16", "location": "Dillon, CO 80435, USA", "elevation": 3760.0, "num_identification_agreements": 2, "tavg": null, "tmin": 4.0, "tmax": 11.0, "day_of_year": 228, "uuid": "805ec0fc-7fa8-463c-a9d7-db74eac9904b", "inat_id": 393693443}}, {"type": "Feature", "geometry": {"type": "Point", "coordinates": [-105.961780488, 39.6045212226]}, "properties": {"species": "Lactarius olympianus", "date": "2023-09-17", "location": "Colorado, US", "elevation": 2825.0, "num_identification_agreements": 1, "tavg": null, "tmin": -0.6, "tmax": 10.4, "day_of_year": 260, "uuid": "1cc21414-c112-459a-b077-0947e99929f5", "inat_id": 183798750}}, {"type": "Feature", "geometry": {"type": "Point", "coordinates": [-105.7329478646, 39.8220456167]}, "properties": {"species": "Lactarius olympianus", "date": "2023-09-06", "location": "Colorado, US", "elevation": 3581.0, "num_identification_agreements": 1, "tavg": null, "tmin": -1.1, "tmax": 14.3, "day_of_year": 249, "uuid": "7f6ee0a2-aef1-4c32-b25d-122c99cbe21c", "inat_id": 182124589}}, {"type": "Feature", "geometry": {"type": "Point", "coordinates": [-106.2485583333, 39.5310033333]}, "properties": {"species": "Lactarius olympianus", "date": "2023-08-27", "location": "White River National Forest, Frisco, CO, US", "elevation": 3503.0, "num_identification_agreements": 2, "tavg": null, "tmin": 10.0, "tmax": 18.0, "day_of_year": 239, "uuid": "19af68c7-e6b7-43e2-934a-05c04617ed20", "inat_id": 180769226}}, {"type": "Feature", "geometry": {"type": "Point", "coordinates": [-107.8351505423, 37.8993777646]}, "properties": {"species": "Lactarius olympianus", "date": "2023-08-16", "location": "Colorado, US", "elevation": 3397.0, "num_identification_agreements": 1, "tavg": null, "tmin": 12.0, "tmax": 26.0, "day_of_year": 228, "uuid": "61b474f6-2aa3-4ab6-bc54-23f372dee4fe", "inat_id": 178801302}}, {"type": "Feature", "geometry": {"type": "Point", "coordinates": [-105.5355901464, 40.0321431546]}, "properties": {"species": "Lactarius olympianus", "date": "2023-08-12", "location": "County Road 116, Ward, CO, US", "elevation": 2911.0, "num_identification_agreements": 5, "tavg": null, "tmin": 17.0, "tmax": 28.0, "day_of_year": 224, "uuid": "584656b9-fa0c-48bd-8306-da5410cdfa04", "inat_id": 178115583}}, {"type": "Feature", "geometry": {"type": "Point", "coordinates": [-105.5711211783, 40.0414871443]}, "properties": {"species": "Lactarius olympianus", "date": "2023-08-12", "location": "Boulder County, US-CO, US", "elevation": 3250.0, "num_identification_agreements": 2, "tavg": null, "tmin": 17.0, "tmax": 28.0, "day_of_year": 224, "uuid": "80fbe314-b654-477f-a99a-257c28fd6da4", "inat_id": 178075902}}, {"type": "Feature", "geometry": {"type": "Point", "coordinates": [-105.573253, 40.042047]}, "properties": {"species": "Lactarius olympianus", "date": "2022-08-17", "location": "Niwot Ridge, CO, US", "elevation": 3282.0, "num_identification_agreements": 2, "tavg": null, "tmin": 14.0, "tmax": 28.0, "day_of_year": 229, "uuid": "4d1cfcbf-0f0a-404e-b5c1-d950494b1eb3", "inat_id": 148924254}}, {"type": "Feature", "geometry": {"type": "Point", "coordinates": [-105.6438286, 39.5883005]}, "properties": {"species": "Lactarius olympianus", "date": "2008-09-05", "location": "Mt Evans, Colorado 80439, USA", "elevation": 4276.0, "num_identification_agreements": 1, "tavg": null, "tmin": null, "tmax": null, "day_of_year": 249, "uuid": "9c1d3b22-bb0b-422f-912d-f26b1ab4a872", "inat_id": 146559907}}, {"type": "Feature", "geometry": {"type": "Point", "coordinates": [-105.4280147758, 39.7878707182]}, "properties": {"species": "Lactarius olympianus", "date": "2022-08-27", "location": "Colorado, US", "elevation": 2695.0, "num_identification_agreements": 1, "tavg": null, "tmin": 1.5, "tmax": 11.9, "day_of_year": 239, "uuid": "b0c5d41e-a337-4a49-9e63-b1f2d1aa7423", "inat_id": 133881240}}, {"type": "Feature", "geometry": {"type": "Point", "coordinates": [-105.795045, 39.906545]}, "properties": {"species": "Lactarius olympianus", "date": "2021-08-14", "location": "Arapaho & Roosevelt National Forests Pawnee National Grassland, Winter Park, CO, US", "elevation": 2761.0, "num_identification_agreements": 2, "tavg": null, "tmin": 6.0, "tmax": 28.3, "day_of_year": 226, "uuid": "27562ec6-7720-4ab0-b046-efd08fb51385", "inat_id": 91252760}}, {"type": "Feature", "geometry": {"type": "Point", "coordinates": [-105.9752416667, 39.933255]}, "properties": {"species": "Lactarius olympianus", "date": "2021-08-14", "location": "Arapaho & Roosevelt National Forests Pawnee National Grassland, Parshall, CO, US", "elevation": 3039.0, "num_identification_agreements": 1, "tavg": null, "tmin": 6.0, "tmax": 28.3, "day_of_year": 226, "uuid": "88536740-cb6c-42ba-a984-b89c1bb0592c", "inat_id": 91199464}}, {"type": "Feature", "geometry": {"type": "Point", "coordinates": [-105.9282159, 39.9886441]}, "properties": {"species": "Lactarius olympianus", "date": "2021-08-14", "location": "Grand Lake, CO 80447, USA", "elevation": 2667.0, "num_identification_agreements": 1, "tavg": null, "tmin": 6.0, "tmax": 28.3, "day_of_year": 226, "uuid": "46335509-6c86-41b6-95b2-baa10d66db18", "inat_id": 91198258}}, {"type": "Feature", "geometry": {"type": "Point", "coordinates": [-105.8256451496, 39.8902843508]}, "properties": {"species": "Lactarius olympianus", "date": "2021-08-13", "location": "Arapaho & Roosevelt National Forests Pawnee National Grassland, Parshall, CO, US", "elevation": 2896.0, "num_identification_agreements": 1, "tavg": null, "tmin": 7.7, "tmax": 27.3, "day_of_year": 225, "uuid": "8eb6114f-d288-4cab-9798-559d68a56ccc", "inat_id": 91048212}}, {"type": "Feature", "geometry": {"type": "Point", "coordinates": [-105.75205153, 39.8428915916]}, "properties": {"species": "Lactarius olympianus", "date": "2021-08-13", "location": "Grand County, US-CO, US", "elevation": 2923.0, "num_identification_agreements": 1, "tavg": null, "tmin": 7.7, "tmax": 27.3, "day_of_year": 225, "uuid": "264b3430-78cd-4492-8b2a-471c0fc24c20", "inat_id": 91035646}}, {"type": "Feature", "geometry": {"type": "Point", "coordinates": [-105.7516854141, 39.8429556989]}, "properties": {"species": "Lactarius olympianus", "date": "2021-08-13", "location": "Grand County, US-CO, US", "elevation": 2923.0, "num_identification_agreements": 1, "tavg": null, "tmin": 7.7, "tmax": 27.3, "day_of_year": 225, "uuid": "0dc8033a-6ada-4b97-9b62-538828c2f34b", "inat_id": 91035423}}, {"type": "Feature", "geometry": {"type": "Point", "coordinates": [-105.5094638513, 39.8120911491]}, "properties": {"species": "Lactarius olympianus", "date": "2020-08-28", "location": "Colorado, US", "elevation": 2743.0, "num_identification_agreements": 1, "tavg": null, "tmin": 15.4, "tmax": 25.9, "day_of_year": 241, "uuid": "5acdbc7a-4f1a-499e-882f-8722cb0103b2", "inat_id": 57894853}}]}