{"type": "FeatureCollection", "features": [{"type": "Feature", "geometry": {"type": "Point", "coordinates": [-121.6795483848, 45.7907863829]}, "properties": {"species": "Lactarius rubidus", "date": "2016-11-27", "location": "Washington, US", "elevation": 544.0, "land_cover_label": "Tree cover", "water_mask": false, "exclude_reason": "keep", "ndvi": null, "soil_moisture": null, "solar_exposure": null, "wind_exposure": null, "water_retention": null, "slope": null, "aspect": null, "num_identification_agreements": 1, "cluster": 1, "tavg": null, "tmin": 5.6, "tmax": 10.6, "prcp_d0": 8.920998573303223, "prcp_d1": 26.762996673583984, "prcp_d2": 0.0, "prcp_d3": 39.929649353027344, "prcp_d4": 26.619768142700195, "prcp_d5": 0.0, "prcp_d6": 0.0, "tmax_d0": 5.8, "tmax_d1": 6.8, "tmax_d2": 5.2, "tmax_d3": 4.0, "tmax_d4": 5.3, "tmax_d5": 6.0, "tmax_d6": 7.0, "tmin_d0": 1.7, "tmin_d1": -0.9, "tmin_d2": 1.9, "tmin_d3": 1.7, "tmin_d4": 2.3, "tmin_d5": 0.0, "tmin_d6": 4.8, "day_of_year": 332, "uuid": "94b8d4e8-c37d-4a7b-9caf-e634af80570d", "inat_id": 96201852}}, {"type": "Feature", "geometry": {"type": "Point", "coordinates": [-122.210048099, 45.2633987105]}, "properties": {"species": "Lactarius rubidus", "date": "2016-12-05", "location": "Oregon, US", "elevation": 483.0, "land_cover_label": "Tree cover", "water_mask": false, "exclude_reason": "keep", "ndvi": null, "soil_moisture": null, "solar_exposure": null, "wind_exposure": null, "water_retention": null, "slope": null, "aspect": null, "num_identification_agreements": 1, "cluster": 1, "tavg": null, "tmin": 1.1, "tmax": 3.9, "prcp_d0": 0.0, "prcp_d1": 47.2055892944336, "prcp_d2": 0.0, "prcp_d3": 0.0, "prcp_d4": 0.0, "prcp_d5": 0.0, "prcp_d6": 0.0, "tmax_d0": 0.7, "tmax_d1": 5.0, "tmax_d2": 5.6, "tmax_d3": 6.4, "tmax_d4": 4.2, "tmax_d5": 6.8, "tmax_d6": 7.4, "tmin_d0": -2.2, "tmin_d1": 1.5, "tmin_d2": 3.9, "tmin_d3": 2.4, "tmin_d4": 0.5, "tmin_d5": 2.2, "tmin_d6": 3.2, "day_of_year": 340, "uuid": "4aee6b7b-27f5-4b77-8c40-55ae8fe40ed1", "inat_id": 35245278}}, {"type": "Feature", "geometry": {"type": "Point", "coordinates": [-122.0436259896, 45.2586160967]}, "properties": {"species": "Lactarius rubidus", "date": "2019-10-29", "location": "Oregon, US", "elevation": 1004.0, "land_cover_label": "Tree cover", "water_mask": false, "exclude_reason": "keep", "ndvi": null, "soil_moisture": null, "solar_exposure": null, "wind_exposure": null, "water_retention": null, "slope": null, "aspect": null, "num_identification_agreements": 1, "cluster": 0, "tavg": null, "tmin": 1.7, "tmax": 7.8, "prcp_d0": 0.0, "prcp_d1": 0.0, "prcp_d2": 7.561110973358154, "prcp_d3": 14.600824356079102, "prcp_d4": 0.0, "prcp_d5": 0.0, "prcp_d6": 0.0, "tmax_d0": 2.8, "tmax_d1": 5.1, "tmax_d2": 5.4, "tmax_d3": 5.6, "tmax_d4": 15.0, "tmax_d5": 18.4, "tmax_d6": 13.5, "tmin_d0": -7.8, "tmin_d1": -5.2, "tmin_d2": -2.7, "tmin_d3": 0.0, "tmin_d4": 4.7, "tmin_d5": 1.2, "tmin_d6": -0.1, "day_of_year": 302, "uuid": "229a3722-3901-47ed-ba88-3b5d981dbd4b", "inat_id": 37085226}}, {"type": "Feature", "geometry": {"type": "Point", "coordinates": [-122.0392759507, 45.2055232824]}, "properties": {"species": "Lactarius rubidus", "date": "2019-11-20", "location": "Oregon, US", "elevation": 921.0, "land_cover_label": "Tree cover", "water_mask": false, "exclude_reason": "keep", "ndvi": null, "soil_moisture": null, "solar_exposure": null, "wind_exposure": null, "water_retention": null, "slope": null, "aspect": null, "num_identification_agreements": 1, "cluster": 1, "tavg": null, "tmin": 6.1, "tmax": 14.4, "prcp_d0": 0.0, "prcp_d1": 0.0, "prcp_d2": 39.90203094482422, "prcp_d3": 0.0, "prcp_d4": 0.0, "prcp_d5": 14.889860153198242, "prcp_d6": 0.1624398082494735, "tmax_d0": 6.7, "tmax_d1": 10.2, "tmax_d2": 11.1, "tmax_d3": 12.5, "tmax_d4": 11.9, "tmax_d5": 7.7, "tmax_d6": 10.8, "tmin_d0": 0.7, "tmin_d1": 4.1, "tmin_d2": 3.0, "tmin_d3": 5.1, "tmin_d4": 1.5, "tmin_d5": 2.2, "tmin_d6": 3.2, "day_of_year": 324, "uuid": "2eea16af-14d0-48b2-9bf2-e467948d88a4", "inat_id": 37050951}}, {"type": "Feature", "geometry": {"type": "Point", "coordinates": [-122.5571629884, 45.281985549]}, "properties": {"species": "Lactarius rubidus", "date": "2020-11-22", "location": "Oregon, US", "elevation": 168.0, "land_cover_label": "Tree cover", "water_mask": false, "exclude_reason": "keep", "ndvi": null, "soil_moisture": null, "solar_exposure": null, "wind_exposure": null, "water_retention": null, "slope": null, "aspect": null, "num_identification_agreements": 1, "cluster": 2, "tavg": null, "tmin": 2.2, "tmax": 5.0, "prcp_d0": 0.0, "prcp_d1": 0.0, "prcp_d2": 0.0, "prcp_d3": 9.691041946411133, "prcp_d4": 0.0, "prcp_d5": 38.76416778564453, "prcp_d6": 9.691041946411133, "tmax_d0": null, "tmax_d1": null, "tmax_d2": null, "tmax_d3": null, "tmax_d4": null, "tmax_d5": null, "tmax_d6": null, "tmin_d0": null, "tmin_d1": null, "tmin_d2": null, "tmin_d3": null, "tmin_d4": null, "tmin_d5": null, "tmin_d6": null, "day_of_year": 327, "uuid": "9434a423-5756-423d-823f-f2f90b5e8b3f", "inat_id": 91081954}}, {"type": "Feature", "geometry": {"type": "Point", "coordinates": [-122.432998861, 45.2452554585]}, "properties": {"species": "Lactarius rubidus", "date": "2020-12-09", "location": "S Upper Highland Rd, Beavercreek, OR, US", "elevation": 421.0, "land_cover_label": "Tree cover", "water_mask": false, "exclude_reason": "keep", "ndvi": null, "soil_moisture": null, "solar_exposure": null, "wind_exposure": null, "water_retention": null, "slope": null, "aspect": null, "num_identification_agreements": 1, "cluster": 0, "tavg": null, "tmin": 2.2, "tmax": 11.7, "prcp_d0": 0.0, "prcp_d1": 0.0, "prcp_d2": 28.52015686035156, "prcp_d3": 0.0, "prcp_d4": 0.0, "prcp_d5": 0.0, "prcp_d6": 0.0, "tmax_d0": null, "tmax_d1": null, "tmax_d2": null, "tmax_d3": null, "tmax_d4": null, "tmax_d5": null, "tmax_d6": null, "tmin_d0": null, "tmin_d1": null, "tmin_d2": null, "tmin_d3": null, "tmin_d4": null, "tmin_d5": null, "tmin_d6": null, "day_of_year": 344, "uuid": "ac7ef56c-ef61-40d6-b816-289a176baf1a", "inat_id": 66354494}}, {"type": "Feature", "geometry": {"type": "Point", "coordinates": [-122.2393364047, 45.3319803235]}, "properties": {"species": "Lactarius rubidus", "date": "2020-12-31", "location": "Oregon, US", "elevation": 406.0, "land_cover_label": "Grassland", "water_mask": false, "exclude_reason": "keep", "ndvi": null, "soil_moisture": null, "solar_exposure": null, "wind_exposure": null, "water_retention": null, "slope": null, "aspect": null, "num_identification_agreements": 1, "cluster": 2, "tavg": null, "tmin": 8.3, "tmax": 11.7, "prcp_d0": 0.0, "prcp_d1": 7.482463359832764, "prcp_d2": 22.447389602661133, "prcp_d3": 0.0, "prcp_d4": 7.482463359832764, "prcp_d5": 0.0, "prcp_d6": 41.95875549316406, "tmax_d0": 7.2, "tmax_d1": 6.4, "tmax_d2": 7.9, "tmax_d3": 9.5, "tmax_d4": 9.8, "tmax_d5": 6.5, "tmax_d6": 8.5, "tmin_d0": 5.1, "tmin_d1": 2.9, "tmin_d2": -2.5, "tmin_d3": 2.0, "tmin_d4": 3.0, "tmin_d5": 4.6, "tmin_d6": 2.7, "day_of_year": 366, "uuid": "9a18addb-ae29-4e8e-9e1f-eddfbe3b6026", "inat_id": 68222453}}, {"type": "Feature", "geometry": {"type": "Point", "coordinates": [-122.0184859722, 45.6394599722]}, "properties": {"species": "Lactarius rubidus", "date": "2021-01-09", "location": "Stevenson, WA 98648, USA", "elevation": 246.0, "land_cover_label": "Tree cover", "water_mask": false, "exclude_reason": "keep", "ndvi": null, "soil_moisture": null, "solar_exposure": null, "wind_exposure": null, "water_retention": null, "slope": null, "aspect": null, "num_identification_agreements": 1, "cluster": 2, "tavg": null, "tmin": 2.8, "tmax": 7.8, "prcp_d0": 0.0, "prcp_d1": 19.60295486450196, "prcp_d2": 13.068636894226074, "prcp_d3": 19.60295486450196, "prcp_d4": 0.0, "prcp_d5": 24.741134643554688, "prcp_d6": 37.11170196533203, "tmax_d0": 5.6, "tmax_d1": 6.4, "tmax_d2": 7.2, "tmax_d3": 5.7, "tmax_d4": 6.5, "tmax_d5": 7.4, "tmax_d6": 8.1, "tmin_d0": -1.3, "tmin_d1": 2.7, "tmin_d2": 4.1, "tmin_d3": 3.2, "tmin_d4": 0.4, "tmin_d5": 4.4, "tmin_d6": 4.3, "day_of_year": 9, "uuid": "7637cd3e-9d11-4edb-b299-d6e9e6cbc60f", "inat_id": 67860536}}, {"type": "Feature", "geometry": {"type": "Point", "coordinates": [-122.3800079237, 45.2494870706]}, "properties": {"species": "Lactarius rubidus", "date": "2021-10-30", "location": "Beavercreek, OR, US", "elevation": 276.0, "land_cover_label": "Tree cover", "water_mask": false, "exclude_reason": "keep", "ndvi": null, "soil_moisture": null, "solar_exposure": null, "wind_exposure": null, "water_retention": null, "slope": null, "aspect": null, "num_identification_agreements": 1, "cluster": 2, "tavg": null, "tmin": 7.2, "tmax": 16.7, "prcp_d0": 0.0, "prcp_d1": 0.0, "prcp_d2": 0.0, "prcp_d3": 0.0, "prcp_d4": 0.0, "prcp_d5": 0.0, "prcp_d6": 38.2539176940918, "tmax_d0": null, "tmax_d1": null, "tmax_d2": null, "tmax_d3": null, "tmax_d4": null, "tmax_d5": null, "tmax_d6": null, "tmin_d0": null, "tmin_d1": null, "tmin_d2": null, "tmin_d3": null, "tmin_d4": null, "tmin_d5": null, "tmin_d6": null, "day_of_year": 303, "uuid": "e5e56177-05d9-4279-b40e-712453af4806", "inat_id": 100258223}}, {"type": "Feature", "geometry": {"type": "Point", "coordinates": [-122.1880555556, 45.5119444444]}, "properties": {"species": "Lactarius rubidus", "date": "2021-10-31", "location": "Corbett, OR 97019, USA", "elevation": 457.0, "land_cover_label": "Tree cover", "water_mask": false, "exclude_reason": "keep", "ndvi": null, "soil_moisture": null, "solar_exposure": null, "wind_exposure": null, "water_retention": null, "slope": null, "aspect": null, "num_identification_agreements": 1, "cluster": 0, "tavg": null, "tmin": 9.7, "tmax": 15.6, "prcp_d0": 0.0, "prcp_d1": 0.0, "prcp_d2": 0.0, "prcp_d3": 0.0, "prcp_d4": 0.0, "prcp_d5": 0.0, "prcp_d6": 0.0, "tmax_d0": 12.0, "tmax_d1": 11.1, "tmax_d2": 14.2, "tmax_d3": 14.9, "tmax_d4": 11.5, "tmax_d5": 9.7, "tmax_d6": 11.3, "tmin_d0": 6.2, "tmin_d1": 4.2, "tmin_d2": 6.9, "tmin_d3": 7.8, "tmin_d4": 7.1, "tmin_d5": 6.1, "tmin_d6": 6.7, "day_of_year": 304, "uuid": "e6f8900a-5f31-4adf-80a6-28d6d07c43de", "inat_id": 100574066}}, {"type": "Feature", "geometry": {"type": "Point", "coordinates": [-122.256745, 45.4664716667]}, "properties": {"species": "Lactarius rubidus", "date": "2021-11-15", "location": "SE Gordon Creek Rd, Corbett, OR, US", "elevation": 253.0, "land_cover_label": "Tree cover", "water_mask": false, "exclude_reason": "keep", "ndvi": null, "soil_moisture": null, "solar_exposure": null, "wind_exposure": null, "water_retention": null, "slope": null, "aspect": null, "num_identification_agreements": 1, "cluster": 1, "tavg": null, "tmin": 7.2, "tmax": 17.8, "prcp_d0": 13.196470260620115, "prcp_d1": 0.0, "prcp_d2": 13.196470260620115, "prcp_d3": 52.78588104248047, "prcp_d4": 26.392940521240234, "prcp_d5": 0.0, "prcp_d6": 31.7360954284668, "tmax_d0": 16.7, "tmax_d1": 16.0, "tmax_d2": 16.0, "tmax_d3": 14.8, "tmax_d4": 15.4, "tmax_d5": 11.7, "tmax_d6": 12.4, "tmin_d0": 8.8, "tmin_d1": 13.1, "tmin_d2": 9.5, "tmin_d3": 13.6, "tmin_d4": 8.5, "tmin_d5": 5.3, "tmin_d6": 7.5, "day_of_year": 319, "uuid": "c60eb751-3be9-42af-8624-1618825fd513", "inat_id": 101309818}}, {"type": "Feature", "geometry": {"type": "Point", "coordinates": [-122.37642, 45.2452883333]}, "properties": {"species": "Lactarius rubidus", "date": "2021-12-08", "location": "Beavercreek, OR, US", "elevation": 356.0, "land_cover_label": "Tree cover", "water_mask": false, "exclude_reason": "keep", "ndvi": null, "soil_moisture": null, "solar_exposure": null, "wind_exposure": null, "water_retention": null, "slope": null, "aspect": null, "num_identification_agreements": 1, "cluster": 1, "tavg": null, "tmin": 1.7, "tmax": 10.0, "prcp_d0": 0.0, "prcp_d1": 0.0, "prcp_d2": 45.23605346679688, "prcp_d3": 0.0, "prcp_d4": 0.0, "prcp_d5": 0.0, "prcp_d6": 0.0, "tmax_d0": null, "tmax_d1": null, "tmax_d2": null, "tmax_d3": null, "tmax_d4": null, "tmax_d5": null, "tmax_d6": null, "tmin_d0": null, "tmin_d1": null, "tmin_d2": null, "tmin_d3": null, "tmin_d4": null, "tmin_d5": null, "tmin_d6": null, "day_of_year": 342, "uuid": "32b4cb86-161c-407b-bf99-f31f2f9967be", "inat_id": 102752249}}, {"type": "Feature", "geometry": {"type": "Point", "coordinates": [-122.1969833287, 45.3777246442]}, "properties": {"species": "Lactarius rubidus", "date": "2023-10-08", "location": "Oregon, US", "elevation": 360.0, "land_cover_label": "Grassland", "water_mask": false, "exclude_reason": "keep", "ndvi": null, "soil_moisture": null, "solar_exposure": null, "wind_exposure": null, "water_retention": null, "slope": null, "aspect": null, "num_identification_agreements": 1, "cluster": 0, "tavg": null, "tmin": 12.8, "tmax": 27.8, "prcp_d0": 0.0, "prcp_d1": 0.0, "prcp_d2": 0.0, "prcp_d3": 0.0, "prcp_d4": 0.0, "prcp_d5": 0.0, "prcp_d6": 0.0, "tmax_d0": 25.7, "tmax_d1": 27.0, "tmax_d2": 27.4, "tmax_d3": 26.7, "tmax_d4": 16.5, "tmax_d5": 15.5, "tmax_d6": 16.2, "tmin_d0": 10.7, "tmin_d1": 16.9, "tmin_d2": 17.4, "tmin_d3": 7.4, "tmin_d4": 9.4, "tmin_d5": 12.3, "tmin_d6": 7.5, "day_of_year": 281, "uuid": "30acbc68-23ee-4a85-9f2f-0b59732fd3ad", "inat_id": 186866330}}, {"type": "Feature", "geometry": {"type": "Point", "coordinates": [-122.0778714455, 45.2874393694]}, "properties": {"species": "Lactarius rubidus", "date": "2023-10-08", "location": "Oregon, US", "elevation": 754.0, "land_cover_label": "Tree cover", "water_mask": false, "exclude_reason": "keep", "ndvi": null, "soil_moisture": null, "solar_exposure": null, "wind_exposure": null, "water_retention": null, "slope": null, "aspect": null, "num_identification_agreements": 1, "cluster": 0, "tavg": null, "tmin": 12.8, "tmax": 27.8, "prcp_d0": 0.0, "prcp_d1": 0.0, "prcp_d2": 0.0, "prcp_d3": 0.0, "prcp_d4": 0.0, "prcp_d5": 0.0, "prcp_d6": 0.0, "tmax_d0": 22.7, "tmax_d1": 25.3, "tmax_d2": 23.5, "tmax_d3": 25.3, "tmax_d4": 14.6, "tmax_d5": 11.8, "tmax_d6": 12.6, "tmin_d0": 9.0, "tmin_d1": 14.2, "tmin_d2": 14.5, "tmin_d3": 6.1, "tmin_d4": 7.6, "tmin_d5": 10.0, "tmin_d6": 4.9, "day_of_year": 281, "uuid": "f2d724b4-2ab1-4494-8e5e-144fcf04dc6d", "inat_id": 186863474}}, {"type": "Feature", "geometry": {"type": "Point", "coordinates": [-122.3746716667, 45.2456583333]}, "properties": {"species": "Lactarius rubidus", "date": "2023-10-19", "location": "Beavercreek, OR, US", "elevation": 359.0, "land_cover_label": "Tree cover", "water_mask": false, "exclude_reason": "keep", "ndvi": null, "soil_moisture": null, "solar_exposure": null, "wind_exposure": null, "water_retention": null, "slope": null, "aspect": null, "num_identification_agreements": 2, "cluster": 2, "tavg": null, "tmin": 8.3, "tmax": 21.7, "prcp_d0": 0.0, "prcp_d1": 0.0, "prcp_d2": 0.0, "prcp_d3": 23.52068328857422, "prcp_d4": 0.0, "prcp_d5": 31.53398323059082, "prcp_d6": 0.0, "tmax_d0": null, "tmax_d1": null, "tmax_d2": null, "tmax_d3": null, "tmax_d4": null, "tmax_d5": null, "tmax_d6": null, "tmin_d0": null, "tmin_d1": null, "tmin_d2": null, "tmin_d3": null, "tmin_d4": null, "tmin_d5": null, "tmin_d6": null, "day_of_year": 292, "uuid": "0018ab38-d750-41f6-adf7-44f2913e8af4", "inat_id": 188226321}}, {"type": "Feature", "geometry": {"type": "Point", "coordinates": [-122.1074971667, 45.299155]}, "properties": {"species": "Lactarius rubidus", "date": "2023-10-28", "location": "Zigzag Ranger Station, Sandy, OR, US", "elevation": 514.0, "land_cover_label": "Tree cover", "water_mask": false, "exclude_reason": "keep", "ndvi": null, "soil_moisture": null, "solar_exposure": null, "wind_exposure": null, "water_retention": null, "slope": null, "aspect": null, "num_identification_agreements": 1, "cluster": 0, "tavg": null, "tmin": 3.9, "tmax": 12.2, "prcp_d0": 0.0, "prcp_d1": 0.0, "prcp_d2": 0.0, "prcp_d3": 31.348020553588867, "prcp_d4": 31.348020553588867, "prcp_d5": 0.0, "prcp_d6": 0.0, "tmax_d0": 10.8, "tmax_d1": 10.0, "tmax_d2": 7.2, "tmax_d3": 5.9, "tmax_d4": 9.0, "tmax_d5": 12.0, "tmax_d6": 14.9, "tmin_d0": -1.6, "tmin_d1": -2.3, "tmin_d2": 3.6, "tmin_d3": 3.4, "tmin_d4": 5.5, "tmin_d5": 8.4, "tmin_d6": 9.8, "day_of_year": 301, "uuid": "4b45f1d3-54a2-4099-9097-d2d71c470552", "inat_id": 189301260}}, {"type": "Feature", "geometry": {"type": "Point", "coordinates": [-122.0169971667, 45.6457216667]}, "properties": {"species": "Lactarius rubidus", "date": "2023-11-17", "location": "Beacon Rock State Park, Stevenson, WA, US", "elevation": 397.0, "land_cover_label": "Tree cover", "water_mask": false, "exclude_reason": "keep", "ndvi": null, "soil_moisture": null, "solar_exposure": null, "wind_exposure": null, "water_retention": null, "slope": null, "aspect": null, "num_identification_agreements": 1, "cluster": 0, "tavg": null, "tmin": 5.2, "tmax": 13.9, "prcp_d0": 0.0, "prcp_d1": 0.0, "prcp_d2": 0.0, "prcp_d3": 0.0, "prcp_d4": 0.0, "prcp_d5": 0.0, "prcp_d6": 0.0, "tmax_d0": 4.9, "tmax_d1": 8.8, "tmax_d2": 9.3, "tmax_d3": 8.9, "tmax_d4": 9.1, "tmax_d5": 9.7, "tmax_d6": 8.0, "tmin_d0": 0.3, "tmin_d1": 3.4, "tmin_d2": 4.0, "tmin_d3": 1.4, "tmin_d4": 5.7, "tmin_d5": 4.3, "tmin_d6": 5.9, "day_of_year": 321, "uuid": "bd5523a6-8c21-4e2b-b0a7-e15eab7e55aa", "inat_id": 192138409}}, {"type": "Feature", "geometry": {"type": "Point", "coordinates": [-121.8005603154, 45.8104182352]}, "properties": {"species": "Lactarius rubidus", "date": "2023-12-09", "location": "Skamania County, US-WA, US", "elevation": 716.0, "land_cover_label": "Tree cover", "water_mask": false, "exclude_reason": "keep", "ndvi": null, "soil_moisture": null, "solar_exposure": null, "wind_exposure": null, "water_retention": null, "slope": null, "aspect": null, "num_identification_agreements": 2, "cluster": 2, "tavg": null, "tmin": -0.1, "tmax": 2.4, "prcp_d0": 39.44681167602539, "prcp_d1": 0.0, "prcp_d2": 0.0, "prcp_d3": 39.44681167602539, "prcp_d4": 64.0643310546875, "prcp_d5": 0.0, "prcp_d6": 64.0643310546875, "tmax_d0": 0.4, "tmax_d1": 1.1, "tmax_d2": 5.2, "tmax_d3": 8.8, "tmax_d4": 9.3, "tmax_d5": 8.1, "tmax_d6": 7.4, "tmin_d0": -2.1, "tmin_d1": -1.0, "tmin_d2": 1.3, "tmin_d3": 5.3, "tmin_d4": 3.6, "tmin_d5": 3.5, "tmin_d6": 1.4, "day_of_year": 343, "uuid": "9ecd9944-4f00-4fef-bcaf-76a2bdefb2c4", "inat_id": 193525463}}, {"type": "Feature", "geometry": {"type": "Point", "coordinates": [-122.0314346306, 45.286469455]}, "properties": {"species": "Lactarius rubidus", "date": "2024-11-07", "location": "Oregon, US", "elevation": 1149.0, "land_cover_label": "Tree cover", "water_mask": false, "exclude_reason": "keep", "ndvi": null, "soil_moisture": null, "solar_exposure": null, "wind_exposure": null, "water_retention": null, "slope": null, "aspect": null, "num_identification_agreements": 1, "cluster": 0, "tavg": null, "tmin": 10.0, "tmax": 15.6, "prcp_d0": 0.0, "prcp_d1": 0.0, "prcp_d2": 0.0, "prcp_d3": 0.0, "prcp_d4": 0.0, "prcp_d5": 0.0, "prcp_d6": 0.0, "tmax_d0": 11.7, "tmax_d1": 8.2, "tmax_d2": 3.3, "tmax_d3": 4.3, "tmax_d4": 3.3, "tmax_d5": 4.5, "tmax_d6": 5.1, "tmin_d0": 2.1, "tmin_d1": -1.9, "tmin_d2": 0.8, "tmin_d3": -0.1, "tmin_d4": 0.6, "tmin_d5": 1.4, "tmin_d6": 0.3, "day_of_year": 312, "uuid": "e1fffe5c-8d0e-44f8-a340-730179974ad7", "inat_id": 250870245}}, {"type": "Feature", "geometry": {"type": "Point", "coordinates": [-122.2901567817, 45.4966671167]}, "properties": {"species": "Lactarius rubidus", "date": "2024-11-07", "location": "FPW6+82V, Corbett, OR 97080, USA", "elevation": 60.0, "land_cover_label": "Tree cover", "water_mask": false, "exclude_reason": "keep", "ndvi": null, "soil_moisture": null, "solar_exposure": null, "wind_exposure": null, "water_retention": null, "slope": null, "aspect": null, "num_identification_agreements": 1, "cluster": 0, "tavg": null, "tmin": 10.0, "tmax": 15.6, "prcp_d0": 0.0, "prcp_d1": 0.0, "prcp_d2": 0.0, "prcp_d3": 0.0, "prcp_d4": 0.0, "prcp_d5": 0.0, "prcp_d6": 0.0, "tmax_d0": 14.4, "tmax_d1": 14.0, "tmax_d2": 10.9, "tmax_d3": 12.3, "tmax_d4": 12.4, "tmax_d5": 11.4, "tmax_d6": 12.5, "tmin_d0": 6.9, "tmin_d1": 2.8, "tmin_d2": 6.8, "tmin_d3": 6.0, "tmin_d4": 7.9, "tmin_d5": 7.7, "tmin_d6": 8.0, "day_of_year": 312, "uuid": "f2c7fde4-72be-4f08-bfda-eae457f1b54b", "inat_id": 250859058}}, {"type": "Feature", "geometry": {"type": "Point", "coordinates": [-122.3064025864, 45.2109939902]}, "properties": {"species": "Lactarius rubidus", "date": "2025-11-17", "location": "Estacada, OR 97023, USA", "elevation": 400.0, "land_cover_label": "Tree cover", "water_mask": false, "exclude_reason": "keep", "ndvi": null, "soil_moisture": null, "solar_exposure": null, "wind_exposure": null, "water_retention": null, "slope": null, "aspect": null, "num_identification_agreements": 1, "cluster": 0, "tavg": null, "tmin": 3.0, "tmax": 12.0, "prcp_d0": 26.2096004486084, "prcp_d1": 0.0, "prcp_d2": 0.0, "prcp_d3": 0.0, "prcp_d4": 18.432323455810547, "prcp_d5": 0.0, "prcp_d6": 0.0, "tmax_d0": null, "tmax_d1": null, "tmax_d2": null, "tmax_d3": null, "tmax_d4": null, "tmax_d5": null, "tmax_d6": null, "tmin_d0": null, "tmin_d1": null, "tmin_d2": null, "tmin_d3": null, "tmin_d4": null, "tmin_d5": null, "tmin_d6": null, "day_of_year": 321, "uuid": "77402c2a-32eb-4e68-a82d-5e55f508843f", "inat_id": 327018301}}, {"type": "Feature", "geometry": {"type": "Point", "coordinates": [-122.2888633333, 45.4752883333]}, "properties": {"species": "Lactarius rubidus", "date": "2025-11-17", "location": "Corbett, OR, US", "elevation": 37.0, "land_cover_label": "Tree cover", "water_mask": false, "exclude_reason": "keep", "ndvi": null, "soil_moisture": null, "solar_exposure": null, "wind_exposure": null, "water_retention": null, "slope": null, "aspect": null, "num_identification_agreements": 1, "cluster": 0, "tavg": null, "tmin": 3.0, "tmax": 12.0, "prcp_d0": 0.0, "prcp_d1": 0.0, "prcp_d2": 0.0, "prcp_d3": 0.0, "prcp_d4": 21.155759811401367, "prcp_d5": 0.0, "prcp_d6": 0.0, "tmax_d0": 12.1, "tmax_d1": 15.1, "tmax_d2": 16.5, "tmax_d3": 15.1, "tmax_d4": 18.3, "tmax_d5": 17.1, "tmax_d6": 15.2, "tmin_d0": 9.0, "tmin_d1": 7.4, "tmin_d2": 12.1, "tmin_d3": 10.0, "tmin_d4": 10.7, "tmin_d5": 10.4, "tmin_d6": 8.9, "day_of_year": 321, "uuid": "c482d6ec-746f-4992-a1d8-d6026c30252c", "inat_id": 327034366}}]}