{"type": "FeatureCollection", "features": [{"type": "Feature", "geometry": {"type": "Point", "coordinates": [-107.826025, 37.8551138889]}, "properties": {"species": "Lactarius hepaticus", "date": "2022-08-19", "location": "Ophir, CO 81426, USA", "elevation": 2981.0, "num_identification_agreements": 1, "tavg": null, "tmin": 10.0, "tmax": 17.0, "day_of_year": 231, "uuid": "5e50391f-beac-4db8-ba84-67360c2f8095", "inat_id": 131509279}}, {"type": "Feature", "geometry": {"type": "Point", "coordinates": [-107.836, 37.9421]}, "properties": {"species": "Lactarius hepaticus", "date": "2018-08-17", "location": "Telluride, Colorado, USA", "elevation": 2652.0, "num_identification_agreements": 1, "tavg": null, "tmin": 12.0, "tmax": 23.0, "day_of_year": 229, "uuid": "a660f696-794d-471c-9cdc-cb1472ad6601", "inat_id": 40349222}}]}