{"type": "FeatureCollection", "features": [{"type": "Feature", "geometry": {"type": "Point", "coordinates": [-121.7154916667, 45.295025]}, "properties": {"species": "Lactarius alpinus alpinus", "date": "2024-09-21", "location": "Mt. Hood Park Division Recreation Area, Government Camp, OR, US", "elevation": 1282.0, "land_cover_label": "Tree cover", "water_mask": false, "exclude_reason": "keep", "ndvi": null, "soil_moisture": null, "solar_exposure": null, "wind_exposure": null, "water_retention": null, "slope": null, "aspect": null, "num_identification_agreements": 1, "cluster": 2, "tavg": null, "tmin": 8.4, "tmax": 23.7, "prcp_d0": 0.0, "prcp_d1": 0.0, "prcp_d2": 0.0, "prcp_d3": 5.210668087005615, "prcp_d4": 0.0, "prcp_d5": 0.0, "prcp_d6": 0.0, "tmax_d0": 17.6, "tmax_d1": 13.4, "tmax_d2": 15.5, "tmax_d3": 13.9, "tmax_d4": 14.8, "tmax_d5": 17.8, "tmax_d6": 12.5, "tmin_d0": 4.3, "tmin_d1": 3.8, "tmin_d2": 6.1, "tmin_d3": 7.5, "tmin_d4": 6.5, "tmin_d5": 4.8, "tmin_d6": 4.0, "day_of_year": 265, "uuid": "8658b01c-23a5-4149-920e-8227212d42f0", "inat_id": 243260586}}, {"type": "Feature", "geometry": {"type": "Point", "coordinates": [-121.69797, 45.2826533333]}, "properties": {"species": "Lactarius alpinus alpinus", "date": "2025-09-26", "location": "Mt. Hood Park Division Recreation Area, Government Camp, OR, US", "elevation": 1148.0, "land_cover_label": "Tree cover", "water_mask": false, "exclude_reason": "keep", "ndvi": null, "soil_moisture": null, "solar_exposure": null, "wind_exposure": null, "water_retention": null, "slope": null, "aspect": null, "num_identification_agreements": 1, "cluster": 2, "tavg": null, "tmin": 10.0, "tmax": 25.0, "prcp_d0": 0.0, "prcp_d1": 0.0, "prcp_d2": 0.0, "prcp_d3": 0.0, "prcp_d4": 0.0, "prcp_d5": 0.0, "prcp_d6": 0.0, "tmax_d0": 18.2, "tmax_d1": 23.7, "tmax_d2": 27.3, "tmax_d3": 20.7, "tmax_d4": 18.9, "tmax_d5": 18.9, "tmax_d6": 23.5, "tmin_d0": 4.5, "tmin_d1": 10.3, "tmin_d2": 12.4, "tmin_d3": 11.7, "tmin_d4": 4.3, "tmin_d5": 8.4, "tmin_d6": 11.6, "day_of_year": 269, "uuid": "69419d02-0082-46db-9918-7c8b7f0f13b4", "inat_id": 317155602}}]}