{"type": "FeatureCollection", "features": [{"type": "Feature", "geometry": {"type": "Point", "coordinates": [-107.0869900659, 38.6972426864]}, "properties": {"species": "Lactarius controversus", "date": "2020-08-05", "location": "Mill Creek", "elevation": 2788.0, "land_cover_label": "Tree cover", "water_mask": false, "exclude_reason": "keep", "ndvi": null, "soil_moisture": null, "solar_exposure": null, "wind_exposure": null, "water_retention": null, "slope": null, "aspect": null, "num_identification_agreements": 3, "cluster": 0, "tavg": null, "tmin": 6.7, "tmax": 27.8, "prcp_d0": 0.0, "prcp_d1": 0.0, "prcp_d2": 0.0, "prcp_d3": 0.0, "prcp_d4": 0.0, "prcp_d5": 0.0, "prcp_d6": 0.0, "tmax_d0": null, "tmax_d1": null, "tmax_d2": null, "tmax_d3": null, "tmax_d4": null, "tmax_d5": null, "tmax_d6": null, "tmin_d0": null, "tmin_d1": null, "tmin_d2": null, "tmin_d3": null, "tmin_d4": null, "tmin_d5": null, "tmin_d6": null, "day_of_year": 218, "uuid": "1465f4b0-f21a-411b-96b1-3eeac810d507", "inat_id": 55675533}}, {"type": "Feature", "geometry": {"type": "Point", "coordinates": [-106.4111011677, 36.8324776874]}, "properties": {"species": "Lactarius controversus", "date": "2022-08-24", "location": "United States", "elevation": 3462.0, "land_cover_label": "Moss and lichen", "water_mask": false, "exclude_reason": "keep", "ndvi": null, "soil_moisture": null, "solar_exposure": null, "wind_exposure": null, "water_retention": null, "slope": null, "aspect": null, "num_identification_agreements": 1, "cluster": 0, "tavg": null, "tmin": null, "tmax": null, "prcp_d0": 0.0, "prcp_d1": 0.0, "prcp_d2": 0.0, "prcp_d3": 0.0, "prcp_d4": 0.0, "prcp_d5": 0.0, "prcp_d6": 0.0, "tmax_d0": null, "tmax_d1": null, "tmax_d2": null, "tmax_d3": null, "tmax_d4": null, "tmax_d5": null, "tmax_d6": null, "tmin_d0": null, "tmin_d1": null, "tmin_d2": null, "tmin_d3": null, "tmin_d4": null, "tmin_d5": null, "tmin_d6": null, "day_of_year": 236, "uuid": "51ac6503-92fe-4786-9df6-5ffad2fe32e2", "inat_id": 135829633}}, {"type": "Feature", "geometry": {"type": "Point", "coordinates": [-105.3187087, 41.2222255]}, "properties": {"species": "Lactarius controversus", "date": "2024-08-17", "location": "Cheyenne, WY 82009, USA", "elevation": 2413.0, "land_cover_label": "Tree cover", "water_mask": false, "exclude_reason": "keep", "ndvi": null, "soil_moisture": 0.2001858942000534, "solar_exposure": 0.8752890229225159, "wind_exposure": 0.3349010944366455, "water_retention": 0.2889316082000732, "slope": 5.209319591522217, "aspect": 135.59596252441406, "num_identification_agreements": 1, "cluster": 0, "tavg": null, "tmin": 13.4, "tmax": 28.2, "prcp_d0": 0.0, "prcp_d1": 0.0, "prcp_d2": 0.0, "prcp_d3": 0.0, "prcp_d4": 5.467902183532715, "prcp_d5": 0.0, "prcp_d6": 0.0, "tmax_d0": null, "tmax_d1": null, "tmax_d2": null, "tmax_d3": null, "tmax_d4": null, "tmax_d5": null, "tmax_d6": null, "tmin_d0": null, "tmin_d1": null, "tmin_d2": null, "tmin_d3": null, "tmin_d4": null, "tmin_d5": null, "tmin_d6": null, "day_of_year": 230, "uuid": "8bf21465-2161-40fb-a872-3d65bd81c6f6", "inat_id": 283780436}}, {"type": "Feature", "geometry": {"type": "Point", "coordinates": [-105.6450361111, 36.2508888889]}, "properties": {"species": "Lactarius controversus", "date": "2024-08-24", "location": "Ranchos De Taos, NM 87557, USA", "elevation": 2976.0, "land_cover_label": "Tree cover", "water_mask": false, "exclude_reason": "keep", "ndvi": null, "soil_moisture": null, "solar_exposure": null, "wind_exposure": null, "water_retention": null, "slope": null, "aspect": null, "num_identification_agreements": 1, "cluster": 0, "tavg": null, "tmin": 12.8, "tmax": 28.9, "prcp_d0": 5.024472713470459, "prcp_d1": 2.669894933700561, "prcp_d2": 0.1814998686313629, "prcp_d3": 3.9086453914642334, "prcp_d4": 0.0, "prcp_d5": 0.0, "prcp_d6": 0.0, "tmax_d0": null, "tmax_d1": null, "tmax_d2": null, "tmax_d3": null, "tmax_d4": null, "tmax_d5": null, "tmax_d6": null, "tmin_d0": null, "tmin_d1": null, "tmin_d2": null, "tmin_d3": null, "tmin_d4": null, "tmin_d5": null, "tmin_d6": null, "day_of_year": 237, "uuid": "75ed5b59-09de-4bd3-88b7-484a4f1808be", "inat_id": 237765377}}, {"type": "Feature", "geometry": {"type": "Point", "coordinates": [-105.7996611111, 35.8014194444]}, "properties": {"species": "Lactarius controversus", "date": "2024-09-03", "location": "Santa Fe County, NM, USA", "elevation": 3269.0, "land_cover_label": "Tree cover", "water_mask": false, "exclude_reason": "keep", "ndvi": null, "soil_moisture": null, "solar_exposure": null, "wind_exposure": null, "water_retention": null, "slope": null, "aspect": null, "num_identification_agreements": 2, "cluster": 0, "tavg": null, "tmin": 9.4, "tmax": 29.4, "prcp_d0": 0.0, "prcp_d1": 0.0, "prcp_d2": 0.0, "prcp_d3": 0.0, "prcp_d4": 7.7466936111450195, "prcp_d5": 2.6917762756347656, "prcp_d6": 0.4040963351726532, "tmax_d0": null, "tmax_d1": null, "tmax_d2": null, "tmax_d3": null, "tmax_d4": null, "tmax_d5": null, "tmax_d6": null, "tmin_d0": null, "tmin_d1": null, "tmin_d2": null, "tmin_d3": null, "tmin_d4": null, "tmin_d5": null, "tmin_d6": null, "day_of_year": 247, "uuid": "ad37759e-fc25-4a14-af4d-5e9154d3e340", "inat_id": 241020218}}, {"type": "Feature", "geometry": {"type": "Point", "coordinates": [-105.5083042011, 39.8448548533]}, "properties": {"species": "Lactarius controversus", "date": "2025-08-20", "location": "Black Hawk, CO 80422, USA", "elevation": 2842.0, "land_cover_label": "Tree cover", "water_mask": false, "exclude_reason": "keep", "ndvi": null, "soil_moisture": 0.2933713529946845, "solar_exposure": 0.929620325565338, "wind_exposure": 0.3430139720439911, "water_retention": 0.1674724817276001, "slope": 10.431370735168455, "aspect": 166.6434326171875, "num_identification_agreements": 2, "cluster": 0, "tavg": null, "tmin": 0.7, "tmax": 16.0, "prcp_d0": 0.0, "prcp_d1": 0.0, "prcp_d2": 0.0, "prcp_d3": 0.0, "prcp_d4": 0.0, "prcp_d5": 0.0, "prcp_d6": 0.0, "tmax_d0": null, "tmax_d1": null, "tmax_d2": null, "tmax_d3": null, "tmax_d4": null, "tmax_d5": null, "tmax_d6": null, "tmin_d0": null, "tmin_d1": null, "tmin_d2": null, "tmin_d3": null, "tmin_d4": null, "tmin_d5": null, "tmin_d6": null, "day_of_year": 232, "uuid": "bb025b70-8f62-493c-bb73-cb30c1e15f72", "inat_id": 308570588}}, {"type": "Feature", "geometry": {"type": "Point", "coordinates": [-105.5130615, 39.8446311944]}, "properties": {"species": "Lactarius controversus", "date": "2025-08-20", "location": "Gilpin County, US-CO, US", "elevation": 2792.0, "land_cover_label": "Tree cover", "water_mask": false, "exclude_reason": "keep", "ndvi": null, "soil_moisture": 0.2943652428920883, "solar_exposure": 0.8775148987770081, "wind_exposure": 0.2477932870388031, "water_retention": 0.2371332496404647, "slope": 3.748623609542847, "aspect": 173.78932189941406, "num_identification_agreements": 1, "cluster": 0, "tavg": null, "tmin": 0.7, "tmax": 16.0, "prcp_d0": 0.0, "prcp_d1": 0.0, "prcp_d2": 0.0, "prcp_d3": 0.0, "prcp_d4": 0.0, "prcp_d5": 0.0, "prcp_d6": 0.0, "tmax_d0": null, "tmax_d1": null, "tmax_d2": null, "tmax_d3": null, "tmax_d4": null, "tmax_d5": null, "tmax_d6": null, "tmin_d0": null, "tmin_d1": null, "tmin_d2": null, "tmin_d3": null, "tmin_d4": null, "tmin_d5": null, "tmin_d6": null, "day_of_year": 232, "uuid": "51fa1e7b-1f45-4187-9a62-d5140b677133", "inat_id": 307902944}}]}