{"type": "FeatureCollection", "features": [{"type": "Feature", "geometry": {"type": "Point", "coordinates": [-105.6049184172, 40.1449130962]}, "properties": {"species": "Lactarius sp. 'carbonicola-PNW12'", "date": "2003-09-27", "location": "Boulder County, CO, USA", "elevation": 3083.0, "land_cover_label": "Tree cover", "water_mask": false, "exclude_reason": "keep", "ndvi": null, "soil_moisture": 0.2641526513216531, "solar_exposure": 0.6688525676727295, "wind_exposure": 0.2248746752738952, "water_retention": 0.1718787252902984, "slope": 19.029756546020508, "aspect": 53.27220916748047, "num_identification_agreements": 2, "cluster": 2, "tavg": null, "tmin": null, "tmax": null, "prcp_d0": 0.0, "prcp_d1": 0.0, "prcp_d2": 0.0, "prcp_d3": 0.0, "prcp_d4": 0.0, "prcp_d5": 0.0, "prcp_d6": 0.0, "tmax_d0": 14.7, "tmax_d1": 16.7, "tmax_d2": 17.1, "tmax_d3": 14.4, "tmax_d4": 16.7, "tmax_d5": 16.0, "tmax_d6": 12.7, "tmin_d0": 0.1, "tmin_d1": 3.0, "tmin_d2": 0.2, "tmin_d3": 0.5, "tmin_d4": 1.6, "tmin_d5": -0.9, "tmin_d6": -2.3, "day_of_year": 270, "uuid": "07cf8dcc-05b5-4c27-9951-0d691e66521a", "inat_id": 143398097}}, {"type": "Feature", "geometry": {"type": "Point", "coordinates": [-108.820525, 42.7415777778]}, "properties": {"species": "Lactarius sp. 'carbonicola-PNW12'", "date": "2025-08-11", "location": "Sweetwater Station, WY 82520, USA", "elevation": 2049.0, "land_cover_label": "Tree cover", "water_mask": false, "exclude_reason": "keep", "ndvi": null, "soil_moisture": null, "solar_exposure": null, "wind_exposure": null, "water_retention": null, "slope": null, "aspect": null, "num_identification_agreements": 1, "cluster": 2, "tavg": null, "tmin": 11.1, "tmax": 30.0, "prcp_d0": 0.0, "prcp_d1": 0.0, "prcp_d2": 0.0, "prcp_d3": 0.0, "prcp_d4": 0.0, "prcp_d5": 0.0, "prcp_d6": 0.0, "tmax_d0": 26.1, "tmax_d1": 23.2, "tmax_d2": 24.2, "tmax_d3": 29.6, "tmax_d4": 31.5, "tmax_d5": 31.6, "tmax_d6": 29.4, "tmin_d0": 10.2, "tmin_d1": 10.1, "tmin_d2": 7.8, "tmin_d3": 13.3, "tmin_d4": 12.7, "tmin_d5": 11.5, "tmin_d6": 10.6, "day_of_year": 223, "uuid": "b1165891-3c90-434b-9c94-d44d913662c9", "inat_id": 305881911}}]}