{"type": "FeatureCollection", "features": [{"type": "Feature", "geometry": {"type": "Point", "coordinates": [-105.7970666667, 35.8008222222]}, "properties": {"species": "Lactarius torminosus", "date": "2024-08-29", "location": "Santa Fe County, NM, USA", "elevation": 3319.0, "land_cover_label": "Tree cover", "water_mask": false, "exclude_reason": "keep", "ndvi": null, "soil_moisture": null, "solar_exposure": null, "wind_exposure": null, "water_retention": null, "slope": null, "aspect": null, "num_identification_agreements": 1, "cluster": 0, "tavg": null, "tmin": 15.6, "tmax": 28.9, "prcp_d0": 2.6917762756347656, "prcp_d1": 0.4040963351726532, "prcp_d2": 4.634634494781494, "prcp_d3": 1.4237905740737915, "prcp_d4": 1.9023528099060056, "prcp_d5": 3.57135009765625, "prcp_d6": 3.3443503379821777, "tmax_d0": null, "tmax_d1": null, "tmax_d2": null, "tmax_d3": null, "tmax_d4": null, "tmax_d5": null, "tmax_d6": null, "tmin_d0": null, "tmin_d1": null, "tmin_d2": null, "tmin_d3": null, "tmin_d4": null, "tmin_d5": null, "tmin_d6": null, "day_of_year": 242, "uuid": "6f87e24e-454a-472c-b390-d72875a416a4", "inat_id": 239071376}}]}