{"type": "FeatureCollection", "features": [{"type": "Feature", "geometry": {"type": "Point", "coordinates": [-105.5270216667, 40.0259666667]}, "properties": {"species": "Lactarius montanus", "date": "2025-08-17", "location": "Nederland, CO, US", "elevation": 2813.0, "num_identification_agreements": 1, "tavg": null, "tmin": 18.0, "tmax": 33.0, "day_of_year": 229, "uuid": "82ca3e6d-157b-4d09-96f3-707730ee6048", "inat_id": 307151513}}, {"type": "Feature", "geometry": {"type": "Point", "coordinates": [-106.822061, 41.019415]}, "properties": {"species": "Lactarius montanus", "date": "2024-09-11", "location": "Carbon County, WY, USA", "elevation": 2545.0, "num_identification_agreements": 1, "tavg": null, "tmin": 11.0, "tmax": 25.0, "day_of_year": 255, "uuid": "a68d5e02-fc52-4f5a-86c2-f5d94c7e44e4", "inat_id": 241960590}}]}