{"type": "FeatureCollection", "features": [{"type": "Feature", "geometry": {"type": "Point", "coordinates": [-121.7416222394, 45.7100487186]}, "properties": {"species": "Lactarius occidentalis", "date": "2021-09-09", "location": "Stevenson, WA 98648, USA", "elevation": 150.0, "land_cover_label": "Tree cover", "water_mask": false, "exclude_reason": "keep", "ndvi": null, "soil_moisture": null, "solar_exposure": null, "wind_exposure": null, "water_retention": null, "slope": null, "aspect": null, "num_identification_agreements": 1, "cluster": 2, "tavg": null, "tmin": 15.6, "tmax": 32.2, "prcp_d0": 0.0, "prcp_d1": 0.0, "prcp_d2": 0.0, "prcp_d3": 0.0, "prcp_d4": 0.0, "prcp_d5": 0.0, "prcp_d6": 0.0, "tmax_d0": 28.8, "tmax_d1": 31.0, "tmax_d2": 33.2, "tmax_d3": 28.9, "tmax_d4": 27.9, "tmax_d5": 27.9, "tmax_d6": 28.9, "tmin_d0": 15.5, "tmin_d1": 14.6, "tmin_d2": 13.7, "tmin_d3": 14.2, "tmin_d4": 13.7, "tmin_d5": 14.0, "tmin_d6": 11.1, "day_of_year": 252, "uuid": "1245560b-8482-49d8-9ec8-d9198d5dcc80", "inat_id": 94357322}}, {"type": "Feature", "geometry": {"type": "Point", "coordinates": [-122.1142963904, 45.2410732596]}, "properties": {"species": "Lactarius occidentalis", "date": "2023-08-24", "location": "Clackamas County, OR, USA", "elevation": 1025.0, "land_cover_label": "Tree cover", "water_mask": false, "exclude_reason": "keep", "ndvi": null, "soil_moisture": null, "solar_exposure": null, "wind_exposure": null, "water_retention": null, "slope": null, "aspect": null, "num_identification_agreements": 1, "cluster": 2, "tavg": null, "tmin": 11.7, "tmax": 33.9, "prcp_d0": 0.0, "prcp_d1": 0.0, "prcp_d2": 0.0, "prcp_d3": 0.0, "prcp_d4": 0.0, "prcp_d5": 0.0, "prcp_d6": 0.0, "tmax_d0": 26.2, "tmax_d1": 19.2, "tmax_d2": 18.0, "tmax_d3": 24.2, "tmax_d4": 27.3, "tmax_d5": 26.5, "tmax_d6": 26.2, "tmin_d0": 5.9, "tmin_d1": 5.4, "tmin_d2": 7.4, "tmin_d3": 10.2, "tmin_d4": 11.2, "tmin_d5": 4.7, "tmin_d6": 10.2, "day_of_year": 236, "uuid": "8ca01c56-9cac-48b0-ab18-d3cd0f30cf48", "inat_id": 228544867}}, {"type": "Feature", "geometry": {"type": "Point", "coordinates": [-122.224859749, 45.3053303615]}, "properties": {"species": "Lactarius occidentalis", "date": "2025-09-30", "location": "Clackamas County, OR, USA", "elevation": 366.0, "land_cover_label": "Tree cover", "water_mask": false, "exclude_reason": "keep", "ndvi": null, "soil_moisture": null, "solar_exposure": null, "wind_exposure": null, "water_retention": null, "slope": null, "aspect": null, "num_identification_agreements": 1, "cluster": 2, "tavg": null, "tmin": 10.0, "tmax": 22.0, "prcp_d0": 0.0, "prcp_d1": 19.9090633392334, "prcp_d2": 0.0, "prcp_d3": 0.0, "prcp_d4": 0.0, "prcp_d5": 0.0, "prcp_d6": 0.0, "tmax_d0": 20.6, "tmax_d1": 21.8, "tmax_d2": 22.6, "tmax_d3": 24.3, "tmax_d4": 20.0, "tmax_d5": 24.4, "tmax_d6": 29.2, "tmin_d0": 8.7, "tmin_d1": 12.0, "tmin_d2": 8.4, "tmin_d3": 9.2, "tmin_d4": 5.1, "tmin_d5": 10.7, "tmin_d6": 12.7, "day_of_year": 273, "uuid": "7bba7e30-a4a0-405f-92e9-c9962a9dfa7e", "inat_id": 317886013}}]}