{"type": "FeatureCollection", "features": [{"type": "Feature", "geometry": {"type": "Point", "coordinates": [-100.6912546324, 40.0126067615]}, "properties": {"species": "Laetiporus sulphureus", "date": "2025-09-24", "location": "United States", "elevation": 870.0, "num_identification_agreements": 2, "tavg": null, "tmin": 12.0, "tmax": 25.0, "day_of_year": 267, "uuid": "a166715a-24da-48a2-bce6-5b00017d6125", "inat_id": 331000349}}, {"type": "Feature", "geometry": {"type": "Point", "coordinates": [-102.1633467152, 41.4432891875]}, "properties": {"species": "Laetiporus sulphureus", "date": "2025-11-18", "location": "Oshkosh, NE, US", "elevation": 1073.0, "num_identification_agreements": 2, "tavg": null, "tmin": 0.0, "tmax": 10.0, "day_of_year": 322, "uuid": "4a128cae-8789-471e-886a-7e28fecf87e1", "inat_id": 327165713}}]}