{"type": "FeatureCollection", "features": [{"type": "Feature", "geometry": {"type": "Point", "coordinates": [-103.6988888899, 44.0923411293]}, "properties": {"species": "Lentinellus cochleatus", "date": "2020-08-10", "location": "Pennington County, SD, USA", "elevation": 1785.0, "land_cover_label": "Tree cover", "water_mask": false, "exclude_reason": "keep", "ndvi": null, "soil_moisture": null, "solar_exposure": null, "wind_exposure": null, "water_retention": null, "slope": null, "aspect": null, "num_identification_agreements": 1, "cluster": 3, "tavg": null, "tmin": 11.7, "tmax": 24.4, "prcp_d0": 0.0, "prcp_d1": 10.910198211669922, "prcp_d2": 10.910198211669922, "prcp_d3": 10.910198211669922, "prcp_d4": 0.0, "prcp_d5": 0.0, "prcp_d6": 8.617874145507812, "tmax_d0": null, "tmax_d1": null, "tmax_d2": null, "tmax_d3": null, "tmax_d4": null, "tmax_d5": null, "tmax_d6": null, "tmin_d0": null, "tmin_d1": null, "tmin_d2": null, "tmin_d3": null, "tmin_d4": null, "tmin_d5": null, "tmin_d6": null, "day_of_year": 223, "uuid": "0b8813f3-78e4-4828-82d6-265a35a2fd33", "inat_id": 314508899}}]}