{"type": "FeatureCollection", "features": [{"type": "Feature", "geometry": {"type": "Point", "coordinates": [-107.940995, 38.38398]}, "properties": {"species": "Lepiota erminea", "date": "2024-08-21", "location": "Dave Wood Rd, Montrose, CO, US", "elevation": 2078.0, "land_cover_label": "Shrubland", "water_mask": false, "exclude_reason": "keep", "ndvi": null, "soil_moisture": null, "solar_exposure": null, "wind_exposure": null, "water_retention": null, "slope": null, "aspect": null, "num_identification_agreements": 3, "cluster": 0, "tavg": null, "tmin": 17.2, "tmax": 28.9, "prcp_d0": 4.463633060455322, "prcp_d1": 0.0, "prcp_d2": 0.0, "prcp_d3": 14.839380264282228, "prcp_d4": 0.0, "prcp_d5": 0.0, "prcp_d6": 0.0, "tmax_d0": null, "tmax_d1": null, "tmax_d2": null, "tmax_d3": null, "tmax_d4": null, "tmax_d5": null, "tmax_d6": null, "tmin_d0": null, "tmin_d1": null, "tmin_d2": null, "tmin_d3": null, "tmin_d4": null, "tmin_d5": null, "tmin_d6": null, "day_of_year": 234, "uuid": "4069b04b-18db-4dc8-be7a-d79249e13aa0", "inat_id": 237184819}}, {"type": "Feature", "geometry": {"type": "Point", "coordinates": [-107.7938833333, 38.1118195]}, "properties": {"species": "Lepiota erminea", "date": "2024-09-05", "location": "Highland Dr, Ridgway, CO, US", "elevation": 2625.0, "land_cover_label": "Grassland", "water_mask": false, "exclude_reason": "keep", "ndvi": null, "soil_moisture": null, "solar_exposure": null, "wind_exposure": null, "water_retention": null, "slope": null, "aspect": null, "num_identification_agreements": 2, "cluster": 0, "tavg": null, "tmin": 10.0, "tmax": 20.0, "prcp_d0": 0.0, "prcp_d1": 0.0, "prcp_d2": 0.0, "prcp_d3": 0.0, "prcp_d4": 5.463916778564453, "prcp_d5": 0.0544811598956584, "prcp_d6": 1.3577123880386353, "tmax_d0": null, "tmax_d1": null, "tmax_d2": null, "tmax_d3": null, "tmax_d4": null, "tmax_d5": null, "tmax_d6": null, "tmin_d0": null, "tmin_d1": null, "tmin_d2": null, "tmin_d3": null, "tmin_d4": null, "tmin_d5": null, "tmin_d6": null, "day_of_year": 249, "uuid": "e8a5ba23-03dc-411a-b4ec-5519c3c455b7", "inat_id": 240136166}}]}