{"type": "FeatureCollection", "features": [{"type": "Feature", "geometry": {"type": "Point", "coordinates": [-105.0647239997, 39.1955049997]}, "properties": {"species": "Lepiota clypeolaria", "date": "2025-09-06", "location": "Sedalia, CO 80135, USA", "elevation": 2642.0, "num_identification_agreements": 2, "tavg": null, "tmin": 8.0, "tmax": 22.0, "day_of_year": 249, "uuid": "9acf32cb-161f-474d-af1b-e99fa2c3807e", "inat_id": 312203611}}, {"type": "Feature", "geometry": {"type": "Point", "coordinates": [-105.79819444, 35.80020556]}, "properties": {"species": "Lepiota clypeolaria", "date": "2025-08-27", "location": "Santa Fe, New Mexico, United States", "elevation": 3269.0, "num_identification_agreements": 1, "tavg": null, "tmin": 15.0, "tmax": 26.0, "day_of_year": 239, "uuid": "c74692a9-a1a3-4c00-817e-8c73bcdb83fc", "inat_id": 309800446}}, {"type": "Feature", "geometry": {"type": "Point", "coordinates": [-105.8056333333, 35.7898966667]}, "properties": {"species": "Lepiota clypeolaria", "date": "2024-08-25", "location": "Santa Fe National Forest, Tererro, NM, US", "elevation": 3135.0, "num_identification_agreements": 1, "tavg": null, "tmin": 14.4, "tmax": 27.8, "day_of_year": 238, "uuid": "cbec2e6b-9a8f-441d-a8ad-90d9e635e4d6", "inat_id": 237931532}}, {"type": "Feature", "geometry": {"type": "Point", "coordinates": [-106.6317194211, 35.9890626251]}, "properties": {"species": "Lepiota clypeolaria", "date": "2024-08-05", "location": "Sandoval County, US-NM, US", "elevation": 2704.0, "num_identification_agreements": 1, "tavg": null, "tmin": 18.7, "tmax": 30.4, "day_of_year": 218, "uuid": "ce5cb7dd-fd38-424d-843e-607a0f5d5a9e", "inat_id": 234224789}}, {"type": "Feature", "geometry": {"type": "Point", "coordinates": [-105.446755, 39.67455]}, "properties": {"species": "Lepiota clypeolaria", "date": "2018-08-08", "location": "23539\u201324799 Squaw Pass Rd, Evergreen, CO, US", "elevation": 2838.0, "num_identification_agreements": 1, "tavg": null, "tmin": 15.0, "tmax": 28.0, "day_of_year": 220, "uuid": "2d16d095-dc00-45e4-8c84-14b2689e6149", "inat_id": 15245473}}]}