{"type": "FeatureCollection", "features": [{"type": "Feature", "geometry": {"type": "Point", "coordinates": [-122.56401931, 45.23801918]}, "properties": {"species": "Leucocoprinus barssii", "date": "2018-10-13", "location": "14761 S Buckner Creek Rd, Mulino, OR 97042, USA", "elevation": 174.0, "land_cover_label": "Tree cover", "water_mask": false, "exclude_reason": "keep", "ndvi": null, "soil_moisture": null, "solar_exposure": null, "wind_exposure": null, "water_retention": null, "slope": null, "aspect": null, "num_identification_agreements": 3, "cluster": 0, "tavg": null, "tmin": 7.2, "tmax": 21.7, "prcp_d0": 0.0, "prcp_d1": 0.0, "prcp_d2": 0.0, "prcp_d3": 0.0, "prcp_d4": 0.0, "prcp_d5": 0.0, "prcp_d6": 0.0, "tmax_d0": 20.9, "tmax_d1": 19.5, "tmax_d2": 19.4, "tmax_d3": 18.6, "tmax_d4": 17.0, "tmax_d5": 13.9, "tmax_d6": 15.5, "tmin_d0": 7.9, "tmin_d1": 4.3, "tmin_d2": 5.8, "tmin_d3": 8.8, "tmin_d4": 11.3, "tmin_d5": 10.4, "tmin_d6": 5.0, "day_of_year": 286, "uuid": "3b9013d9-e9ff-44f3-83f5-a9b9dfc61e53", "inat_id": 17474561}}, {"type": "Feature", "geometry": {"type": "Point", "coordinates": [-105.0416, 39.6181]}, "properties": {"species": "Leucocoprinus barssii", "date": "2022-09-21", "location": "Colorado. Arapahoe Co., Littleton, Bow Mar residential neighbrhood, E. of Bowles Lake.", "elevation": 1671.0, "land_cover_label": "Tree cover", "water_mask": false, "exclude_reason": "keep", "ndvi": null, "soil_moisture": 0.1633108365478431, "solar_exposure": 0.8227179646492004, "wind_exposure": 0.3422753512859344, "water_retention": 0.263007789850235, "slope": 2.5559117794036865, "aspect": 52.55630493164063, "num_identification_agreements": 1, "cluster": 0, "tavg": null, "tmin": 8.9, "tmax": 20.6, "prcp_d0": 0.0, "prcp_d1": 0.0, "prcp_d2": 0.0, "prcp_d3": 0.0, "prcp_d4": 0.0, "prcp_d5": 0.0, "prcp_d6": 10.83993148803711, "tmax_d0": 29.9, "tmax_d1": 33.2, "tmax_d2": 31.6, "tmax_d3": 31.2, "tmax_d4": 28.2, "tmax_d5": 27.4, "tmax_d6": 23.9, "tmin_d0": 15.0, "tmin_d1": 11.9, "tmin_d2": 9.8, "tmin_d3": 9.3, "tmin_d4": 9.3, "tmin_d5": 9.1, "tmin_d6": 10.7, "day_of_year": 264, "uuid": "606f7c9f-b542-4ed6-a6ae-7a0657212ae8", "inat_id": 136060343}}, {"type": "Feature", "geometry": {"type": "Point", "coordinates": [-121.5293071234, 45.6410842063]}, "properties": {"species": "Leucocoprinus barssii", "date": "2022-10-10", "location": "OR-35, Hood River, OR, US", "elevation": 243.0, "land_cover_label": "Tree cover", "water_mask": false, "exclude_reason": "keep", "ndvi": null, "soil_moisture": null, "solar_exposure": null, "wind_exposure": null, "water_retention": null, "slope": null, "aspect": null, "num_identification_agreements": 1, "cluster": 0, "tavg": null, "tmin": 11.6, "tmax": 25.2, "prcp_d0": 0.0, "prcp_d1": 0.0, "prcp_d2": 0.0, "prcp_d3": 0.0, "prcp_d4": 0.0, "prcp_d5": 0.0, "prcp_d6": 0.0, "tmax_d0": 25.6, "tmax_d1": 26.4, "tmax_d2": 26.2, "tmax_d3": 26.9, "tmax_d4": 27.2, "tmax_d5": 26.1, "tmax_d6": 26.6, "tmin_d0": 9.3, "tmin_d1": 12.0, "tmin_d2": 13.0, "tmin_d3": 13.5, "tmin_d4": 13.7, "tmin_d5": 12.2, "tmin_d6": 13.1, "day_of_year": 283, "uuid": "3f061c58-103b-4a84-855c-fef06b4149b3", "inat_id": 138283804}}, {"type": "Feature", "geometry": {"type": "Point", "coordinates": [-122.5639150152, 45.2374612053]}, "properties": {"species": "Leucocoprinus barssii", "date": "2024-09-28", "location": "S Buckner Creek Rd, Mulino, OR, US", "elevation": 174.0, "land_cover_label": "Tree cover", "water_mask": false, "exclude_reason": "keep", "ndvi": null, "soil_moisture": null, "solar_exposure": null, "wind_exposure": null, "water_retention": null, "slope": null, "aspect": null, "num_identification_agreements": 3, "cluster": 0, "tavg": null, "tmin": 10.0, "tmax": 23.3, "prcp_d0": 0.0, "prcp_d1": 0.0, "prcp_d2": 0.0, "prcp_d3": 0.0, "prcp_d4": 0.0, "prcp_d5": 0.0, "prcp_d6": 0.0, "tmax_d0": 22.5, "tmax_d1": 21.3, "tmax_d2": 20.4, "tmax_d3": 30.2, "tmax_d4": 31.0, "tmax_d5": 25.9, "tmax_d6": 24.4, "tmin_d0": 9.6, "tmin_d1": 13.5, "tmin_d2": 10.2, "tmin_d3": 14.8, "tmin_d4": 14.0, "tmin_d5": 13.9, "tmin_d6": 8.4, "day_of_year": 272, "uuid": "b3d38466-86d4-404e-a287-6d1830e037bc", "inat_id": 244606558}}, {"type": "Feature", "geometry": {"type": "Point", "coordinates": [-121.7030833997, 45.6868296997]}, "properties": {"species": "Leucocoprinus barssii", "date": "2024-10-23", "location": "Cascade Locks, OR 97014, USA", "elevation": 53.0, "land_cover_label": "Grassland", "water_mask": false, "exclude_reason": "keep", "ndvi": null, "soil_moisture": null, "solar_exposure": null, "wind_exposure": null, "water_retention": null, "slope": null, "aspect": null, "num_identification_agreements": 1, "cluster": 1, "tavg": null, "tmin": 4.9, "tmax": 13.0, "prcp_d0": 0.0, "prcp_d1": 4.175331115722656, "prcp_d2": 35.578670501708984, "prcp_d3": 0.0, "prcp_d4": 8.417922019958496, "prcp_d5": 0.0, "prcp_d6": 20.52857208251953, "tmax_d0": 13.7, "tmax_d1": 14.8, "tmax_d2": 19.8, "tmax_d3": 22.0, "tmax_d4": 20.3, "tmax_d5": 13.5, "tmax_d6": 14.3, "tmin_d0": 7.2, "tmin_d1": 7.9, "tmin_d2": 11.4, "tmin_d3": 10.1, "tmin_d4": 11.0, "tmin_d5": 8.2, "tmin_d6": 8.5, "day_of_year": 297, "uuid": "708181f5-e553-433a-abbc-0945f1dcd3d7", "inat_id": 248883551}}, {"type": "Feature", "geometry": {"type": "Point", "coordinates": [-105.0924834228, 40.5826385168]}, "properties": {"species": "Leucocoprinus barssii", "date": "2025-09-06", "location": "W Magnolia St, Fort Collins, CO, US", "elevation": 1536.0, "land_cover_label": "Tree cover", "water_mask": false, "exclude_reason": "keep", "ndvi": null, "soil_moisture": 0.1886002711716434, "solar_exposure": 0.8435700535774231, "wind_exposure": 0.3238558173179626, "water_retention": 0.4050787985324859, "slope": 0.3109926879405975, "aspect": 180.0, "num_identification_agreements": 1, "cluster": 0, "tavg": null, "tmin": 8.0, "tmax": 26.0, "prcp_d0": 0.0, "prcp_d1": 0.0, "prcp_d2": 0.0, "prcp_d3": 0.0, "prcp_d4": 0.0, "prcp_d5": 0.0, "prcp_d6": 0.0, "tmax_d0": 26.0, "tmax_d1": 27.6, "tmax_d2": 30.0, "tmax_d3": 30.7, "tmax_d4": 29.6, "tmax_d5": 29.0, "tmax_d6": 27.1, "tmin_d0": 7.8, "tmin_d1": 11.2, "tmin_d2": 12.7, "tmin_d3": 11.6, "tmin_d4": 11.0, "tmin_d5": 11.8, "tmin_d6": 10.6, "day_of_year": 249, "uuid": "0243ba9d-3608-4a23-9b3f-d7eecc3bc7f1", "inat_id": 312392831}}, {"type": "Feature", "geometry": {"type": "Point", "coordinates": [-104.8802966667, 39.6354333333]}, "properties": {"species": "Leucocoprinus barssii", "date": "2025-09-07", "location": "Greenwood Village, CO, USA", "elevation": 1720.0, "land_cover_label": "Grassland", "water_mask": false, "exclude_reason": "keep", "ndvi": null, "soil_moisture": 0.147892855765204, "solar_exposure": 0.8261575102806091, "wind_exposure": 0.3292965888977051, "water_retention": 0.3145585060119629, "slope": 2.379994630813598, "aspect": 58.50780487060547, "num_identification_agreements": 1, "cluster": 0, "tavg": null, "tmin": 16.0, "tmax": 27.0, "prcp_d0": 0.0, "prcp_d1": 0.0, "prcp_d2": 0.0, "prcp_d3": 0.0, "prcp_d4": 0.0, "prcp_d5": 0.0, "prcp_d6": 0.0, "tmax_d0": 27.5, "tmax_d1": 26.5, "tmax_d2": 28.3, "tmax_d3": 30.0, "tmax_d4": 29.3, "tmax_d5": 27.9, "tmax_d6": 26.2, "tmin_d0": 14.4, "tmin_d1": 9.1, "tmin_d2": 12.1, "tmin_d3": 13.4, "tmin_d4": 11.8, "tmin_d5": 11.1, "tmin_d6": 10.4, "day_of_year": 250, "uuid": "c4075e31-1b6e-4f14-b977-350c3c26f02c", "inat_id": 312336345}}, {"type": "Feature", "geometry": {"type": "Point", "coordinates": [-104.87760925, 39.6373786667]}, "properties": {"species": "Leucocoprinus barssii", "date": "2025-09-07", "location": "Greenwood Village, CO, USA", "elevation": 1715.0, "land_cover_label": "Grassland", "water_mask": false, "exclude_reason": "keep", "ndvi": null, "soil_moisture": 0.1476430504622234, "solar_exposure": 0.8333749175071716, "wind_exposure": 0.3273698687553406, "water_retention": 0.3052003979682922, "slope": 1.3676942586898804, "aspect": 62.955177307128906, "num_identification_agreements": 1, "cluster": 0, "tavg": null, "tmin": 16.0, "tmax": 27.0, "prcp_d0": 0.0, "prcp_d1": 0.0, "prcp_d2": 0.0, "prcp_d3": 0.0, "prcp_d4": 0.0, "prcp_d5": 0.0, "prcp_d6": 0.0, "tmax_d0": 27.5, "tmax_d1": 26.5, "tmax_d2": 28.3, "tmax_d3": 30.0, "tmax_d4": 29.3, "tmax_d5": 27.9, "tmax_d6": 26.2, "tmin_d0": 14.4, "tmin_d1": 9.1, "tmin_d2": 12.1, "tmin_d3": 13.4, "tmin_d4": 11.8, "tmin_d5": 11.1, "tmin_d6": 10.4, "day_of_year": 250, "uuid": "2a66ffa8-51b2-4ab6-a49c-7649170374e9", "inat_id": 312340741}}, {"type": "Feature", "geometry": {"type": "Point", "coordinates": [-104.8026301007, 38.7905790953]}, "properties": {"species": "Leucocoprinus barssii", "date": "2025-09-14", "location": "Colorado, US", "elevation": 1813.0, "land_cover_label": "Grassland", "water_mask": false, "exclude_reason": "keep", "ndvi": null, "soil_moisture": null, "solar_exposure": null, "wind_exposure": null, "water_retention": null, "slope": null, "aspect": null, "num_identification_agreements": 1, "cluster": 0, "tavg": null, "tmin": 6.9, "tmax": 20.0, "prcp_d0": 0.0, "prcp_d1": 0.0, "prcp_d2": 6.897728443145752, "prcp_d3": 0.0, "prcp_d4": 0.0, "prcp_d5": 0.0, "prcp_d6": 0.0, "tmax_d0": 22.2, "tmax_d1": 24.7, "tmax_d2": 27.3, "tmax_d3": 28.8, "tmax_d4": 29.4, "tmax_d5": 27.9, "tmax_d6": 27.9, "tmin_d0": 9.5, "tmin_d1": 11.1, "tmin_d2": 12.6, "tmin_d3": 14.2, "tmin_d4": 11.9, "tmin_d5": 10.8, "tmin_d6": 11.7, "day_of_year": 257, "uuid": "5347bbcd-1799-416f-9abd-8486dbad8ead", "inat_id": 314045993}}]}