{"type": "FeatureCollection", "features": [{"type": "Feature", "geometry": {"type": "Point", "coordinates": [-105.0506583333, 39.7418633333]}, "properties": {"species": "Leucocoprinus ianthinus", "date": "2021-08-28", "location": "Yates St, Denver, CO, US", "elevation": 1633.0, "num_identification_agreements": 1, "tavg": null, "tmin": 18.1, "tmax": 31.6, "day_of_year": 240, "uuid": "2e52b6e8-9d0a-492d-8d90-d10a59dc63c3", "inat_id": 244387373}}, {"type": "Feature", "geometry": {"type": "Point", "coordinates": [-105.0898376852, 39.7195522151]}, "properties": {"species": "Leucocoprinus ianthinus", "date": "2024-07-25", "location": "Creighton, Lakewood, CO 80226, USA", "elevation": 1679.0, "num_identification_agreements": 2, "tavg": null, "tmin": 20.0, "tmax": 34.4, "day_of_year": 207, "uuid": "6485daa2-8e38-4bdf-b544-a281bfe39342", "inat_id": 231740948}}, {"type": "Feature", "geometry": {"type": "Point", "coordinates": [-105.0887577608, 39.7204230981]}, "properties": {"species": "Leucocoprinus ianthinus", "date": "2024-06-08", "location": "Creighton, Lakewood, CO 80226, USA", "elevation": 1674.0, "num_identification_agreements": 1, "tavg": null, "tmin": 18.0, "tmax": 27.5, "day_of_year": 160, "uuid": "4e113878-1105-4938-a95d-28dcf43d4474", "inat_id": 221468263}}]}