{"type": "FeatureCollection", "features": [{"type": "Feature", "geometry": {"type": "Point", "coordinates": [-122.2683494819, 45.4656478804]}, "properties": {"species": "Leucocoprinus roseilividus", "date": "2021-01-17", "location": "Corbett, Corbett, OR, US", "elevation": 127.0, "land_cover_label": "Tree cover", "water_mask": false, "exclude_reason": "keep", "ndvi": null, "soil_moisture": null, "solar_exposure": null, "wind_exposure": null, "water_retention": null, "slope": null, "aspect": null, "num_identification_agreements": 0, "cluster": 3, "tavg": null, "tmin": 6.7, "tmax": 10.6, "prcp_d0": 0.0, "prcp_d1": 0.0, "prcp_d2": 5.496954441070557, "prcp_d3": 0.0, "prcp_d4": 21.987817764282227, "prcp_d5": 38.47868347167969, "prcp_d6": 10.993908882141112, "tmax_d0": 9.4, "tmax_d1": 11.0, "tmax_d2": 11.1, "tmax_d3": 14.4, "tmax_d4": 13.2, "tmax_d5": 12.4, "tmax_d6": 11.6, "tmin_d0": 3.3, "tmin_d1": 1.2, "tmin_d2": 6.9, "tmin_d3": 5.1, "tmin_d4": 5.7, "tmin_d5": 6.5, "tmin_d6": 4.0, "day_of_year": 17, "uuid": "b25b10c0-9b15-4728-a321-0093839dd2e1", "inat_id": 68282635}}, {"type": "Feature", "geometry": {"type": "Point", "coordinates": [-122.2996574997, 45.4880955]}, "properties": {"species": "Leucocoprinus roseilividus", "date": "2024-10-12", "location": "Gresham, OR 97080, USA", "elevation": 80.0, "land_cover_label": "Tree cover", "water_mask": false, "exclude_reason": "keep", "ndvi": null, "soil_moisture": null, "solar_exposure": null, "wind_exposure": null, "water_retention": null, "slope": null, "aspect": null, "num_identification_agreements": 0, "cluster": 2, "tavg": null, "tmin": 8.9, "tmax": 24.4, "prcp_d0": 0.0, "prcp_d1": 13.305500984191896, "prcp_d2": 0.0, "prcp_d3": 0.0, "prcp_d4": 0.0, "prcp_d5": 0.0, "prcp_d6": 0.0, "tmax_d0": 23.7, "tmax_d1": 21.7, "tmax_d2": 20.1, "tmax_d3": 19.9, "tmax_d4": 25.0, "tmax_d5": 27.1, "tmax_d6": 21.4, "tmin_d0": 7.9, "tmin_d1": 9.0, "tmin_d2": 3.9, "tmin_d3": 12.5, "tmin_d4": 9.8, "tmin_d5": 7.9, "tmin_d6": 7.3, "day_of_year": 286, "uuid": "34f95d2e-7bec-40ba-a66b-945bdf854fc3", "inat_id": 247065928}}, {"type": "Feature", "geometry": {"type": "Point", "coordinates": [-122.2821283333, 45.30637]}, "properties": {"species": "Leucocoprinus roseilividus", "date": "2024-11-10", "location": "SE Tracy Rd, Estacada, OR, US", "elevation": 289.0, "land_cover_label": "Tree cover", "water_mask": false, "exclude_reason": "keep", "ndvi": null, "soil_moisture": null, "solar_exposure": null, "wind_exposure": null, "water_retention": null, "slope": null, "aspect": null, "num_identification_agreements": 0, "cluster": 2, "tavg": null, "tmin": 10.0, "tmax": 13.9, "prcp_d0": 0.0, "prcp_d1": 0.0, "prcp_d2": 0.0, "prcp_d3": 0.0, "prcp_d4": 0.0, "prcp_d5": 23.58524703979492, "prcp_d6": 0.0, "tmax_d0": 13.4, "tmax_d1": 13.4, "tmax_d2": 13.5, "tmax_d3": 15.2, "tmax_d4": 13.3, "tmax_d5": 10.2, "tmax_d6": 11.5, "tmin_d0": 6.6, "tmin_d1": 5.3, "tmin_d2": 3.5, "tmin_d3": 5.8, "tmin_d4": 2.4, "tmin_d5": 5.4, "tmin_d6": 5.2, "day_of_year": 315, "uuid": "94070942-1b2c-4a75-9d6f-63e5c1535154", "inat_id": 251477635}}, {"type": "Feature", "geometry": {"type": "Point", "coordinates": [-122.2881036097, 45.3194407757]}, "properties": {"species": "Leucocoprinus roseilividus", "date": "2025-12-20", "location": "Clackamas County, OR, USA", "elevation": 226.0, "land_cover_label": "Tree cover", "water_mask": false, "exclude_reason": "keep", "ndvi": null, "soil_moisture": null, "solar_exposure": null, "wind_exposure": null, "water_retention": null, "slope": null, "aspect": null, "num_identification_agreements": 0, "cluster": 1, "tavg": null, "tmin": 5.6, "tmax": 10.6, "prcp_d0": 0.0, "prcp_d1": 56.40616607666016, "prcp_d2": 56.40616607666016, "prcp_d3": 18.80205535888672, "prcp_d4": 0.0, "prcp_d5": 19.200000762939453, "prcp_d6": 0.0, "tmax_d0": 9.2, "tmax_d1": 12.2, "tmax_d2": 12.2, "tmax_d3": 14.7, "tmax_d4": 15.1, "tmax_d5": 16.6, "tmax_d6": 11.2, "tmin_d0": 2.4, "tmin_d1": 3.3, "tmin_d2": 4.0, "tmin_d3": 4.5, "tmin_d4": 9.9, "tmin_d5": 8.4, "tmin_d6": 4.2, "day_of_year": 354, "uuid": "138a55ee-cd22-41fa-bd72-1ff7f7c3cbbc", "inat_id": 332776340}}]}