{"type": "FeatureCollection", "features": [{"type": "Feature", "geometry": {"type": "Point", "coordinates": [-122.558105, 45.4524633333]}, "properties": {"species": "Leucocoprinus birnbaumii", "date": "2026-07-23", "location": "SE Westview Ct, Happy Valley, OR, US", "elevation": 233.0, "land_cover_label": "Tree cover", "water_mask": false, "exclude_reason": "keep", "ndvi": null, "soil_moisture": null, "solar_exposure": null, "wind_exposure": null, "water_retention": null, "slope": null, "aspect": null, "num_identification_agreements": 1, "cluster": 1, "tavg": null, "tmin": 17.8, "tmax": 26.7, "prcp_d0": 4.453845500946045, "prcp_d1": 0.0, "prcp_d2": 0.0, "prcp_d3": 0.0, "prcp_d4": 0.0, "prcp_d5": 0.0, "prcp_d6": 0.0, "tmax_d0": null, "tmax_d1": null, "tmax_d2": null, "tmax_d3": null, "tmax_d4": null, "tmax_d5": null, "tmax_d6": null, "tmin_d0": null, "tmin_d1": null, "tmin_d2": null, "tmin_d3": null, "tmin_d4": null, "tmin_d5": null, "tmin_d6": null, "day_of_year": 204, "uuid": "d2fe5ef3-cf5a-493d-9e64-1a83288d46ae", "inat_id": 394794733}}, {"type": "Feature", "geometry": {"type": "Point", "coordinates": [-122.7139374443, 45.4763467179]}, "properties": {"species": "Leucocoprinus cepistipes", "date": "2026-08-28", "location": "SW Vermont St, Portland, OR, US", "elevation": 164.0, "land_cover_label": "Tree cover", "water_mask": false, "exclude_reason": "keep", "ndvi": null, "soil_moisture": null, "solar_exposure": null, "wind_exposure": null, "water_retention": null, "slope": null, "aspect": null, "num_identification_agreements": 1, "cluster": null, "tavg": null, "tmin": 15.7, "tmax": 24.1, "prcp_d0": null, "prcp_d1": null, "prcp_d2": null, "prcp_d3": null, "prcp_d4": null, "prcp_d5": null, "prcp_d6": null, "tmax_d0": null, "tmax_d1": null, "tmax_d2": null, "tmax_d3": null, "tmax_d4": null, "tmax_d5": null, "tmax_d6": null, "tmin_d0": null, "tmin_d1": null, "tmin_d2": null, "tmin_d3": null, "tmin_d4": null, "tmin_d5": null, "tmin_d6": null, "day_of_year": 240, "uuid": "67d2c51f-43ba-4ce8-b02b-36d8ca56bb54", "inat_id": 395252522}}]}