{"type": "FeatureCollection", "features": [{"type": "Feature", "geometry": {"type": "Point", "coordinates": [-121.5324489767, 45.6425649196]}, "properties": {"species": "Leucocoprinus cepistipes", "date": "2020-05-14", "location": "Hood River, OR, US", "elevation": 248.0, "land_cover_label": "Tree cover", "water_mask": false, "exclude_reason": "keep", "ndvi": null, "soil_moisture": null, "solar_exposure": null, "wind_exposure": null, "water_retention": null, "slope": null, "aspect": null, "num_identification_agreements": 1, "cluster": 2, "tavg": null, "tmin": 11.1, "tmax": 18.9, "prcp_d0": 0.0, "prcp_d1": 0.0, "prcp_d2": 0.0, "prcp_d3": 0.0, "prcp_d4": 0.0, "prcp_d5": 0.0, "prcp_d6": 0.0, "tmax_d0": 15.3, "tmax_d1": 17.2, "tmax_d2": 22.3, "tmax_d3": 26.9, "tmax_d4": 26.9, "tmax_d5": 26.7, "tmax_d6": 23.3, "tmin_d0": 8.4, "tmin_d1": 7.9, "tmin_d2": 7.5, "tmin_d3": 11.7, "tmin_d4": 10.2, "tmin_d5": 9.2, "tmin_d6": 6.0, "day_of_year": 135, "uuid": "9fbb449a-6cf6-4021-8f9c-bc77b25d4501", "inat_id": 45895461}}, {"type": "Feature", "geometry": {"type": "Point", "coordinates": [-122.1745753661, 45.3683096232]}, "properties": {"species": "Leucocoprinus cepistipes", "date": "2023-08-09", "location": "Sandy, OR 97055, USA", "elevation": 394.0, "land_cover_label": "Tree cover", "water_mask": false, "exclude_reason": "keep", "ndvi": null, "soil_moisture": null, "solar_exposure": null, "wind_exposure": null, "water_retention": null, "slope": null, "aspect": null, "num_identification_agreements": 1, "cluster": 2, "tavg": null, "tmin": 17.2, "tmax": 28.3, "prcp_d0": 0.0, "prcp_d1": 0.0, "prcp_d2": 0.0, "prcp_d3": 0.0, "prcp_d4": 0.0, "prcp_d5": 0.0, "prcp_d6": 0.0, "tmax_d0": 26.0, "tmax_d1": 26.4, "tmax_d2": 22.8, "tmax_d3": 23.1, "tmax_d4": 26.5, "tmax_d5": 26.3, "tmax_d6": 26.8, "tmin_d0": 13.5, "tmin_d1": 10.9, "tmin_d2": 14.9, "tmin_d3": 15.0, "tmin_d4": 16.1, "tmin_d5": 12.6, "tmin_d6": 10.9, "day_of_year": 221, "uuid": "de617cd1-ef66-4f39-8b10-f88ddea87f45", "inat_id": 177575538}}]}