{"type": "FeatureCollection", "features": [{"type": "Feature", "geometry": {"type": "Point", "coordinates": [-105.877058427, 39.6697390125]}, "properties": {"species": "Lichenomphalia ericetorum", "date": "2017-07-20", "location": "Clear Creek County, CO, USA", "elevation": 3570.0, "land_cover_label": "Tree cover", "water_mask": false, "exclude_reason": "keep", "ndvi": null, "soil_moisture": 0.3278054581666596, "solar_exposure": 0.6542772650718689, "wind_exposure": 0.4141904711723327, "water_retention": 0.2373574823141098, "slope": 24.56574249267578, "aspect": 293.8113708496094, "num_identification_agreements": 1, "cluster": 0, "tavg": null, "tmin": 10.0, "tmax": 18.0, "prcp_d0": 7.527683258056641, "prcp_d1": 7.527683258056641, "prcp_d2": 0.0, "prcp_d3": 0.0, "prcp_d4": 0.0, "prcp_d5": 0.0, "prcp_d6": 0.0, "tmax_d0": null, "tmax_d1": null, "tmax_d2": null, "tmax_d3": null, "tmax_d4": null, "tmax_d5": null, "tmax_d6": null, "tmin_d0": null, "tmin_d1": null, "tmin_d2": null, "tmin_d3": null, "tmin_d4": null, "tmin_d5": null, "tmin_d6": null, "day_of_year": 201, "uuid": "816cfa00-4327-4fc7-b336-fdcf25dabaa1", "inat_id": 21888033}}]}