{"type": "FeatureCollection", "features": [{"type": "Feature", "geometry": {"type": "Point", "coordinates": [-122.378344126, 45.4139385809]}, "properties": {"species": "Marasmiellus candidus", "date": "2017-11-25", "location": "Oregon, US", "elevation": 190.0, "land_cover_label": "Tree cover", "water_mask": false, "exclude_reason": "keep", "ndvi": null, "soil_moisture": null, "solar_exposure": null, "wind_exposure": null, "water_retention": null, "slope": null, "aspect": null, "num_identification_agreements": 2, "cluster": 2, "tavg": null, "tmin": 5.0, "tmax": 10.0, "prcp_d0": 13.192811965942385, "prcp_d1": 0.0, "prcp_d2": 26.38562393188477, "prcp_d3": 0.0, "prcp_d4": 26.38562393188477, "prcp_d5": 62.51074981689453, "prcp_d6": 0.0, "tmax_d0": 12.7, "tmax_d1": 11.6, "tmax_d2": 15.5, "tmax_d3": 17.9, "tmax_d4": 15.5, "tmax_d5": 11.3, "tmax_d6": 12.2, "tmin_d0": 3.5, "tmin_d1": 6.3, "tmin_d2": 11.3, "tmin_d3": 12.1, "tmin_d4": 7.7, "tmin_d5": 6.5, "tmin_d6": -1.0, "day_of_year": 329, "uuid": "e3946e4b-7011-42a9-acd9-746793271521", "inat_id": 8938476}}, {"type": "Feature", "geometry": {"type": "Point", "coordinates": [-122.1412220386, 45.1910347985]}, "properties": {"species": "Marasmiellus candidus", "date": "2018-11-03", "location": "Clackamas County, OR, USA", "elevation": 784.0, "land_cover_label": "Tree cover", "water_mask": false, "exclude_reason": "keep", "ndvi": null, "soil_moisture": null, "solar_exposure": null, "wind_exposure": null, "water_retention": null, "slope": null, "aspect": null, "num_identification_agreements": 2, "cluster": 2, "tavg": null, "tmin": 10.6, "tmax": 15.6, "prcp_d0": 0.0, "prcp_d1": 0.0, "prcp_d2": 0.0, "prcp_d3": 0.0, "prcp_d4": 0.0, "prcp_d5": 27.189985275268555, "prcp_d6": 54.37997055053711, "tmax_d0": 10.8, "tmax_d1": 11.9, "tmax_d2": 12.4, "tmax_d3": 10.0, "tmax_d4": 10.1, "tmax_d5": 7.7, "tmax_d6": 12.1, "tmin_d0": 5.5, "tmin_d1": 8.8, "tmin_d2": 9.9, "tmin_d3": 5.7, "tmin_d4": 3.7, "tmin_d5": 4.0, "tmin_d6": 7.5, "day_of_year": 307, "uuid": "7e9715b0-84cb-4433-926c-6463dbf1a062", "inat_id": 18095795}}, {"type": "Feature", "geometry": {"type": "Point", "coordinates": [-122.332699, 44.8465709722]}, "properties": {"species": "Marasmiellus candidus", "date": "2019-09-14", "location": "Lyons, OR 97358, USA", "elevation": 554.0, "land_cover_label": "Tree cover", "water_mask": false, "exclude_reason": "keep", "ndvi": null, "soil_moisture": null, "solar_exposure": null, "wind_exposure": null, "water_retention": null, "slope": null, "aspect": null, "num_identification_agreements": 1, "cluster": 0, "tavg": null, "tmin": null, "tmax": null, "prcp_d0": 0.0, "prcp_d1": 0.0, "prcp_d2": 0.0, "prcp_d3": 0.0, "prcp_d4": 0.0, "prcp_d5": 0.0, "prcp_d6": 0.0, "tmax_d0": 19.6, "tmax_d1": 21.6, "tmax_d2": 23.0, "tmax_d3": 18.7, "tmax_d4": 15.9, "tmax_d5": 15.8, "tmax_d6": 15.9, "tmin_d0": 10.7, "tmin_d1": 11.4, "tmin_d2": 8.3, "tmin_d3": 9.3, "tmin_d4": 10.0, "tmin_d5": 10.7, "tmin_d6": 11.4, "day_of_year": 257, "uuid": "ec7224cd-daa9-41e3-866b-9cc80fe07ad8", "inat_id": 60119273}}, {"type": "Feature", "geometry": {"type": "Point", "coordinates": [-122.4611620232, 45.3226167038]}, "properties": {"species": "Marasmiellus candidus", "date": "2020-09-23", "location": "Oregon City, OR 97045, USA", "elevation": 244.0, "land_cover_label": "Tree cover", "water_mask": false, "exclude_reason": "keep", "ndvi": null, "soil_moisture": null, "solar_exposure": null, "wind_exposure": null, "water_retention": null, "slope": null, "aspect": null, "num_identification_agreements": 3, "cluster": 2, "tavg": null, "tmin": 16.7, "tmax": 22.2, "prcp_d0": 0.0, "prcp_d1": 0.0, "prcp_d2": 0.0, "prcp_d3": 0.4071884155273437, "prcp_d4": 2.1210741996765137, "prcp_d5": 25.008020401000977, "prcp_d6": 0.0, "tmax_d0": 20.9, "tmax_d1": 21.8, "tmax_d2": 22.5, "tmax_d3": 22.2, "tmax_d4": 20.5, "tmax_d5": 25.4, "tmax_d6": 28.5, "tmin_d0": 14.1, "tmin_d1": 13.5, "tmin_d2": 9.8, "tmin_d3": 11.6, "tmin_d4": 13.3, "tmin_d5": 15.9, "tmin_d6": 12.3, "day_of_year": 267, "uuid": "bb9b8201-f21c-4839-9540-4ecf9c818fa4", "inat_id": 61222741}}, {"type": "Feature", "geometry": {"type": "Point", "coordinates": [-122.2808021457, 45.3213374015]}, "properties": {"species": "Marasmiellus candidus", "date": "2020-10-18", "location": "97023, Estacada, OR, US", "elevation": 281.0, "land_cover_label": "Tree cover", "water_mask": false, "exclude_reason": "keep", "ndvi": null, "soil_moisture": null, "solar_exposure": null, "wind_exposure": null, "water_retention": null, "slope": null, "aspect": null, "num_identification_agreements": 1, "cluster": 2, "tavg": null, "tmin": 12.8, "tmax": 19.4, "prcp_d0": 0.0, "prcp_d1": 0.0, "prcp_d2": 0.0, "prcp_d3": 0.0, "prcp_d4": 0.0, "prcp_d5": 46.18045425415039, "prcp_d6": 0.0, "tmax_d0": 15.4, "tmax_d1": 16.5, "tmax_d2": 17.2, "tmax_d3": 16.1, "tmax_d4": 14.0, "tmax_d5": 13.8, "tmax_d6": 14.3, "tmin_d0": 10.3, "tmin_d1": 10.7, "tmin_d2": 4.5, "tmin_d3": 2.8, "tmin_d4": 9.1, "tmin_d5": 10.1, "tmin_d6": 10.8, "day_of_year": 292, "uuid": "14306d39-135c-44ed-b224-580adf5f28aa", "inat_id": 63097772}}, {"type": "Feature", "geometry": {"type": "Point", "coordinates": [-122.3707251, 45.2986127]}, "properties": {"species": "Marasmiellus candidus", "date": "2021-01-09", "location": "Milo McIver State Park, Estacada, OR 97023, USA", "elevation": 86.0, "land_cover_label": "Tree cover", "water_mask": false, "exclude_reason": "keep", "ndvi": null, "soil_moisture": null, "solar_exposure": null, "wind_exposure": null, "water_retention": null, "slope": null, "aspect": null, "num_identification_agreements": 1, "cluster": 2, "tavg": null, "tmin": 2.8, "tmax": 7.8, "prcp_d0": 0.0, "prcp_d1": 14.48985767364502, "prcp_d2": 4.829952239990234, "prcp_d3": 14.48985767364502, "prcp_d4": 0.0, "prcp_d5": 36.99631881713867, "prcp_d6": 9.249079704284668, "tmax_d0": 13.0, "tmax_d1": 11.0, "tmax_d2": 12.4, "tmax_d3": 12.2, "tmax_d4": 11.2, "tmax_d5": 10.6, "tmax_d6": 11.7, "tmin_d0": 1.1, "tmin_d1": 5.5, "tmin_d2": 5.4, "tmin_d3": 6.4, "tmin_d4": 4.8, "tmin_d5": 7.2, "tmin_d6": 6.3, "day_of_year": 9, "uuid": "34baa872-4840-4640-a8ae-cd96524b9ef4", "inat_id": 69070202}}, {"type": "Feature", "geometry": {"type": "Point", "coordinates": [-122.2555916667, 45.4660083333]}, "properties": {"species": "Marasmiellus candidus", "date": "2021-11-15", "location": "SE Gordon Creek Rd, Corbett, OR, US", "elevation": 265.0, "land_cover_label": "Tree cover", "water_mask": false, "exclude_reason": "keep", "ndvi": null, "soil_moisture": null, "solar_exposure": null, "wind_exposure": null, "water_retention": null, "slope": null, "aspect": null, "num_identification_agreements": 1, "cluster": 1, "tavg": null, "tmin": 7.2, "tmax": 17.8, "prcp_d0": 13.196470260620115, "prcp_d1": 0.0, "prcp_d2": 13.196470260620115, "prcp_d3": 52.78588104248047, "prcp_d4": 26.392940521240234, "prcp_d5": 0.0, "prcp_d6": 31.7360954284668, "tmax_d0": 16.7, "tmax_d1": 16.0, "tmax_d2": 16.0, "tmax_d3": 14.8, "tmax_d4": 15.4, "tmax_d5": 11.7, "tmax_d6": 12.4, "tmin_d0": 8.8, "tmin_d1": 13.1, "tmin_d2": 9.5, "tmin_d3": 13.6, "tmin_d4": 8.5, "tmin_d5": 5.3, "tmin_d6": 7.5, "day_of_year": 319, "uuid": "fd911ff2-c1ff-4d45-81ab-917134ecaa51", "inat_id": 101310013}}, {"type": "Feature", "geometry": {"type": "Point", "coordinates": [-122.377425007, 45.2538587657]}, "properties": {"species": "Marasmiellus candidus", "date": "2022-03-29", "location": "Estacada, OR, US", "elevation": 215.0, "land_cover_label": "Tree cover", "water_mask": false, "exclude_reason": "keep", "ndvi": null, "soil_moisture": null, "solar_exposure": null, "wind_exposure": null, "water_retention": null, "slope": null, "aspect": null, "num_identification_agreements": 1, "cluster": 0, "tavg": null, "tmin": 8.3, "tmax": 16.1, "prcp_d0": 0.0, "prcp_d1": 0.0, "prcp_d2": 0.0, "prcp_d3": 0.0, "prcp_d4": 0.0, "prcp_d5": 0.0, "prcp_d6": 0.0, "tmax_d0": 13.5, "tmax_d1": 17.3, "tmax_d2": 17.4, "tmax_d3": 16.8, "tmax_d4": 15.6, "tmax_d5": 16.8, "tmax_d6": 18.0, "tmin_d0": 6.0, "tmin_d1": 9.7, "tmin_d2": 8.7, "tmin_d3": 6.0, "tmin_d4": 5.5, "tmin_d5": 4.7, "tmin_d6": 9.5, "day_of_year": 88, "uuid": "73912a3c-fa95-4624-bd72-01de4ce8dcd4", "inat_id": 109899597}}, {"type": "Feature", "geometry": {"type": "Point", "coordinates": [-122.5607, 45.2398027778]}, "properties": {"species": "Marasmiellus candidus", "date": "2022-10-08", "location": "Mulino, OR, USA", "elevation": 153.0, "land_cover_label": "Tree cover", "water_mask": false, "exclude_reason": "keep", "ndvi": null, "soil_moisture": null, "solar_exposure": null, "wind_exposure": null, "water_retention": null, "slope": null, "aspect": null, "num_identification_agreements": 1, "cluster": 0, "tavg": null, "tmin": 8.9, "tmax": 30.6, "prcp_d0": 0.0, "prcp_d1": 0.0, "prcp_d2": 0.0, "prcp_d3": 0.0, "prcp_d4": 0.0, "prcp_d5": 0.0, "prcp_d6": 0.0, "tmax_d0": 27.9, "tmax_d1": 23.8, "tmax_d2": 24.6, "tmax_d3": 22.7, "tmax_d4": 23.9, "tmax_d5": 28.6, "tmax_d6": 28.5, "tmin_d0": 10.8, "tmin_d1": 11.2, "tmin_d2": 11.0, "tmin_d3": 10.9, "tmin_d4": 11.9, "tmin_d5": 11.8, "tmin_d6": 14.4, "day_of_year": 281, "uuid": "a48151ee-6bfb-4fe0-8cea-8ff7b1934196", "inat_id": 138028239}}, {"type": "Feature", "geometry": {"type": "Point", "coordinates": [-122.2873062919, 45.320333092]}, "properties": {"species": "Marasmiellus candidus", "date": "2023-01-23", "location": "Eagle Creek, Eagle Creek, OR, US", "elevation": 184.0, "land_cover_label": "Tree cover", "water_mask": false, "exclude_reason": "keep", "ndvi": null, "soil_moisture": null, "solar_exposure": null, "wind_exposure": null, "water_retention": null, "slope": null, "aspect": null, "num_identification_agreements": 1, "cluster": 0, "tavg": null, "tmin": 2.8, "tmax": 9.4, "prcp_d0": 0.0, "prcp_d1": 0.0, "prcp_d2": 0.0, "prcp_d3": 0.0, "prcp_d4": 0.0, "prcp_d5": 13.112278938293455, "prcp_d6": 0.0, "tmax_d0": 8.1, "tmax_d1": 5.1, "tmax_d2": 5.4, "tmax_d3": 6.7, "tmax_d4": 6.0, "tmax_d5": 7.3, "tmax_d6": 7.4, "tmin_d0": -0.2, "tmin_d1": 0.9, "tmin_d2": -1.3, "tmin_d3": -2.6, "tmin_d4": 0.5, "tmin_d5": 3.7, "tmin_d6": 3.9, "day_of_year": 23, "uuid": "1e45eb3a-a7a5-4b65-b424-3b40fd839ab7", "inat_id": 147225754}}, {"type": "Feature", "geometry": {"type": "Point", "coordinates": [-122.2006600129, 45.485566929]}, "properties": {"species": "Marasmiellus candidus", "date": "2023-10-06", "location": "Oregon, US", "elevation": 384.0, "land_cover_label": "Tree cover", "water_mask": false, "exclude_reason": "keep", "ndvi": null, "soil_moisture": null, "solar_exposure": null, "wind_exposure": null, "water_retention": null, "slope": null, "aspect": null, "num_identification_agreements": 1, "cluster": 0, "tavg": null, "tmin": 20.6, "tmax": 27.8, "prcp_d0": 0.0, "prcp_d1": 0.0, "prcp_d2": 0.0, "prcp_d3": 0.0, "prcp_d4": 0.0, "prcp_d5": 0.0, "prcp_d6": 0.0, "tmax_d0": 25.0, "tmax_d1": 25.3, "tmax_d2": 16.2, "tmax_d3": 16.3, "tmax_d4": 16.4, "tmax_d5": 16.5, "tmax_d6": 16.5, "tmin_d0": 16.7, "tmin_d1": 9.1, "tmin_d2": 8.6, "tmin_d3": 11.9, "tmin_d4": 8.7, "tmin_d5": 4.7, "tmin_d6": 6.6, "day_of_year": 279, "uuid": "e45b76a2-621f-436e-9e40-068f7d555a4b", "inat_id": 186471872}}, {"type": "Feature", "geometry": {"type": "Point", "coordinates": [-122.18312857, 45.36742618]}, "properties": {"species": "Marasmiellus candidus", "date": "2023-10-07", "location": "Sandy, OR 97055, USA", "elevation": 376.0, "land_cover_label": "Tree cover", "water_mask": false, "exclude_reason": "keep", "ndvi": null, "soil_moisture": null, "solar_exposure": null, "wind_exposure": null, "water_retention": null, "slope": null, "aspect": null, "num_identification_agreements": 1, "cluster": 0, "tavg": null, "tmin": 18.3, "tmax": 28.3, "prcp_d0": 0.0, "prcp_d1": 0.0, "prcp_d2": 0.0, "prcp_d3": 0.0, "prcp_d4": 0.0, "prcp_d5": 0.0, "prcp_d6": 0.0, "tmax_d0": 26.9, "tmax_d1": 26.1, "tmax_d2": 26.1, "tmax_d3": 15.7, "tmax_d4": 14.8, "tmax_d5": 15.5, "tmax_d6": 16.0, "tmin_d0": 15.5, "tmin_d1": 16.7, "tmin_d2": 7.4, "tmin_d3": 8.5, "tmin_d4": 11.7, "tmin_d5": 8.1, "tmin_d6": 2.1, "day_of_year": 280, "uuid": "a8474ced-760a-4458-85cf-2f8514ad3c2c", "inat_id": 186626156}}, {"type": "Feature", "geometry": {"type": "Point", "coordinates": [-121.940405, 45.2967133333]}, "properties": {"species": "Marasmiellus candidus", "date": "2023-10-09", "location": "Zigzag Ranger Station, Government Camp, OR, US", "elevation": 469.0, "land_cover_label": "Tree cover", "water_mask": false, "exclude_reason": "keep", "ndvi": null, "soil_moisture": null, "solar_exposure": null, "wind_exposure": null, "water_retention": null, "slope": null, "aspect": null, "num_identification_agreements": 1, "cluster": 0, "tavg": null, "tmin": 13.3, "tmax": 18.3, "prcp_d0": 17.56292724609375, "prcp_d1": 0.0, "prcp_d2": 0.0, "prcp_d3": 0.0, "prcp_d4": 0.0, "prcp_d5": 0.0, "prcp_d6": 0.0, "tmax_d0": 23.3, "tmax_d1": 26.1, "tmax_d2": 26.7, "tmax_d3": 24.7, "tmax_d4": 26.6, "tmax_d5": 17.8, "tmax_d6": 13.9, "tmin_d0": 11.6, "tmin_d1": 13.1, "tmin_d2": 15.8, "tmin_d3": 15.6, "tmin_d4": 9.3, "tmin_d5": 9.2, "tmin_d6": 11.6, "day_of_year": 282, "uuid": "aace18b2-7346-4433-9de5-665978dc3c76", "inat_id": 186931842}}, {"type": "Feature", "geometry": {"type": "Point", "coordinates": [-122.2183, 45.5380666667]}, "properties": {"species": "Marasmiellus candidus", "date": "2024-01-01", "location": "Corbett, OR 97019, USA", "elevation": 68.0, "land_cover_label": "Tree cover", "water_mask": false, "exclude_reason": "keep", "ndvi": null, "soil_moisture": null, "solar_exposure": null, "wind_exposure": null, "water_retention": null, "slope": null, "aspect": null, "num_identification_agreements": 2, "cluster": 0, "tavg": null, "tmin": 3.9, "tmax": 8.9, "prcp_d0": 0.0, "prcp_d1": 0.0, "prcp_d2": 0.0, "prcp_d3": 4.771677970886231, "prcp_d4": 0.0, "prcp_d5": 9.54335594177246, "prcp_d6": 14.315034866333008, "tmax_d0": 10.1, "tmax_d1": 10.9, "tmax_d2": 11.3, "tmax_d3": 11.2, "tmax_d4": 10.5, "tmax_d5": 8.1, "tmax_d6": 9.7, "tmin_d0": 3.0, "tmin_d1": 3.1, "tmin_d2": 6.3, "tmin_d3": 6.8, "tmin_d4": 5.7, "tmin_d5": 5.5, "tmin_d6": 3.5, "day_of_year": 1, "uuid": "c6e1f0b2-5d1f-45fd-821c-4519d0b0df6c", "inat_id": 195497208}}, {"type": "Feature", "geometry": {"type": "Point", "coordinates": [-122.2894533333, 45.3253033333]}, "properties": {"species": "Marasmiellus candidus", "date": "2024-10-12", "location": "Eagle Fern Park, Eagle Creek, OR, US", "elevation": 192.0, "land_cover_label": "Tree cover", "water_mask": false, "exclude_reason": "keep", "ndvi": null, "soil_moisture": null, "solar_exposure": null, "wind_exposure": null, "water_retention": null, "slope": null, "aspect": null, "num_identification_agreements": 1, "cluster": 0, "tavg": null, "tmin": 8.9, "tmax": 24.4, "prcp_d0": 0.0, "prcp_d1": 0.0, "prcp_d2": 0.0, "prcp_d3": 0.0, "prcp_d4": 0.0, "prcp_d5": 0.0, "prcp_d6": 0.0, "tmax_d0": 22.2, "tmax_d1": 21.8, "tmax_d2": 18.6, "tmax_d3": 19.4, "tmax_d4": 24.7, "tmax_d5": 26.5, "tmax_d6": 21.3, "tmin_d0": 8.5, "tmin_d1": 8.3, "tmin_d2": 3.6, "tmin_d3": 11.8, "tmin_d4": 10.0, "tmin_d5": 8.5, "tmin_d6": 6.2, "day_of_year": 286, "uuid": "caa24b36-e8ff-4a56-8c2c-f441283c6036", "inat_id": 247046910}}, {"type": "Feature", "geometry": {"type": "Point", "coordinates": [-122.0855159722, 45.639155]}, "properties": {"species": "Marasmiellus candidus", "date": "2025-01-09", "location": "Stevenson, WA 98648, USA", "elevation": 385.0, "land_cover_label": "Tree cover", "water_mask": false, "exclude_reason": "keep", "ndvi": null, "soil_moisture": null, "solar_exposure": null, "wind_exposure": null, "water_retention": null, "slope": null, "aspect": null, "num_identification_agreements": 1, "cluster": 2, "tavg": null, "tmin": 5.6, "tmax": 7.8, "prcp_d0": 0.0, "prcp_d1": 13.985199928283691, "prcp_d2": 0.0, "prcp_d3": 13.985199928283691, "prcp_d4": 0.0, "prcp_d5": 0.0, "prcp_d6": 109.2204132080078, "tmax_d0": 9.3, "tmax_d1": 13.5, "tmax_d2": 5.9, "tmax_d3": 7.7, "tmax_d4": 8.1, "tmax_d5": 6.1, "tmax_d6": 4.6, "tmin_d0": -0.3, "tmin_d1": 0.2, "tmin_d2": 0.7, "tmin_d3": 4.4, "tmin_d4": 3.9, "tmin_d5": 1.5, "tmin_d6": 1.0, "day_of_year": 9, "uuid": "e9c60c47-69a5-4349-a2e5-e6e790da4539", "inat_id": 258079381}}, {"type": "Feature", "geometry": {"type": "Point", "coordinates": [-122.2580633333, 45.5146416667]}, "properties": {"species": "Marasmiellus candidus", "date": "2025-11-24", "location": "Multnomah County, US-OR, US", "elevation": 204.0, "land_cover_label": "Tree cover", "water_mask": false, "exclude_reason": "keep", "ndvi": null, "soil_moisture": null, "solar_exposure": null, "wind_exposure": null, "water_retention": null, "slope": null, "aspect": null, "num_identification_agreements": 1, "cluster": 0, "tavg": null, "tmin": 5.0, "tmax": 11.0, "prcp_d0": 5.430159568786621, "prcp_d1": 3.0692358016967773, "prcp_d2": 0.0, "prcp_d3": 0.0055052884854376, "prcp_d4": 0.0, "prcp_d5": 0.0, "prcp_d6": 0.0, "tmax_d0": 8.3, "tmax_d1": 7.9, "tmax_d2": 9.1, "tmax_d3": 9.6, "tmax_d4": 11.5, "tmax_d5": 11.2, "tmax_d6": 8.6, "tmin_d0": 3.7, "tmin_d1": 5.4, "tmin_d2": 1.7, "tmin_d3": 0.7, "tmin_d4": 5.1, "tmin_d5": 1.2, "tmin_d6": 2.4, "day_of_year": 328, "uuid": "6be15ab4-6e37-4e6c-85ac-df1f6f4e23ba", "inat_id": 328202247}}, {"type": "Feature", "geometry": {"type": "Point", "coordinates": [-122.2182276053, 45.5381380008]}, "properties": {"species": "Marasmiellus candidus", "date": "2025-12-23", "location": "E Historic Columbia River Hwy, Corbett, OR, US", "elevation": 68.0, "land_cover_label": "Tree cover", "water_mask": false, "exclude_reason": "keep", "ndvi": null, "soil_moisture": null, "solar_exposure": null, "wind_exposure": null, "water_retention": null, "slope": null, "aspect": null, "num_identification_agreements": 1, "cluster": 2, "tavg": null, "tmin": 6.0, "tmax": 8.0, "prcp_d0": 0.0, "prcp_d1": 0.0, "prcp_d2": 22.55855178833008, "prcp_d3": 0.0, "prcp_d4": 55.71426010131836, "prcp_d5": 55.71426010131836, "prcp_d6": 37.14284133911133, "tmax_d0": 9.7, "tmax_d1": 11.0, "tmax_d2": 9.2, "tmax_d3": 9.2, "tmax_d4": 13.1, "tmax_d5": 13.1, "tmax_d6": 14.2, "tmin_d0": 5.7, "tmin_d1": 4.8, "tmin_d2": 2.7, "tmin_d3": 2.4, "tmin_d4": 4.5, "tmin_d5": 5.0, "tmin_d6": 5.2, "day_of_year": 357, "uuid": "27bf80d8-654f-4a15-ae9b-9aaf4459141a", "inat_id": 343736537}}, {"type": "Feature", "geometry": {"type": "Point", "coordinates": [-122.4350422331, 45.3239857138]}, "properties": {"species": "Marasmiellus candidus", "date": "2026-01-08", "location": "Oregon, US", "elevation": 183.0, "land_cover_label": "Tree cover", "water_mask": false, "exclude_reason": "keep", "ndvi": null, "soil_moisture": null, "solar_exposure": null, "wind_exposure": null, "water_retention": null, "slope": null, "aspect": null, "num_identification_agreements": 1, "cluster": 2, "tavg": null, "tmin": 3.0, "tmax": 8.0, "prcp_d0": 0.0, "prcp_d1": 31.76120948791504, "prcp_d2": 0.0, "prcp_d3": 0.0, "prcp_d4": 0.0, "prcp_d5": 36.59408187866211, "prcp_d6": 0.0, "tmax_d0": 6.1, "tmax_d1": 7.1, "tmax_d2": 7.5, "tmax_d3": 8.1, "tmax_d4": 11.7, "tmax_d5": 13.1, "tmax_d6": 13.6, "tmin_d0": -0.6, "tmin_d1": 3.3, "tmin_d2": 0.9, "tmin_d3": 3.5, "tmin_d4": 6.9, "tmin_d5": 7.6, "tmin_d6": 3.7, "day_of_year": 8, "uuid": "5ef525d5-edfd-4874-85ad-b0f3f40a65c0", "inat_id": 334039541}}]}