{"type": "FeatureCollection", "features": [{"type": "Feature", "geometry": {"type": "Point", "coordinates": [-103.3511992916, 43.9670909906]}, "properties": {"species": "Morchella angusticeps", "date": "2019-05-12", "location": "13536 US-16, Rapid City, SD 57702, USA", "elevation": 1309.0, "land_cover_label": "Tree cover", "water_mask": false, "exclude_reason": "keep", "ndvi": null, "soil_moisture": null, "solar_exposure": null, "wind_exposure": null, "water_retention": null, "slope": null, "aspect": null, "num_identification_agreements": 2, "cluster": 0, "tavg": null, "tmin": -0.5, "tmax": 18.3, "prcp_d0": 0.0, "prcp_d1": 3.023759365081787, "prcp_d2": 0.0, "prcp_d3": 0.0, "prcp_d4": 0.0, "prcp_d5": 0.0, "prcp_d6": 0.0, "tmax_d0": null, "tmax_d1": null, "tmax_d2": null, "tmax_d3": null, "tmax_d4": null, "tmax_d5": null, "tmax_d6": null, "tmin_d0": null, "tmin_d1": null, "tmin_d2": null, "tmin_d3": null, "tmin_d4": null, "tmin_d5": null, "tmin_d6": null, "day_of_year": 132, "uuid": "60d37d66-a5e9-4ffb-93af-3ce52d6f5127", "inat_id": 25200362}}, {"type": "Feature", "geometry": {"type": "Point", "coordinates": [-103.35399667, 44.00978888]}, "properties": {"species": "Morchella angusticeps", "date": "2020-04-16", "location": "Rapid City", "elevation": 1349.0, "land_cover_label": "Tree cover", "water_mask": false, "exclude_reason": "keep", "ndvi": null, "soil_moisture": null, "solar_exposure": null, "wind_exposure": null, "water_retention": null, "slope": null, "aspect": null, "num_identification_agreements": 2, "cluster": 0, "tavg": null, "tmin": -6.6, "tmax": 5.6, "prcp_d0": 5.479218006134033, "prcp_d1": 0.0, "prcp_d2": 0.0, "prcp_d3": 0.0, "prcp_d4": 0.0, "prcp_d5": 10.72412109375, "prcp_d6": 0.0, "tmax_d0": null, "tmax_d1": null, "tmax_d2": null, "tmax_d3": null, "tmax_d4": null, "tmax_d5": null, "tmax_d6": null, "tmin_d0": null, "tmin_d1": null, "tmin_d2": null, "tmin_d3": null, "tmin_d4": null, "tmin_d5": null, "tmin_d6": null, "day_of_year": 107, "uuid": "932f9457-ebc3-4e16-a53c-9a9e6558ac4e", "inat_id": 53225456}}, {"type": "Feature", "geometry": {"type": "Point", "coordinates": [-103.4670333333, 43.8876133333]}, "properties": {"species": "Morchella angusticeps", "date": "2020-05-21", "location": "Black Hills National Forest, Keystone, SD, US", "elevation": 1579.0, "land_cover_label": "Tree cover", "water_mask": false, "exclude_reason": "keep", "ndvi": null, "soil_moisture": null, "solar_exposure": null, "wind_exposure": null, "water_retention": null, "slope": null, "aspect": null, "num_identification_agreements": 1, "cluster": 0, "tavg": null, "tmin": 5.0, "tmax": 18.3, "prcp_d0": 8.724225044250488, "prcp_d1": 0.0, "prcp_d2": 0.0, "prcp_d3": 0.0, "prcp_d4": 0.0, "prcp_d5": 0.0, "prcp_d6": 0.0, "tmax_d0": null, "tmax_d1": null, "tmax_d2": null, "tmax_d3": null, "tmax_d4": null, "tmax_d5": null, "tmax_d6": null, "tmin_d0": null, "tmin_d1": null, "tmin_d2": null, "tmin_d3": null, "tmin_d4": null, "tmin_d5": null, "tmin_d6": null, "day_of_year": 142, "uuid": "f2241647-d35b-49b5-917c-7743c962f149", "inat_id": 169663833}}, {"type": "Feature", "geometry": {"type": "Point", "coordinates": [-103.8999624391, 44.4141437022]}, "properties": {"species": "Morchella angusticeps", "date": "2021-05-10", "location": "United States", "elevation": 1452.0, "land_cover_label": "Tree cover", "water_mask": false, "exclude_reason": "keep", "ndvi": null, "soil_moisture": null, "solar_exposure": null, "wind_exposure": null, "water_retention": null, "slope": null, "aspect": null, "num_identification_agreements": 1, "cluster": 0, "tavg": null, "tmin": 0.0, "tmax": 9.0, "prcp_d0": 0.0, "prcp_d1": 0.0, "prcp_d2": 0.0, "prcp_d3": 0.0, "prcp_d4": 0.0, "prcp_d5": 0.0, "prcp_d6": 0.0, "tmax_d0": null, "tmax_d1": null, "tmax_d2": null, "tmax_d3": null, "tmax_d4": null, "tmax_d5": null, "tmax_d6": null, "tmin_d0": null, "tmin_d1": null, "tmin_d2": null, "tmin_d3": null, "tmin_d4": null, "tmin_d5": null, "tmin_d6": null, "day_of_year": 130, "uuid": "5b4d0770-0696-4e95-888a-7edf7ed0aa92", "inat_id": 78295258}}]}