{"type": "FeatureCollection", "features": [{"type": "Feature", "geometry": {"type": "Point", "coordinates": [-107.3327001193, 37.2667893693]}, "properties": {"species": "Morchella eximia", "date": "2024-06-23", "location": "Colorado, US", "elevation": 2425.0, "land_cover_label": "Tree cover", "water_mask": false, "exclude_reason": "keep", "ndvi": null, "soil_moisture": null, "solar_exposure": null, "wind_exposure": null, "water_retention": null, "slope": null, "aspect": null, "num_identification_agreements": 3, "cluster": 3, "tavg": null, "tmin": 11.0, "tmax": 28.0, "prcp_d0": 0.0, "prcp_d1": 12.40853786468506, "prcp_d2": 6.204268932342529, "prcp_d3": 0.0, "prcp_d4": 0.0, "prcp_d5": 0.0, "prcp_d6": 0.0, "tmax_d0": null, "tmax_d1": null, "tmax_d2": null, "tmax_d3": null, "tmax_d4": null, "tmax_d5": null, "tmax_d6": null, "tmin_d0": null, "tmin_d1": null, "tmin_d2": null, "tmin_d3": null, "tmin_d4": null, "tmin_d5": null, "tmin_d6": null, "day_of_year": 175, "uuid": "a5b5f198-b251-4757-a8b8-d24a2575c01a", "inat_id": 236984697}}]}