{"type": "FeatureCollection", "features": [{"type": "Feature", "geometry": {"type": "Point", "coordinates": [-105.0462416667, 37.9980166667]}, "properties": {"species": "Morchella sextelata", "date": "2025-05-31", "location": "Pike and San Isabel National Forests, Rye, CO, US", "elevation": 2737.0, "land_cover_label": "Tree cover", "water_mask": false, "exclude_reason": "keep", "ndvi": null, "soil_moisture": null, "solar_exposure": null, "wind_exposure": null, "water_retention": null, "slope": null, "aspect": null, "num_identification_agreements": 1, "cluster": 2, "tavg": null, "tmin": 10.0, "tmax": 29.0, "prcp_d0": 3.27337384223938, "prcp_d1": 0.0, "prcp_d2": 6.54674768447876, "prcp_d3": 3.27337384223938, "prcp_d4": 3.27337384223938, "prcp_d5": 3.27337384223938, "prcp_d6": 0.0, "tmax_d0": null, "tmax_d1": null, "tmax_d2": null, "tmax_d3": null, "tmax_d4": null, "tmax_d5": null, "tmax_d6": null, "tmin_d0": null, "tmin_d1": null, "tmin_d2": null, "tmin_d3": null, "tmin_d4": null, "tmin_d5": null, "tmin_d6": null, "day_of_year": 151, "uuid": "4dd8bd28-ccd4-4b14-bf65-c6794a51088c", "inat_id": 286628064}}]}