{"type": "FeatureCollection", "features": [{"type": "Feature", "geometry": {"type": "Point", "coordinates": [-106.1620397754, 38.5025348205]}, "properties": {"species": "Morchella norvegiensis", "date": "2024-06-15", "location": "Colorado, US", "elevation": 2885.0, "land_cover_label": "Grassland", "ndvi": null, "soil_moisture": null, "solar_exposure": null, "wind_exposure": null, "water_retention": null, "slope": null, "aspect": null, "num_identification_agreements": 2, "cluster": 0, "tavg": null, "tmin": 8.9, "tmax": 28.4, "prcp_d0": 0.5687755, "prcp_d1": 0.85303456, "prcp_d2": 0.004820376, "prcp_d3": 0.022514233, "prcp_d4": 2.4970436, "prcp_d5": 3.4020858, "prcp_d6": 0.0, "tmax_d0": 22.1, "tmax_d1": 22.1, "tmax_d2": 25.4, "tmax_d3": 24.5, "tmax_d4": 22.5, "tmax_d5": 18.8, "tmax_d6": 23.2, "tmin_d0": 2.1, "tmin_d1": 6.2, "tmin_d2": 4.3, "tmin_d3": 3.2, "tmin_d4": 2.9, "tmin_d5": 5.1, "tmin_d6": 7.5, "day_of_year": 167, "uuid": "b9b77a13-3277-4efe-a1cd-9ad8902fce29", "inat_id": 222934259}}, {"type": "Feature", "geometry": {"type": "Point", "coordinates": [-105.8449338122, 35.677541497]}, "properties": {"species": "Morchella norvegiensis", "date": "2025-07-10", "location": "New Mexico, US", "elevation": 2632.0, "land_cover_label": "Tree cover", "ndvi": null, "soil_moisture": null, "solar_exposure": null, "wind_exposure": null, "water_retention": null, "slope": null, "aspect": null, "num_identification_agreements": 1, "cluster": 0, "tavg": null, "tmin": 19.4, "tmax": 37.2, "prcp_d0": 0.0, "prcp_d1": 0.0, "prcp_d2": 0.0, "prcp_d3": 0.0, "prcp_d4": 0.0, "prcp_d5": 0.034509644, "prcp_d6": 0.31225008, "tmax_d0": 26.3, "tmax_d1": 25.6, "tmax_d2": 24.8, "tmax_d3": 23.8, "tmax_d4": 23.8, "tmax_d5": 24.9, "tmax_d6": 22.3, "tmin_d0": 12.5, "tmin_d1": 12.3, "tmin_d2": 10.1, "tmin_d3": 11.8, "tmin_d4": 10.8, "tmin_d5": 14.0, "tmin_d6": 11.3, "day_of_year": 191, "uuid": "3f709a2b-0325-405a-a1b4-1fcf05db130e", "inat_id": 297137618}}, {"type": "Feature", "geometry": {"type": "Point", "coordinates": [-105.9870778117, 35.8302485931]}, "properties": {"species": "Morchella norvegiensis", "date": "2025-07-15", "location": "New Mexico, US", "elevation": 1899.0, "land_cover_label": "Grassland", "ndvi": null, "soil_moisture": null, "solar_exposure": null, "wind_exposure": null, "water_retention": null, "slope": null, "aspect": null, "num_identification_agreements": 1, "cluster": 0, "tavg": null, "tmin": 14.4, "tmax": 32.8, "prcp_d0": 1.4215902, "prcp_d1": 1.4215902, "prcp_d2": 4.264771, "prcp_d3": 1.4215902, "prcp_d4": 0.0, "prcp_d5": 0.0, "prcp_d6": 0.0, "tmax_d0": 32.6, "tmax_d1": 31.1, "tmax_d2": 31.5, "tmax_d3": 33.2, "tmax_d4": 34.0, "tmax_d5": 35.7, "tmax_d6": 32.7, "tmin_d0": 15.5, "tmin_d1": 14.4, "tmin_d2": 15.8, "tmin_d3": 16.8, "tmin_d4": 17.0, "tmin_d5": 18.9, "tmin_d6": 17.2, "day_of_year": 196, "uuid": "4ce0bacb-1570-42a1-9c9c-d25c2f19d6e1", "inat_id": 298745445}}, {"type": "Feature", "geometry": {"type": "Point", "coordinates": [-105.9115148752, 35.7044101572]}, "properties": {"species": "Morchella norvegiensis", "date": "2026-06-08", "location": "New Mexico, US", "elevation": 2251.0, "land_cover_label": "Tree cover", "ndvi": null, "soil_moisture": null, "solar_exposure": null, "wind_exposure": null, "water_retention": null, "slope": null, "aspect": null, "num_identification_agreements": 1, "cluster": 0, "tavg": null, "tmin": 10.6, "tmax": 31.7, "prcp_d0": 0.0, "prcp_d1": 0.0, "prcp_d2": 0.0, "prcp_d3": 4.8050246, "prcp_d4": 0.4521627, "prcp_d5": 1.9169153, "prcp_d6": 0.96482605, "tmax_d0": 28.4, "tmax_d1": 27.8, "tmax_d2": 27.1, "tmax_d3": 27.1, "tmax_d4": 24.9, "tmax_d5": 24.2, "tmax_d6": 26.1, "tmin_d0": 14.4, "tmin_d1": 13.6, "tmin_d2": 11.4, "tmin_d3": 13.2, "tmin_d4": 9.2, "tmin_d5": 10.4, "tmin_d6": 16.1, "day_of_year": 159, "uuid": "df1df67f-7790-444b-9e02-d26ebc9fbea9", "inat_id": 373986231}}]}