{"type": "FeatureCollection", "features": [{"type": "Feature", "geometry": {"type": "Point", "coordinates": [-105.2123059781, 37.6085340039]}, "properties": {"species": "Morchella tomentosa", "date": "2019-09-14", "location": "Blanca, CO, US", "elevation": 2780.0, "land_cover_label": "Grassland", "ndvi": null, "soil_moisture": null, "solar_exposure": null, "wind_exposure": null, "water_retention": null, "slope": null, "aspect": null, "num_identification_agreements": 1, "cluster": 0, "tavg": null, "tmin": null, "tmax": null, "prcp_d0": 0.0, "prcp_d1": 0.0, "prcp_d2": 0.0, "prcp_d3": 0.0, "prcp_d4": 0.0, "prcp_d5": 0.0, "prcp_d6": 6.1867814, "tmax_d0": 21.7, "tmax_d1": 20.9, "tmax_d2": 17.9, "tmax_d3": 18.8, "tmax_d4": 19.6, "tmax_d5": 20.3, "tmax_d6": 18.3, "tmin_d0": 9.7, "tmin_d1": 5.1, "tmin_d2": 5.1, "tmin_d3": 9.3, "tmin_d4": 9.6, "tmin_d5": 9.1, "tmin_d6": 9.9, "day_of_year": 257, "uuid": "bb9d486f-6529-439e-8154-f183b0d25f1a", "inat_id": 324294569}}, {"type": "Feature", "geometry": {"type": "Point", "coordinates": [-105.4555451299, 40.4946488515]}, "properties": {"species": "Morchella tomentosa", "date": "2022-07-02", "location": "Larimer County, US-CO, US", "elevation": 2512.0, "land_cover_label": "Tree cover", "ndvi": null, "soil_moisture": null, "solar_exposure": null, "wind_exposure": null, "water_retention": null, "slope": null, "aspect": null, "num_identification_agreements": 1, "cluster": 0, "tavg": null, "tmin": 13.9, "tmax": 31.7, "prcp_d0": 0.0, "prcp_d1": 0.0, "prcp_d2": 10.743456, "prcp_d3": 0.0, "prcp_d4": 0.0, "prcp_d5": 0.0, "prcp_d6": 0.0, "tmax_d0": 21.3, "tmax_d1": 21.1, "tmax_d2": 19.9, "tmax_d3": 23.6, "tmax_d4": 24.7, "tmax_d5": 21.2, "tmax_d6": 14.6, "tmin_d0": 7.6, "tmin_d1": 7.0, "tmin_d2": 10.8, "tmin_d3": 12.3, "tmin_d4": 7.2, "tmin_d5": 5.7, "tmin_d6": 5.7, "day_of_year": 183, "uuid": "2dc9a8d8-1f1e-4c9b-a522-1def72053244", "inat_id": 283321419}}, {"type": "Feature", "geometry": {"type": "Point", "coordinates": [-106.7493583333, 37.3739133333]}, "properties": {"species": "Morchella tomentosa", "date": "2024-06-28", "location": "San Juan National Forest - Headquarters, Pagosa Springs, CO, US", "elevation": 2775.0, "land_cover_label": "Tree cover", "ndvi": null, "soil_moisture": null, "solar_exposure": null, "wind_exposure": null, "water_retention": null, "slope": null, "aspect": null, "num_identification_agreements": 2, "cluster": 0, "tavg": null, "tmin": 3.0, "tmax": 13.0, "prcp_d0": 0.0, "prcp_d1": 0.0, "prcp_d2": 0.0, "prcp_d3": 0.0, "prcp_d4": 14.348342, "prcp_d5": 0.0, "prcp_d6": 0.0, "tmax_d0": 20.9, "tmax_d1": 20.8, "tmax_d2": 23.0, "tmax_d3": 25.1, "tmax_d4": 23.8, "tmax_d5": 22.3, "tmax_d6": 19.7, "tmin_d0": 7.3, "tmin_d1": 9.0, "tmin_d2": 8.8, "tmin_d3": 6.0, "tmin_d4": 7.6, "tmin_d5": 6.8, "tmin_d6": 7.7, "day_of_year": 180, "uuid": "e5b3d238-eb46-48f2-892f-770f481a0c48", "inat_id": 236846286}}, {"type": "Feature", "geometry": {"type": "Point", "coordinates": [-106.2021184692, 39.1782852101]}, "properties": {"species": "Morchella tomentosa", "date": "2025-06-08", "location": "Colorado, US", "elevation": 3600.0, "land_cover_label": "Moss and lichen", "ndvi": null, "soil_moisture": null, "solar_exposure": null, "wind_exposure": null, "water_retention": null, "slope": null, "aspect": null, "num_identification_agreements": 1, "cluster": 2, "tavg": null, "tmin": 0.6, "tmax": 19.4, "prcp_d0": 0.0, "prcp_d1": 0.0, "prcp_d2": 0.0, "prcp_d3": 0.0, "prcp_d4": 0.0, "prcp_d5": 17.836166, "prcp_d6": 0.0, "tmax_d0": 13.6, "tmax_d1": 11.6, "tmax_d2": 9.8, "tmax_d3": 9.7, "tmax_d4": 9.1, "tmax_d5": 9.1, "tmax_d6": 13.3, "tmin_d0": -2.7, "tmin_d1": -4.0, "tmin_d2": -1.6, "tmin_d3": -3.0, "tmin_d4": -2.6, "tmin_d5": -0.5, "tmin_d6": 0.1, "day_of_year": 159, "uuid": "fd2fc037-60c7-440b-97ec-44b168560c55", "inat_id": 288370616}}, {"type": "Feature", "geometry": {"type": "Point", "coordinates": [-106.3318580389, 39.0729406882]}, "properties": {"species": "Morchella tomentosa", "date": "2025-06-16", "location": "Lake County, CO, USA", "elevation": 2904.0, "land_cover_label": "Tree cover", "ndvi": null, "soil_moisture": null, "solar_exposure": null, "wind_exposure": null, "water_retention": null, "slope": null, "aspect": null, "num_identification_agreements": 1, "cluster": 0, "tavg": null, "tmin": 1.7, "tmax": 23.3, "prcp_d0": 0.0, "prcp_d1": 0.0, "prcp_d2": 0.0063649598, "prcp_d3": 0.40438628, "prcp_d4": 1.7744968, "prcp_d5": 1.2925998, "prcp_d6": 0.0, "tmax_d0": 22.8, "tmax_d1": 22.6, "tmax_d2": 22.0, "tmax_d3": 20.8, "tmax_d4": 19.0, "tmax_d5": 20.1, "tmax_d6": 20.6, "tmin_d0": 2.8, "tmin_d1": 4.4, "tmin_d2": 2.0, "tmin_d3": 2.2, "tmin_d4": 2.9, "tmin_d5": 3.1, "tmin_d6": 1.7, "day_of_year": 167, "uuid": "89f9e923-2f1f-4167-a583-637c3dd85c81", "inat_id": 292239844}}]}