{"type": "FeatureCollection", "features": [{"type": "Feature", "geometry": {"type": "Point", "coordinates": [-122.2276831046, 45.1661339538]}, "properties": {"species": "Morchella exuberans", "date": "2021-05-21", "location": "Estacada, OR 97023, USA", "elevation": 790.0, "land_cover_label": "Tree cover", "water_mask": false, "exclude_reason": "keep", "ndvi": null, "soil_moisture": null, "solar_exposure": null, "wind_exposure": null, "water_retention": null, "slope": null, "aspect": null, "num_identification_agreements": 3, "cluster": 0, "tavg": null, "tmin": 5.6, "tmax": 16.7, "prcp_d0": 0.0, "prcp_d1": 6.866090297698975, "prcp_d2": 0.0, "prcp_d3": 4.580743789672852, "prcp_d4": 0.0, "prcp_d5": 0.0, "prcp_d6": 0.0, "tmax_d0": 11.1, "tmax_d1": 8.8, "tmax_d2": 9.8, "tmax_d3": 13.8, "tmax_d4": 20.6, "tmax_d5": 21.2, "tmax_d6": 20.3, "tmin_d0": 3.8, "tmin_d1": 1.8, "tmin_d2": 2.6, "tmin_d3": 3.4, "tmin_d4": 7.4, "tmin_d5": 5.5, "tmin_d6": 5.0, "day_of_year": 141, "uuid": "84b7daf9-0c71-4134-808c-48de962186d0", "inat_id": 109288053}}, {"type": "Feature", "geometry": {"type": "Point", "coordinates": [-122.2319685008, 45.312590021]}, "properties": {"species": "Morchella exuberans", "date": "2021-05-24", "location": "Oregon, US", "elevation": 396.0, "land_cover_label": "Tree cover", "water_mask": false, "exclude_reason": "keep", "ndvi": null, "soil_moisture": null, "solar_exposure": null, "wind_exposure": null, "water_retention": null, "slope": null, "aspect": null, "num_identification_agreements": 2, "cluster": 0, "tavg": null, "tmin": 11.1, "tmax": 16.1, "prcp_d0": 0.0, "prcp_d1": 0.0, "prcp_d2": 0.0, "prcp_d3": 0.0, "prcp_d4": 6.543309211730957, "prcp_d5": 0.0, "prcp_d6": 4.850288391113281, "tmax_d0": 15.0, "tmax_d1": 14.8, "tmax_d2": 16.3, "tmax_d3": 13.2, "tmax_d4": 11.2, "tmax_d5": 11.9, "tmax_d6": 15.6, "tmin_d0": 8.0, "tmin_d1": 8.0, "tmin_d2": 6.9, "tmin_d3": 5.2, "tmin_d4": 4.0, "tmin_d5": 5.1, "tmin_d6": 5.8, "day_of_year": 144, "uuid": "e890745f-6b1e-4e53-be01-ec941fb1c0d9", "inat_id": 80334405}}]}