{"type": "FeatureCollection", "features": [{"type": "Feature", "geometry": {"type": "Point", "coordinates": [-105.2429754289, 39.4649196649]}, "properties": {"species": "Mycena subcana", "date": "2024-08-14", "location": "Jefferson County, US-CO, US", "elevation": 2260.0, "land_cover_label": "Tree cover", "water_mask": false, "exclude_reason": "keep", "ndvi": null, "soil_moisture": 0.3980662413931577, "solar_exposure": 0.7824812531471252, "wind_exposure": 0.21341472864151, "water_retention": 0.3104384243488312, "slope": 8.790327072143555, "aspect": 60.56616973876953, "num_identification_agreements": 2, "cluster": 2, "tavg": null, "tmin": 15.0, "tmax": 30.6, "prcp_d0": 20.44780540466309, "prcp_d1": 0.0, "prcp_d2": 0.0, "prcp_d3": 0.0, "prcp_d4": 0.0, "prcp_d5": 9.64491844177246, "prcp_d6": 0.0, "tmax_d0": null, "tmax_d1": null, "tmax_d2": null, "tmax_d3": null, "tmax_d4": null, "tmax_d5": null, "tmax_d6": null, "tmin_d0": null, "tmin_d1": null, "tmin_d2": null, "tmin_d3": null, "tmin_d4": null, "tmin_d5": null, "tmin_d6": null, "day_of_year": 227, "uuid": "d913cb60-797f-4f13-92af-70d06b7d1385", "inat_id": 235775307}}]}