{"type": "FeatureCollection", "features": [{"type": "Feature", "geometry": {"type": "Point", "coordinates": [-107.8518833333, 37.8860083333]}, "properties": {"species": "Mycena sp. 'maculata-IN01'", "date": "2023-08-19", "location": "Grand Mesa Uncompahgre and Gunnison National Forests, Telluride, CO, US", "elevation": 3377.0, "land_cover_label": "Tree cover", "water_mask": false, "exclude_reason": "keep", "ndvi": null, "soil_moisture": null, "solar_exposure": null, "wind_exposure": null, "water_retention": null, "slope": null, "aspect": null, "num_identification_agreements": 3, "cluster": 1, "tavg": null, "tmin": 12.0, "tmax": 26.0, "prcp_d0": 0.0, "prcp_d1": 0.0, "prcp_d2": 0.0, "prcp_d3": 0.0, "prcp_d4": 0.0, "prcp_d5": 23.71377944946289, "prcp_d6": 0.0, "tmax_d0": null, "tmax_d1": null, "tmax_d2": null, "tmax_d3": null, "tmax_d4": null, "tmax_d5": null, "tmax_d6": null, "tmin_d0": null, "tmin_d1": null, "tmin_d2": null, "tmin_d3": null, "tmin_d4": null, "tmin_d5": null, "tmin_d6": null, "day_of_year": 231, "uuid": "adad1843-84b6-48bb-aa5f-e668c84ee7d6", "inat_id": 179214120}}, {"type": "Feature", "geometry": {"type": "Point", "coordinates": [-106.6949222222, 37.4730194444]}, "properties": {"species": "Mycena sp. 'maculata-IN01'", "date": "2024-08-12", "location": "Rio Grande County, CO, USA", "elevation": 3238.0, "land_cover_label": "Tree cover", "water_mask": false, "exclude_reason": "keep", "ndvi": null, "soil_moisture": null, "solar_exposure": null, "wind_exposure": null, "water_retention": null, "slope": null, "aspect": null, "num_identification_agreements": 2, "cluster": 3, "tavg": null, "tmin": 5.0, "tmax": 13.0, "prcp_d0": 0.0, "prcp_d1": 39.00519180297852, "prcp_d2": 0.0, "prcp_d3": 0.0, "prcp_d4": 11.40426540374756, "prcp_d5": 11.40426540374756, "prcp_d6": 34.212791442871094, "tmax_d0": null, "tmax_d1": null, "tmax_d2": null, "tmax_d3": null, "tmax_d4": null, "tmax_d5": null, "tmax_d6": null, "tmin_d0": null, "tmin_d1": null, "tmin_d2": null, "tmin_d3": null, "tmin_d4": null, "tmin_d5": null, "tmin_d6": null, "day_of_year": 225, "uuid": "107c447d-5337-4c32-8325-dda026cc2998", "inat_id": 235533233}}, {"type": "Feature", "geometry": {"type": "Point", "coordinates": [-107.9221583333, 37.7998805556]}, "properties": {"species": "Mycena sp. 'maculata-IN01'", "date": "2024-08-16", "location": "Dolores, Colorado, United States", "elevation": 3138.0, "land_cover_label": "Tree cover", "water_mask": false, "exclude_reason": "keep", "ndvi": null, "soil_moisture": null, "solar_exposure": null, "wind_exposure": null, "water_retention": null, "slope": null, "aspect": null, "num_identification_agreements": 2, "cluster": 1, "tavg": null, "tmin": 12.0, "tmax": 25.0, "prcp_d0": 0.0, "prcp_d1": 0.0, "prcp_d2": 0.0, "prcp_d3": 0.0, "prcp_d4": 39.74578475952149, "prcp_d5": 0.0, "prcp_d6": 0.0, "tmax_d0": null, "tmax_d1": null, "tmax_d2": null, "tmax_d3": null, "tmax_d4": null, "tmax_d5": null, "tmax_d6": null, "tmin_d0": null, "tmin_d1": null, "tmin_d2": null, "tmin_d3": null, "tmin_d4": null, "tmin_d5": null, "tmin_d6": null, "day_of_year": 229, "uuid": "7a7ed75b-6e6a-4328-8eec-27afd44c45ce", "inat_id": 236755606}}, {"type": "Feature", "geometry": {"type": "Point", "coordinates": [-107.8766782972, 37.8122605083]}, "properties": {"species": "Mycena sp. 'maculata-IN01'", "date": "2025-08-14", "location": "Ophir, CO 81426, USA", "elevation": 3111.0, "land_cover_label": "Tree cover", "water_mask": false, "exclude_reason": "keep", "ndvi": null, "soil_moisture": null, "solar_exposure": null, "wind_exposure": null, "water_retention": null, "slope": null, "aspect": null, "num_identification_agreements": 3, "cluster": 0, "tavg": null, "tmin": 14.0, "tmax": 23.0, "prcp_d0": 0.0, "prcp_d1": 0.0, "prcp_d2": 0.0, "prcp_d3": 0.0, "prcp_d4": 0.0, "prcp_d5": 0.0, "prcp_d6": 0.0, "tmax_d0": null, "tmax_d1": null, "tmax_d2": null, "tmax_d3": null, "tmax_d4": null, "tmax_d5": null, "tmax_d6": null, "tmin_d0": null, "tmin_d1": null, "tmin_d2": null, "tmin_d3": null, "tmin_d4": null, "tmin_d5": null, "tmin_d6": null, "day_of_year": 226, "uuid": "4a417112-ebac-4ef7-9893-3f7283937668", "inat_id": 306345318}}, {"type": "Feature", "geometry": {"type": "Point", "coordinates": [-105.7844716, 39.8103416]}, "properties": {"species": "Mycena sp. 'maculata-IN01'", "date": "2025-08-20", "location": "Winter Park, CO 80482, USA", "elevation": 3391.0, "land_cover_label": "Tree cover", "water_mask": false, "exclude_reason": "keep", "ndvi": null, "soil_moisture": 0.2682611986616466, "solar_exposure": 0.7594537734985352, "wind_exposure": 0.226116269826889, "water_retention": 0.4164638817310333, "slope": 8.859739303588867, "aspect": 43.00786590576172, "num_identification_agreements": 2, "cluster": 2, "tavg": null, "tmin": 0.7, "tmax": 16.0, "prcp_d0": 0.0, "prcp_d1": 0.0, "prcp_d2": 0.0, "prcp_d3": 0.0, "prcp_d4": 0.0, "prcp_d5": 0.0, "prcp_d6": 0.0, "tmax_d0": null, "tmax_d1": null, "tmax_d2": null, "tmax_d3": null, "tmax_d4": null, "tmax_d5": null, "tmax_d6": null, "tmin_d0": null, "tmin_d1": null, "tmin_d2": null, "tmin_d3": null, "tmin_d4": null, "tmin_d5": null, "tmin_d6": null, "day_of_year": 232, "uuid": "2383c869-bca2-4419-9dd6-de944d90fbd6", "inat_id": 307795199}}]}