{"type": "FeatureCollection", "features": [{"type": "Feature", "geometry": {"type": "Point", "coordinates": [-107.9707866667, 39.03753]}, "properties": {"species": "Mycena vulgaris", "date": "2025-08-30", "location": "Delta County, CO, USA", "elevation": 3098.0, "num_identification_agreements": 1, "tavg": null, "tmin": 13.0, "tmax": 31.0, "day_of_year": 242, "uuid": "0b4cbaec-9744-4732-b28f-7e8b8560ee21", "inat_id": 311140568}}, {"type": "Feature", "geometry": {"type": "Point", "coordinates": [-105.33892, 39.6320466667]}, "properties": {"species": "Mycena vulgaris", "date": "2025-08-19", "location": "Jefferson County, US-CO, US", "elevation": 2183.0, "num_identification_agreements": 1, "tavg": null, "tmin": 16.0, "tmax": 34.0, "day_of_year": 231, "uuid": "517ee466-b37b-4aaf-8d77-67285b970783", "inat_id": 307619007}}, {"type": "Feature", "geometry": {"type": "Point", "coordinates": [-105.1248147997, 38.0218312]}, "properties": {"species": "Mycena vulgaris", "date": "2025-08-01", "location": "Rye, CO 81069, USA", "elevation": 3439.0, "num_identification_agreements": 2, "tavg": null, "tmin": 15.0, "tmax": 31.0, "day_of_year": 213, "uuid": "d4e0cb62-44c2-46a9-ad07-bac6fccc0aac", "inat_id": 302971320}}, {"type": "Feature", "geometry": {"type": "Point", "coordinates": [-106.9522638889, 38.9115]}, "properties": {"species": "Mycena vulgaris", "date": "2024-08-19", "location": "Gunnison County, CO, USA", "elevation": 3009.0, "num_identification_agreements": 2, "tavg": null, "tmin": 10.0, "tmax": 26.1, "day_of_year": 232, "uuid": "7178bb24-9853-434c-a972-2fa0498f0898", "inat_id": 236900430}}]}