{"type": "FeatureCollection", "features": [{"type": "Feature", "geometry": {"type": "Point", "coordinates": [-122.377075, 45.302005]}, "properties": {"species": "Mycena robusta", "date": "2022-01-23", "location": "Milo McIver State Park, Estacada, OR, US", "elevation": 205.0, "land_cover_label": "Tree cover", "water_mask": false, "exclude_reason": "keep", "ndvi": null, "soil_moisture": null, "solar_exposure": null, "wind_exposure": null, "water_retention": null, "slope": null, "aspect": null, "num_identification_agreements": 1, "cluster": 0, "tavg": null, "tmin": 0.0, "tmax": 9.4, "prcp_d0": 0.0, "prcp_d1": 0.0, "prcp_d2": 2.314915657043457, "prcp_d3": 0.0, "prcp_d4": 0.0, "prcp_d5": 0.0, "prcp_d6": 0.0, "tmax_d0": null, "tmax_d1": null, "tmax_d2": null, "tmax_d3": null, "tmax_d4": null, "tmax_d5": null, "tmax_d6": null, "tmin_d0": null, "tmin_d1": null, "tmin_d2": null, "tmin_d3": null, "tmin_d4": null, "tmin_d5": null, "tmin_d6": null, "day_of_year": 23, "uuid": "f1da6d20-3670-4c9f-960f-fc5c05e45dc2", "inat_id": 105598455}}, {"type": "Feature", "geometry": {"type": "Point", "coordinates": [-122.2895833852, 45.3228228895]}, "properties": {"species": "Mycena robusta", "date": "2023-01-23", "location": "Eagle Creek, Eagle Creek, OR, US", "elevation": 247.0, "land_cover_label": "Tree cover", "water_mask": false, "exclude_reason": "keep", "ndvi": null, "soil_moisture": null, "solar_exposure": null, "wind_exposure": null, "water_retention": null, "slope": null, "aspect": null, "num_identification_agreements": 2, "cluster": 0, "tavg": null, "tmin": 2.8, "tmax": 9.4, "prcp_d0": 0.0, "prcp_d1": 0.0, "prcp_d2": 0.0, "prcp_d3": 0.0, "prcp_d4": 0.0, "prcp_d5": 13.112278938293455, "prcp_d6": 0.0, "tmax_d0": 8.1, "tmax_d1": 5.1, "tmax_d2": 5.4, "tmax_d3": 6.7, "tmax_d4": 6.0, "tmax_d5": 7.3, "tmax_d6": 7.4, "tmin_d0": -0.2, "tmin_d1": 0.9, "tmin_d2": -1.3, "tmin_d3": -2.6, "tmin_d4": 0.5, "tmin_d5": 3.7, "tmin_d6": 3.9, "day_of_year": 23, "uuid": "b7adaf47-ac0d-4007-860a-2710780fec69", "inat_id": 147236778}}, {"type": "Feature", "geometry": {"type": "Point", "coordinates": [-107.99398, 39.0048333333]}, "properties": {"species": "Mycena robusta", "date": "2024-09-04", "location": "Grand Mesa Uncompahgre and Gunnison National Forests, Cedaredge, CO, US", "elevation": 2951.0, "land_cover_label": "Tree cover", "water_mask": false, "exclude_reason": "keep", "ndvi": null, "soil_moisture": null, "solar_exposure": null, "wind_exposure": null, "water_retention": null, "slope": null, "aspect": null, "num_identification_agreements": 3, "cluster": 0, "tavg": null, "tmin": 15.1, "tmax": 31.1, "prcp_d0": 0.0, "prcp_d1": 0.0, "prcp_d2": 0.0, "prcp_d3": 0.0, "prcp_d4": 0.0075609311461448, "prcp_d5": 0.2813694179058075, "prcp_d6": 0.1130448803305625, "tmax_d0": 17.7, "tmax_d1": 19.3, "tmax_d2": 18.4, "tmax_d3": 18.6, "tmax_d4": 19.7, "tmax_d5": 18.5, "tmax_d6": 17.5, "tmin_d0": 8.0, "tmin_d1": 8.8, "tmin_d2": 9.3, "tmin_d3": 9.8, "tmin_d4": 7.8, "tmin_d5": 8.9, "tmin_d6": 8.8, "day_of_year": 248, "uuid": "b9afcf46-8b2a-4fc5-ace9-2c784f2ca9de", "inat_id": 239882688}}, {"type": "Feature", "geometry": {"type": "Point", "coordinates": [-107.0570876025, 38.9620540429]}, "properties": {"species": "Mycena robusta", "date": "2024-09-08", "location": "Gunnison County, US-CO, US", "elevation": 3051.0, "land_cover_label": "Grassland", "water_mask": false, "exclude_reason": "keep", "ndvi": null, "soil_moisture": null, "solar_exposure": null, "wind_exposure": null, "water_retention": null, "slope": null, "aspect": null, "num_identification_agreements": 2, "cluster": 0, "tavg": null, "tmin": 6.7, "tmax": 24.4, "prcp_d0": 0.0, "prcp_d1": 0.0, "prcp_d2": 0.0, "prcp_d3": 0.0, "prcp_d4": 0.0, "prcp_d5": 0.0, "prcp_d6": 0.0, "tmax_d0": 17.9, "tmax_d1": 17.1, "tmax_d2": 18.5, "tmax_d3": 16.6, "tmax_d4": 16.8, "tmax_d5": 19.4, "tmax_d6": 17.4, "tmin_d0": 0.6, "tmin_d1": 3.9, "tmin_d2": 0.6, "tmin_d3": 1.5, "tmin_d4": 4.7, "tmin_d5": 3.1, "tmin_d6": 4.7, "day_of_year": 252, "uuid": "0ab830f0-b55b-44b8-9f01-a90b6c06b913", "inat_id": 241532480}}, {"type": "Feature", "geometry": {"type": "Point", "coordinates": [-122.2972033333, 45.488155]}, "properties": {"species": "Mycena robusta", "date": "2025-03-09", "location": "Oxbow Regional Park, Gresham, OR, US", "elevation": 78.0, "land_cover_label": "Tree cover", "water_mask": false, "exclude_reason": "keep", "ndvi": null, "soil_moisture": null, "solar_exposure": null, "wind_exposure": null, "water_retention": null, "slope": null, "aspect": null, "num_identification_agreements": 1, "cluster": 0, "tavg": null, "tmin": 2.2, "tmax": 16.1, "prcp_d0": 0.0, "prcp_d1": 0.0, "prcp_d2": 0.0, "prcp_d3": 0.0, "prcp_d4": 0.0, "prcp_d5": 0.0, "prcp_d6": 0.0, "tmax_d0": 14.2, "tmax_d1": 14.7, "tmax_d2": 11.3, "tmax_d3": 12.8, "tmax_d4": 12.9, "tmax_d5": 11.5, "tmax_d6": 10.1, "tmin_d0": 0.8, "tmin_d1": 2.2, "tmin_d2": -0.4, "tmin_d3": -1.9, "tmin_d4": 2.2, "tmin_d5": 4.2, "tmin_d6": 6.8, "day_of_year": 68, "uuid": "a6c9bbee-b163-48ed-8a53-70e76cb9cc87", "inat_id": 264772601}}, {"type": "Feature", "geometry": {"type": "Point", "coordinates": [-104.8940027778, 38.7895888889]}, "properties": {"species": "Mycena robusta", "date": "2025-10-11", "location": "Colorado Springs, CO 80906, USA", "elevation": 2168.0, "land_cover_label": "Tree cover", "water_mask": false, "exclude_reason": "keep", "ndvi": null, "soil_moisture": null, "solar_exposure": null, "wind_exposure": null, "water_retention": null, "slope": null, "aspect": null, "num_identification_agreements": 2, "cluster": 0, "tavg": null, "tmin": 12.0, "tmax": 21.0, "prcp_d0": 0.0, "prcp_d1": 2.2031376361846924, "prcp_d2": 0.3405953049659729, "prcp_d3": 0.1881289929151535, "prcp_d4": 2.231804132461548, "prcp_d5": 0.7974353432655334, "prcp_d6": 0.0, "tmax_d0": 19.2, "tmax_d1": 20.2, "tmax_d2": 22.4, "tmax_d3": 22.2, "tmax_d4": 13.6, "tmax_d5": 12.4, "tmax_d6": 17.7, "tmin_d0": 8.7, "tmin_d1": 10.2, "tmin_d2": 6.9, "tmin_d3": 5.6, "tmin_d4": 4.6, "tmin_d5": 5.3, "tmin_d6": 4.6, "day_of_year": 284, "uuid": "725d8b53-c66a-4b24-82b2-200f4f7f5bb4", "inat_id": 320257405}}, {"type": "Feature", "geometry": {"type": "Point", "coordinates": [-122.2255197196, 45.3061628165]}, "properties": {"species": "Mycena robusta", "date": "2026-01-26", "location": "Clackamas County, OR, USA", "elevation": 383.0, "land_cover_label": "Tree cover", "water_mask": false, "exclude_reason": "keep", "ndvi": null, "soil_moisture": null, "solar_exposure": null, "wind_exposure": null, "water_retention": null, "slope": null, "aspect": null, "num_identification_agreements": 1, "cluster": 0, "tavg": null, "tmin": 2.0, "tmax": 7.0, "prcp_d0": 0.0, "prcp_d1": 0.0, "prcp_d2": 0.0, "prcp_d3": 0.0, "prcp_d4": 0.0, "prcp_d5": 0.0, "prcp_d6": 0.0, "tmax_d0": 10.8, "tmax_d1": 10.8, "tmax_d2": 9.9, "tmax_d3": 6.2, "tmax_d4": 9.0, "tmax_d5": 11.6, "tmax_d6": 12.7, "tmin_d0": 0.1, "tmin_d1": -3.1, "tmin_d2": -1.9, "tmin_d3": -0.7, "tmin_d4": -2.5, "tmin_d5": 0.2, "tmin_d6": 0.7, "day_of_year": 26, "uuid": "f8617483-1858-4b82-b9ac-675f668fe2bc", "inat_id": 336304091}}, {"type": "Feature", "geometry": {"type": "Point", "coordinates": [-122.227159988, 45.3068320792]}, "properties": {"species": "Mycena robusta", "date": "2026-02-14", "location": "Clackamas County, OR, USA", "elevation": 413.0, "land_cover_label": "Tree cover", "water_mask": false, "exclude_reason": "keep", "ndvi": null, "soil_moisture": null, "solar_exposure": null, "wind_exposure": null, "water_retention": null, "slope": null, "aspect": null, "num_identification_agreements": 1, "cluster": 2, "tavg": null, "tmin": 2.8, "tmax": 9.4, "prcp_d0": 0.0, "prcp_d1": 0.0, "prcp_d2": 0.0, "prcp_d3": 0.0, "prcp_d4": 0.0, "prcp_d5": 13.76988697052002, "prcp_d6": 68.84944152832031, "tmax_d0": 6.7, "tmax_d1": 9.4, "tmax_d2": 12.4, "tmax_d3": 12.8, "tmax_d4": 11.6, "tmax_d5": 8.4, "tmax_d6": 8.9, "tmin_d0": 1.9, "tmin_d1": 0.9, "tmin_d2": 1.0, "tmin_d3": 2.9, "tmin_d4": -1.0, "tmin_d5": 3.2, "tmin_d6": 5.9, "day_of_year": 45, "uuid": "c33fa020-0a6d-4046-b117-7d8ad9996b7f", "inat_id": 338673991}}]}