{"type": "FeatureCollection", "features": [{"type": "Feature", "geometry": {"type": "Point", "coordinates": [-122.2902666667, 45.323178187]}, "properties": {"species": "Mycena metata", "date": "2023-01-23", "location": "Eagle Fern Park, Eagle Creek, OR, US", "elevation": 201.0, "land_cover_label": "Tree cover", "water_mask": false, "exclude_reason": "keep", "ndvi": null, "soil_moisture": null, "solar_exposure": null, "wind_exposure": null, "water_retention": null, "slope": null, "aspect": null, "num_identification_agreements": 3, "cluster": 0, "tavg": null, "tmin": 2.8, "tmax": 9.4, "prcp_d0": 0.0, "prcp_d1": 0.0, "prcp_d2": 0.0, "prcp_d3": 0.0, "prcp_d4": 0.0, "prcp_d5": 13.112278938293455, "prcp_d6": 0.0, "tmax_d0": 8.1, "tmax_d1": 5.1, "tmax_d2": 5.4, "tmax_d3": 6.7, "tmax_d4": 6.0, "tmax_d5": 7.3, "tmax_d6": 7.4, "tmin_d0": -0.2, "tmin_d1": 0.9, "tmin_d2": -1.3, "tmin_d3": -2.6, "tmin_d4": 0.5, "tmin_d5": 3.7, "tmin_d6": 3.9, "day_of_year": 23, "uuid": "9429d20a-e5eb-41ef-938f-78b7d8ad5a85", "inat_id": 147238915}}, {"type": "Feature", "geometry": {"type": "Point", "coordinates": [-107.99292, 39.0063583333]}, "properties": {"species": "Mycena metata", "date": "2024-09-04", "location": "Grand Mesa Uncompahgre and Gunnison National Forests, Cedaredge, CO, US", "elevation": 2926.0, "land_cover_label": "Tree cover", "water_mask": false, "exclude_reason": "keep", "ndvi": null, "soil_moisture": null, "solar_exposure": null, "wind_exposure": null, "water_retention": null, "slope": null, "aspect": null, "num_identification_agreements": 3, "cluster": 0, "tavg": null, "tmin": 15.1, "tmax": 31.1, "prcp_d0": 0.0, "prcp_d1": 0.0, "prcp_d2": 0.0, "prcp_d3": 0.0, "prcp_d4": 0.0075609311461448, "prcp_d5": 0.2813694179058075, "prcp_d6": 0.1130448803305625, "tmax_d0": 17.7, "tmax_d1": 19.1, "tmax_d2": 18.0, "tmax_d3": 18.9, "tmax_d4": 20.0, "tmax_d5": 19.0, "tmax_d6": 18.1, "tmin_d0": 8.5, "tmin_d1": 9.5, "tmin_d2": 9.2, "tmin_d3": 10.3, "tmin_d4": 8.7, "tmin_d5": 8.8, "tmin_d6": 8.8, "day_of_year": 248, "uuid": "9c2b861f-c84b-4e56-9b11-4dc2972142fd", "inat_id": 239882844}}, {"type": "Feature", "geometry": {"type": "Point", "coordinates": [-107.9797547, 39.0423965]}, "properties": {"species": "Mycena metata", "date": "2025-08-31", "location": "Cedaredge, CO 81413, USA", "elevation": 3132.0, "land_cover_label": "Tree cover", "water_mask": false, "exclude_reason": "keep", "ndvi": null, "soil_moisture": null, "solar_exposure": null, "wind_exposure": null, "water_retention": null, "slope": null, "aspect": null, "num_identification_agreements": 1, "cluster": 0, "tavg": null, "tmin": 11.0, "tmax": 33.0, "prcp_d0": 0.0, "prcp_d1": 0.0, "prcp_d2": 4.999212265014648, "prcp_d3": 0.0, "prcp_d4": 0.0, "prcp_d5": 0.0, "prcp_d6": 0.0, "tmax_d0": 16.9, "tmax_d1": 13.7, "tmax_d2": 15.7, "tmax_d3": 14.8, "tmax_d4": 14.7, "tmax_d5": 14.5, "tmax_d6": 15.8, "tmin_d0": 6.3, "tmin_d1": 2.4, "tmin_d2": 6.2, "tmin_d3": 5.5, "tmin_d4": 7.0, "tmin_d5": 7.3, "tmin_d6": 7.3, "day_of_year": 243, "uuid": "03186040-47c4-4c2a-9326-68b94f0d9270", "inat_id": 311358468}}]}