{"type": "FeatureCollection", "features": [{"type": "Feature", "geometry": {"type": "Point", "coordinates": [-106.6946861111, 37.4731472222]}, "properties": {"species": "Mycena subinsignis", "date": "2024-08-12", "location": "Rio Grande County, CO, USA", "elevation": 3238.0, "land_cover_label": "Tree cover", "water_mask": false, "exclude_reason": "keep", "ndvi": null, "soil_moisture": null, "solar_exposure": null, "wind_exposure": null, "water_retention": null, "slope": null, "aspect": null, "num_identification_agreements": 1, "cluster": 2, "tavg": null, "tmin": 5.0, "tmax": 13.0, "prcp_d0": 0.0, "prcp_d1": 39.00519180297852, "prcp_d2": 0.0, "prcp_d3": 0.0, "prcp_d4": 11.40426540374756, "prcp_d5": 11.40426540374756, "prcp_d6": 34.212791442871094, "tmax_d0": 16.7, "tmax_d1": 17.6, "tmax_d2": 17.2, "tmax_d3": 16.0, "tmax_d4": 19.7, "tmax_d5": 20.2, "tmax_d6": 18.1, "tmin_d0": 8.1, "tmin_d1": 7.0, "tmin_d2": 6.6, "tmin_d3": 6.5, "tmin_d4": 7.3, "tmin_d5": 7.7, "tmin_d6": 8.0, "day_of_year": 225, "uuid": "66a1803d-aef2-44f7-b795-0d1fc4bbe9cb", "inat_id": 235533208}}]}