{"type": "FeatureCollection", "features": [{"type": "Feature", "geometry": {"type": "Point", "coordinates": [-122.4939317481, 45.2901220396]}, "properties": {"species": "Mycena galericulata", "date": "2017-10-18", "location": "Oregon, US", "elevation": 243.0, "land_cover_label": "Tree cover", "water_mask": false, "exclude_reason": "keep", "ndvi": null, "soil_moisture": null, "solar_exposure": null, "wind_exposure": null, "water_retention": null, "slope": null, "aspect": null, "num_identification_agreements": 1, "cluster": 0, "tavg": null, "tmin": 10.6, "tmax": 18.3, "prcp_d0": 12.903268814086914, "prcp_d1": 0.0, "prcp_d2": 0.0, "prcp_d3": 0.0, "prcp_d4": 0.0, "prcp_d5": 0.0, "prcp_d6": 0.0, "tmax_d0": 16.8, "tmax_d1": 16.4, "tmax_d2": 17.4, "tmax_d3": 17.0, "tmax_d4": 13.5, "tmax_d5": 10.8, "tmax_d6": 9.1, "tmin_d0": 9.8, "tmin_d1": 5.1, "tmin_d2": 1.1, "tmin_d3": 3.0, "tmin_d4": 0.3, "tmin_d5": 5.6, "tmin_d6": 5.4, "day_of_year": 291, "uuid": "3c9c8a25-ecf0-445b-b0d3-9eecd4668d40", "inat_id": 35442726}}, {"type": "Feature", "geometry": {"type": "Point", "coordinates": [-121.7887625286, 44.5926059962]}, "properties": {"species": "Mycena galericulata", "date": "2023-11-19", "location": "Oregon, US", "elevation": 1789.0, "land_cover_label": "Tree cover", "water_mask": false, "exclude_reason": "keep", "ndvi": null, "soil_moisture": null, "solar_exposure": null, "wind_exposure": null, "water_retention": null, "slope": null, "aspect": null, "num_identification_agreements": 1, "cluster": 0, "tavg": null, "tmin": null, "tmax": null, "prcp_d0": 0.0, "prcp_d1": 0.0, "prcp_d2": 0.0, "prcp_d3": 0.0, "prcp_d4": 0.0, "prcp_d5": 0.0, "prcp_d6": 0.0, "tmax_d0": 2.6, "tmax_d1": 4.7, "tmax_d2": 6.2, "tmax_d3": 7.5, "tmax_d4": 6.8, "tmax_d5": 6.6, "tmax_d6": 3.8, "tmin_d0": -5.4, "tmin_d1": -3.1, "tmin_d2": -2.5, "tmin_d3": -2.6, "tmin_d4": -1.8, "tmin_d5": -3.1, "tmin_d6": -1.0, "day_of_year": 323, "uuid": "2933ab93-bd59-45f0-a2f2-9bc799165214", "inat_id": 191519593}}]}