{"type": "FeatureCollection", "features": [{"type": "Feature", "geometry": {"type": "Point", "coordinates": [-122.2270471706, 45.3075385249]}, "properties": {"species": "Mycena clavicularis", "date": "2022-10-26", "location": "Clackamas County, US-OR, US", "elevation": 370.0, "land_cover_label": "Tree cover", "water_mask": false, "exclude_reason": "keep", "ndvi": null, "soil_moisture": null, "solar_exposure": null, "wind_exposure": null, "water_retention": null, "slope": null, "aspect": null, "num_identification_agreements": 1, "cluster": 2, "tavg": null, "tmin": 8.9, "tmax": 13.3, "prcp_d0": 17.303943634033203, "prcp_d1": 0.0, "prcp_d2": 0.0, "prcp_d3": 0.0, "prcp_d4": 0.0, "prcp_d5": 47.15423583984375, "prcp_d6": 0.0, "tmax_d0": 8.7, "tmax_d1": 10.4, "tmax_d2": 9.7, "tmax_d3": 9.8, "tmax_d4": 10.9, "tmax_d5": 17.1, "tmax_d6": 21.1, "tmin_d0": 4.6, "tmin_d1": 6.6, "tmin_d2": 6.4, "tmin_d3": 5.0, "tmin_d4": 5.9, "tmin_d5": 8.1, "tmin_d6": 6.7, "day_of_year": 299, "uuid": "661987b6-353e-4ccd-85e0-ce156a25104b", "inat_id": 228824655}}]}