{"type": "FeatureCollection", "features": [{"type": "Feature", "geometry": {"type": "Point", "coordinates": [-121.7770641112, 45.3056533495]}, "properties": {"species": "Mycena rosella", "date": "2019-10-06", "location": "Mt. Hood National Forest, Government Camp, OR, US", "elevation": 1132.0, "land_cover_label": "Tree cover", "water_mask": false, "exclude_reason": "keep", "ndvi": null, "soil_moisture": null, "solar_exposure": null, "wind_exposure": null, "water_retention": null, "slope": null, "aspect": null, "num_identification_agreements": 1, "cluster": 0, "tavg": null, "tmin": null, "tmax": null, "prcp_d0": 0.0, "prcp_d1": 0.0, "prcp_d2": 0.0, "prcp_d3": 0.0, "prcp_d4": 0.0, "prcp_d5": 0.0, "prcp_d6": 0.0, "tmax_d0": 14.3, "tmax_d1": 10.0, "tmax_d2": 7.7, "tmax_d3": 8.1, "tmax_d4": 10.4, "tmax_d5": 8.1, "tmax_d6": 3.5, "tmin_d0": 1.9, "tmin_d1": 1.2, "tmin_d2": 1.5, "tmin_d3": 3.5, "tmin_d4": -1.0, "tmin_d5": -2.7, "tmin_d6": -1.5, "day_of_year": 279, "uuid": "84f3991f-ab34-428e-9a8d-b03b405e9a3f", "inat_id": 33972520}}, {"type": "Feature", "geometry": {"type": "Point", "coordinates": [-121.81, 45.31605]}, "properties": {"species": "Mycena rosella", "date": "2019-10-20", "location": "SW Mount Hood, Clackamas Co., Oregon, USA", "elevation": 916.0, "land_cover_label": "Tree cover", "water_mask": false, "exclude_reason": "keep", "ndvi": null, "soil_moisture": null, "solar_exposure": null, "wind_exposure": null, "water_retention": null, "slope": null, "aspect": null, "num_identification_agreements": 1, "cluster": 0, "tavg": null, "tmin": null, "tmax": null, "prcp_d0": 0.0, "prcp_d1": 11.04166316986084, "prcp_d2": 0.0, "prcp_d3": 0.0, "prcp_d4": 0.0, "prcp_d5": 0.0, "prcp_d6": 0.0, "tmax_d0": 7.4, "tmax_d1": 4.5, "tmax_d2": 8.0, "tmax_d3": 8.7, "tmax_d4": 13.1, "tmax_d5": 13.7, "tmax_d6": 13.8, "tmin_d0": 2.0, "tmin_d1": 2.7, "tmin_d2": 3.3, "tmin_d3": 4.0, "tmin_d4": 6.9, "tmin_d5": 3.6, "tmin_d6": 0.8, "day_of_year": 293, "uuid": "09fd2345-e07e-4219-a1b3-280ea2266e11", "inat_id": 34881665}}]}