{"type": "FeatureCollection", "features": [{"type": "Feature", "geometry": {"type": "Point", "coordinates": [-105.54283, 40.0454]}, "properties": {"species": "Mycena sp. 'IN07'", "date": "2023-03-09", "location": "Denver Botanic Gardens, Denver, CO, US", "elevation": 3005.0, "land_cover_label": "Tree cover", "water_mask": false, "exclude_reason": "keep", "ndvi": null, "soil_moisture": 0.2882745082977269, "solar_exposure": 0.8743102550506592, "wind_exposure": 0.235883429646492, "water_retention": 0.4216856658458709, "slope": 8.446857452392578, "aspect": 120.7778778076172, "num_identification_agreements": 4, "cluster": 2, "tavg": null, "tmin": -2.0, "tmax": 12.0, "prcp_d0": 0.0, "prcp_d1": 1.8150548934936523, "prcp_d2": 0.0, "prcp_d3": 0.0, "prcp_d4": 1.7849520444869995, "prcp_d5": 1.7849520444869995, "prcp_d6": 0.0, "tmax_d0": null, "tmax_d1": null, "tmax_d2": null, "tmax_d3": null, "tmax_d4": null, "tmax_d5": null, "tmax_d6": null, "tmin_d0": null, "tmin_d1": null, "tmin_d2": null, "tmin_d3": null, "tmin_d4": null, "tmin_d5": null, "tmin_d6": null, "day_of_year": 68, "uuid": "7ebad065-8d20-4365-8023-94d46b26d051", "inat_id": 150669799}}]}