{"type": "FeatureCollection", "features": [{"type": "Feature", "geometry": {"type": "Point", "coordinates": [-122.5605777778, 45.2399722222]}, "properties": {"species": "Mycena constans", "date": "2024-09-28", "location": "Mulino, OR, USA", "elevation": 153.0, "land_cover_label": "Tree cover", "water_mask": false, "exclude_reason": "keep", "ndvi": null, "soil_moisture": null, "solar_exposure": null, "wind_exposure": null, "water_retention": null, "slope": null, "aspect": null, "num_identification_agreements": 2, "cluster": 0, "tavg": null, "tmin": 10.0, "tmax": 23.3, "prcp_d0": 0.0, "prcp_d1": 0.0, "prcp_d2": 0.0, "prcp_d3": 0.0, "prcp_d4": 0.0, "prcp_d5": 0.0, "prcp_d6": 0.0, "tmax_d0": 22.5, "tmax_d1": 21.3, "tmax_d2": 20.4, "tmax_d3": 30.2, "tmax_d4": 31.0, "tmax_d5": 25.9, "tmax_d6": 24.4, "tmin_d0": 9.6, "tmin_d1": 13.5, "tmin_d2": 10.2, "tmin_d3": 14.8, "tmin_d4": 14.0, "tmin_d5": 13.9, "tmin_d6": 8.4, "day_of_year": 272, "uuid": "ca28bc93-b9e8-4410-8679-bb2339b66afa", "inat_id": 244590932}}]}