{"type": "FeatureCollection", "features": [{"type": "Feature", "geometry": {"type": "Point", "coordinates": [-122.4995391402, 45.2615512636]}, "properties": {"species": "Nectriopsis violacea", "date": "2020-10-26", "location": "Oregon, US", "elevation": 214.0, "land_cover_label": "Grassland", "water_mask": false, "exclude_reason": "keep", "ndvi": null, "soil_moisture": null, "solar_exposure": null, "wind_exposure": null, "water_retention": null, "slope": null, "aspect": null, "num_identification_agreements": 1, "cluster": 0, "tavg": null, "tmin": -2.8, "tmax": 13.3, "prcp_d0": 0.0623636692762374, "prcp_d1": 0.0, "prcp_d2": 0.0, "prcp_d3": 0.0, "prcp_d4": 0.0, "prcp_d5": 0.0, "prcp_d6": 0.0, "tmax_d0": null, "tmax_d1": null, "tmax_d2": null, "tmax_d3": null, "tmax_d4": null, "tmax_d5": null, "tmax_d6": null, "tmin_d0": null, "tmin_d1": null, "tmin_d2": null, "tmin_d3": null, "tmin_d4": null, "tmin_d5": null, "tmin_d6": null, "day_of_year": 300, "uuid": "e95460d1-7dec-4cc7-8d2b-b2328996d3d1", "inat_id": 63853813}}, {"type": "Feature", "geometry": {"type": "Point", "coordinates": [-122.4645536765, 45.2512084004]}, "properties": {"species": "Nectriopsis violacea", "date": "2022-12-26", "location": "Beavercreek, OR 97004, USA", "elevation": 312.0, "land_cover_label": "Tree cover", "water_mask": false, "exclude_reason": "keep", "ndvi": null, "soil_moisture": null, "solar_exposure": null, "wind_exposure": null, "water_retention": null, "slope": null, "aspect": null, "num_identification_agreements": 1, "cluster": 1, "tavg": null, "tmin": 7.8, "tmax": 15.0, "prcp_d0": 38.847259521484375, "prcp_d1": 0.0, "prcp_d2": 35.6450309753418, "prcp_d3": 0.0, "prcp_d4": 0.0, "prcp_d5": 0.0, "prcp_d6": 0.0, "tmax_d0": null, "tmax_d1": null, "tmax_d2": null, "tmax_d3": null, "tmax_d4": null, "tmax_d5": null, "tmax_d6": null, "tmin_d0": null, "tmin_d1": null, "tmin_d2": null, "tmin_d3": null, "tmin_d4": null, "tmin_d5": null, "tmin_d6": null, "day_of_year": 360, "uuid": "35077bda-8da3-4409-bfc2-30bdd26b6b48", "inat_id": 146233307}}, {"type": "Feature", "geometry": {"type": "Point", "coordinates": [-121.9426305556, 45.3051694444]}, "properties": {"species": "Nectriopsis violacea", "date": "2024-09-14", "location": "Welches, OR 97067, USA", "elevation": 473.0, "land_cover_label": "Tree cover", "water_mask": false, "exclude_reason": "keep", "ndvi": null, "soil_moisture": null, "solar_exposure": null, "wind_exposure": null, "water_retention": null, "slope": null, "aspect": null, "num_identification_agreements": 1, "cluster": 0, "tavg": null, "tmin": 13.9, "tmax": 22.8, "prcp_d0": 0.2489669322967529, "prcp_d1": 0.7382651567459106, "prcp_d2": 5.467009544372559, "prcp_d3": 17.419157028198242, "prcp_d4": 0.0, "prcp_d5": 0.0, "prcp_d6": 0.0, "tmax_d0": null, "tmax_d1": null, "tmax_d2": null, "tmax_d3": null, "tmax_d4": null, "tmax_d5": null, "tmax_d6": null, "tmin_d0": null, "tmin_d1": null, "tmin_d2": null, "tmin_d3": null, "tmin_d4": null, "tmin_d5": null, "tmin_d6": null, "day_of_year": 258, "uuid": "824d2150-6c2f-4d49-8909-9369496aa69f", "inat_id": 241806547}}, {"type": "Feature", "geometry": {"type": "Point", "coordinates": [-121.679828, 45.2811489722]}, "properties": {"species": "Nectriopsis violacea", "date": "2024-09-18", "location": "MT HOOD PRKDL, OR 97041, USA", "elevation": 1219.0, "land_cover_label": "Tree cover", "water_mask": false, "exclude_reason": "keep", "ndvi": null, "soil_moisture": null, "solar_exposure": null, "wind_exposure": null, "water_retention": null, "slope": null, "aspect": null, "num_identification_agreements": 1, "cluster": 0, "tavg": null, "tmin": 13.5, "tmax": 21.8, "prcp_d0": 0.0, "prcp_d1": 0.0, "prcp_d2": 0.0, "prcp_d3": 4.414263725280762, "prcp_d4": 0.2606098651885986, "prcp_d5": 0.9746474027633668, "prcp_d6": 6.519250392913818, "tmax_d0": null, "tmax_d1": null, "tmax_d2": null, "tmax_d3": null, "tmax_d4": null, "tmax_d5": null, "tmax_d6": null, "tmin_d0": null, "tmin_d1": null, "tmin_d2": null, "tmin_d3": null, "tmin_d4": null, "tmin_d5": null, "tmin_d6": null, "day_of_year": 262, "uuid": "a8a3c4e8-3630-4ff6-847c-23d31c0ff6c3", "inat_id": 243016864}}, {"type": "Feature", "geometry": {"type": "Point", "coordinates": [-121.9360571061, 45.3313174337]}, "properties": {"species": "Nectriopsis violacea", "date": "2024-10-14", "location": "Oregon, US", "elevation": 779.0, "land_cover_label": "Tree cover", "water_mask": false, "exclude_reason": "keep", "ndvi": null, "soil_moisture": null, "solar_exposure": null, "wind_exposure": null, "water_retention": null, "slope": null, "aspect": null, "num_identification_agreements": 1, "cluster": 0, "tavg": null, "tmin": 10.6, "tmax": 23.9, "prcp_d0": 0.0, "prcp_d1": 0.0, "prcp_d2": 0.0, "prcp_d3": 21.91075897216797, "prcp_d4": 0.0, "prcp_d5": 0.0, "prcp_d6": 0.0, "tmax_d0": null, "tmax_d1": null, "tmax_d2": null, "tmax_d3": null, "tmax_d4": null, "tmax_d5": null, "tmax_d6": null, "tmin_d0": null, "tmin_d1": null, "tmin_d2": null, "tmin_d3": null, "tmin_d4": null, "tmin_d5": null, "tmin_d6": null, "day_of_year": 288, "uuid": "c0a7c91a-53d7-4e9e-bc62-c7fbd703430a", "inat_id": 247433291}}, {"type": "Feature", "geometry": {"type": "Point", "coordinates": [-121.9552944444, 45.3407472222]}, "properties": {"species": "Nectriopsis violacea", "date": "2024-12-15", "location": "Welches, Mt Hood Village, OR 97067, USA", "elevation": 438.0, "land_cover_label": "Tree cover", "water_mask": false, "exclude_reason": "keep", "ndvi": null, "soil_moisture": null, "solar_exposure": null, "wind_exposure": null, "water_retention": null, "slope": null, "aspect": null, "num_identification_agreements": 1, "cluster": 1, "tavg": null, "tmin": 5.0, "tmax": 9.4, "prcp_d0": 0.0, "prcp_d1": 16.069236755371094, "prcp_d2": 10.712823867797852, "prcp_d3": 10.712823867797852, "prcp_d4": 5.356411933898926, "prcp_d5": 0.0, "prcp_d6": 0.0, "tmax_d0": null, "tmax_d1": null, "tmax_d2": null, "tmax_d3": null, "tmax_d4": null, "tmax_d5": null, "tmax_d6": null, "tmin_d0": null, "tmin_d1": null, "tmin_d2": null, "tmin_d3": null, "tmin_d4": null, "tmin_d5": null, "tmin_d6": null, "day_of_year": 350, "uuid": "9be1224e-1dbe-49fe-8955-060b3b5db6ae", "inat_id": 255737101}}]}