{"type": "FeatureCollection", "features": [{"type": "Feature", "geometry": {"type": "Point", "coordinates": [-106.5330116667, 35.8188383333]}, "properties": {"species": "Neoboletus subvelutipes", "date": "2026-08-11", "location": "Jemez National Recreation Area, Jemez Springs, NM, US", "elevation": 2576.0, "num_identification_agreements": 1, "tavg": null, "tmin": 16.4, "tmax": 30.9, "day_of_year": 223, "uuid": "3403c818-46ce-4276-a655-4f68b7e2bbcb", "inat_id": 390682351}}, {"type": "Feature", "geometry": {"type": "Point", "coordinates": [-105.5283708, 36.1316672]}, "properties": {"species": "Neoboletus subvelutipes", "date": "2026-08-01", "location": "Taos County, US-NM, US", "elevation": 2596.0, "num_identification_agreements": 1, "tavg": null, "tmin": 14.5, "tmax": 29.6, "day_of_year": 213, "uuid": "46f1a554-03b7-4e9c-a61a-d36300e0e561", "inat_id": 387270638}}, {"type": "Feature", "geometry": {"type": "Point", "coordinates": [-106.641595, 35.9160616725]}, "properties": {"species": "Neoboletus subvelutipes", "date": "2024-07-04", "location": "Santa Fe National Forest, Jemez Springs, NM, US", "elevation": 2639.0, "num_identification_agreements": 1, "tavg": null, "tmin": 17.5, "tmax": 30.5, "day_of_year": 186, "uuid": "276345d1-b15c-4c1e-8530-470f0ca3ab73", "inat_id": 256469776}}, {"type": "Feature", "geometry": {"type": "Point", "coordinates": [-106.7177133333, 35.9515716667]}, "properties": {"species": "Neoboletus subvelutipes", "date": "2024-08-07", "location": "Sandoval County, US-NM, US", "elevation": 2585.0, "num_identification_agreements": 1, "tavg": null, "tmin": 18.1, "tmax": 31.4, "day_of_year": 220, "uuid": "d2044aae-1cd8-4908-9c51-f7e1f64809f6", "inat_id": 234444759}}, {"type": "Feature", "geometry": {"type": "Point", "coordinates": [-106.633067087, 35.9173029359]}, "properties": {"species": "Neoboletus subvelutipes", "date": "2024-08-05", "location": "Sandoval County, US-NM, US", "elevation": 2688.0, "num_identification_agreements": 1, "tavg": null, "tmin": 18.7, "tmax": 30.4, "day_of_year": 218, "uuid": "4f96c745-5773-4946-95d8-ab52e9291f2d", "inat_id": 234357454}}, {"type": "Feature", "geometry": {"type": "Point", "coordinates": [-106.8459744631, 36.0455714333]}, "properties": {"species": "Neoboletus subvelutipes", "date": "2024-07-21", "location": "Rio Arriba County, US-NM, US", "elevation": 2893.0, "num_identification_agreements": 1, "tavg": null, "tmin": null, "tmax": null, "day_of_year": 203, "uuid": "0bf25169-82b2-4b45-b819-f4ed9cf7a7f6", "inat_id": 231036460}}]}