{"type": "FeatureCollection", "features": [{"type": "Feature", "geometry": {"type": "Point", "coordinates": [-106.6581033333, 35.93475]}, "properties": {"species": "Neoboletus erythropus", "date": "2025-09-27", "location": "Forest Service Road 378, Jemez Springs, NM, US", "elevation": 2702.0, "land_cover_label": "Tree cover", "water_mask": false, "exclude_reason": "keep", "ndvi": null, "soil_moisture": null, "solar_exposure": null, "wind_exposure": null, "water_retention": null, "slope": null, "aspect": null, "num_identification_agreements": 1, "cluster": 2, "tavg": null, "tmin": 12.0, "tmax": 17.0, "prcp_d0": 0.0, "prcp_d1": 0.0, "prcp_d2": 0.0, "prcp_d3": 0.0, "prcp_d4": 0.0, "prcp_d5": 0.0, "prcp_d6": 0.0, "tmax_d0": 16.1, "tmax_d1": 18.0, "tmax_d2": 19.9, "tmax_d3": 17.4, "tmax_d4": 16.0, "tmax_d5": 18.3, "tmax_d6": 19.8, "tmin_d0": 6.2, "tmin_d1": 6.1, "tmin_d2": 4.0, "tmin_d3": 1.7, "tmin_d4": 2.8, "tmin_d5": 7.4, "tmin_d6": 5.8, "day_of_year": 270, "uuid": "bcdcec47-a4de-4d40-b6be-d0edc931de18", "inat_id": 317141975}}]}