{"type": "FeatureCollection", "features": [{"type": "Feature", "geometry": {"type": "Point", "coordinates": [-122.4813216667, 45.1811783333]}, "properties": {"species": "Ophiocordyceps variabilis", "date": "2026-05-06", "location": "Molalla, OR, US", "elevation": 214.0, "land_cover_label": "Tree cover", "water_mask": false, "exclude_reason": "keep", "ndvi": null, "soil_moisture": null, "solar_exposure": null, "wind_exposure": null, "water_retention": null, "slope": null, "aspect": null, "num_identification_agreements": 1, "cluster": 0, "tavg": null, "tmin": 12.2, "tmax": 21.1, "prcp_d0": 0.0, "prcp_d1": 0.4235429763793945, "prcp_d2": 0.7214021682739258, "prcp_d3": 3.3418197631835938, "prcp_d4": 8.69060230255127, "prcp_d5": 0.0495929755270481, "prcp_d6": 0.0, "tmax_d0": null, "tmax_d1": null, "tmax_d2": null, "tmax_d3": null, "tmax_d4": null, "tmax_d5": null, "tmax_d6": null, "tmin_d0": null, "tmin_d1": null, "tmin_d2": null, "tmin_d3": null, "tmin_d4": null, "tmin_d5": null, "tmin_d6": null, "day_of_year": 126, "uuid": "4d62e8b1-5fd9-4bc5-9e40-cb2137eaf67c", "inat_id": 359047350}}]}