{"type": "FeatureCollection", "features": [{"type": "Feature", "geometry": {"type": "Point", "coordinates": [-102.0079258, 37.07399935]}, "properties": {"species": "Panellus stipticus", "date": "2023-08-03", "location": "Morton County, US-KS, US", "elevation": 1058.0, "land_cover_label": "Grassland", "water_mask": false, "exclude_reason": "keep", "ndvi": null, "soil_moisture": null, "solar_exposure": null, "wind_exposure": null, "water_retention": null, "slope": null, "aspect": null, "num_identification_agreements": 1, "cluster": 2, "tavg": null, "tmin": 20.0, "tmax": 33.0, "prcp_d0": 0.0, "prcp_d1": 2.1726205348968506, "prcp_d2": 0.0, "prcp_d3": 0.0, "prcp_d4": 0.0, "prcp_d5": 0.0, "prcp_d6": 4.072774410247803, "tmax_d0": 36.0, "tmax_d1": 37.7, "tmax_d2": 38.3, "tmax_d3": 38.0, "tmax_d4": 37.2, "tmax_d5": 36.6, "tmax_d6": 37.4, "tmin_d0": 21.5, "tmin_d1": 23.8, "tmin_d2": 23.5, "tmin_d3": 24.8, "tmin_d4": 23.1, "tmin_d5": 21.4, "tmin_d6": 21.6, "day_of_year": 215, "uuid": "1e4fa9a4-07bf-44db-8e90-e3cbaac5ad09", "inat_id": 176480318}}, {"type": "Feature", "geometry": {"type": "Point", "coordinates": [-122.0588314245, 45.0325555973]}, "properties": {"species": "Panellus stipticus", "date": "2023-11-16", "location": "Clackamas County, OR, USA", "elevation": 463.0, "land_cover_label": "Tree cover", "water_mask": false, "exclude_reason": "keep", "ndvi": null, "soil_moisture": null, "solar_exposure": null, "wind_exposure": null, "water_retention": null, "slope": null, "aspect": null, "num_identification_agreements": 1, "cluster": 2, "tavg": null, "tmin": null, "tmax": null, "prcp_d0": 0.0, "prcp_d1": 0.0, "prcp_d2": 0.0, "prcp_d3": 0.0, "prcp_d4": 0.0, "prcp_d5": 28.977468490600582, "prcp_d6": 0.0, "tmax_d0": 12.2, "tmax_d1": 14.7, "tmax_d2": 14.7, "tmax_d3": 12.0, "tmax_d4": 13.8, "tmax_d5": 9.2, "tmax_d6": 10.0, "tmin_d0": 5.9, "tmin_d1": 5.8, "tmin_d2": 2.0, "tmin_d3": 7.0, "tmin_d4": 4.1, "tmin_d5": 3.6, "tmin_d6": 3.6, "day_of_year": 320, "uuid": "e311d895-29ed-4285-b430-86e7eeff97ca", "inat_id": 191250385}}, {"type": "Feature", "geometry": {"type": "Point", "coordinates": [-122.1126611111, 45.6147472222]}, "properties": {"species": "Panellus stipticus", "date": "2026-01-03", "location": "Stevenson, WA 98648, USA", "elevation": 232.0, "land_cover_label": "Tree cover", "water_mask": false, "exclude_reason": "keep", "ndvi": null, "soil_moisture": null, "solar_exposure": null, "wind_exposure": null, "water_retention": null, "slope": null, "aspect": null, "num_identification_agreements": 1, "cluster": 2, "tavg": null, "tmin": 5.0, "tmax": 7.0, "prcp_d0": 0.0, "prcp_d1": 0.0, "prcp_d2": 0.0, "prcp_d3": 0.0, "prcp_d4": 0.0, "prcp_d5": 0.0, "prcp_d6": 0.0, "tmax_d0": 8.1, "tmax_d1": 9.2, "tmax_d2": 1.8, "tmax_d3": 3.7, "tmax_d4": 2.9, "tmax_d5": 3.4, "tmax_d6": 3.8, "tmin_d0": 2.5, "tmin_d1": 1.0, "tmin_d2": -0.9, "tmin_d3": -1.7, "tmin_d4": -1.8, "tmin_d5": -0.6, "tmin_d6": -0.7, "day_of_year": 3, "uuid": "7737d354-924f-4322-93e1-14de76fa03b3", "inat_id": 333402318}}, {"type": "Feature", "geometry": {"type": "Point", "coordinates": [-121.5985716667, 45.6950633333]}, "properties": {"species": "Panellus stipticus", "date": "2026-02-12", "location": "Hood River, OR, US", "elevation": 334.0, "land_cover_label": "Tree cover", "water_mask": false, "exclude_reason": "keep", "ndvi": null, "soil_moisture": null, "solar_exposure": null, "wind_exposure": null, "water_retention": null, "slope": null, "aspect": null, "num_identification_agreements": 1, "cluster": 3, "tavg": null, "tmin": null, "tmax": null, "prcp_d0": 0.0, "prcp_d1": 0.0, "prcp_d2": 0.0, "prcp_d3": 0.0, "prcp_d4": 49.9738883972168, "prcp_d5": 24.9869441986084, "prcp_d6": 0.0, "tmax_d0": 10.7, "tmax_d1": 8.1, "tmax_d2": 7.7, "tmax_d3": 8.5, "tmax_d4": 6.1, "tmax_d5": 5.4, "tmax_d6": 4.9, "tmin_d0": -1.7, "tmin_d1": -2.1, "tmin_d2": -1.5, "tmin_d3": 1.7, "tmin_d4": 2.4, "tmin_d5": 0.1, "tmin_d6": 0.1, "day_of_year": 43, "uuid": "b5f14a8a-892d-4089-825a-e720f2de4409", "inat_id": 338386501}}]}