{"type": "FeatureCollection", "features": [{"type": "Feature", "geometry": {"type": "Point", "coordinates": [-104.7887493297, 39.568135496]}, "properties": {"species": "Parasola auricoma", "date": "2025-06-26", "location": "Dove Valley, CO, USA", "elevation": 1746.0, "num_identification_agreements": 1, "tavg": null, "tmin": 12.8, "tmax": 28.9, "day_of_year": 177, "uuid": "5d5e78b9-377f-4931-ad9a-5f9221d0e84b", "inat_id": 293027337}}, {"type": "Feature", "geometry": {"type": "Point", "coordinates": [-103.6689096609, 43.7309996888]}, "properties": {"species": "Parasola auricoma", "date": "2023-09-16", "location": "Custer County, SD, USA", "elevation": 1619.0, "num_identification_agreements": 2, "tavg": null, "tmin": 6.1, "tmax": 21.1, "day_of_year": 259, "uuid": "97b0eca5-64eb-42e3-a967-5ff500563874", "inat_id": 184482619}}]}