{"type": "FeatureCollection", "features": [{"type": "Feature", "geometry": {"type": "Point", "coordinates": [-105.0210571289, 38.732772798]}, "properties": {"species": "Peckorumyces umbonatus", "date": "2024-06-29", "location": "Manitou Springs, CO 80829, USA", "elevation": 2876.0, "land_cover_label": "Tree cover", "water_mask": false, "exclude_reason": "keep", "ndvi": null, "soil_moisture": null, "solar_exposure": null, "wind_exposure": null, "water_retention": null, "slope": null, "aspect": null, "num_identification_agreements": 2, "cluster": 0, "tavg": null, "tmin": 15.0, "tmax": 25.0, "prcp_d0": 0.0, "prcp_d1": 0.0, "prcp_d2": 0.0, "prcp_d3": 0.0, "prcp_d4": 0.0, "prcp_d5": 0.0, "prcp_d6": 0.0, "tmax_d0": null, "tmax_d1": null, "tmax_d2": null, "tmax_d3": null, "tmax_d4": null, "tmax_d5": null, "tmax_d6": null, "tmin_d0": null, "tmin_d1": null, "tmin_d2": null, "tmin_d3": null, "tmin_d4": null, "tmin_d5": null, "tmin_d6": null, "day_of_year": 181, "uuid": "c24037a0-279b-48c1-872b-85790f73d709", "inat_id": 226017311}}, {"type": "Feature", "geometry": {"type": "Point", "coordinates": [-105.2736917028, 39.5424139639]}, "properties": {"species": "Peckorumyces umbonatus", "date": "2024-08-13", "location": "S Turkey Creek Rd, Morrison, CO, US", "elevation": 2449.0, "land_cover_label": "Tree cover", "water_mask": false, "exclude_reason": "keep", "ndvi": null, "soil_moisture": 0.3314725495278159, "solar_exposure": 0.7562841773033142, "wind_exposure": 0.30007404088974, "water_retention": 0.2387042641639709, "slope": 7.295368671417236, "aspect": 347.2046203613281, "num_identification_agreements": 3, "cluster": 0, "tavg": null, "tmin": 16.7, "tmax": 28.3, "prcp_d0": 0.0, "prcp_d1": 0.0, "prcp_d2": 0.0, "prcp_d3": 0.0, "prcp_d4": 8.683478355407715, "prcp_d5": 0.0, "prcp_d6": 0.0, "tmax_d0": null, "tmax_d1": null, "tmax_d2": null, "tmax_d3": null, "tmax_d4": null, "tmax_d5": null, "tmax_d6": null, "tmin_d0": null, "tmin_d1": null, "tmin_d2": null, "tmin_d3": null, "tmin_d4": null, "tmin_d5": null, "tmin_d6": null, "day_of_year": 226, "uuid": "997b62e5-9e90-49ab-80ad-b3c2f93b6411", "inat_id": 235612278}}, {"type": "Feature", "geometry": {"type": "Point", "coordinates": [-105.2736686173, 39.5424170438]}, "properties": {"species": "Peckorumyces umbonatus", "date": "2024-08-13", "location": "S Turkey Creek Rd, Morrison, CO, US", "elevation": 2449.0, "land_cover_label": "Tree cover", "water_mask": false, "exclude_reason": "keep", "ndvi": null, "soil_moisture": 0.3314606320753303, "solar_exposure": 0.7562841773033142, "wind_exposure": 0.30007404088974, "water_retention": 0.2387042641639709, "slope": 7.295368671417236, "aspect": 347.2046203613281, "num_identification_agreements": 3, "cluster": 0, "tavg": null, "tmin": 16.7, "tmax": 28.3, "prcp_d0": 0.0, "prcp_d1": 0.0, "prcp_d2": 0.0, "prcp_d3": 0.0, "prcp_d4": 8.683478355407715, "prcp_d5": 0.0, "prcp_d6": 0.0, "tmax_d0": null, "tmax_d1": null, "tmax_d2": null, "tmax_d3": null, "tmax_d4": null, "tmax_d5": null, "tmax_d6": null, "tmin_d0": null, "tmin_d1": null, "tmin_d2": null, "tmin_d3": null, "tmin_d4": null, "tmin_d5": null, "tmin_d6": null, "day_of_year": 226, "uuid": "24ef4794-1c02-4a3c-81e1-c4af5fa19f01", "inat_id": 235612369}}, {"type": "Feature", "geometry": {"type": "Point", "coordinates": [-104.870179619, 38.7912287969]}, "properties": {"species": "Peckorumyces umbonatus", "date": "2024-08-21", "location": "N Cheyenne Canyon Rd, Colorado Springs, CO, US", "elevation": 1957.0, "land_cover_label": "Tree cover", "water_mask": false, "exclude_reason": "keep", "ndvi": null, "soil_moisture": null, "solar_exposure": null, "wind_exposure": null, "water_retention": null, "slope": null, "aspect": null, "num_identification_agreements": 3, "cluster": 0, "tavg": null, "tmin": 15.5, "tmax": 29.0, "prcp_d0": 8.103190422058105, "prcp_d1": 13.97312831878662, "prcp_d2": 0.0, "prcp_d3": 0.0, "prcp_d4": 0.0, "prcp_d5": 0.0, "prcp_d6": 0.0, "tmax_d0": null, "tmax_d1": null, "tmax_d2": null, "tmax_d3": null, "tmax_d4": null, "tmax_d5": null, "tmax_d6": null, "tmin_d0": null, "tmin_d1": null, "tmin_d2": null, "tmin_d3": null, "tmin_d4": null, "tmin_d5": null, "tmin_d6": null, "day_of_year": 234, "uuid": "80c364ef-a1aa-4c74-9ad5-2b8b37a526fb", "inat_id": 237157991}}, {"type": "Feature", "geometry": {"type": "Point", "coordinates": [-104.86556251, 38.79110895]}, "properties": {"species": "Peckorumyces umbonatus", "date": "2024-08-21", "location": "Colorado Springs, CO 80906, USA", "elevation": 1924.0, "land_cover_label": "Tree cover", "water_mask": false, "exclude_reason": "keep", "ndvi": null, "soil_moisture": null, "solar_exposure": null, "wind_exposure": null, "water_retention": null, "slope": null, "aspect": null, "num_identification_agreements": 3, "cluster": 0, "tavg": null, "tmin": 15.5, "tmax": 29.0, "prcp_d0": 8.103190422058105, "prcp_d1": 13.97312831878662, "prcp_d2": 0.0, "prcp_d3": 0.0, "prcp_d4": 0.0, "prcp_d5": 0.0, "prcp_d6": 0.0, "tmax_d0": null, "tmax_d1": null, "tmax_d2": null, "tmax_d3": null, "tmax_d4": null, "tmax_d5": null, "tmax_d6": null, "tmin_d0": null, "tmin_d1": null, "tmin_d2": null, "tmin_d3": null, "tmin_d4": null, "tmin_d5": null, "tmin_d6": null, "day_of_year": 234, "uuid": "ab6a2ed8-c5eb-4efe-b5f8-51e0450a2aa8", "inat_id": 237225483}}, {"type": "Feature", "geometry": {"type": "Point", "coordinates": [-104.86650572, 38.78890169]}, "properties": {"species": "Peckorumyces umbonatus", "date": "2024-08-21", "location": "2130 S Cheyenne Canyon Rd, Colorado Springs, CO 80906, USA", "elevation": 1932.0, "land_cover_label": "Tree cover", "water_mask": false, "exclude_reason": "keep", "ndvi": null, "soil_moisture": null, "solar_exposure": null, "wind_exposure": null, "water_retention": null, "slope": null, "aspect": null, "num_identification_agreements": 4, "cluster": 0, "tavg": null, "tmin": 15.5, "tmax": 29.0, "prcp_d0": 8.103190422058105, "prcp_d1": 13.97312831878662, "prcp_d2": 0.0, "prcp_d3": 0.0, "prcp_d4": 0.0, "prcp_d5": 0.0, "prcp_d6": 0.0, "tmax_d0": null, "tmax_d1": null, "tmax_d2": null, "tmax_d3": null, "tmax_d4": null, "tmax_d5": null, "tmax_d6": null, "tmin_d0": null, "tmin_d1": null, "tmin_d2": null, "tmin_d3": null, "tmin_d4": null, "tmin_d5": null, "tmin_d6": null, "day_of_year": 234, "uuid": "5904e27c-58bb-4f53-920f-f50778eb301a", "inat_id": 237225384}}, {"type": "Feature", "geometry": {"type": "Point", "coordinates": [-105.44431318, 39.61044894]}, "properties": {"species": "Peckorumyces umbonatus", "date": "2025-08-23", "location": "Clear Creek County, US-CO, US", "elevation": 2517.0, "land_cover_label": "Tree cover", "water_mask": false, "exclude_reason": "keep", "ndvi": null, "soil_moisture": 0.3853944054168009, "solar_exposure": 0.7566156983375549, "wind_exposure": 0.2827844023704529, "water_retention": 0.2403997927904129, "slope": 7.116085052490234, "aspect": 0.0, "num_identification_agreements": 1, "cluster": 0, "tavg": null, "tmin": 0.5, "tmax": 14.1, "prcp_d0": 0.0, "prcp_d1": 0.0, "prcp_d2": 0.0, "prcp_d3": 0.0, "prcp_d4": 0.0, "prcp_d5": 0.0, "prcp_d6": 0.0, "tmax_d0": null, "tmax_d1": null, "tmax_d2": null, "tmax_d3": null, "tmax_d4": null, "tmax_d5": null, "tmax_d6": null, "tmin_d0": null, "tmin_d1": null, "tmin_d2": null, "tmin_d3": null, "tmin_d4": null, "tmin_d5": null, "tmin_d6": null, "day_of_year": 235, "uuid": "3fcb2532-2cb4-4163-a5b9-d95b4f24df32", "inat_id": 309762609}}, {"type": "Feature", "geometry": {"type": "Point", "coordinates": [-104.9095611389, 38.7286186111]}, "properties": {"species": "Peckorumyces umbonatus", "date": "2025-08-30", "location": "Rock Creek, Colorado Springs, CO, USA", "elevation": 2618.0, "land_cover_label": "Tree cover", "water_mask": false, "exclude_reason": "keep", "ndvi": null, "soil_moisture": null, "solar_exposure": null, "wind_exposure": null, "water_retention": null, "slope": null, "aspect": null, "num_identification_agreements": 2, "cluster": 2, "tavg": null, "tmin": 11.3, "tmax": 19.3, "prcp_d0": 0.0, "prcp_d1": 0.0, "prcp_d2": 0.0, "prcp_d3": 0.0, "prcp_d4": 0.0, "prcp_d5": 23.10459327697754, "prcp_d6": 23.10459327697754, "tmax_d0": null, "tmax_d1": null, "tmax_d2": null, "tmax_d3": null, "tmax_d4": null, "tmax_d5": null, "tmax_d6": null, "tmin_d0": null, "tmin_d1": null, "tmin_d2": null, "tmin_d3": null, "tmin_d4": null, "tmin_d5": null, "tmin_d6": null, "day_of_year": 242, "uuid": "d3c0dbb4-2d3e-4d26-b569-3c2148f73529", "inat_id": 310397769}}]}