{"type": "FeatureCollection", "features": [{"type": "Feature", "geometry": {"type": "Point", "coordinates": [-105.4985666667, 40.0886972222]}, "properties": {"species": "Phaeonematoloma myosotis", "date": "2024-09-28", "location": "Ward, CO 80481, USA", "elevation": 2805.0, "land_cover_label": "Tree cover", "water_mask": false, "exclude_reason": "keep", "ndvi": null, "soil_moisture": 0.2289502662308764, "solar_exposure": 0.7978161573410034, "wind_exposure": 0.3340113162994385, "water_retention": 0.3689967691898346, "slope": 4.240866661071777, "aspect": 28.55135726928711, "num_identification_agreements": 1, "cluster": 0, "tavg": null, "tmin": 13.0, "tmax": 32.0, "prcp_d0": 0.0, "prcp_d1": 0.0, "prcp_d2": 0.0, "prcp_d3": 0.0, "prcp_d4": 0.0, "prcp_d5": 0.0, "prcp_d6": 18.198904037475582, "tmax_d0": null, "tmax_d1": null, "tmax_d2": null, "tmax_d3": null, "tmax_d4": null, "tmax_d5": null, "tmax_d6": null, "tmin_d0": null, "tmin_d1": null, "tmin_d2": null, "tmin_d3": null, "tmin_d4": null, "tmin_d5": null, "tmin_d6": null, "day_of_year": 272, "uuid": "915e6f5b-53e5-4fd0-9037-0f19bc356d0a", "inat_id": 245162814}}]}