{"type": "FeatureCollection", "features": [{"type": "Feature", "geometry": {"type": "Point", "coordinates": [-105.37831, 39.1745283333]}, "properties": {"species": "Phlegmacium foetens", "date": "2025-08-15", "location": "Jefferson County, US-CO, US", "elevation": 2477.0, "land_cover_label": "Tree cover", "water_mask": false, "exclude_reason": "keep", "ndvi": null, "soil_moisture": 0.1068457170484651, "solar_exposure": 0.7995294332504272, "wind_exposure": 0.2543823719024658, "water_retention": 0.3449568748474121, "slope": 5.294915199279785, "aspect": 310.10888671875, "num_identification_agreements": 1, "cluster": 0, "tavg": null, "tmin": 12.0, "tmax": 21.0, "prcp_d0": 0.0, "prcp_d1": 0.0, "prcp_d2": 9.170550346374512, "prcp_d3": 0.0, "prcp_d4": 0.0, "prcp_d5": 0.0, "prcp_d6": 0.0, "tmax_d0": null, "tmax_d1": null, "tmax_d2": null, "tmax_d3": null, "tmax_d4": null, "tmax_d5": null, "tmax_d6": null, "tmin_d0": null, "tmin_d1": null, "tmin_d2": null, "tmin_d3": null, "tmin_d4": null, "tmin_d5": null, "tmin_d6": null, "day_of_year": 227, "uuid": "e9f1d2a0-ee59-4aa0-bc8f-940c6ee3c9f8", "inat_id": 306621681}}]}