{"type": "FeatureCollection", "features": [{"type": "Feature", "geometry": {"type": "Point", "coordinates": [-105.0915916667, 39.0419916667]}, "properties": {"species": "Phlegmacium fulminoides", "date": "2024-08-10", "location": "Teller County, CO, USA", "elevation": 2491.0, "land_cover_label": "Tree cover", "water_mask": false, "exclude_reason": "keep", "ndvi": null, "soil_moisture": 0.3346428687381722, "solar_exposure": 0.7213890552520752, "wind_exposure": 0.2795132398605346, "water_retention": 0.3087175190448761, "slope": 12.768607139587402, "aspect": 46.00464630126953, "num_identification_agreements": 0, "cluster": 1, "tavg": null, "tmin": 12.8, "tmax": 23.7, "prcp_d0": 0.0, "prcp_d1": 0.0, "prcp_d2": 0.0, "prcp_d3": 11.443070411682127, "prcp_d4": 22.88614082336425, "prcp_d5": 5.7399187088012695, "prcp_d6": 0.0, "tmax_d0": null, "tmax_d1": null, "tmax_d2": null, "tmax_d3": null, "tmax_d4": null, "tmax_d5": null, "tmax_d6": null, "tmin_d0": null, "tmin_d1": null, "tmin_d2": null, "tmin_d3": null, "tmin_d4": null, "tmin_d5": null, "tmin_d6": null, "day_of_year": 223, "uuid": "36518796-23cf-450d-8346-9c7b3f665ca7", "inat_id": 235048283}}]}