{"type": "FeatureCollection", "features": [{"type": "Feature", "geometry": {"type": "Point", "coordinates": [-104.8948187802, 39.5703635734]}, "properties": {"species": "Phloeomana speirea", "date": "2025-12-13", "location": "Centennial, CO, USA", "elevation": 1739.0, "num_identification_agreements": 1, "tavg": null, "tmin": -1.0, "tmax": 18.0, "day_of_year": 347, "uuid": "ff187245-5f51-4dd6-94e5-ca9a984264f7", "inat_id": 330875732}}, {"type": "Feature", "geometry": {"type": "Point", "coordinates": [-105.8104416667, 35.7936805556]}, "properties": {"species": "Phloeomana speirea", "date": "2024-06-25", "location": "San Ildefonso Pueblo, NM 87506, USA", "elevation": 3046.0, "num_identification_agreements": 1, "tavg": null, "tmin": 16.7, "tmax": 33.9, "day_of_year": 177, "uuid": "025f02d5-66f9-4c09-91ef-81bafd291006", "inat_id": 225238192}}, {"type": "Feature", "geometry": {"type": "Point", "coordinates": [-105.8002, 35.8]}, "properties": {"species": "Phloeomana speirea", "date": "2023-07-24", "location": "Aspen Basin Area, Santa Fe National Forest, Santa Fe, New Mexico, USA", "elevation": 3266.0, "num_identification_agreements": 3, "tavg": null, "tmin": 17.2, "tmax": 35.0, "day_of_year": 205, "uuid": "48b8e159-c50b-4da6-9ff7-33f3c2e6df30", "inat_id": 197172749}}, {"type": "Feature", "geometry": {"type": "Point", "coordinates": [-107.8955, 37.9033]}, "properties": {"species": "Phloeomana speirea", "date": "2014-08-16", "location": "South Fork Rd., Uncompaghre National Forest, San Juan Co., Colorado, USA", "elevation": 2842.0, "num_identification_agreements": 1, "tavg": null, "tmin": null, "tmax": null, "day_of_year": 228, "uuid": "be898c83-5e89-4e4c-852f-7af94d80a2ee", "inat_id": 3550253}}]}