{"type": "FeatureCollection", "features": [{"type": "Feature", "geometry": {"type": "Point", "coordinates": [-122.306145, 45.5011431]}, "properties": {"species": "Pholiota limonella", "date": "2022-11-09", "location": "Oxbow Regional Park, 3010 SE Oxbow Pkwy, Gresham, OR 97080, USA", "elevation": 48.0, "land_cover_label": "Tree cover", "water_mask": false, "exclude_reason": "keep", "ndvi": null, "soil_moisture": null, "solar_exposure": null, "wind_exposure": null, "water_retention": null, "slope": null, "aspect": null, "num_identification_agreements": 1, "cluster": 2, "tavg": null, "tmin": -1.1, "tmax": 10.0, "prcp_d0": 0.0, "prcp_d1": 0.0, "prcp_d2": 10.47154426574707, "prcp_d3": 20.94308853149414, "prcp_d4": 35.71685791015625, "prcp_d5": 21.43011474609375, "prcp_d6": 7.14337158203125, "tmax_d0": 7.7, "tmax_d1": 8.3, "tmax_d2": 7.6, "tmax_d3": 8.0, "tmax_d4": 12.6, "tmax_d5": 12.5, "tmax_d6": 8.1, "tmin_d0": -0.5, "tmin_d1": 0.0, "tmin_d2": 2.3, "tmin_d3": 4.1, "tmin_d4": 6.7, "tmin_d5": 5.3, "tmin_d6": 3.5, "day_of_year": 313, "uuid": "39abe3df-4bdd-4d8b-98aa-c5fea73570d8", "inat_id": 197953740}}]}