{"type": "FeatureCollection", "features": [{"type": "Feature", "geometry": {"type": "Point", "coordinates": [-104.85, 39.7]}, "properties": {"species": "Pleurotus citrinopileatus", "date": "2019-09-30", "location": "Aurora", "elevation": 1683.0, "land_cover_label": "Tree cover", "water_mask": false, "exclude_reason": "keep", "ndvi": null, "soil_moisture": 0.1206054687499986, "solar_exposure": 0.8359947800636292, "wind_exposure": 0.339215338230133, "water_retention": 0.3398029208183288, "slope": 2.4550018310546875, "aspect": 277.2732238769531, "num_identification_agreements": 7, "cluster": 2, "tavg": null, "tmin": 9.2, "tmax": 23.8, "prcp_d0": 0.0, "prcp_d1": 0.0, "prcp_d2": 0.0, "prcp_d3": 0.0, "prcp_d4": 0.0, "prcp_d5": 0.0, "prcp_d6": 0.0, "tmax_d0": 27.4, "tmax_d1": 29.6, "tmax_d2": 25.2, "tmax_d3": 29.0, "tmax_d4": 31.3, "tmax_d5": 27.0, "tmax_d6": 28.0, "tmin_d0": 10.1, "tmin_d1": 13.4, "tmin_d2": 10.0, "tmin_d3": 9.5, "tmin_d4": 8.6, "tmin_d5": 12.1, "tmin_d6": 11.9, "day_of_year": 273, "uuid": "dc0b21e6-1da4-4577-bd6f-bdc540fb6082", "inat_id": 33678879}}, {"type": "Feature", "geometry": {"type": "Point", "coordinates": [-104.8674083333, 38.8474716667]}, "properties": {"species": "Pleurotus citrinopileatus", "date": "2023-07-12", "location": "S 27th St, Colorado Springs, CO, US", "elevation": 1858.0, "land_cover_label": "Bare / sparse vegetation", "water_mask": false, "exclude_reason": "keep", "ndvi": null, "soil_moisture": null, "solar_exposure": null, "wind_exposure": null, "water_retention": null, "slope": null, "aspect": null, "num_identification_agreements": 2, "cluster": 2, "tavg": null, "tmin": 16.5, "tmax": 30.0, "prcp_d0": 0.0, "prcp_d1": 0.0, "prcp_d2": 0.0, "prcp_d3": 0.0, "prcp_d4": 0.0, "prcp_d5": 0.0, "prcp_d6": 0.0, "tmax_d0": 31.4, "tmax_d1": 31.0, "tmax_d2": 31.3, "tmax_d3": 23.6, "tmax_d4": 24.2, "tmax_d5": 23.3, "tmax_d6": 22.9, "tmin_d0": 14.4, "tmin_d1": 12.0, "tmin_d2": 12.8, "tmin_d3": 12.5, "tmin_d4": 14.0, "tmin_d5": 11.1, "tmin_d6": 13.6, "day_of_year": 193, "uuid": "5079215d-f815-4755-b368-2963a8a69b2b", "inat_id": 172558026}}, {"type": "Feature", "geometry": {"type": "Point", "coordinates": [-107.00483055, 39.38102]}, "properties": {"species": "Pleurotus citrinopileatus", "date": "2025-06-24", "location": "Cedar Dr, Basalt, CO, US", "elevation": 2211.0, "land_cover_label": "Tree cover", "water_mask": false, "exclude_reason": "keep", "ndvi": null, "soil_moisture": null, "solar_exposure": null, "wind_exposure": null, "water_retention": null, "slope": null, "aspect": null, "num_identification_agreements": 3, "cluster": 2, "tavg": null, "tmin": 8.3, "tmax": 24.4, "prcp_d0": 0.0, "prcp_d1": 0.0, "prcp_d2": 0.0, "prcp_d3": 0.0, "prcp_d4": 0.0, "prcp_d5": 0.0, "prcp_d6": 0.0, "tmax_d0": 26.2, "tmax_d1": 25.9, "tmax_d2": 26.8, "tmax_d3": 28.2, "tmax_d4": 29.8, "tmax_d5": 29.1, "tmax_d6": 26.3, "tmin_d0": 12.1, "tmin_d1": 7.8, "tmin_d2": 11.0, "tmin_d3": 11.2, "tmin_d4": 14.0, "tmin_d5": 13.6, "tmin_d6": 9.2, "day_of_year": 175, "uuid": "d88a63f3-1e7a-4576-9217-58eda8ef969a", "inat_id": 293961232}}]}