{"type": "FeatureCollection", "features": [{"type": "Feature", "geometry": {"type": "Point", "coordinates": [-105.0243069909, 39.6026977765]}, "properties": {"species": "Pleurotus ostreatus", "date": "2017-05-02", "location": "Littleton, CO, USA", "elevation": 1627.0, "land_cover_label": "Bare / sparse vegetation", "water_mask": false, "exclude_reason": "keep", "ndvi": null, "soil_moisture": 0.3944114322924489, "solar_exposure": 0.8365340828895569, "wind_exposure": 0.315426617860794, "water_retention": 0.5561718344688416, "slope": 1.653534770011902, "aspect": 280.8376770019531, "num_identification_agreements": 1, "cluster": 0, "tavg": null, "tmin": 3.3, "tmax": 14.4, "prcp_d0": 0.0, "prcp_d1": 0.0, "prcp_d2": 0.0, "prcp_d3": 8.639013290405273, "prcp_d4": 0.0, "prcp_d5": 8.639013290405273, "prcp_d6": 8.639013290405273, "tmax_d0": 16.6, "tmax_d1": 17.2, "tmax_d2": 7.0, "tmax_d3": 2.2, "tmax_d4": 10.6, "tmax_d5": 11.8, "tmax_d6": 15.3, "tmin_d0": -0.5, "tmin_d1": -1.6, "tmin_d2": -8.6, "tmin_d3": -2.0, "tmin_d4": -1.1, "tmin_d5": 4.0, "tmin_d6": -1.1, "day_of_year": 122, "uuid": "b169f49b-2732-4eba-9938-052ba04942a4", "inat_id": 17483805}}, {"type": "Feature", "geometry": {"type": "Point", "coordinates": [-107.8184972222, 37.9447972222]}, "properties": {"species": "Pleurotus ostreatus", "date": "2017-07-13", "location": "San Miguel County, CO, USA", "elevation": 2875.0, "land_cover_label": "Tree cover", "water_mask": false, "exclude_reason": "keep", "ndvi": null, "soil_moisture": null, "solar_exposure": null, "wind_exposure": null, "water_retention": null, "slope": null, "aspect": null, "num_identification_agreements": 1, "cluster": 3, "tavg": null, "tmin": null, "tmax": null, "prcp_d0": 0.0, "prcp_d1": 0.0, "prcp_d2": 17.434173583984375, "prcp_d3": 4.394154071807861, "prcp_d4": 0.0, "prcp_d5": 0.0, "prcp_d6": 0.0, "tmax_d0": 18.3, "tmax_d1": 18.6, "tmax_d2": 19.1, "tmax_d3": 22.6, "tmax_d4": 22.7, "tmax_d5": 22.5, "tmax_d6": 23.8, "tmin_d0": 3.8, "tmin_d1": 8.1, "tmin_d2": 8.2, "tmin_d3": 6.1, "tmin_d4": 6.6, "tmin_d5": 5.8, "tmin_d6": 5.7, "day_of_year": 194, "uuid": "8722e5f0-3d97-45bb-a478-31cecb18ddaa", "inat_id": 20219611}}, {"type": "Feature", "geometry": {"type": "Point", "coordinates": [-104.8652878404, 38.7909594526]}, "properties": {"species": "Pleurotus ostreatus", "date": "2018-04-20", "location": "Colorado Springs, CO 80906, USA", "elevation": 1924.0, "land_cover_label": "Tree cover", "water_mask": false, "exclude_reason": "keep", "ndvi": null, "soil_moisture": null, "solar_exposure": null, "wind_exposure": null, "water_retention": null, "slope": null, "aspect": null, "num_identification_agreements": 1, "cluster": 2, "tavg": null, "tmin": 0.0, "tmax": 11.1, "prcp_d0": 0.0, "prcp_d1": 0.0, "prcp_d2": 0.0, "prcp_d3": 5.709728240966797, "prcp_d4": 0.0, "prcp_d5": 0.0, "prcp_d6": 0.0, "tmax_d0": 14.6, "tmax_d1": 15.6, "tmax_d2": 11.2, "tmax_d3": 18.5, "tmax_d4": 21.0, "tmax_d5": 12.0, "tmax_d6": 11.5, "tmin_d0": 3.4, "tmin_d1": -0.4, "tmin_d2": -2.3, "tmin_d3": 10.8, "tmin_d4": 1.7, "tmin_d5": -0.3, "tmin_d6": -3.4, "day_of_year": 110, "uuid": "5f20dd10-636e-4e6c-be70-e1d810c70a82", "inat_id": 266940168}}, {"type": "Feature", "geometry": {"type": "Point", "coordinates": [-105.0875333333, 39.4942583333]}, "properties": {"species": "Pleurotus ostreatus", "date": "2018-05-04", "location": "Chatfield, Littleton, CO, US", "elevation": 1672.0, "land_cover_label": "Tree cover", "water_mask": false, "exclude_reason": "keep", "ndvi": null, "soil_moisture": 0.3946426078535088, "solar_exposure": 0.8335092067718506, "wind_exposure": 0.3092854619026184, "water_retention": 0.5962055921554565, "slope": 1.0229346752166748, "aspect": 307.4436950683594, "num_identification_agreements": 2, "cluster": 2, "tavg": null, "tmin": 3.9, "tmax": 18.3, "prcp_d0": 0.0, "prcp_d1": 6.02038049697876, "prcp_d2": 0.0, "prcp_d3": 3.01019024848938, "prcp_d4": 0.0, "prcp_d5": 4.330080986022949, "prcp_d6": 0.0, "tmax_d0": 18.3, "tmax_d1": 10.9, "tmax_d2": 16.8, "tmax_d3": 19.7, "tmax_d4": 23.6, "tmax_d5": 26.8, "tmax_d6": 23.6, "tmin_d0": -0.1, "tmin_d1": 3.6, "tmin_d2": 7.3, "tmin_d3": 7.0, "tmin_d4": 5.5, "tmin_d5": 9.9, "tmin_d6": 2.2, "day_of_year": 124, "uuid": "3599151f-3c21-4e44-8fed-3b80696bb5c2", "inat_id": 12131644}}, {"type": "Feature", "geometry": {"type": "Point", "coordinates": [-105.0819702634, 40.0448968728]}, "properties": {"species": "Pleurotus ostreatus", "date": "2018-05-19", "location": "11583 Flatiron Dr, Lafayette, CO, US", "elevation": 1568.0, "land_cover_label": "Grassland", "water_mask": false, "exclude_reason": "keep", "ndvi": null, "soil_moisture": 0.3320344078463721, "solar_exposure": 0.8267181515693665, "wind_exposure": 0.3417358994483948, "water_retention": 0.34637051820755, "slope": 1.4853447675704956, "aspect": 326.8578491210937, "num_identification_agreements": 2, "cluster": 1, "tavg": null, "tmin": 8.0, "tmax": 11.0, "prcp_d0": 20.926326751708984, "prcp_d1": 6.975441932678223, "prcp_d2": 0.0, "prcp_d3": 0.0, "prcp_d4": 0.0, "prcp_d5": 0.0, "prcp_d6": 0.0, "tmax_d0": 13.2, "tmax_d1": 22.9, "tmax_d2": 26.2, "tmax_d3": 25.5, "tmax_d4": 20.8, "tmax_d5": 17.2, "tmax_d6": 15.9, "tmin_d0": 6.5, "tmin_d1": 10.0, "tmin_d2": 9.2, "tmin_d3": 7.0, "tmin_d4": 9.6, "tmin_d5": 8.3, "tmin_d6": 8.7, "day_of_year": 139, "uuid": "bbe1aa0a-74c5-4c26-a558-63f545fcbcf1", "inat_id": 12602712}}, {"type": "Feature", "geometry": {"type": "Point", "coordinates": [-107.836, 37.9421]}, "properties": {"species": "Pleurotus ostreatus", "date": "2018-08-16", "location": "Telluride, Colorado, USA", "elevation": 2652.0, "land_cover_label": "Grassland", "water_mask": false, "exclude_reason": "keep", "ndvi": null, "soil_moisture": null, "solar_exposure": null, "wind_exposure": null, "water_retention": null, "slope": null, "aspect": null, "num_identification_agreements": 2, "cluster": 2, "tavg": null, "tmin": 11.0, "tmax": 23.0, "prcp_d0": 7.511468410491943, "prcp_d1": 0.0, "prcp_d2": 0.0, "prcp_d3": 0.0, "prcp_d4": 0.0, "prcp_d5": 0.0, "prcp_d6": 0.0, "tmax_d0": 22.4, "tmax_d1": 21.7, "tmax_d2": 23.5, "tmax_d3": 24.1, "tmax_d4": 24.9, "tmax_d5": 24.4, "tmax_d6": 23.5, "tmin_d0": 8.2, "tmin_d1": 9.0, "tmin_d2": 10.1, "tmin_d3": 7.7, "tmin_d4": 8.4, "tmin_d5": 6.2, "tmin_d6": 9.3, "day_of_year": 228, "uuid": "647d14ce-83d9-4fec-b190-a40c709a3fc7", "inat_id": 40349149}}, {"type": "Feature", "geometry": {"type": "Point", "coordinates": [-100.06943902, 37.68826754]}, "properties": {"species": "Pleurotus ostreatus", "date": "2018-09-05", "location": "11530 108 Rd, Dodge City, KS 67801, USA", "elevation": 799.0, "land_cover_label": "Bare / sparse vegetation", "water_mask": false, "exclude_reason": "keep", "ndvi": null, "soil_moisture": null, "solar_exposure": null, "wind_exposure": null, "water_retention": null, "slope": null, "aspect": null, "num_identification_agreements": 1, "cluster": 3, "tavg": null, "tmin": null, "tmax": null, "prcp_d0": 0.0, "prcp_d1": 5.043869495391846, "prcp_d2": 10.087738990783691, "prcp_d3": 10.087738990783691, "prcp_d4": 20.175477981567383, "prcp_d5": 0.0, "prcp_d6": 0.0, "tmax_d0": 24.8, "tmax_d1": 26.8, "tmax_d2": 28.7, "tmax_d3": 31.1, "tmax_d4": 32.2, "tmax_d5": 36.7, "tmax_d6": 36.0, "tmin_d0": 17.8, "tmin_d1": 19.3, "tmin_d2": 20.2, "tmin_d3": 20.1, "tmin_d4": 22.9, "tmin_d5": 26.3, "tmin_d6": 20.1, "day_of_year": 248, "uuid": "572d9796-1863-463b-8e40-2e1ccc0b05a0", "inat_id": 16245183}}, {"type": "Feature", "geometry": {"type": "Point", "coordinates": [-105.3001523763, 40.0121543078]}, "properties": {"species": "Pleurotus ostreatus", "date": "2018-09-19", "location": "Boulder County, US-CO, US", "elevation": 1721.0, "land_cover_label": "Tree cover", "water_mask": false, "exclude_reason": "keep", "ndvi": null, "soil_moisture": 0.1147063631174835, "solar_exposure": 0.6735875010490417, "wind_exposure": 0.2413631826639175, "water_retention": 0.1967204511165619, "slope": 13.420696258544922, "aspect": 12.001569747924805, "num_identification_agreements": 2, "cluster": 2, "tavg": null, "tmin": 15.0, "tmax": 27.0, "prcp_d0": 0.0, "prcp_d1": 0.0, "prcp_d2": 0.0, "prcp_d3": 0.0, "prcp_d4": 0.0, "prcp_d5": 0.0, "prcp_d6": 0.0, "tmax_d0": 29.3, "tmax_d1": 29.3, "tmax_d2": 31.1, "tmax_d3": 31.2, "tmax_d4": 31.6, "tmax_d5": 31.5, "tmax_d6": 32.1, "tmin_d0": 13.6, "tmin_d1": 14.7, "tmin_d2": 16.6, "tmin_d3": 15.5, "tmin_d4": 13.4, "tmin_d5": 14.4, "tmin_d6": 14.9, "day_of_year": 262, "uuid": "97340789-ef8d-4c42-896e-bd5c0bc0932c", "inat_id": 16703761}}, {"type": "Feature", "geometry": {"type": "Point", "coordinates": [-105.17318, 40.1855083333]}, "properties": {"species": "Pleurotus ostreatus", "date": "2018-11-01", "location": "7708 Hygiene Rd, Longmont, CO, US", "elevation": 1546.0, "land_cover_label": "Grassland", "water_mask": false, "exclude_reason": "keep", "ndvi": null, "soil_moisture": 0.2582185921322278, "solar_exposure": 0.8422411680221558, "wind_exposure": 0.3180440664291382, "water_retention": 0.3022136390209198, "slope": 2.857451677322388, "aspect": 96.2430648803711, "num_identification_agreements": 1, "cluster": 2, "tavg": null, "tmin": 2.0, "tmax": 13.0, "prcp_d0": 0.7018226981163025, "prcp_d1": 0.0, "prcp_d2": 0.0, "prcp_d3": 11.499356269836426, "prcp_d4": 0.0, "prcp_d5": 0.0, "prcp_d6": 0.0, "tmax_d0": 11.6, "tmax_d1": 9.3, "tmax_d2": 20.9, "tmax_d3": 24.7, "tmax_d4": 22.1, "tmax_d5": 23.2, "tmax_d6": 19.9, "tmin_d0": -1.6, "tmin_d1": 0.4, "tmin_d2": 2.7, "tmin_d3": 6.9, "tmin_d4": 2.9, "tmin_d5": 5.9, "tmin_d6": 5.6, "day_of_year": 305, "uuid": "ce8a086b-91d0-4ba4-b994-181d0980f49c", "inat_id": 18031653}}, {"type": "Feature", "geometry": {"type": "Point", "coordinates": [-105.0555349141, 39.9400387033]}, "properties": {"species": "Pleurotus ostreatus", "date": "2018-12-29", "location": "1614 Dexter St, Broomfield, CO 80020, USA", "elevation": 1642.0, "land_cover_label": "Tree cover", "water_mask": false, "exclude_reason": "keep", "ndvi": null, "soil_moisture": 0.2964455536871374, "solar_exposure": 0.8333749175071716, "wind_exposure": 0.325765460729599, "water_retention": 0.3052003979682922, "slope": 1.3676942586898804, "aspect": 62.955177307128906, "num_identification_agreements": 1, "cluster": 2, "tavg": null, "tmin": -16.0, "tmax": 4.5, "prcp_d0": 0.0, "prcp_d1": 0.0, "prcp_d2": 0.0, "prcp_d3": 0.0, "prcp_d4": 0.0371881388127803, "prcp_d5": 1.0071563720703125, "prcp_d6": 0.0, "tmax_d0": 3.0, "tmax_d1": -4.7, "tmax_d2": 0.0, "tmax_d3": 3.1, "tmax_d4": 3.7, "tmax_d5": 7.7, "tmax_d6": 7.2, "tmin_d0": -11.3, "tmin_d1": -8.8, "tmin_d2": -5.9, "tmin_d3": -5.0, "tmin_d4": -3.9, "tmin_d5": -2.7, "tmin_d6": -6.0, "day_of_year": 363, "uuid": "95291df5-b37f-4a44-98d5-bb391da9aa80", "inat_id": 19472010}}, {"type": "Feature", "geometry": {"type": "Point", "coordinates": [-105.16773421, 40.63652015]}, "properties": {"species": "Pleurotus ostreatus", "date": "2019-04-18", "location": "Larimer County, US-CO, US", "elevation": 1570.0, "land_cover_label": "Grassland", "water_mask": false, "exclude_reason": "keep", "ndvi": null, "soil_moisture": 0.3007044752327504, "solar_exposure": 0.8089174032211304, "wind_exposure": 0.4377593398094177, "water_retention": 0.130170926451683, "slope": 17.750959396362305, "aspect": 265.1366882324219, "num_identification_agreements": 1, "cluster": 1, "tavg": null, "tmin": null, "tmax": null, "prcp_d0": 0.0, "prcp_d1": 0.0, "prcp_d2": 0.0, "prcp_d3": 0.0, "prcp_d4": 4.333436012268066, "prcp_d5": 0.0, "prcp_d6": 0.0, "tmax_d0": 16.7, "tmax_d1": 17.8, "tmax_d2": 18.6, "tmax_d3": 19.2, "tmax_d4": 15.6, "tmax_d5": 6.6, "tmax_d6": 3.5, "tmin_d0": 2.4, "tmin_d1": 5.2, "tmin_d2": 4.7, "tmin_d3": 2.3, "tmin_d4": -5.6, "tmin_d5": -2.4, "tmin_d6": -7.6, "day_of_year": 108, "uuid": "5f8d8f21-f7f3-4808-945c-401bdc2e700d", "inat_id": 22764480}}, {"type": "Feature", "geometry": {"type": "Point", "coordinates": [-105.0855438039, 39.7038478727]}, "properties": {"species": "Pleurotus ostreatus", "date": "2019-04-26", "location": "777 S Yarrow St, Lakewood, CO 80226, USA", "elevation": 1690.0, "land_cover_label": "Tree cover", "water_mask": false, "exclude_reason": "keep", "ndvi": null, "soil_moisture": 0.2908026125564489, "solar_exposure": 0.8231434226036072, "wind_exposure": 0.3337022960186004, "water_retention": 0.2804226577281952, "slope": 1.9746628999710083, "aspect": 321.9202880859375, "num_identification_agreements": 1, "cluster": 2, "tavg": null, "tmin": 7.6, "tmax": 23.7, "prcp_d0": 0.0, "prcp_d1": 0.5761435627937317, "prcp_d2": 0.3138357102870941, "prcp_d3": 0.7008560299873352, "prcp_d4": 0.674516499042511, "prcp_d5": 1.3212052583694458, "prcp_d6": 0.0, "tmax_d0": 24.1, "tmax_d1": 18.9, "tmax_d2": 19.1, "tmax_d3": 17.4, "tmax_d4": 10.6, "tmax_d5": 20.1, "tmax_d6": 24.7, "tmin_d0": 4.4, "tmin_d1": 6.1, "tmin_d2": 6.6, "tmin_d3": 2.6, "tmin_d4": 4.9, "tmin_d5": 8.0, "tmin_d6": 5.8, "day_of_year": 116, "uuid": "9773e1c9-fa37-4581-a2cf-8dc9f0cad7bf", "inat_id": 23204348}}, {"type": "Feature", "geometry": {"type": "Point", "coordinates": [-105.0671708872, 39.885501446]}, "properties": {"species": "Pleurotus ostreatus", "date": "2019-04-27", "location": "10386\u201310388 Westminster Blvd, Westminster, CO, US", "elevation": 1619.0, "land_cover_label": "Cropland", "water_mask": false, "exclude_reason": "keep", "ndvi": null, "soil_moisture": 0.2811161811399405, "solar_exposure": 0.8590733408927917, "wind_exposure": 0.3122298419475555, "water_retention": 0.3119844198226928, "slope": 2.472496747970581, "aspect": 138.9575958251953, "num_identification_agreements": 1, "cluster": 2, "tavg": null, "tmin": 5.3, "tmax": 20.1, "prcp_d0": 3.250718355178833, "prcp_d1": 0.0, "prcp_d2": 0.7941778898239136, "prcp_d3": 0.4448809921741485, "prcp_d4": 0.8267473578453064, "prcp_d5": 0.8961706757545471, "prcp_d6": 1.717817306518555, "tmax_d0": 20.7, "tmax_d1": 23.4, "tmax_d2": 20.1, "tmax_d3": 20.0, "tmax_d4": 17.9, "tmax_d5": 10.8, "tmax_d6": 19.6, "tmin_d0": 6.3, "tmin_d1": 4.2, "tmin_d2": 6.3, "tmin_d3": 5.2, "tmin_d4": 4.9, "tmin_d5": 5.4, "tmin_d6": 8.3, "day_of_year": 117, "uuid": "1ddff34e-9a92-43ce-9f86-6a897f7cae9b", "inat_id": 23760092}}, {"type": "Feature", "geometry": {"type": "Point", "coordinates": [-105.0860914775, 39.497813154]}, "properties": {"species": "Pleurotus ostreatus", "date": "2019-04-27", "location": "8185 Westside St, Littleton, CO, US", "elevation": 1674.0, "land_cover_label": "Grassland", "water_mask": false, "exclude_reason": "keep", "ndvi": null, "soil_moisture": 0.2826493073479802, "solar_exposure": 0.830236554145813, "wind_exposure": 0.3066727519035339, "water_retention": 0.3310031592845917, "slope": 0.9329047203063964, "aspect": 0.0, "num_identification_agreements": 1, "cluster": 2, "tavg": null, "tmin": 5.6, "tmax": 20.6, "prcp_d0": 1.4427566528320312, "prcp_d1": 0.0, "prcp_d2": 0.7467973232269287, "prcp_d3": 0.3523778617382049, "prcp_d4": 1.0656968355178833, "prcp_d5": 0.8933774828910828, "prcp_d6": 1.7365549802780151, "tmax_d0": 20.5, "tmax_d1": 24.9, "tmax_d2": 19.3, "tmax_d3": 19.3, "tmax_d4": 17.5, "tmax_d5": 10.8, "tmax_d6": 20.8, "tmin_d0": 5.3, "tmin_d1": 6.3, "tmin_d2": 6.0, "tmin_d3": 5.4, "tmin_d4": 2.0, "tmin_d5": 5.3, "tmin_d6": 6.6, "day_of_year": 117, "uuid": "c1e156eb-cd30-41f4-8c17-6300e961cd96", "inat_id": 23401491}}, {"type": "Feature", "geometry": {"type": "Point", "coordinates": [-105.1439371705, 40.5528367061]}, "properties": {"species": "Pleurotus ostreatus", "date": "2019-04-28", "location": "Co Rd 42C, Fort Collins, CO 80526, USA", "elevation": 1593.0, "land_cover_label": "Grassland", "water_mask": false, "exclude_reason": "keep", "ndvi": null, "soil_moisture": 0.2574985800112452, "solar_exposure": 0.7798342704772949, "wind_exposure": 0.2780363261699676, "water_retention": 0.2391602396965026, "slope": 10.79871654510498, "aspect": 68.28761291503906, "num_identification_agreements": 1, "cluster": 2, "tavg": null, "tmin": 3.9, "tmax": 22.2, "prcp_d0": 2.371772766113281, "prcp_d1": 4.7435455322265625, "prcp_d2": 0.0, "prcp_d3": 2.2605230808258057, "prcp_d4": 1.523447036743164, "prcp_d5": 0.4297565519809723, "prcp_d6": 1.9171861410140991, "tmax_d0": 23.1, "tmax_d1": 18.3, "tmax_d2": 22.3, "tmax_d3": 19.6, "tmax_d4": 20.9, "tmax_d5": 18.0, "tmax_d6": 10.3, "tmin_d0": 5.1, "tmin_d1": 5.0, "tmin_d2": 4.1, "tmin_d3": 6.8, "tmin_d4": 4.5, "tmin_d5": 4.4, "tmin_d6": 4.7, "day_of_year": 118, "uuid": "450f9332-8427-4408-886f-656658e6f7ce", "inat_id": 23723653}}, {"type": "Feature", "geometry": {"type": "Point", "coordinates": [-104.9542195393, 39.7490897781]}, "properties": {"species": "Pleurotus ostreatus", "date": "2019-04-28", "location": "City Park, Denver, CO, USA", "elevation": 1611.0, "land_cover_label": "Tree cover", "water_mask": false, "exclude_reason": "keep", "ndvi": null, "soil_moisture": 0.243640221191011, "solar_exposure": 0.8500182032585144, "wind_exposure": 0.3200400471687317, "water_retention": 0.3251533508300781, "slope": 1.0174397230148315, "aspect": 203.523178100586, "num_identification_agreements": 1, "cluster": 2, "tavg": null, "tmin": 10.4, "tmax": 23.1, "prcp_d0": 0.0, "prcp_d1": 2.979762077331543, "prcp_d2": 0.0, "prcp_d3": 0.6310331225395203, "prcp_d4": 0.2533666789531708, "prcp_d5": 0.6063122153282166, "prcp_d6": 0.6371942162513733, "tmax_d0": 24.6, "tmax_d1": 22.2, "tmax_d2": 23.9, "tmax_d3": 20.8, "tmax_d4": 20.2, "tmax_d5": 18.7, "tmax_d6": 10.7, "tmin_d0": 9.7, "tmin_d1": 6.5, "tmin_d2": 5.2, "tmin_d3": 6.7, "tmin_d4": 4.7, "tmin_d5": 4.5, "tmin_d6": 5.3, "day_of_year": 118, "uuid": "0ba0762d-607c-4ed2-a201-fa3f4e9585d0", "inat_id": 27247438}}, {"type": "Feature", "geometry": {"type": "Point", "coordinates": [-105.1300067825, 40.544237493]}, "properties": {"species": "Pleurotus ostreatus", "date": "2019-05-08", "location": "Spring Canyon Community Park, Fort Collins, CO, US", "elevation": 1562.0, "land_cover_label": "Grassland", "water_mask": false, "exclude_reason": "keep", "ndvi": null, "soil_moisture": 0.3725266265911161, "solar_exposure": 0.8299952745437622, "wind_exposure": 0.2988451421260834, "water_retention": 0.4376605451107025, "slope": 1.53419828414917, "aspect": 52.55630493164063, "num_identification_agreements": 1, "cluster": 2, "tavg": null, "tmin": 2.2, "tmax": 8.9, "prcp_d0": 0.0, "prcp_d1": 0.0, "prcp_d2": 0.0, "prcp_d3": 0.0, "prcp_d4": 0.0, "prcp_d5": 0.0, "prcp_d6": 0.0, "tmax_d0": 9.7, "tmax_d1": 18.0, "tmax_d2": 19.9, "tmax_d3": 21.3, "tmax_d4": 18.9, "tmax_d5": 17.3, "tmax_d6": 13.9, "tmin_d0": 5.3, "tmin_d1": 6.5, "tmin_d2": 7.3, "tmin_d3": 5.8, "tmin_d4": 2.5, "tmin_d5": -0.2, "tmin_d6": 1.2, "day_of_year": 128, "uuid": "965a1fe0-1022-4a56-9bf2-77cd17f1379d", "inat_id": 24809219}}, {"type": "Feature", "geometry": {"type": "Point", "coordinates": [-105.0869305, 39.49478833]}, "properties": {"species": "Pleurotus ostreatus", "date": "2020-05-04", "location": "Chatfield State Park, Littleton, CO, US", "elevation": 1674.0, "land_cover_label": "Tree cover", "water_mask": false, "exclude_reason": "keep", "ndvi": null, "soil_moisture": 0.3189716800632037, "solar_exposure": 0.833374559879303, "wind_exposure": 0.3099653720855713, "water_retention": 0.5766158699989319, "slope": 1.3676942586898804, "aspect": 297.0448303222656, "num_identification_agreements": 1, "cluster": 2, "tavg": null, "tmin": 6.1, "tmax": 21.7, "prcp_d0": 0.0, "prcp_d1": 0.0, "prcp_d2": 0.0, "prcp_d3": 0.0, "prcp_d4": 2.394259691238404, "prcp_d5": 0.0, "prcp_d6": 0.0, "tmax_d0": 20.9, "tmax_d1": 22.6, "tmax_d2": 26.3, "tmax_d3": 28.5, "tmax_d4": 28.0, "tmax_d5": 20.7, "tmax_d6": 22.5, "tmin_d0": 9.5, "tmin_d1": 6.7, "tmin_d2": 10.2, "tmin_d3": 8.6, "tmin_d4": 5.2, "tmin_d5": 2.5, "tmin_d6": 7.4, "day_of_year": 125, "uuid": "e61bb9c0-c179-4e5c-b05f-82e20328da00", "inat_id": 44940282}}, {"type": "Feature", "geometry": {"type": "Point", "coordinates": [-105.2673513082, 40.683466652]}, "properties": {"species": "Pleurotus ostreatus", "date": "2020-05-07", "location": "Bellvue", "elevation": 1784.0, "land_cover_label": "Grassland", "water_mask": false, "exclude_reason": "keep", "ndvi": null, "soil_moisture": 0.2949295957208629, "solar_exposure": 0.5995593070983887, "wind_exposure": 0.3249585330486297, "water_retention": 0.375925600528717, "slope": 21.8737850189209, "aspect": 319.2119140625, "num_identification_agreements": 1, "cluster": 1, "tavg": null, "tmin": null, "tmax": null, "prcp_d0": 0.0, "prcp_d1": 0.0, "prcp_d2": 0.0, "prcp_d3": 0.0, "prcp_d4": 9.929530143737791, "prcp_d5": 0.0, "prcp_d6": 0.0, "tmax_d0": 17.0, "tmax_d1": 16.7, "tmax_d2": 18.2, "tmax_d3": 14.8, "tmax_d4": 18.1, "tmax_d5": 19.0, "tmax_d6": 24.1, "tmin_d0": 5.8, "tmin_d1": 1.2, "tmin_d2": 1.7, "tmin_d3": 6.5, "tmin_d4": 4.8, "tmin_d5": 9.1, "tmin_d6": 6.9, "day_of_year": 128, "uuid": "8ea42d3f-b540-4668-967a-71f2d45a5f6c", "inat_id": 49675414}}, {"type": "Feature", "geometry": {"type": "Point", "coordinates": [-103.13182783, 44.0607195]}, "properties": {"species": "Pleurotus ostreatus", "date": "2020-05-17", "location": "Saturn Dr, Rapid City, SD, US", "elevation": 960.0, "land_cover_label": "Grassland", "water_mask": false, "exclude_reason": "keep", "ndvi": null, "soil_moisture": null, "solar_exposure": null, "wind_exposure": null, "water_retention": null, "slope": null, "aspect": null, "num_identification_agreements": 1, "cluster": 2, "tavg": null, "tmin": 0.6, "tmax": 18.3, "prcp_d0": 0.0, "prcp_d1": 0.0, "prcp_d2": 0.0, "prcp_d3": 10.818958282470703, "prcp_d4": 10.818958282470703, "prcp_d5": 0.0, "prcp_d6": 0.0, "tmax_d0": 17.7, "tmax_d1": 13.7, "tmax_d2": 14.8, "tmax_d3": 16.6, "tmax_d4": 17.1, "tmax_d5": 10.3, "tmax_d6": 7.3, "tmin_d0": 2.4, "tmin_d1": 7.3, "tmin_d2": 7.8, "tmin_d3": 6.0, "tmin_d4": 3.5, "tmin_d5": 1.8, "tmin_d6": 2.2, "day_of_year": 138, "uuid": "93c7ec3a-0b6e-4499-a27c-b45dc163d4a8", "inat_id": 46337151}}, {"type": "Feature", "geometry": {"type": "Point", "coordinates": [-104.9987633333, 39.6070333333]}, "properties": {"species": "Pleurotus ostreatus", "date": "2020-07-06", "location": "Littleton, CO, USA", "elevation": 1669.0, "land_cover_label": "Grassland", "water_mask": false, "exclude_reason": "keep", "ndvi": null, "soil_moisture": 0.1368036898335943, "solar_exposure": 0.8550469875335693, "wind_exposure": 0.3173602521419525, "water_retention": 0.2470542192459106, "slope": 3.236895799636841, "aspect": 118.6776123046875, "num_identification_agreements": 2, "cluster": 2, "tavg": null, "tmin": 15.0, "tmax": 34.4, "prcp_d0": 0.0, "prcp_d1": 0.0, "prcp_d2": 0.0, "prcp_d3": 3.912855386734009, "prcp_d4": 0.0, "prcp_d5": 0.0, "prcp_d6": 0.0, "tmax_d0": 34.4, "tmax_d1": 32.5, "tmax_d2": 31.7, "tmax_d3": 32.2, "tmax_d4": 33.7, "tmax_d5": 29.3, "tmax_d6": 31.6, "tmin_d0": 15.5, "tmin_d1": 13.8, "tmin_d2": 17.4, "tmin_d3": 15.9, "tmin_d4": 16.5, "tmin_d5": 11.7, "tmin_d6": 16.6, "day_of_year": 188, "uuid": "5ce9b3eb-4676-44cd-8a3a-7c016467c067", "inat_id": 57387185}}, {"type": "Feature", "geometry": {"type": "Point", "coordinates": [-105.9737860693, 35.6790032264]}, "properties": {"species": "Pleurotus ostreatus", "date": "2020-08-03", "location": "Paseo de la Conquistadora, Santa Fe, NM, US", "elevation": 2069.0, "land_cover_label": "Bare / sparse vegetation", "water_mask": false, "exclude_reason": "keep", "ndvi": null, "soil_moisture": null, "solar_exposure": null, "wind_exposure": null, "water_retention": null, "slope": null, "aspect": null, "num_identification_agreements": 1, "cluster": 2, "tavg": null, "tmin": 12.2, "tmax": 31.1, "prcp_d0": 0.0, "prcp_d1": 2.3472564220428467, "prcp_d2": 2.3472564220428467, "prcp_d3": 0.0, "prcp_d4": 0.0, "prcp_d5": 0.0, "prcp_d6": 4.23661994934082, "tmax_d0": 27.6, "tmax_d1": 28.0, "tmax_d2": 28.2, "tmax_d3": 30.2, "tmax_d4": 30.3, "tmax_d5": 28.1, "tmax_d6": 24.3, "tmin_d0": 15.4, "tmin_d1": 17.1, "tmin_d2": 14.8, "tmin_d3": 13.6, "tmin_d4": 15.1, "tmin_d5": 16.8, "tmin_d6": 14.2, "day_of_year": 216, "uuid": "8f136ef4-c3f9-4e2e-9e71-1aebbb0fc041", "inat_id": 55332472}}, {"type": "Feature", "geometry": {"type": "Point", "coordinates": [-105.0900721667, 40.5893966667]}, "properties": {"species": "Pleurotus ostreatus", "date": "2021-05-26", "location": "Laporte Ave, Fort Collins, CO, US", "elevation": 1533.0, "land_cover_label": "Tree cover", "water_mask": false, "exclude_reason": "keep", "ndvi": null, "soil_moisture": 0.3258156427219094, "solar_exposure": 0.8434614539146423, "wind_exposure": 0.3225216567516327, "water_retention": 0.3824721574783325, "slope": 0.8696818947792053, "aspect": 110.95101165771484, "num_identification_agreements": 1, "cluster": 2, "tavg": null, "tmin": 9.4, "tmax": 25.0, "prcp_d0": 0.0, "prcp_d1": 0.0, "prcp_d2": 0.0, "prcp_d3": 4.386529922485352, "prcp_d4": 2.193264961242676, "prcp_d5": 2.193264961242676, "prcp_d6": 0.0, "tmax_d0": 22.5, "tmax_d1": 22.3, "tmax_d2": 21.4, "tmax_d3": 24.1, "tmax_d4": 22.1, "tmax_d5": 25.2, "tmax_d6": 24.0, "tmin_d0": 8.0, "tmin_d1": 5.4, "tmin_d2": 4.8, "tmin_d3": 11.3, "tmin_d4": 9.0, "tmin_d5": 9.5, "tmin_d6": 7.7, "day_of_year": 146, "uuid": "c79e388b-b673-4eeb-b8ea-c99e56d37d18", "inat_id": 80430452}}, {"type": "Feature", "geometry": {"type": "Point", "coordinates": [-105.11159267, 40.56784806]}, "properties": {"species": "Pleurotus ostreatus", "date": "2021-06-01", "location": "Avery Park, Fort Collins, CO 80521, USA", "elevation": 1548.0, "land_cover_label": "Tree cover", "water_mask": false, "exclude_reason": "keep", "ndvi": null, "soil_moisture": 0.374298216446742, "solar_exposure": 0.8335092067718506, "wind_exposure": 0.3281308114528656, "water_retention": 0.3247901201248169, "slope": 1.0229346752166748, "aspect": 307.4436950683594, "num_identification_agreements": 1, "cluster": 3, "tavg": null, "tmin": 6.7, "tmax": 22.8, "prcp_d0": 0.0, "prcp_d1": 9.030421257019045, "prcp_d2": 13.54563331604004, "prcp_d3": 0.0, "prcp_d4": 0.0, "prcp_d5": 0.0, "prcp_d6": 0.0, "tmax_d0": 20.0, "tmax_d1": 15.8, "tmax_d2": 17.7, "tmax_d3": 23.4, "tmax_d4": 24.5, "tmax_d5": 20.4, "tmax_d6": 22.2, "tmin_d0": 5.5, "tmin_d1": 6.0, "tmin_d2": 10.6, "tmin_d3": 9.2, "tmin_d4": 6.4, "tmin_d5": 7.0, "tmin_d6": 9.2, "day_of_year": 152, "uuid": "fd63c49d-4f3b-443b-9b5f-6204883b818b", "inat_id": 81215906}}, {"type": "Feature", "geometry": {"type": "Point", "coordinates": [-105.295, 40.0130556]}, "properties": {"species": "Pleurotus ostreatus", "date": "2021-06-14", "location": "101 Arapahoe Ave, Boulder, CO 80302, USA", "elevation": 1655.0, "land_cover_label": "Tree cover", "water_mask": false, "exclude_reason": "keep", "ndvi": null, "soil_moisture": 0.2034865401946956, "solar_exposure": 0.8088975548744202, "wind_exposure": 0.2342679053544998, "water_retention": 0.2471399456262588, "slope": 3.2327916622161865, "aspect": 30.13050842285156, "num_identification_agreements": 1, "cluster": 2, "tavg": null, "tmin": 17.0, "tmax": 35.0, "prcp_d0": 9.839325904846191, "prcp_d1": 0.0, "prcp_d2": 0.0, "prcp_d3": 0.0, "prcp_d4": 0.0, "prcp_d5": 0.0, "prcp_d6": 0.0, "tmax_d0": 32.6, "tmax_d1": 29.4, "tmax_d2": 28.2, "tmax_d3": 28.3, "tmax_d4": 31.5, "tmax_d5": 29.8, "tmax_d6": 30.7, "tmin_d0": 14.8, "tmin_d1": 13.7, "tmin_d2": 10.9, "tmin_d3": 10.9, "tmin_d4": 13.5, "tmin_d5": 12.4, "tmin_d6": 12.2, "day_of_year": 165, "uuid": "9adefa3f-f360-410e-9574-24afe0f976e7", "inat_id": 83062867}}, {"type": "Feature", "geometry": {"type": "Point", "coordinates": [-104.8349533333, 39.684375]}, "properties": {"species": "Pleurotus ostreatus", "date": "2021-10-09", "location": "Jewell Wetlands Park, Aurora, CO, US", "elevation": 1700.0, "land_cover_label": "Tree cover", "water_mask": false, "exclude_reason": "keep", "ndvi": null, "soil_moisture": 0.1346375398628637, "solar_exposure": 0.8435700535774231, "wind_exposure": 0.3167227506637573, "water_retention": 0.4050787985324859, "slope": 0.3109926879405975, "aspect": 180.0, "num_identification_agreements": 1, "cluster": 2, "tavg": null, "tmin": 9.1, "tmax": 22.8, "prcp_d0": 0.0, "prcp_d1": 0.0, "prcp_d2": 0.0, "prcp_d3": 0.0, "prcp_d4": 0.0, "prcp_d5": 0.0, "prcp_d6": 0.0, "tmax_d0": 22.5, "tmax_d1": 26.1, "tmax_d2": 24.4, "tmax_d3": 26.8, "tmax_d4": 27.5, "tmax_d5": 25.5, "tmax_d6": 23.7, "tmin_d0": 12.1, "tmin_d1": 9.0, "tmin_d2": 9.0, "tmin_d3": 12.0, "tmin_d4": 9.7, "tmin_d5": 8.4, "tmin_d6": 7.5, "day_of_year": 282, "uuid": "99916968-46a0-4ed7-9719-39714f16e55b", "inat_id": 115960499}}, {"type": "Feature", "geometry": {"type": "Point", "coordinates": [-107.7860977873, 39.5343349826]}, "properties": {"species": "Pleurotus ostreatus", "date": "2021-10-15", "location": "Rifle, CO 81650, USA", "elevation": 1627.0, "land_cover_label": "Grassland", "water_mask": false, "exclude_reason": "keep", "ndvi": null, "soil_moisture": null, "solar_exposure": null, "wind_exposure": null, "water_retention": null, "slope": null, "aspect": null, "num_identification_agreements": 1, "cluster": 2, "tavg": null, "tmin": -2.2, "tmax": 9.4, "prcp_d0": 0.0, "prcp_d1": 0.0, "prcp_d2": 0.0, "prcp_d3": 12.254582405090332, "prcp_d4": 0.0, "prcp_d5": 0.0, "prcp_d6": 0.0, "tmax_d0": 5.2, "tmax_d1": 8.5, "tmax_d2": 9.4, "tmax_d3": 15.5, "tmax_d4": 17.5, "tmax_d5": 15.1, "tmax_d6": 14.5, "tmin_d0": -5.8, "tmin_d1": -0.1, "tmin_d2": 2.1, "tmin_d3": 5.0, "tmin_d4": 3.8, "tmin_d5": 4.7, "tmin_d6": 9.4, "day_of_year": 288, "uuid": "18527d29-254a-4f07-ae93-a701e0b36297", "inat_id": 102562016}}, {"type": "Feature", "geometry": {"type": "Point", "coordinates": [-105.0907138889, 39.4903583333]}, "properties": {"species": "Pleurotus ostreatus", "date": "2022-04-29", "location": "ROXBOROUGH, CO 80125, USA", "elevation": 1678.0, "land_cover_label": "Tree cover", "water_mask": false, "exclude_reason": "keep", "ndvi": null, "soil_moisture": 0.1680257983293544, "solar_exposure": 0.8040575385093689, "wind_exposure": 0.3250558078289032, "water_retention": 0.3651580810546875, "slope": 4.488323211669922, "aspect": 313.7474975585937, "num_identification_agreements": 1, "cluster": 2, "tavg": null, "tmin": 6.7, "tmax": 16.7, "prcp_d0": 0.0, "prcp_d1": 0.0, "prcp_d2": 2.085665702819824, "prcp_d3": 0.0, "prcp_d4": 0.0, "prcp_d5": 0.0, "prcp_d6": 3.869073629379273, "tmax_d0": 22.6, "tmax_d1": 24.8, "tmax_d2": 24.4, "tmax_d3": 22.1, "tmax_d4": 12.7, "tmax_d5": 12.8, "tmax_d6": 22.7, "tmin_d0": 5.7, "tmin_d1": 6.0, "tmin_d2": 7.1, "tmin_d3": 1.2, "tmin_d4": -0.0, "tmin_d5": 0.5, "tmin_d6": 6.1, "day_of_year": 119, "uuid": "285e5079-1183-494d-9255-5815084d581c", "inat_id": 113670183}}, {"type": "Feature", "geometry": {"type": "Point", "coordinates": [-104.4373738002, 38.4970276372]}, "properties": {"species": "Pleurotus ostreatus", "date": "2022-05-07", "location": "Chico Basin Ranch, Pueblo County, CO, USA", "elevation": 1538.0, "land_cover_label": "Grassland", "water_mask": false, "exclude_reason": "keep", "ndvi": null, "soil_moisture": null, "solar_exposure": null, "wind_exposure": null, "water_retention": null, "slope": null, "aspect": null, "num_identification_agreements": 2, "cluster": 3, "tavg": null, "tmin": 7.8, "tmax": 33.3, "prcp_d0": 2.624007225036621, "prcp_d1": 2.624007225036621, "prcp_d2": 15.154184341430664, "prcp_d3": 0.0, "prcp_d4": 0.0, "prcp_d5": 0.0, "prcp_d6": 0.0, "tmax_d0": 33.0, "tmax_d1": 29.4, "tmax_d2": 21.1, "tmax_d3": 18.6, "tmax_d4": 20.6, "tmax_d5": 24.6, "tmax_d6": 23.4, "tmin_d0": 8.9, "tmin_d1": 5.6, "tmin_d2": 5.0, "tmin_d3": 5.4, "tmin_d4": -0.1, "tmin_d5": 7.1, "tmin_d6": 4.3, "day_of_year": 127, "uuid": "eafe4b86-907d-47c1-8669-32ad5ca2d681", "inat_id": 116182016}}, {"type": "Feature", "geometry": {"type": "Point", "coordinates": [-105.1003483404, 40.201794114]}, "properties": {"species": "Pleurotus ostreatus", "date": "2022-05-08", "location": "Mumford Ave, Longmont, CO, US", "elevation": 1547.0, "land_cover_label": "Tree cover", "water_mask": false, "exclude_reason": "keep", "ndvi": null, "soil_moisture": 0.2281035956341947, "solar_exposure": 0.8468239903450012, "wind_exposure": 0.3286498188972473, "water_retention": 0.3583422899246216, "slope": 0.6219670176506042, "aspect": 180.0, "num_identification_agreements": 1, "cluster": 2, "tavg": null, "tmin": 10.8, "tmax": 23.3, "prcp_d0": 0.0, "prcp_d1": 0.0, "prcp_d2": 2.077637195587158, "prcp_d3": 0.0, "prcp_d4": 7.0684099197387695, "prcp_d5": 0.0, "prcp_d6": 14.13681983947754, "tmax_d0": 25.7, "tmax_d1": 27.6, "tmax_d2": 26.0, "tmax_d3": 19.4, "tmax_d4": 11.6, "tmax_d5": 14.5, "tmax_d6": 15.7, "tmin_d0": 7.1, "tmin_d1": 5.9, "tmin_d2": 5.7, "tmin_d3": 2.5, "tmin_d4": 4.1, "tmin_d5": 1.4, "tmin_d6": 2.0, "day_of_year": 128, "uuid": "99b3fb9e-dfc7-43b1-817b-7a8ba5324eed", "inat_id": 116208396}}, {"type": "Feature", "geometry": {"type": "Point", "coordinates": [-105.1076278333, 39.8504833333]}, "properties": {"species": "Pleurotus ostreatus", "date": "2022-05-08", "location": "Independence Way, Arvada, CO, US", "elevation": 1685.0, "land_cover_label": "Grassland", "water_mask": false, "exclude_reason": "keep", "ndvi": null, "soil_moisture": 0.2246939395440391, "solar_exposure": 0.8585234880447388, "wind_exposure": 0.317423403263092, "water_retention": 0.2507144808769226, "slope": 3.066199779510498, "aspect": 127.44369506835938, "num_identification_agreements": 1, "cluster": 2, "tavg": null, "tmin": 10.0, "tmax": 22.0, "prcp_d0": 0.0, "prcp_d1": 0.0, "prcp_d2": 0.0, "prcp_d3": 0.0, "prcp_d4": 0.0, "prcp_d5": 0.0, "prcp_d6": 0.0, "tmax_d0": 25.4, "tmax_d1": 28.5, "tmax_d2": 25.7, "tmax_d3": 19.5, "tmax_d4": 11.2, "tmax_d5": 14.3, "tmax_d6": 14.4, "tmin_d0": 7.7, "tmin_d1": 7.4, "tmin_d2": 6.6, "tmin_d3": 2.5, "tmin_d4": 3.7, "tmin_d5": 0.2, "tmin_d6": 1.6, "day_of_year": 128, "uuid": "c36d9ec9-ab74-4ee0-9784-7fa17d11b6f1", "inat_id": 116186965}}, {"type": "Feature", "geometry": {"type": "Point", "coordinates": [-105.1074, 39.850545]}, "properties": {"species": "Pleurotus ostreatus", "date": "2022-05-08", "location": "W 85th Way, Arvada, CO, US", "elevation": 1685.0, "land_cover_label": "Bare / sparse vegetation", "water_mask": false, "exclude_reason": "keep", "ndvi": null, "soil_moisture": 0.2246057063537402, "solar_exposure": 0.8585234880447388, "wind_exposure": 0.317423403263092, "water_retention": 0.2507144808769226, "slope": 3.066199779510498, "aspect": 127.44369506835938, "num_identification_agreements": 1, "cluster": 2, "tavg": null, "tmin": 10.0, "tmax": 22.0, "prcp_d0": 0.0, "prcp_d1": 0.0, "prcp_d2": 0.0, "prcp_d3": 0.0, "prcp_d4": 0.0, "prcp_d5": 0.0, "prcp_d6": 0.0, "tmax_d0": 25.4, "tmax_d1": 28.5, "tmax_d2": 25.7, "tmax_d3": 19.5, "tmax_d4": 11.2, "tmax_d5": 14.3, "tmax_d6": 14.4, "tmin_d0": 7.7, "tmin_d1": 7.4, "tmin_d2": 6.6, "tmin_d3": 2.5, "tmin_d4": 3.7, "tmin_d5": 0.2, "tmin_d6": 1.6, "day_of_year": 128, "uuid": "db4818c6-d1ce-424f-b726-a0b7caa7bad5", "inat_id": 116186933}}, {"type": "Feature", "geometry": {"type": "Point", "coordinates": [-105.0155722167, 39.840795]}, "properties": {"species": "Pleurotus ostreatus", "date": "2022-05-18", "location": "Valleyview Dr, Denver, CO, US", "elevation": 1642.0, "land_cover_label": "Bare / sparse vegetation", "water_mask": false, "exclude_reason": "keep", "ndvi": null, "soil_moisture": 0.1403295110034513, "solar_exposure": 0.8624929189682007, "wind_exposure": 0.3279036581516266, "water_retention": 0.3435544073581695, "slope": 2.3222901821136475, "aspect": 159.5390167236328, "num_identification_agreements": 1, "cluster": 2, "tavg": null, "tmin": 13.0, "tmax": 28.0, "prcp_d0": 0.0, "prcp_d1": 0.0, "prcp_d2": 2.0079519748687744, "prcp_d3": 3.621626138687134, "prcp_d4": 1.810813069343567, "prcp_d5": 0.0, "prcp_d6": 0.0, "tmax_d0": 26.6, "tmax_d1": 28.4, "tmax_d2": 29.6, "tmax_d3": 24.7, "tmax_d4": 26.4, "tmax_d5": 23.9, "tmax_d6": 29.0, "tmin_d0": 10.4, "tmin_d1": 11.8, "tmin_d2": 8.6, "tmin_d3": 9.1, "tmin_d4": 5.9, "tmin_d5": 4.6, "tmin_d6": 8.1, "day_of_year": 138, "uuid": "91bd40d8-ac4b-492d-9724-23007dd9911d", "inat_id": 117948207}}, {"type": "Feature", "geometry": {"type": "Point", "coordinates": [-104.8990033333, 39.7296133333]}, "properties": {"species": "Pleurotus ostreatus", "date": "2022-05-22", "location": "Crescent Park, Denver, CO, US", "elevation": 1643.0, "land_cover_label": "Grassland", "water_mask": false, "exclude_reason": "keep", "ndvi": null, "soil_moisture": 0.2767577303378609, "solar_exposure": 0.8487090468406677, "wind_exposure": 0.3233858644962311, "water_retention": 0.2524296343326568, "slope": 2.9893298149108887, "aspect": 108.16909790039062, "num_identification_agreements": 1, "cluster": 2, "tavg": null, "tmin": 2.3, "tmax": 11.9, "prcp_d0": 0.0, "prcp_d1": 0.0, "prcp_d2": 3.936927318572998, "prcp_d3": 3.936927318572998, "prcp_d4": 0.0, "prcp_d5": 0.0, "prcp_d6": 3.936927318572998, "tmax_d0": 12.9, "tmax_d1": 4.4, "tmax_d2": 29.2, "tmax_d3": 30.4, "tmax_d4": 26.4, "tmax_d5": 29.4, "tmax_d6": 29.1, "tmin_d0": 0.7, "tmin_d1": -1.9, "tmin_d2": 2.2, "tmin_d3": 13.6, "tmin_d4": 10.3, "tmin_d5": 10.0, "tmin_d6": 8.2, "day_of_year": 142, "uuid": "36e7f069-b34d-47f0-8586-149aa938c872", "inat_id": 118240815}}, {"type": "Feature", "geometry": {"type": "Point", "coordinates": [-105.1578320947, 39.6522939205]}, "properties": {"species": "Pleurotus ostreatus", "date": "2022-07-27", "location": "Bear Creek Lake Park, Lakewood, CO, US", "elevation": 1709.0, "land_cover_label": "Tree cover", "water_mask": false, "exclude_reason": "keep", "ndvi": null, "soil_moisture": 0.2589605892234107, "solar_exposure": 0.8434614539146423, "wind_exposure": 0.296092540025711, "water_retention": 0.5792073011398315, "slope": 0.8696818947792053, "aspect": 110.95101165771484, "num_identification_agreements": 1, "cluster": 2, "tavg": null, "tmin": 16.7, "tmax": 30.6, "prcp_d0": 0.0, "prcp_d1": 0.0, "prcp_d2": 0.0, "prcp_d3": 8.377625465393066, "prcp_d4": 0.0, "prcp_d5": 0.0, "prcp_d6": 8.377625465393066, "tmax_d0": 30.8, "tmax_d1": 30.3, "tmax_d2": 30.6, "tmax_d3": 27.3, "tmax_d4": 35.6, "tmax_d5": 35.7, "tmax_d6": 34.7, "tmin_d0": 13.9, "tmin_d1": 16.8, "tmin_d2": 15.2, "tmin_d3": 15.6, "tmin_d4": 21.8, "tmin_d5": 18.7, "tmin_d6": 16.5, "day_of_year": 208, "uuid": "dcff532f-6f5c-40e9-ba76-3eac4bda785e", "inat_id": 128223153}}, {"type": "Feature", "geometry": {"type": "Point", "coordinates": [-105.5660845591, 40.0314552463]}, "properties": {"species": "Pleurotus ostreatus", "date": "2022-07-27", "location": "Arapaho & Roosevelt National Forests Pawnee National Grassland, Ward, CO, US", "elevation": 3144.0, "land_cover_label": "Tree cover", "water_mask": false, "exclude_reason": "keep", "ndvi": null, "soil_moisture": 0.3276162898633261, "solar_exposure": 0.9095738530158995, "wind_exposure": 0.3501908481121063, "water_retention": 0.1899070888757705, "slope": 7.519217491149902, "aspect": 189.2709197998047, "num_identification_agreements": 1, "cluster": 3, "tavg": null, "tmin": 16.0, "tmax": 30.0, "prcp_d0": 0.0, "prcp_d1": 0.0, "prcp_d2": 0.0, "prcp_d3": 26.840068817138672, "prcp_d4": 0.0, "prcp_d5": 0.0, "prcp_d6": 0.0, "tmax_d0": 21.2, "tmax_d1": 19.3, "tmax_d2": 20.0, "tmax_d3": 18.3, "tmax_d4": 22.4, "tmax_d5": 21.5, "tmax_d6": 21.2, "tmin_d0": 5.1, "tmin_d1": 9.0, "tmin_d2": 6.3, "tmin_d3": 5.8, "tmin_d4": 8.9, "tmin_d5": 8.6, "tmin_d6": 8.0, "day_of_year": 208, "uuid": "aa41c0ee-8b04-4106-b074-368303658993", "inat_id": 128211226}}, {"type": "Feature", "geometry": {"type": "Point", "coordinates": [-105.283433497, 40.4205241533]}, "properties": {"species": "Pleurotus ostreatus", "date": "2022-07-28", "location": "Loveland, CO 80537, USA", "elevation": 1758.0, "land_cover_label": "Tree cover", "water_mask": false, "exclude_reason": "keep", "ndvi": null, "soil_moisture": 0.331898384382714, "solar_exposure": 0.9510720372200012, "wind_exposure": 0.195671871304512, "water_retention": 0.2229471504688263, "slope": 13.635677337646484, "aspect": 190.0970764160156, "num_identification_agreements": 1, "cluster": 2, "tavg": null, "tmin": 14.4, "tmax": 23.3, "prcp_d0": 16.041135787963867, "prcp_d1": 0.0, "prcp_d2": 0.0, "prcp_d3": 0.0, "prcp_d4": 0.0, "prcp_d5": 12.927281379699709, "prcp_d6": 0.0, "tmax_d0": 25.4, "tmax_d1": 29.6, "tmax_d2": 30.6, "tmax_d3": 30.9, "tmax_d4": 25.1, "tmax_d5": 31.6, "tmax_d6": 32.6, "tmin_d0": 14.9, "tmin_d1": 12.8, "tmin_d2": 15.9, "tmin_d3": 13.6, "tmin_d4": 14.8, "tmin_d5": 18.9, "tmin_d6": 16.8, "day_of_year": 209, "uuid": "34f600de-4955-4619-97a8-01b5a785aae2", "inat_id": 128380995}}, {"type": "Feature", "geometry": {"type": "Point", "coordinates": [-107.5125116667, 39.5684133333]}, "properties": {"species": "Pleurotus ostreatus", "date": "2022-10-04", "location": "Castle Valley Blvd, New Castle, CO, US", "elevation": 1715.0, "land_cover_label": "Bare / sparse vegetation", "water_mask": false, "exclude_reason": "keep", "ndvi": null, "soil_moisture": null, "solar_exposure": null, "wind_exposure": null, "water_retention": null, "slope": null, "aspect": null, "num_identification_agreements": 1, "cluster": 3, "tavg": null, "tmin": 5.0, "tmax": 22.2, "prcp_d0": 0.0, "prcp_d1": 22.33880424499512, "prcp_d2": 0.0, "prcp_d3": 11.16940212249756, "prcp_d4": 27.48561668395996, "prcp_d5": 7.867708683013916, "prcp_d6": 2.168097496032715, "tmax_d0": 19.2, "tmax_d1": 19.7, "tmax_d2": 18.7, "tmax_d3": 17.3, "tmax_d4": 23.4, "tmax_d5": 26.2, "tmax_d6": 25.6, "tmin_d0": 3.9, "tmin_d1": 5.0, "tmin_d2": 7.4, "tmin_d3": 4.7, "tmin_d4": 8.4, "tmin_d5": 9.2, "tmin_d6": 8.0, "day_of_year": 277, "uuid": "600772c8-2713-43a8-ab9d-524a02deedc3", "inat_id": 137597003}}, {"type": "Feature", "geometry": {"type": "Point", "coordinates": [-108.3537443964, 39.1129882535]}, "properties": {"species": "Pleurotus ostreatus", "date": "2023-02-12", "location": "Victoria Dr, Palisade, CO, US", "elevation": 1451.0, "land_cover_label": "Tree cover", "water_mask": false, "exclude_reason": "keep", "ndvi": null, "soil_moisture": null, "solar_exposure": null, "wind_exposure": null, "water_retention": null, "slope": null, "aspect": null, "num_identification_agreements": 1, "cluster": 2, "tavg": null, "tmin": -6.0, "tmax": 11.7, "prcp_d0": 0.0, "prcp_d1": 0.0, "prcp_d2": 0.0, "prcp_d3": 0.0, "prcp_d4": 0.0, "prcp_d5": 0.0, "prcp_d6": 0.0, "tmax_d0": 4.8, "tmax_d1": 3.9, "tmax_d2": 0.5, "tmax_d3": 5.1, "tmax_d4": 3.3, "tmax_d5": 1.9, "tmax_d6": 7.2, "tmin_d0": -7.8, "tmin_d1": -9.5, "tmin_d2": -12.8, "tmin_d3": -10.8, "tmin_d4": -8.3, "tmin_d5": -11.5, "tmin_d6": -6.1, "day_of_year": 43, "uuid": "2c37c6b9-0d52-4dbe-87a1-24a45aa228d3", "inat_id": 148650883}}, {"type": "Feature", "geometry": {"type": "Point", "coordinates": [-105.2549666667, 39.6668583333]}, "properties": {"species": "Pleurotus ostreatus", "date": "2023-04-30", "location": "Lair o\u2019 the Bear Trailhead, Indian Hills, CO, US", "elevation": 2002.0, "land_cover_label": "Tree cover", "water_mask": false, "exclude_reason": "keep", "ndvi": null, "soil_moisture": 0.3667605374852022, "solar_exposure": 0.7833771109580994, "wind_exposure": 0.1989741921424865, "water_retention": 0.356379359960556, "slope": 5.109334468841553, "aspect": 13.758333206176758, "num_identification_agreements": 1, "cluster": 3, "tavg": null, "tmin": 7.0, "tmax": 19.0, "prcp_d0": 0.0, "prcp_d1": 0.0, "prcp_d2": 11.822566032409668, "prcp_d3": 11.822566032409668, "prcp_d4": 17.733848571777344, "prcp_d5": 7.053884506225586, "prcp_d6": 2.351294755935669, "tmax_d0": 15.9, "tmax_d1": 18.0, "tmax_d2": 11.7, "tmax_d3": 15.6, "tmax_d4": 6.2, "tmax_d5": 11.2, "tmax_d6": 13.7, "tmin_d0": 1.7, "tmin_d1": 1.1, "tmin_d2": -2.8, "tmin_d3": -3.6, "tmin_d4": 0.9, "tmin_d5": -0.1, "tmin_d6": -3.9, "day_of_year": 120, "uuid": "61c509ed-9a9f-4df5-a21c-1c84c196973c", "inat_id": 158262785}}, {"type": "Feature", "geometry": {"type": "Point", "coordinates": [-105.1336201298, 39.773660365]}, "properties": {"species": "Pleurotus ostreatus", "date": "2023-05-01", "location": "Clear Creek Trail, Wheat Ridge, CO, US", "elevation": 1651.0, "land_cover_label": "Grassland", "water_mask": false, "exclude_reason": "keep", "ndvi": null, "soil_moisture": 0.289212864396731, "solar_exposure": 0.843461275100708, "wind_exposure": 0.3130107522010803, "water_retention": 0.4292086660861969, "slope": 0.8696818947792053, "aspect": 249.04898071289065, "num_identification_agreements": 1, "cluster": 0, "tavg": null, "tmin": 5.0, "tmax": 22.0, "prcp_d0": 0.0, "prcp_d1": 0.0, "prcp_d2": 0.0, "prcp_d3": 16.71843719482422, "prcp_d4": 8.35921859741211, "prcp_d5": 8.35921859741211, "prcp_d6": 7.196041107177734, "tmax_d0": 20.2, "tmax_d1": 18.9, "tmax_d2": 20.2, "tmax_d3": 13.7, "tmax_d4": 18.7, "tmax_d5": 11.0, "tmax_d6": 13.9, "tmin_d0": 2.9, "tmin_d1": 3.5, "tmin_d2": 5.4, "tmin_d3": 1.2, "tmin_d4": 1.6, "tmin_d5": 2.0, "tmin_d6": 1.8, "day_of_year": 121, "uuid": "e7499bdf-34a1-4487-ba94-6caa0eda36f8", "inat_id": 158914313}}, {"type": "Feature", "geometry": {"type": "Point", "coordinates": [-105.0268194444, 39.9459]}, "properties": {"species": "Pleurotus ostreatus", "date": "2023-05-01", "location": "Westminster, CO 80023, USA", "elevation": 1604.0, "land_cover_label": "Bare / sparse vegetation", "water_mask": false, "exclude_reason": "keep", "ndvi": null, "soil_moisture": 0.2492948087904427, "solar_exposure": 0.8467968106269836, "wind_exposure": 0.3231725096702575, "water_retention": 0.6114798784255981, "slope": 0.7427971959114075, "aspect": 146.8578643798828, "num_identification_agreements": 1, "cluster": 2, "tavg": null, "tmin": 2.9, "tmax": 21.7, "prcp_d0": 0.0, "prcp_d1": 0.0, "prcp_d2": 0.0, "prcp_d3": 7.092823028564453, "prcp_d4": 3.5464115142822266, "prcp_d5": 7.092823028564453, "prcp_d6": 3.348605394363404, "tmax_d0": 20.9, "tmax_d1": 20.5, "tmax_d2": 21.8, "tmax_d3": 14.8, "tmax_d4": 19.1, "tmax_d5": 13.0, "tmax_d6": 14.1, "tmin_d0": 4.4, "tmin_d1": 4.9, "tmin_d2": 4.0, "tmin_d3": 0.9, "tmin_d4": 4.1, "tmin_d5": 2.3, "tmin_d6": 4.4, "day_of_year": 121, "uuid": "b6b0e9d9-4bc9-49f8-8127-bb132e9c2057", "inat_id": 158919032}}, {"type": "Feature", "geometry": {"type": "Point", "coordinates": [-105.1172907348, 39.9371158663]}, "properties": {"species": "Pleurotus ostreatus", "date": "2023-05-16", "location": "Colorado, US", "elevation": 1627.0, "land_cover_label": "Cropland", "water_mask": false, "exclude_reason": "keep", "ndvi": null, "soil_moisture": 0.393056208197036, "solar_exposure": 0.8634243011474609, "wind_exposure": 0.3262042999267578, "water_retention": 0.2260978519916534, "slope": 4.412769794464111, "aspect": 124.24240112304688, "num_identification_agreements": 1, "cluster": 0, "tavg": null, "tmin": 8.0, "tmax": 25.0, "prcp_d0": 0.0, "prcp_d1": 0.0, "prcp_d2": 0.0, "prcp_d3": 0.0, "prcp_d4": 29.31822395324707, "prcp_d5": 58.63644790649414, "prcp_d6": 4.347072601318359, "tmax_d0": 23.0, "tmax_d1": 16.3, "tmax_d2": 16.1, "tmax_d3": 15.6, "tmax_d4": 16.0, "tmax_d5": 12.9, "tmax_d6": 22.0, "tmin_d0": 6.9, "tmin_d1": 8.8, "tmin_d2": 9.3, "tmin_d3": 6.6, "tmin_d4": 8.7, "tmin_d5": 8.3, "tmin_d6": 9.0, "day_of_year": 136, "uuid": "7957297b-d2c1-4deb-8e9d-c2e6b3c6be51", "inat_id": 162053232}}, {"type": "Feature", "geometry": {"type": "Point", "coordinates": [-105.21093, 39.7165916667]}, "properties": {"species": "Pleurotus ostreatus", "date": "2023-05-20", "location": "Golden, CO, US", "elevation": 1897.0, "land_cover_label": "Grassland", "water_mask": false, "exclude_reason": "keep", "ndvi": null, "soil_moisture": 0.4169781319499093, "solar_exposure": 0.8290959596633911, "wind_exposure": 0.2895077466964721, "water_retention": 0.2136738300323486, "slope": 5.300937652587891, "aspect": 83.28093719482422, "num_identification_agreements": 1, "cluster": 1, "tavg": null, "tmin": 9.0, "tmax": 19.0, "prcp_d0": 15.299715042114258, "prcp_d1": 0.0, "prcp_d2": 0.0, "prcp_d3": 0.0, "prcp_d4": 0.0, "prcp_d5": 0.0, "prcp_d6": 0.0, "tmax_d0": 16.9, "tmax_d1": 12.9, "tmax_d2": 17.6, "tmax_d3": 21.7, "tmax_d4": 22.0, "tmax_d5": 14.8, "tmax_d6": 13.2, "tmin_d0": 6.2, "tmin_d1": 7.9, "tmin_d2": 5.1, "tmin_d3": 7.3, "tmin_d4": 7.0, "tmin_d5": 7.1, "tmin_d6": 7.5, "day_of_year": 140, "uuid": "35256e7f-6c41-4e1b-8282-27d40ebbe44f", "inat_id": 162771182}}, {"type": "Feature", "geometry": {"type": "Point", "coordinates": [-106.17852, 42.8576966667]}, "properties": {"species": "Pleurotus ostreatus", "date": "2023-05-27", "location": "Edness K. Wilkins State Park, Evansville, WY, US", "elevation": 1545.0, "land_cover_label": "Bare / sparse vegetation", "water_mask": false, "exclude_reason": "keep", "ndvi": null, "soil_moisture": null, "solar_exposure": null, "wind_exposure": null, "water_retention": null, "slope": null, "aspect": null, "num_identification_agreements": 1, "cluster": 3, "tavg": null, "tmin": 7.2, "tmax": 22.2, "prcp_d0": 0.0, "prcp_d1": 11.181747436523438, "prcp_d2": 5.786661148071289, "prcp_d3": 17.359983444213867, "prcp_d4": 0.0, "prcp_d5": 0.0, "prcp_d6": 0.0, "tmax_d0": 22.9, "tmax_d1": 23.4, "tmax_d2": 21.2, "tmax_d3": 22.1, "tmax_d4": 23.7, "tmax_d5": 25.1, "tmax_d6": 22.9, "tmin_d0": 9.0, "tmin_d1": 11.1, "tmin_d2": 10.0, "tmin_d3": 9.6, "tmin_d4": 10.6, "tmin_d5": 8.8, "tmin_d6": 9.0, "day_of_year": 147, "uuid": "f30637cb-7867-4a55-b797-6fdb550807cd", "inat_id": 167306791}}, {"type": "Feature", "geometry": {"type": "Point", "coordinates": [-105.0834055, 40.5976333333]}, "properties": {"species": "Pleurotus ostreatus", "date": "2023-06-06", "location": "Lee Martinez Park, Fort Collins, CO, US", "elevation": 1523.0, "land_cover_label": "Tree cover", "water_mask": false, "exclude_reason": "keep", "ndvi": null, "soil_moisture": 0.3786081419083762, "solar_exposure": 0.8500182032585144, "wind_exposure": 0.3330425322055816, "water_retention": 0.3251533508300781, "slope": 1.0174397230148315, "aspect": 203.523178100586, "num_identification_agreements": 1, "cluster": 3, "tavg": null, "tmin": 10.0, "tmax": 23.9, "prcp_d0": 2.2625110149383545, "prcp_d1": 0.0, "prcp_d2": 0.0, "prcp_d3": 17.117610931396484, "prcp_d4": 0.0, "prcp_d5": 0.0, "prcp_d6": 1.532056212425232, "tmax_d0": 21.3, "tmax_d1": 21.3, "tmax_d2": 17.4, "tmax_d3": 19.8, "tmax_d4": 19.3, "tmax_d5": 19.0, "tmax_d6": 25.0, "tmin_d0": 11.1, "tmin_d1": 11.3, "tmin_d2": 12.0, "tmin_d3": 10.6, "tmin_d4": 11.3, "tmin_d5": 10.9, "tmin_d6": 10.0, "day_of_year": 157, "uuid": "fbee703e-b12e-402b-a46b-e0c8b0f45063", "inat_id": 165939106}}, {"type": "Feature", "geometry": {"type": "Point", "coordinates": [-104.9088622243, 39.3937828129]}, "properties": {"species": "Pleurotus ostreatus", "date": "2023-06-11", "location": "Iron Springs Pl, Castle Rock, CO, US", "elevation": 1913.0, "land_cover_label": "Bare / sparse vegetation", "water_mask": false, "exclude_reason": "keep", "ndvi": null, "soil_moisture": 0.3261115027952069, "solar_exposure": 0.812877893447876, "wind_exposure": 0.3428635001182556, "water_retention": 0.2648692429065704, "slope": 2.4864039421081543, "aspect": 0.0, "num_identification_agreements": 1, "cluster": 3, "tavg": null, "tmin": 8.3, "tmax": 17.8, "prcp_d0": 2.685920000076294, "prcp_d1": 0.0, "prcp_d2": 10.982008934020996, "prcp_d3": 2.745502233505249, "prcp_d4": 8.236506462097168, "prcp_d5": 2.745502233505249, "prcp_d6": 0.0, "tmax_d0": 18.9, "tmax_d1": 20.8, "tmax_d2": 22.7, "tmax_d3": 21.7, "tmax_d4": 21.7, "tmax_d5": 21.4, "tmax_d6": 18.2, "tmin_d0": 6.4, "tmin_d1": 6.7, "tmin_d2": 7.6, "tmin_d3": 7.3, "tmin_d4": 7.3, "tmin_d5": 7.9, "tmin_d6": 7.4, "day_of_year": 162, "uuid": "cf3b3b0d-d908-4052-a005-d5c3f13c49c0", "inat_id": 166881442}}, {"type": "Feature", "geometry": {"type": "Point", "coordinates": [-106.3503883333, 35.8206666667]}, "properties": {"species": "Pleurotus ostreatus", "date": "2023-08-28", "location": "Bandelier National Monument, Los Alamos, NM, US", "elevation": 2246.0, "land_cover_label": "Tree cover", "water_mask": false, "exclude_reason": "keep", "ndvi": null, "soil_moisture": null, "solar_exposure": null, "wind_exposure": null, "water_retention": null, "slope": null, "aspect": null, "num_identification_agreements": 1, "cluster": 2, "tavg": null, "tmin": 16.4, "tmax": 23.7, "prcp_d0": 0.0, "prcp_d1": 0.0, "prcp_d2": 0.0, "prcp_d3": 0.0, "prcp_d4": 0.0, "prcp_d5": 0.0, "prcp_d6": 0.0, "tmax_d0": 22.9, "tmax_d1": 25.3, "tmax_d2": 22.9, "tmax_d3": 25.2, "tmax_d4": 22.7, "tmax_d5": 25.1, "tmax_d6": 26.6, "tmin_d0": 14.7, "tmin_d1": 12.8, "tmin_d2": 13.5, "tmin_d3": 12.8, "tmin_d4": 13.2, "tmin_d5": 16.0, "tmin_d6": 14.8, "day_of_year": 240, "uuid": "52e0109e-b389-4135-8a44-3da6e3290357", "inat_id": 180645881}}, {"type": "Feature", "geometry": {"type": "Point", "coordinates": [-104.9097966667, 39.1251445]}, "properties": {"species": "Pleurotus ostreatus", "date": "2023-09-10", "location": "Oakdale Dr, Palmer Lake, CO, US", "elevation": 2205.0, "land_cover_label": "Bare / sparse vegetation", "water_mask": false, "exclude_reason": "keep", "ndvi": null, "soil_moisture": 0.1123540501403117, "solar_exposure": 0.8335092067718506, "wind_exposure": 0.2824171185493469, "water_retention": 0.3247901201248169, "slope": 1.0229346752166748, "aspect": 307.4436950683594, "num_identification_agreements": 1, "cluster": 2, "tavg": null, "tmin": 10.7, "tmax": 22.4, "prcp_d0": 5.23046875, "prcp_d1": 0.0, "prcp_d2": 0.0, "prcp_d3": 0.0, "prcp_d4": 0.0, "prcp_d5": 0.0, "prcp_d6": 0.0, "tmax_d0": 24.2, "tmax_d1": 26.6, "tmax_d2": 25.5, "tmax_d3": 28.7, "tmax_d4": 25.6, "tmax_d5": 24.6, "tmax_d6": 28.1, "tmin_d0": 10.6, "tmin_d1": 9.5, "tmin_d2": 11.6, "tmin_d3": 9.4, "tmin_d4": 7.5, "tmin_d5": 9.8, "tmin_d6": 11.3, "day_of_year": 253, "uuid": "6e1cc767-e3d1-433f-802f-4034833bcfc4", "inat_id": 182901710}}, {"type": "Feature", "geometry": {"type": "Point", "coordinates": [-104.65445, 38.264275]}, "properties": {"species": "Pleurotus ostreatus", "date": "2023-09-18", "location": "Goodnight Ave, Pueblo, CO, US", "elevation": 1462.0, "land_cover_label": "Tree cover", "water_mask": false, "exclude_reason": "keep", "ndvi": null, "soil_moisture": null, "solar_exposure": null, "wind_exposure": null, "water_retention": null, "slope": null, "aspect": null, "num_identification_agreements": 1, "cluster": 0, "tavg": null, "tmin": 10.6, "tmax": 30.6, "prcp_d0": 0.0, "prcp_d1": 0.0, "prcp_d2": 0.0, "prcp_d3": 0.0, "prcp_d4": 0.0, "prcp_d5": 15.546504020690918, "prcp_d6": 0.0, "tmax_d0": 28.0, "tmax_d1": 26.0, "tmax_d2": 22.5, "tmax_d3": 24.0, "tmax_d4": 23.3, "tmax_d5": 23.3, "tmax_d6": 21.7, "tmin_d0": 11.9, "tmin_d1": 9.6, "tmin_d2": 8.7, "tmin_d3": 14.0, "tmin_d4": 11.5, "tmin_d5": 12.0, "tmin_d6": 11.8, "day_of_year": 261, "uuid": "6dd7d561-6d7b-4d12-b497-7653fa7f335f", "inat_id": 184069947}}, {"type": "Feature", "geometry": {"type": "Point", "coordinates": [-105.0788016078, 40.5975764487]}, "properties": {"species": "Pleurotus ostreatus", "date": "2024-05-04", "location": "Cache la Poudre River, Fort Collins, CO, US", "elevation": 1515.0, "land_cover_label": "Tree cover", "water_mask": false, "exclude_reason": "keep", "ndvi": null, "soil_moisture": 0.3340199814414967, "solar_exposure": 0.8435700535774231, "wind_exposure": 0.3210108280181885, "water_retention": 0.4518153071403503, "slope": 0.3109926879405975, "aspect": 180.0, "num_identification_agreements": 1, "cluster": 2, "tavg": null, "tmin": 1.1, "tmax": 17.2, "prcp_d0": 0.0, "prcp_d1": 0.0, "prcp_d2": 0.0, "prcp_d3": 0.0, "prcp_d4": 0.0, "prcp_d5": 0.0, "prcp_d6": 0.0, "tmax_d0": 16.9, "tmax_d1": 18.2, "tmax_d2": 16.5, "tmax_d3": 19.6, "tmax_d4": 20.3, "tmax_d5": 18.1, "tmax_d6": 16.7, "tmin_d0": 1.9, "tmin_d1": 3.6, "tmin_d2": 2.6, "tmin_d3": 3.8, "tmin_d4": 3.8, "tmin_d5": 0.4, "tmin_d6": 2.5, "day_of_year": 125, "uuid": "d60330b0-70e0-4f89-ba46-dda5b8cf9c9c", "inat_id": 213466223}}, {"type": "Feature", "geometry": {"type": "Point", "coordinates": [-105.1678783333, 40.6356383333]}, "properties": {"species": "Pleurotus ostreatus", "date": "2024-05-10", "location": "Laporte, CO, US", "elevation": 1570.0, "land_cover_label": "Tree cover", "water_mask": false, "exclude_reason": "keep", "ndvi": null, "soil_moisture": 0.2811520717414741, "solar_exposure": 0.7904073596000671, "wind_exposure": 0.4378332793712616, "water_retention": 0.1304043531417846, "slope": 17.693445205688477, "aspect": 270.97491455078125, "num_identification_agreements": 1, "cluster": 1, "tavg": null, "tmin": 6.7, "tmax": 16.1, "prcp_d0": 0.0, "prcp_d1": 0.0, "prcp_d2": 0.0, "prcp_d3": 5.288110256195068, "prcp_d4": 0.0, "prcp_d5": 2.432802438735962, "prcp_d6": 0.0, "tmax_d0": 14.3, "tmax_d1": 12.0, "tmax_d2": 13.5, "tmax_d3": 13.9, "tmax_d4": 21.6, "tmax_d5": 21.0, "tmax_d6": 15.8, "tmin_d0": 3.9, "tmin_d1": 3.2, "tmin_d2": -0.6, "tmin_d3": 3.4, "tmin_d4": 6.8, "tmin_d5": 4.3, "tmin_d6": 0.7, "day_of_year": 131, "uuid": "400525a1-a667-48a6-99ec-2dcf7e6bd5ba", "inat_id": 214924429}}, {"type": "Feature", "geometry": {"type": "Point", "coordinates": [-102.3511853233, 43.2379003162]}, "properties": {"species": "Pleurotus ostreatus", "date": "2024-05-12", "location": "Oglala Lakota County, US-SD, US", "elevation": 969.0, "land_cover_label": "Grassland", "water_mask": false, "exclude_reason": "keep", "ndvi": null, "soil_moisture": null, "solar_exposure": null, "wind_exposure": null, "water_retention": null, "slope": null, "aspect": null, "num_identification_agreements": 1, "cluster": 0, "tavg": null, "tmin": 4.4, "tmax": 25.0, "prcp_d0": 0.0, "prcp_d1": 0.0, "prcp_d2": 0.0, "prcp_d3": 0.0, "prcp_d4": 0.0, "prcp_d5": 0.0, "prcp_d6": 17.235610961914062, "tmax_d0": 21.8, "tmax_d1": 22.1, "tmax_d2": 18.6, "tmax_d3": 16.2, "tmax_d4": 13.8, "tmax_d5": 14.2, "tmax_d6": 19.9, "tmin_d0": 9.1, "tmin_d1": 6.0, "tmin_d2": 6.2, "tmin_d3": 3.9, "tmin_d4": 4.4, "tmin_d5": 5.9, "tmin_d6": 9.5, "day_of_year": 133, "uuid": "d6a26071-e6e7-4316-93b3-98069e165bb7", "inat_id": 215413638}}, {"type": "Feature", "geometry": {"type": "Point", "coordinates": [-105.2385498757, 40.0962334863]}, "properties": {"species": "Pleurotus ostreatus", "date": "2024-06-03", "location": "Colorado, US", "elevation": 1614.0, "land_cover_label": "Grassland", "water_mask": false, "exclude_reason": "keep", "ndvi": null, "soil_moisture": 0.1895067825989221, "solar_exposure": 0.8531250953674316, "wind_exposure": 0.3242961168289184, "water_retention": 0.4398435354232788, "slope": 1.4853447675704956, "aspect": 146.8578643798828, "num_identification_agreements": 1, "cluster": 2, "tavg": null, "tmin": 12.0, "tmax": 30.0, "prcp_d0": 0.0, "prcp_d1": 0.0, "prcp_d2": 0.0, "prcp_d3": 3.181272506713867, "prcp_d4": 0.0, "prcp_d5": 0.0, "prcp_d6": 0.0, "tmax_d0": 29.5, "tmax_d1": 29.7, "tmax_d2": 28.3, "tmax_d3": 23.0, "tmax_d4": 27.8, "tmax_d5": 28.7, "tmax_d6": 25.6, "tmin_d0": 10.2, "tmin_d1": 9.9, "tmin_d2": 7.3, "tmin_d3": 10.4, "tmin_d4": 9.2, "tmin_d5": 9.2, "tmin_d6": 7.8, "day_of_year": 155, "uuid": "8b5f24b0-8363-4e3c-af22-b36bbc6385a9", "inat_id": 220321822}}, {"type": "Feature", "geometry": {"type": "Point", "coordinates": [-105.08887943, 40.19405007]}, "properties": {"species": "Pleurotus ostreatus", "date": "2025-04-23", "location": "Longmont, Colorado, EE. UU.", "elevation": 1534.0, "land_cover_label": "Grassland", "water_mask": false, "exclude_reason": "keep", "ndvi": null, "soil_moisture": 0.2622899414508023, "solar_exposure": 0.818612813949585, "wind_exposure": 0.3254285156726837, "water_retention": 0.243800401687622, "slope": 3.39656400680542, "aspect": 56.72024154663086, "num_identification_agreements": 1, "cluster": 2, "tavg": null, "tmin": 6.5, "tmax": 17.8, "prcp_d0": 0.0, "prcp_d1": 0.0, "prcp_d2": 0.0, "prcp_d3": 0.0, "prcp_d4": 0.0, "prcp_d5": 0.0, "prcp_d6": 6.592251300811768, "tmax_d0": 18.1, "tmax_d1": 19.5, "tmax_d2": 19.3, "tmax_d3": 15.7, "tmax_d4": 8.4, "tmax_d5": 15.6, "tmax_d6": 20.5, "tmin_d0": 4.5, "tmin_d1": 0.6, "tmin_d2": -2.1, "tmin_d3": -3.6, "tmin_d4": -7.0, "tmin_d5": -1.0, "tmin_d6": 2.5, "day_of_year": 113, "uuid": "a33412dd-310e-4f3e-aa58-b1cf60df7324", "inat_id": 272476073}}, {"type": "Feature", "geometry": {"type": "Point", "coordinates": [-105.0824445, 40.5986633333]}, "properties": {"species": "Pleurotus ostreatus", "date": "2025-04-24", "location": "Hickory Trail, Fort Collins, CO, US", "elevation": 1522.0, "land_cover_label": "Tree cover", "water_mask": false, "exclude_reason": "keep", "ndvi": null, "soil_moisture": 0.2613374407527176, "solar_exposure": 0.8335094451904297, "wind_exposure": 0.3282208442687988, "water_retention": 0.4977357387542724, "slope": 1.0229346752166748, "aspect": 52.55630493164063, "num_identification_agreements": 1, "cluster": 2, "tavg": null, "tmin": 6.1, "tmax": 17.2, "prcp_d0": 1.617324948310852, "prcp_d1": 1.617324948310852, "prcp_d2": 0.0, "prcp_d3": 0.0, "prcp_d4": 0.0, "prcp_d5": 0.0, "prcp_d6": 0.0, "tmax_d0": 16.5, "tmax_d1": 18.9, "tmax_d2": 19.9, "tmax_d3": 20.5, "tmax_d4": 16.9, "tmax_d5": 9.8, "tmax_d6": 11.6, "tmin_d0": 7.9, "tmin_d1": 4.7, "tmin_d2": 3.5, "tmin_d3": -0.6, "tmin_d4": -2.9, "tmin_d5": -3.2, "tmin_d6": -0.8, "day_of_year": 114, "uuid": "41904b69-6896-4f28-a203-d27e156bc58f", "inat_id": 272854402}}, {"type": "Feature", "geometry": {"type": "Point", "coordinates": [-105.01670889, 40.55480938]}, "properties": {"species": "Pleurotus ostreatus", "date": "2025-04-25", "location": "Fort Collins, CO 80525, USA", "elevation": 1490.0, "land_cover_label": "Grassland", "water_mask": false, "exclude_reason": "keep", "ndvi": null, "soil_moisture": 0.3477889686330269, "solar_exposure": 0.8369662761688232, "wind_exposure": 0.323138952255249, "water_retention": 0.4050787985324859, "slope": 0.3109926879405975, "aspect": 0.0, "num_identification_agreements": 1, "cluster": 2, "tavg": null, "tmin": 3.9, "tmax": 7.2, "prcp_d0": 1.168423056602478, "prcp_d1": 1.168423056602478, "prcp_d2": 1.168423056602478, "prcp_d3": 0.0, "prcp_d4": 0.0, "prcp_d5": 0.0, "prcp_d6": 0.0, "tmax_d0": 11.8, "tmax_d1": 16.5, "tmax_d2": 18.9, "tmax_d3": 20.1, "tmax_d4": 20.3, "tmax_d5": 16.3, "tmax_d6": 9.8, "tmin_d0": 4.9, "tmin_d1": 8.1, "tmin_d2": 4.9, "tmin_d3": 3.5, "tmin_d4": -1.0, "tmin_d5": -2.3, "tmin_d6": -3.1, "day_of_year": 115, "uuid": "6a5eea40-19c8-4d4c-a810-c048691eb653", "inat_id": 273281240}}, {"type": "Feature", "geometry": {"type": "Point", "coordinates": [-105.2761535645, 39.9328613281]}, "properties": {"species": "Pleurotus ostreatus", "date": "2025-04-28", "location": "Eldorado Springs", "elevation": 1766.0, "land_cover_label": "Tree cover", "water_mask": false, "exclude_reason": "keep", "ndvi": null, "soil_moisture": 0.3246965174560581, "solar_exposure": 0.7526638507843018, "wind_exposure": 0.2101878672838211, "water_retention": 0.4378148913383484, "slope": 7.422101020812988, "aspect": 0.0, "num_identification_agreements": 1, "cluster": 2, "tavg": null, "tmin": 6.0, "tmax": 18.0, "prcp_d0": 2.1468913555145264, "prcp_d1": 0.0, "prcp_d2": 0.0, "prcp_d3": 0.0, "prcp_d4": 0.0, "prcp_d5": 0.0, "prcp_d6": 0.0, "tmax_d0": 22.5, "tmax_d1": 25.0, "tmax_d2": 19.3, "tmax_d3": 12.4, "tmax_d4": 15.6, "tmax_d5": 16.3, "tmax_d6": 19.3, "tmin_d0": 4.0, "tmin_d1": 3.8, "tmin_d2": 3.0, "tmin_d3": 3.6, "tmin_d4": 5.1, "tmin_d5": 2.9, "tmin_d6": 1.7, "day_of_year": 118, "uuid": "353ae591-e13b-4d88-ae2f-a1671e33daf2", "inat_id": 275801074}}, {"type": "Feature", "geometry": {"type": "Point", "coordinates": [-104.9004174584, 39.8832579739]}, "properties": {"species": "Pleurotus ostreatus", "date": "2025-05-17", "location": "Colorado, US", "elevation": 1544.0, "land_cover_label": "Bare / sparse vegetation", "water_mask": false, "exclude_reason": "keep", "ndvi": null, "soil_moisture": 0.2036482539176937, "solar_exposure": 0.839309573173523, "wind_exposure": 0.3415865898132324, "water_retention": 0.3747908473014831, "slope": 2.435271978378296, "aspect": 270.0, "num_identification_agreements": 1, "cluster": 2, "tavg": null, "tmin": 10.4, "tmax": 20.0, "prcp_d0": 0.1829864382743835, "prcp_d1": 0.0356214642524719, "prcp_d2": 0.0, "prcp_d3": 5.916751861572266, "prcp_d4": 0.0, "prcp_d5": 0.0, "prcp_d6": 0.0, "tmax_d0": 23.0, "tmax_d1": 21.3, "tmax_d2": 19.6, "tmax_d3": 30.6, "tmax_d4": 30.8, "tmax_d5": 30.6, "tmax_d6": 28.2, "tmin_d0": 8.3, "tmin_d1": 6.9, "tmin_d2": 7.6, "tmin_d3": 11.4, "tmin_d4": 12.2, "tmin_d5": 9.0, "tmin_d6": 7.7, "day_of_year": 137, "uuid": "f10014e7-2ade-4a3c-92aa-2983143acf8f", "inat_id": 302394498}}, {"type": "Feature", "geometry": {"type": "Point", "coordinates": [-103.9015081997, 38.7408712]}, "properties": {"species": "Pleurotus ostreatus", "date": "2025-05-18", "location": "Rush, CO 80833, USA", "elevation": 1627.0, "land_cover_label": "Grassland", "water_mask": false, "exclude_reason": "keep", "ndvi": null, "soil_moisture": null, "solar_exposure": null, "wind_exposure": null, "water_retention": null, "slope": null, "aspect": null, "num_identification_agreements": 1, "cluster": 2, "tavg": null, "tmin": 6.2, "tmax": 21.1, "prcp_d0": 0.0, "prcp_d1": 0.0, "prcp_d2": 0.0018728931900113, "prcp_d3": 0.0, "prcp_d4": 0.0, "prcp_d5": 0.0, "prcp_d6": 0.0, "tmax_d0": 23.4, "tmax_d1": 22.4, "tmax_d2": 22.0, "tmax_d3": 22.0, "tmax_d4": 28.5, "tmax_d5": 29.5, "tmax_d6": 28.5, "tmin_d0": 8.8, "tmin_d1": 8.7, "tmin_d2": 8.7, "tmin_d3": 7.3, "tmin_d4": 13.9, "tmin_d5": 11.8, "tmin_d6": 11.2, "day_of_year": 138, "uuid": "c2c3ef9a-8ed7-4781-8784-65d5d0b1a8dd", "inat_id": 282519742}}, {"type": "Feature", "geometry": {"type": "Point", "coordinates": [-105.2650375366, 40.0016403198]}, "properties": {"species": "Pleurotus ostreatus", "date": "2025-05-29", "location": "Boulder", "elevation": 1652.0, "land_cover_label": "Grassland", "water_mask": false, "exclude_reason": "keep", "ndvi": null, "soil_moisture": 0.4339877679865814, "solar_exposure": 0.8434614539146423, "wind_exposure": 0.3114871382713318, "water_retention": 0.466941624879837, "slope": 0.8696818947792053, "aspect": 110.95101165771484, "num_identification_agreements": 1, "cluster": 3, "tavg": null, "tmin": 9.0, "tmax": 19.0, "prcp_d0": 0.0, "prcp_d1": 8.559389114379883, "prcp_d2": 0.0, "prcp_d3": 8.559389114379883, "prcp_d4": 7.30173397064209, "prcp_d5": 0.0, "prcp_d6": 0.0, "tmax_d0": 16.8, "tmax_d1": 17.0, "tmax_d2": 19.2, "tmax_d3": 15.7, "tmax_d4": 15.6, "tmax_d5": 22.2, "tmax_d6": 23.1, "tmin_d0": 8.8, "tmin_d1": 7.2, "tmin_d2": 4.1, "tmin_d3": 6.3, "tmin_d4": 9.2, "tmin_d5": 10.1, "tmin_d6": 6.7, "day_of_year": 149, "uuid": "dc78a2a3-4b22-4dc7-8621-032387ce0a89", "inat_id": 285215374}}, {"type": "Feature", "geometry": {"type": "Point", "coordinates": [-105.8838356393, 36.1961883637]}, "properties": {"species": "Pleurotus ostreatus", "date": "2025-10-14", "location": "NM-75, Chimayo, NM, US", "elevation": 1842.0, "land_cover_label": "Tree cover", "water_mask": false, "exclude_reason": "keep", "ndvi": null, "soil_moisture": null, "solar_exposure": null, "wind_exposure": null, "water_retention": null, "slope": null, "aspect": null, "num_identification_agreements": 1, "cluster": 2, "tavg": null, "tmin": 10.3, "tmax": 17.9, "prcp_d0": 0.0, "prcp_d1": 0.0, "prcp_d2": 0.0, "prcp_d3": 0.0, "prcp_d4": 0.6228737235069275, "prcp_d5": 2.912472009658813, "prcp_d6": 3.52242112159729, "tmax_d0": 21.0, "tmax_d1": 21.3, "tmax_d2": 20.1, "tmax_d3": 20.8, "tmax_d4": 24.6, "tmax_d5": 24.0, "tmax_d6": 22.5, "tmin_d0": 10.6, "tmin_d1": 9.1, "tmin_d2": 11.4, "tmin_d3": 13.3, "tmin_d4": 9.0, "tmin_d5": 8.4, "tmin_d6": 9.6, "day_of_year": 287, "uuid": "523f5a84-c70b-4cbe-a028-79e7b75323d0", "inat_id": 320934854}}, {"type": "Feature", "geometry": {"type": "Point", "coordinates": [-105.0031825528, 39.4811136865]}, "properties": {"species": "Pleurotus ostreatus", "date": "2025-10-28", "location": "Louviers, CO, USA", "elevation": 1716.0, "land_cover_label": "Grassland", "water_mask": false, "exclude_reason": "keep", "ndvi": null, "soil_moisture": 0.1793195555089131, "solar_exposure": 0.8318983316421509, "wind_exposure": 0.3065357208251953, "water_retention": 0.339134156703949, "slope": 3.3043196201324463, "aspect": 79.1623306274414, "num_identification_agreements": 1, "cluster": 2, "tavg": null, "tmin": -2.0, "tmax": 7.0, "prcp_d0": 0.0, "prcp_d1": 0.0, "prcp_d2": 3.695982217788696, "prcp_d3": 0.0, "prcp_d4": 2.459758996963501, "prcp_d5": 0.0, "prcp_d6": 0.0, "tmax_d0": 9.9, "tmax_d1": 18.7, "tmax_d2": 23.5, "tmax_d3": 21.4, "tmax_d4": 18.0, "tmax_d5": 21.5, "tmax_d6": 22.4, "tmin_d0": -0.6, "tmin_d1": 4.5, "tmin_d2": 4.7, "tmin_d3": 2.2, "tmin_d4": 6.4, "tmin_d5": 3.2, "tmin_d6": 0.8, "day_of_year": 301, "uuid": "48047cd7-74e8-485a-b976-319c9056aad3", "inat_id": 324382179}}, {"type": "Feature", "geometry": {"type": "Point", "coordinates": [-105.1212283333, 39.7741683333]}, "properties": {"species": "Pleurotus ostreatus", "date": "2026-03-24", "location": "Fruitdale, Wheat Ridge, CO 80033, USA", "elevation": 1651.0, "land_cover_label": "Tree cover", "water_mask": false, "exclude_reason": "keep", "ndvi": null, "soil_moisture": 0.180448626284397, "solar_exposure": 0.8198052048683167, "wind_exposure": 0.3234179317951202, "water_retention": 0.2784168422222137, "slope": 2.03423810005188, "aspect": 23.52318000793457, "num_identification_agreements": 1, "cluster": 2, "tavg": null, "tmin": 8.2, "tmax": 26.1, "prcp_d0": 0.8468867540359497, "prcp_d1": 1.6937735080718994, "prcp_d2": 0.0, "prcp_d3": 0.0, "prcp_d4": 0.0, "prcp_d5": 0.0, "prcp_d6": 0.0, "tmax_d0": 27.9, "tmax_d1": 23.4, "tmax_d2": 28.9, "tmax_d3": 30.5, "tmax_d4": 29.3, "tmax_d5": 28.2, "tmax_d6": 25.7, "tmin_d0": 8.3, "tmin_d1": 4.9, "tmin_d2": 5.8, "tmin_d3": 5.9, "tmin_d4": 8.5, "tmin_d5": 8.1, "tmin_d6": 5.8, "day_of_year": 83, "uuid": "0891c3ce-b64f-4b04-8b47-4108da0805f5", "inat_id": 344907549}}, {"type": "Feature", "geometry": {"type": "Point", "coordinates": [-104.9761509747, 39.6014447401]}, "properties": {"species": "Pleurotus ostreatus", "date": "2026-04-28", "location": "High Line Canal Trail, Centennial, CO, US", "elevation": 1684.0, "land_cover_label": "Tree cover", "water_mask": false, "exclude_reason": "keep", "ndvi": null, "soil_moisture": 0.2490519718895353, "solar_exposure": 0.8335092067718506, "wind_exposure": 0.3269029259681701, "water_retention": 0.4559960961341858, "slope": 1.0229346752166748, "aspect": 307.4436950683594, "num_identification_agreements": 1, "cluster": 2, "tavg": null, "tmin": 1.7, "tmax": 11.7, "prcp_d0": 7.391867637634277, "prcp_d1": 0.0, "prcp_d2": 0.0, "prcp_d3": 3.154537916183472, "prcp_d4": 0.0, "prcp_d5": 0.0, "prcp_d6": 0.0, "tmax_d0": 13.2, "tmax_d1": 11.6, "tmax_d2": 13.0, "tmax_d3": 22.0, "tmax_d4": 22.3, "tmax_d5": 24.8, "tmax_d6": 27.1, "tmin_d0": 4.3, "tmin_d1": 2.8, "tmin_d2": 3.3, "tmin_d3": 1.9, "tmin_d4": 2.3, "tmin_d5": 5.8, "tmin_d6": 10.2, "day_of_year": 118, "uuid": "311a6692-ec76-413f-93cd-250acfc36384", "inat_id": 356210906}}, {"type": "Feature", "geometry": {"type": "Point", "coordinates": [-105.2857284546, 40.05443573]}, "properties": {"species": "Pleurotus ostreatus", "date": "2026-05-03", "location": "Boulder", "elevation": 1693.0, "land_cover_label": "Tree cover", "water_mask": false, "exclude_reason": "keep", "ndvi": null, "soil_moisture": 0.3025609412928358, "solar_exposure": 0.8525502681732178, "wind_exposure": 0.2987153828144073, "water_retention": 0.3886341154575348, "slope": 2.379994630813598, "aspect": 121.49219512939452, "num_identification_agreements": 1, "cluster": 2, "tavg": null, "tmin": 5.5, "tmax": 24.0, "prcp_d0": 0.0598294325172901, "prcp_d1": 0.1752682775259018, "prcp_d2": 3.0895628929138184, "prcp_d3": 0.0, "prcp_d4": 0.0, "prcp_d5": 0.0, "prcp_d6": 0.0, "tmax_d0": 23.1, "tmax_d1": 21.0, "tmax_d2": 15.7, "tmax_d3": 10.1, "tmax_d4": 13.8, "tmax_d5": 12.8, "tmax_d6": 10.7, "tmin_d0": 5.7, "tmin_d1": -0.6, "tmin_d2": -1.8, "tmin_d3": 3.9, "tmin_d4": -0.6, "tmin_d5": 2.7, "tmin_d6": 2.7, "day_of_year": 123, "uuid": "dac9ea6d-68a3-470a-af44-d19a3c924fb1", "inat_id": 358047682}}, {"type": "Feature", "geometry": {"type": "Point", "coordinates": [-105.017975, 40.556555]}, "properties": {"species": "Pleurotus ostreatus", "date": "2026-05-31", "location": "Fort Collins, CO 80525, USA", "elevation": 1491.0, "land_cover_label": "Grassland", "water_mask": false, "exclude_reason": "keep", "ndvi": null, "soil_moisture": 0.2513884594007318, "solar_exposure": 0.8434614539146423, "wind_exposure": 0.3225651681423187, "water_retention": 0.3357356488704681, "slope": 0.8696818947792053, "aspect": 110.95101165771484, "num_identification_agreements": 1, "cluster": 2, "tavg": null, "tmin": 9.4, "tmax": 26.7, "prcp_d0": 0.0276917777955532, "prcp_d1": 0.1181026175618171, "prcp_d2": 0.5689517259597778, "prcp_d3": 2.21189022064209, "prcp_d4": 1.2315669059753418, "prcp_d5": 0.2486335933208465, "prcp_d6": 0.0, "tmax_d0": 25.3, "tmax_d1": 25.5, "tmax_d2": 26.7, "tmax_d3": 23.8, "tmax_d4": 21.1, "tmax_d5": 28.4, "tmax_d6": 28.7, "tmin_d0": 9.6, "tmin_d1": 11.3, "tmin_d2": 13.2, "tmin_d3": 12.0, "tmin_d4": 12.8, "tmin_d5": 11.8, "tmin_d6": 9.7, "day_of_year": 151, "uuid": "2ed0d2d2-9e50-4c69-8c89-c49ca4610a66", "inat_id": 367199730}}]}