{"type": "FeatureCollection", "features": [{"type": "Feature", "geometry": {"type": "Point", "coordinates": [-104.7077171988, 39.0996113163]}, "properties": {"species": "Protostropharia semiglobata", "date": "2025-08-31", "location": "Walker Rd, Colorado Springs, CO, US", "elevation": 2264.0, "num_identification_agreements": 1, "tavg": null, "tmin": 7.0, "tmax": 22.0, "day_of_year": 243, "uuid": "ef1087ed-2ac3-4e93-a207-bc4d29eb106b", "inat_id": 310605667}}, {"type": "Feature", "geometry": {"type": "Point", "coordinates": [-103.41585624, 43.65502729]}, "properties": {"species": "Protostropharia semiglobata", "date": "2025-07-18", "location": "Custer County, US-SD, US", "elevation": 1286.0, "num_identification_agreements": 1, "tavg": null, "tmin": 11.7, "tmax": 24.4, "day_of_year": 199, "uuid": "795d588a-d38b-487f-a118-1352d67dec2f", "inat_id": 299034504}}, {"type": "Feature", "geometry": {"type": "Point", "coordinates": [-105.777405, 35.799795]}, "properties": {"species": "Protostropharia semiglobata", "date": "2024-08-07", "location": "Santa Fe National Forest, Tererro, NM, US", "elevation": 3527.0, "num_identification_agreements": 1, "tavg": null, "tmin": 17.2, "tmax": 34.4, "day_of_year": 220, "uuid": "ae42c353-c3b8-41a0-b06e-c82b57d0a901", "inat_id": 234413078}}, {"type": "Feature", "geometry": {"type": "Point", "coordinates": [-105.2788056806, 38.9546676606]}, "properties": {"species": "Protostropharia semiglobata", "date": "2023-09-02", "location": "Florissant, CO 80816, USA", "elevation": 2587.0, "num_identification_agreements": 1, "tavg": null, "tmin": 7.3, "tmax": 20.6, "day_of_year": 245, "uuid": "28bf5993-3965-4ed1-be45-a3b78d17d521", "inat_id": 181471563}}, {"type": "Feature", "geometry": {"type": "Point", "coordinates": [-105.7792511111, 39.9756368778]}, "properties": {"species": "Protostropharia semiglobata", "date": "2022-08-20", "location": "CR-83, Granby, CO, US", "elevation": 2626.0, "num_identification_agreements": 2, "tavg": null, "tmin": 6.6, "tmax": 22.2, "day_of_year": 232, "uuid": "f6479231-b74c-444e-86b8-6b70cc8b01a6", "inat_id": 131656807}}, {"type": "Feature", "geometry": {"type": "Point", "coordinates": [-106.3884966667, 41.4188716667]}, "properties": {"species": "Protostropharia semiglobata", "date": "2022-08-16", "location": "Medicine Bow-Routt National Forest & Thunder Basin National Grassland, Rock River, WY, US", "elevation": 2919.0, "num_identification_agreements": 1, "tavg": null, "tmin": 8.0, "tmax": 25.0, "day_of_year": 228, "uuid": "8b7988a7-51f9-4fd3-be32-9ef06d1105d1", "inat_id": 131423545}}, {"type": "Feature", "geometry": {"type": "Point", "coordinates": [-106.7906749084, 35.8318903255]}, "properties": {"species": "Protostropharia semiglobata", "date": "2021-07-28", "location": "Santa Fe National Forest, Jemez Springs, NM, US", "elevation": 2268.0, "num_identification_agreements": 1, "tavg": null, "tmin": 16.5, "tmax": 27.6, "day_of_year": 209, "uuid": "d860d599-5eb5-4e1a-b495-8fac2f4f937e", "inat_id": 89004668}}, {"type": "Feature", "geometry": {"type": "Point", "coordinates": [-105.28587, 36.3754259722]}, "properties": {"species": "Protostropharia semiglobata", "date": "2021-07-01", "location": "Angel Fire, NM, USA", "elevation": 2590.0, "num_identification_agreements": 1, "tavg": null, "tmin": 10.0, "tmax": 20.5, "day_of_year": 182, "uuid": "1ebfcf64-27ec-4e83-a474-5c3a765abfbc", "inat_id": 85628403}}, {"type": "Feature", "geometry": {"type": "Point", "coordinates": [-105.283, 36.3936]}, "properties": {"species": "Protostropharia semiglobata", "date": "1992-08-13", "location": "Angel Fire, New Mexico, USA", "elevation": 2562.0, "num_identification_agreements": 1, "tavg": null, "tmin": null, "tmax": null, "day_of_year": 226, "uuid": "3f5161cf-87e5-472a-b86e-043c9fcc5b0c", "inat_id": 9572773}}]}