{"type": "FeatureCollection", "features": [{"type": "Feature", "geometry": {"type": "Point", "coordinates": [-121.96, 45.32835]}, "properties": {"species": "Psilocybe strictipes", "date": "1980-10-25", "location": "Welches, Oregon, USA", "elevation": 421.0, "land_cover_label": "Tree cover", "water_mask": false, "exclude_reason": "keep", "ndvi": null, "soil_moisture": null, "solar_exposure": null, "wind_exposure": null, "water_retention": null, "slope": null, "aspect": null, "num_identification_agreements": 3, "cluster": null, "tavg": null, "tmin": null, "tmax": null, "prcp_d0": null, "prcp_d1": null, "prcp_d2": null, "prcp_d3": null, "prcp_d4": null, "prcp_d5": null, "prcp_d6": null, "tmax_d0": 11.6, "tmax_d1": 15.1, "tmax_d2": 15.1, "tmax_d3": 14.0, "tmax_d4": 14.3, "tmax_d5": 19.3, "tmax_d6": 21.0, "tmin_d0": 6.4, "tmin_d1": 6.6, "tmin_d2": 5.4, "tmin_d3": 1.3, "tmin_d4": 4.1, "tmin_d5": 8.1, "tmin_d6": 5.8, "day_of_year": 299, "uuid": "bdffaf28-61ff-4d60-9756-5035d4642b15", "inat_id": 4744354}}]}