{"type": "FeatureCollection", "features": [{"type": "Feature", "geometry": {"type": "Point", "coordinates": [-121.9580161472, 45.6336540569]}, "properties": {"species": "Psilocybe baeocystis", "date": "2025-11-02", "location": "NE Chinook Ct, Cascade Locks, OR, US", "elevation": 13.0, "land_cover_label": "Tree cover", "water_mask": false, "exclude_reason": "keep", "ndvi": null, "soil_moisture": null, "solar_exposure": null, "wind_exposure": null, "water_retention": null, "slope": null, "aspect": null, "num_identification_agreements": 6, "cluster": 0, "tavg": null, "tmin": 5.0, "tmax": 14.0, "prcp_d0": 0.0, "prcp_d1": 0.0, "prcp_d2": 0.0, "prcp_d3": 0.0, "prcp_d4": 11.474632263183594, "prcp_d5": 0.0, "prcp_d6": 4.270124912261963, "tmax_d0": 14.7, "tmax_d1": 15.2, "tmax_d2": 11.4, "tmax_d3": 14.0, "tmax_d4": 14.8, "tmax_d5": 11.4, "tmax_d6": 12.1, "tmin_d0": 6.7, "tmin_d1": 8.4, "tmin_d2": 3.8, "tmin_d3": 4.2, "tmin_d4": 8.4, "tmin_d5": 4.1, "tmin_d6": 6.4, "day_of_year": 306, "uuid": "e079e414-47dd-449c-b67c-ed74688a2256", "inat_id": 325088340}}, {"type": "Feature", "geometry": {"type": "Point", "coordinates": [-121.8676227964, 45.720435821]}, "properties": {"species": "Psilocybe baeocystis", "date": "2025-11-08", "location": "Oregon, US", "elevation": 287.0, "land_cover_label": "Tree cover", "water_mask": false, "exclude_reason": "keep", "ndvi": null, "soil_moisture": null, "solar_exposure": null, "wind_exposure": null, "water_retention": null, "slope": null, "aspect": null, "num_identification_agreements": 4, "cluster": 1, "tavg": null, "tmin": 2.0, "tmax": 11.0, "prcp_d0": 0.0, "prcp_d1": 0.0, "prcp_d2": 0.0, "prcp_d3": 134.5105438232422, "prcp_d4": 33.62763595581055, "prcp_d5": 33.62763595581055, "prcp_d6": 0.0, "tmax_d0": 10.6, "tmax_d1": 10.3, "tmax_d2": 12.8, "tmax_d3": 11.6, "tmax_d4": 7.6, "tmax_d5": 11.1, "tmax_d6": 12.6, "tmin_d0": 1.5, "tmin_d1": 6.0, "tmin_d2": 7.3, "tmin_d3": 6.1, "tmin_d4": 3.8, "tmin_d5": 5.3, "tmin_d6": 4.6, "day_of_year": 312, "uuid": "bebdceab-22eb-4dd4-a03f-1736356f5a73", "inat_id": 329794084}}]}