{"type": "FeatureCollection", "features": [{"type": "Feature", "geometry": {"type": "Point", "coordinates": [-100.022305756, 37.7734105117]}, "properties": {"species": "Psilocybe", "date": "2024-08-19", "location": "Fourth Ave, Dodge City, KS, US", "elevation": 804.0, "land_cover_label": "Tree cover", "water_mask": false, "exclude_reason": "keep", "ndvi": null, "soil_moisture": null, "solar_exposure": null, "wind_exposure": null, "water_retention": null, "slope": null, "aspect": null, "num_identification_agreements": 1, "cluster": 0, "tavg": null, "tmin": null, "tmax": null, "prcp_d0": 0.0, "prcp_d1": 0.0, "prcp_d2": 0.0, "prcp_d3": 0.0, "prcp_d4": 0.0, "prcp_d5": 0.0, "prcp_d6": 24.03701400756836, "tmax_d0": 34.6, "tmax_d1": 38.7, "tmax_d2": 32.3, "tmax_d3": 32.6, "tmax_d4": 32.2, "tmax_d5": 33.2, "tmax_d6": 32.3, "tmin_d0": 20.2, "tmin_d1": 21.6, "tmin_d2": 18.9, "tmin_d3": 18.7, "tmin_d4": 19.7, "tmin_d5": 24.4, "tmin_d6": 21.5, "day_of_year": 232, "uuid": "3d1b683d-21d7-451d-8e28-2bf99e50ce67", "inat_id": 236766516}}]}