{"type": "FeatureCollection", "features": [{"type": "Feature", "geometry": {"type": "Point", "coordinates": [-121.457725986, 45.4028075571]}, "properties": {"species": "Psilocybe sp. 'PNW02'", "date": "2022-10-07", "location": "Wasco County, OR, USA", "elevation": 1241.0, "land_cover_label": "Tree cover", "water_mask": false, "exclude_reason": "keep", "ndvi": null, "soil_moisture": null, "solar_exposure": null, "wind_exposure": null, "water_retention": null, "slope": null, "aspect": null, "num_identification_agreements": 4, "cluster": 2, "tavg": null, "tmin": 13.0, "tmax": 27.1, "prcp_d0": 0.0, "prcp_d1": 0.0, "prcp_d2": 0.0, "prcp_d3": 0.0, "prcp_d4": 0.0, "prcp_d5": 0.0, "prcp_d6": 0.0, "tmax_d0": 20.8, "tmax_d1": 20.7, "tmax_d2": 21.3, "tmax_d3": 21.6, "tmax_d4": 21.1, "tmax_d5": 19.2, "tmax_d6": 17.0, "tmin_d0": 12.2, "tmin_d1": 12.2, "tmin_d2": 11.3, "tmin_d3": 12.7, "tmin_d4": 10.5, "tmin_d5": 10.2, "tmin_d6": 8.7, "day_of_year": 280, "uuid": "89c495ae-b236-4d7f-94f7-1a79525dbec8", "inat_id": 322578119}}, {"type": "Feature", "geometry": {"type": "Point", "coordinates": [-121.4321897069, 45.2352400224]}, "properties": {"species": "Psilocybe sp. 'PNW02'", "date": "2024-09-18", "location": "Oregon, US", "elevation": 839.0, "land_cover_label": "Tree cover", "water_mask": false, "exclude_reason": "keep", "ndvi": null, "soil_moisture": null, "solar_exposure": null, "wind_exposure": null, "water_retention": null, "slope": null, "aspect": null, "num_identification_agreements": 2, "cluster": 2, "tavg": null, "tmin": 13.3, "tmax": 25.0, "prcp_d0": 0.0, "prcp_d1": 0.0, "prcp_d2": 7.151252269744873, "prcp_d3": 0.9703937768936156, "prcp_d4": 0.0303967408835887, "prcp_d5": 0.1474744528532028, "prcp_d6": 1.1542375087738037, "tmax_d0": 21.7, "tmax_d1": 22.5, "tmax_d2": 22.0, "tmax_d3": 17.8, "tmax_d4": 21.3, "tmax_d5": 22.1, "tmax_d6": 18.1, "tmin_d0": 9.4, "tmin_d1": 8.9, "tmin_d2": 9.1, "tmin_d3": 6.7, "tmin_d4": 10.0, "tmin_d5": 6.5, "tmin_d6": 10.7, "day_of_year": 262, "uuid": "2c02bb4d-02ef-443a-bf53-649be535c525", "inat_id": 243015177}}, {"type": "Feature", "geometry": {"type": "Point", "coordinates": [-121.4996525825, 45.2457999296]}, "properties": {"species": "Psilocybe sp. 'PNW02'", "date": "2024-09-18", "location": "Oregon, US", "elevation": 1284.0, "land_cover_label": "Tree cover", "water_mask": false, "exclude_reason": "keep", "ndvi": null, "soil_moisture": null, "solar_exposure": null, "wind_exposure": null, "water_retention": null, "slope": null, "aspect": null, "num_identification_agreements": 1, "cluster": 2, "tavg": null, "tmin": 13.5, "tmax": 21.8, "prcp_d0": 0.0, "prcp_d1": 0.0, "prcp_d2": 9.555327415466309, "prcp_d3": 1.296003341674805, "prcp_d4": 0.0479840673506259, "prcp_d5": 0.220940351486206, "prcp_d6": 1.61865234375, "tmax_d0": 17.9, "tmax_d1": 18.5, "tmax_d2": 18.5, "tmax_d3": 14.0, "tmax_d4": 17.8, "tmax_d5": 19.0, "tmax_d6": 13.9, "tmin_d0": 6.8, "tmin_d1": 5.8, "tmin_d2": 6.7, "tmin_d3": 3.6, "tmin_d4": 7.4, "tmin_d5": 4.5, "tmin_d6": 7.5, "day_of_year": 262, "uuid": "68b0eed5-26af-47c0-936f-61be4fc2ed70", "inat_id": 243015175}}, {"type": "Feature", "geometry": {"type": "Point", "coordinates": [-121.4398727692, 45.3419046169]}, "properties": {"species": "Psilocybe sp. 'PNW02'", "date": "2024-09-18", "location": "Oregon, US", "elevation": 1176.0, "land_cover_label": "Tree cover", "water_mask": false, "exclude_reason": "keep", "ndvi": null, "soil_moisture": null, "solar_exposure": null, "wind_exposure": null, "water_retention": null, "slope": null, "aspect": null, "num_identification_agreements": 1, "cluster": 2, "tavg": null, "tmin": 13.3, "tmax": 25.0, "prcp_d0": 0.0, "prcp_d1": 0.0, "prcp_d2": 13.92164707183838, "prcp_d3": 0.6859227418899536, "prcp_d4": 0.0248035471886396, "prcp_d5": 0.1153817921876907, "prcp_d6": 0.8922994136810303, "tmax_d0": 19.9, "tmax_d1": 20.0, "tmax_d2": 19.8, "tmax_d3": 16.2, "tmax_d4": 19.1, "tmax_d5": 19.7, "tmax_d6": 16.4, "tmin_d0": 7.9, "tmin_d1": 5.5, "tmin_d2": 8.8, "tmin_d3": 4.6, "tmin_d4": 8.6, "tmin_d5": 5.4, "tmin_d6": 8.5, "day_of_year": 262, "uuid": "6b099f62-04f2-46d9-8dca-dceb0f97edef", "inat_id": 243015174}}, {"type": "Feature", "geometry": {"type": "Point", "coordinates": [-121.5258278826, 45.2178091197]}, "properties": {"species": "Psilocybe sp. 'PNW02'", "date": "2024-09-21", "location": "Oregon, US", "elevation": 1237.0, "land_cover_label": "Tree cover", "water_mask": false, "exclude_reason": "keep", "ndvi": null, "soil_moisture": null, "solar_exposure": null, "wind_exposure": null, "water_retention": null, "slope": null, "aspect": null, "num_identification_agreements": 1, "cluster": 2, "tavg": null, "tmin": null, "tmax": null, "prcp_d0": 0.0, "prcp_d1": 0.0, "prcp_d2": 0.0, "prcp_d3": 0.0, "prcp_d4": 0.0, "prcp_d5": 6.462118625640869, "prcp_d6": 1.446309208869934, "tmax_d0": 17.1, "tmax_d1": 14.8, "tmax_d2": 18.1, "tmax_d3": 16.4, "tmax_d4": 18.2, "tmax_d5": 19.5, "tmax_d6": 13.5, "tmin_d0": 5.5, "tmin_d1": 4.5, "tmin_d2": 8.5, "tmin_d3": 7.6, "tmin_d4": 7.2, "tmin_d5": 6.2, "tmin_d6": 4.4, "day_of_year": 265, "uuid": "c860dba2-a88d-485f-aae1-12625995131c", "inat_id": 243513377}}, {"type": "Feature", "geometry": {"type": "Point", "coordinates": [-121.5045805288, 45.4331098629]}, "properties": {"species": "Psilocybe sp. 'PNW02'", "date": "2024-09-28", "location": "Oregon, US", "elevation": 1171.0, "land_cover_label": "Tree cover", "water_mask": false, "exclude_reason": "keep", "ndvi": null, "soil_moisture": null, "solar_exposure": null, "wind_exposure": null, "water_retention": null, "slope": null, "aspect": null, "num_identification_agreements": 1, "cluster": 2, "tavg": null, "tmin": 11.8, "tmax": 26.0, "prcp_d0": 0.0, "prcp_d1": 0.0, "prcp_d2": 0.0, "prcp_d3": 0.0, "prcp_d4": 0.0, "prcp_d5": 0.0, "prcp_d6": 0.0, "tmax_d0": 21.8, "tmax_d1": 19.1, "tmax_d2": 18.0, "tmax_d3": 26.6, "tmax_d4": 27.0, "tmax_d5": 23.7, "tmax_d6": 22.3, "tmin_d0": 11.4, "tmin_d1": 8.2, "tmin_d2": 3.3, "tmin_d3": 11.5, "tmin_d4": 15.3, "tmin_d5": 10.8, "tmin_d6": 10.0, "day_of_year": 272, "uuid": "7ea16c6e-e270-43ac-8c6e-79fc788850fe", "inat_id": 245441530}}, {"type": "Feature", "geometry": {"type": "Point", "coordinates": [-121.5356901495, 45.4493095444]}, "properties": {"species": "Psilocybe sp. 'PNW02'", "date": "2024-09-28", "location": "Oregon, US", "elevation": 1214.0, "land_cover_label": "Tree cover", "water_mask": false, "exclude_reason": "keep", "ndvi": null, "soil_moisture": null, "solar_exposure": null, "wind_exposure": null, "water_retention": null, "slope": null, "aspect": null, "num_identification_agreements": 2, "cluster": 2, "tavg": null, "tmin": 11.8, "tmax": 26.0, "prcp_d0": 0.0, "prcp_d1": 0.0, "prcp_d2": 0.0, "prcp_d3": 0.0, "prcp_d4": 0.0, "prcp_d5": 0.0, "prcp_d6": 0.0, "tmax_d0": 21.6, "tmax_d1": 18.1, "tmax_d2": 17.5, "tmax_d3": 25.2, "tmax_d4": 26.3, "tmax_d5": 21.8, "tmax_d6": 20.1, "tmin_d0": 9.1, "tmin_d1": 8.5, "tmin_d2": 2.2, "tmin_d3": 9.7, "tmin_d4": 12.8, "tmin_d5": 9.9, "tmin_d6": 9.2, "day_of_year": 272, "uuid": "c7311ea0-548b-4ec4-b197-ba86b642c387", "inat_id": 279064849}}, {"type": "Feature", "geometry": {"type": "Point", "coordinates": [-121.5381352316, 45.3673800863]}, "properties": {"species": "Psilocybe sp. 'PNW02'", "date": "2025-08-12", "location": "Oregon, US", "elevation": 1605.0, "land_cover_label": "Tree cover", "water_mask": false, "exclude_reason": "keep", "ndvi": null, "soil_moisture": null, "solar_exposure": null, "wind_exposure": null, "water_retention": null, "slope": null, "aspect": null, "num_identification_agreements": 3, "cluster": 2, "tavg": null, "tmin": 16.0, "tmax": 37.0, "prcp_d0": 0.0, "prcp_d1": 0.0, "prcp_d2": 0.0, "prcp_d3": 0.0, "prcp_d4": 0.0, "prcp_d5": 0.0, "prcp_d6": 0.0, "tmax_d0": 27.3, "tmax_d1": 28.3, "tmax_d2": 26.4, "tmax_d3": 21.9, "tmax_d4": 19.2, "tmax_d5": 12.8, "tmax_d6": 16.3, "tmin_d0": 15.7, "tmin_d1": 15.8, "tmin_d2": 12.1, "tmin_d3": 7.7, "tmin_d4": 2.8, "tmin_d5": 7.0, "tmin_d6": 7.3, "day_of_year": 224, "uuid": "56eb651d-0ffb-48d9-832a-e01599fcbc84", "inat_id": 305927478}}, {"type": "Feature", "geometry": {"type": "Point", "coordinates": [-121.5866345436, 45.3602336548]}, "properties": {"species": "Psilocybe sp. 'PNW02'", "date": "2025-08-12", "location": "Oregon, US", "elevation": 1256.0, "land_cover_label": "Tree cover", "water_mask": false, "exclude_reason": "keep", "ndvi": null, "soil_moisture": null, "solar_exposure": null, "wind_exposure": null, "water_retention": null, "slope": null, "aspect": null, "num_identification_agreements": 2, "cluster": 2, "tavg": null, "tmin": 16.0, "tmax": 37.0, "prcp_d0": 0.0, "prcp_d1": 0.0, "prcp_d2": 0.0, "prcp_d3": 0.0, "prcp_d4": 0.0, "prcp_d5": 0.0, "prcp_d6": 0.0, "tmax_d0": 29.5, "tmax_d1": 30.5, "tmax_d2": 28.6, "tmax_d3": 24.1, "tmax_d4": 21.4, "tmax_d5": 15.0, "tmax_d6": 18.5, "tmin_d0": 17.9, "tmin_d1": 18.0, "tmin_d2": 14.3, "tmin_d3": 9.9, "tmin_d4": 5.0, "tmin_d5": 9.2, "tmin_d6": 9.5, "day_of_year": 224, "uuid": "dd707c7f-5192-493d-be3c-6f4f79b25cb3", "inat_id": 305926663}}, {"type": "Feature", "geometry": {"type": "Point", "coordinates": [-121.4049371804, 45.3475246495]}, "properties": {"species": "Psilocybe sp. 'PNW02'", "date": "2025-08-12", "location": "Oregon, US", "elevation": 1126.0, "land_cover_label": "Tree cover", "water_mask": false, "exclude_reason": "keep", "ndvi": null, "soil_moisture": null, "solar_exposure": null, "wind_exposure": null, "water_retention": null, "slope": null, "aspect": null, "num_identification_agreements": 3, "cluster": 2, "tavg": null, "tmin": 19.4, "tmax": 39.4, "prcp_d0": 0.0, "prcp_d1": 0.0, "prcp_d2": 0.0, "prcp_d3": 0.0, "prcp_d4": 0.0, "prcp_d5": 0.0, "prcp_d6": 0.0, "tmax_d0": 30.9, "tmax_d1": 31.1, "tmax_d2": 29.6, "tmax_d3": 24.6, "tmax_d4": 22.1, "tmax_d5": 18.6, "tmax_d6": 22.3, "tmin_d0": 20.1, "tmin_d1": 18.5, "tmin_d2": 15.1, "tmin_d3": 11.1, "tmin_d4": 6.4, "tmin_d5": 10.7, "tmin_d6": 11.3, "day_of_year": 224, "uuid": "bbb7df63-29b8-473a-9a14-048ce247b566", "inat_id": 312383914}}, {"type": "Feature", "geometry": {"type": "Point", "coordinates": [-121.5837279075, 45.2726876221]}, "properties": {"species": "Psilocybe sp. 'PNW02'", "date": "2025-08-12", "location": "Oregon, US", "elevation": 1641.0, "land_cover_label": "Tree cover", "water_mask": false, "exclude_reason": "keep", "ndvi": null, "soil_moisture": null, "solar_exposure": null, "wind_exposure": null, "water_retention": null, "slope": null, "aspect": null, "num_identification_agreements": 3, "cluster": 2, "tavg": null, "tmin": 16.0, "tmax": 37.0, "prcp_d0": 0.0, "prcp_d1": 0.0, "prcp_d2": 0.0, "prcp_d3": 0.0, "prcp_d4": 0.0, "prcp_d5": 0.0, "prcp_d6": 0.0, "tmax_d0": 27.0, "tmax_d1": 28.6, "tmax_d2": 27.0, "tmax_d3": 21.4, "tmax_d4": 18.8, "tmax_d5": 11.2, "tmax_d6": 15.7, "tmin_d0": 15.4, "tmin_d1": 17.1, "tmin_d2": 12.3, "tmin_d3": 7.2, "tmin_d4": 2.9, "tmin_d5": 6.3, "tmin_d6": 7.8, "day_of_year": 224, "uuid": "d1b57701-3cd3-4a18-9159-3b0f070926b9", "inat_id": 312383910}}, {"type": "Feature", "geometry": {"type": "Point", "coordinates": [-121.5106673054, 45.337943633]}, "properties": {"species": "Psilocybe sp. 'PNW02'", "date": "2025-08-12", "location": "Oregon, US", "elevation": 1791.0, "land_cover_label": "Tree cover", "water_mask": false, "exclude_reason": "keep", "ndvi": null, "soil_moisture": null, "solar_exposure": null, "wind_exposure": null, "water_retention": null, "slope": null, "aspect": null, "num_identification_agreements": 2, "cluster": 2, "tavg": null, "tmin": 16.0, "tmax": 37.0, "prcp_d0": 0.0, "prcp_d1": 0.0, "prcp_d2": 0.0, "prcp_d3": 0.0, "prcp_d4": 0.0, "prcp_d5": 0.0, "prcp_d6": 0.0, "tmax_d0": 26.3, "tmax_d1": 27.3, "tmax_d2": 25.4, "tmax_d3": 20.9, "tmax_d4": 18.2, "tmax_d5": 11.8, "tmax_d6": 15.3, "tmin_d0": 14.7, "tmin_d1": 14.8, "tmin_d2": 11.1, "tmin_d3": 6.7, "tmin_d4": 1.8, "tmin_d5": 6.0, "tmin_d6": 6.3, "day_of_year": 224, "uuid": "59eff2b5-77cc-41c8-842c-8501a2644fb7", "inat_id": 312383908}}, {"type": "Feature", "geometry": {"type": "Point", "coordinates": [-121.4363777974, 45.3648696639]}, "properties": {"species": "Psilocybe sp. 'PNW02'", "date": "2025-08-12", "location": "Oregon, US", "elevation": 1114.0, "land_cover_label": "Tree cover", "water_mask": false, "exclude_reason": "keep", "ndvi": null, "soil_moisture": null, "solar_exposure": null, "wind_exposure": null, "water_retention": null, "slope": null, "aspect": null, "num_identification_agreements": 4, "cluster": 2, "tavg": null, "tmin": 16.0, "tmax": 37.0, "prcp_d0": 0.0, "prcp_d1": 0.0, "prcp_d2": 0.0, "prcp_d3": 0.0, "prcp_d4": 0.0, "prcp_d5": 0.0, "prcp_d6": 0.0, "tmax_d0": 30.9, "tmax_d1": 31.1, "tmax_d2": 29.6, "tmax_d3": 24.6, "tmax_d4": 22.1, "tmax_d5": 18.6, "tmax_d6": 22.3, "tmin_d0": 20.1, "tmin_d1": 18.5, "tmin_d2": 15.1, "tmin_d3": 11.1, "tmin_d4": 6.4, "tmin_d5": 10.7, "tmin_d6": 11.3, "day_of_year": 224, "uuid": "d027712d-2118-476b-b584-1eb95f0f4bff", "inat_id": 312383916}}, {"type": "Feature", "geometry": {"type": "Point", "coordinates": [-121.4602832631, 45.2652250832]}, "properties": {"species": "Psilocybe sp. 'PNW02'", "date": "2025-08-12", "location": "Oregon, US", "elevation": 1030.0, "land_cover_label": "Tree cover", "water_mask": false, "exclude_reason": "keep", "ndvi": null, "soil_moisture": null, "solar_exposure": null, "wind_exposure": null, "water_retention": null, "slope": null, "aspect": null, "num_identification_agreements": 3, "cluster": 2, "tavg": null, "tmin": 19.4, "tmax": 39.4, "prcp_d0": 0.0, "prcp_d1": 0.0, "prcp_d2": 0.0, "prcp_d3": 0.0, "prcp_d4": 0.0, "prcp_d5": 0.0, "prcp_d6": 0.0, "tmax_d0": 33.7, "tmax_d1": 34.4, "tmax_d2": 31.2, "tmax_d3": 27.4, "tmax_d4": 24.6, "tmax_d5": 18.7, "tmax_d6": 23.0, "tmin_d0": 16.7, "tmin_d1": 16.5, "tmin_d2": 14.9, "tmin_d3": 10.1, "tmin_d4": 5.1, "tmin_d5": 11.1, "tmin_d6": 12.1, "day_of_year": 224, "uuid": "8cb48c75-0df6-4452-83ee-552229cb985b", "inat_id": 305926496}}, {"type": "Feature", "geometry": {"type": "Point", "coordinates": [-121.6336084273, 45.3219564789]}, "properties": {"species": "Psilocybe sp. 'PNW02'", "date": "2025-08-17", "location": "Hood River County, OR, USA", "elevation": 1378.0, "land_cover_label": "Tree cover", "water_mask": false, "exclude_reason": "keep", "ndvi": null, "soil_moisture": null, "solar_exposure": null, "wind_exposure": null, "water_retention": null, "slope": null, "aspect": null, "num_identification_agreements": 6, "cluster": 2, "tavg": null, "tmin": 12.0, "tmax": 26.0, "prcp_d0": 0.0, "prcp_d1": 5.504771709442139, "prcp_d2": 0.0, "prcp_d3": 0.0, "prcp_d4": 0.0, "prcp_d5": 0.0, "prcp_d6": 0.0, "tmax_d0": 18.3, "tmax_d1": 16.0, "tmax_d2": 16.3, "tmax_d3": 18.5, "tmax_d4": 25.0, "tmax_d5": 28.3, "tmax_d6": 29.9, "tmin_d0": 7.4, "tmin_d1": 10.7, "tmin_d2": 10.4, "tmin_d3": 9.4, "tmin_d4": 12.9, "tmin_d5": 16.7, "tmin_d6": 18.3, "day_of_year": 229, "uuid": "b7403ca0-028a-4eef-9728-8efc1ccac463", "inat_id": 309313588}}, {"type": "Feature", "geometry": {"type": "Point", "coordinates": [-121.4827827509, 45.4608835026]}, "properties": {"species": "Psilocybe sp. 'PNW02'", "date": "2025-08-30", "location": "Oregon, US", "elevation": 1027.0, "land_cover_label": "Tree cover", "water_mask": false, "exclude_reason": "keep", "ndvi": null, "soil_moisture": null, "solar_exposure": null, "wind_exposure": null, "water_retention": null, "slope": null, "aspect": null, "num_identification_agreements": 2, "cluster": 2, "tavg": null, "tmin": 12.0, "tmax": 30.0, "prcp_d0": 0.0, "prcp_d1": 0.0, "prcp_d2": 0.0, "prcp_d3": 0.0, "prcp_d4": 5.516883373260498, "prcp_d5": 5.273581027984619, "prcp_d6": 0.0, "tmax_d0": 25.3, "tmax_d1": 25.6, "tmax_d2": 26.0, "tmax_d3": 26.3, "tmax_d4": 28.7, "tmax_d5": 30.5, "tmax_d6": 31.0, "tmin_d0": 14.3, "tmin_d1": 16.1, "tmin_d2": 13.7, "tmin_d3": 16.7, "tmin_d4": 16.9, "tmin_d5": 19.9, "tmin_d6": 21.2, "day_of_year": 242, "uuid": "d4f8cd91-97bc-48c8-bd03-aa4e6fae4534", "inat_id": 313144734}}, {"type": "Feature", "geometry": {"type": "Point", "coordinates": [-121.4474041885, 45.4479289555]}, "properties": {"species": "Psilocybe sp. 'PNW02'", "date": "2025-08-30", "location": "Oregon, US", "elevation": 1027.0, "land_cover_label": "Tree cover", "water_mask": false, "exclude_reason": "keep", "ndvi": null, "soil_moisture": null, "solar_exposure": null, "wind_exposure": null, "water_retention": null, "slope": null, "aspect": null, "num_identification_agreements": 2, "cluster": 2, "tavg": null, "tmin": 12.0, "tmax": 30.0, "prcp_d0": 0.0, "prcp_d1": 0.0, "prcp_d2": 0.0, "prcp_d3": 0.0, "prcp_d4": 5.063333988189697, "prcp_d5": 4.863650321960449, "prcp_d6": 0.0, "tmax_d0": 25.3, "tmax_d1": 25.6, "tmax_d2": 26.0, "tmax_d3": 26.3, "tmax_d4": 28.7, "tmax_d5": 30.5, "tmax_d6": 31.0, "tmin_d0": 14.3, "tmin_d1": 16.1, "tmin_d2": 13.7, "tmin_d3": 16.7, "tmin_d4": 16.9, "tmin_d5": 19.9, "tmin_d6": 21.2, "day_of_year": 242, "uuid": "e25498fe-ba22-4a01-aa17-1cae1237561b", "inat_id": 313144733}}, {"type": "Feature", "geometry": {"type": "Point", "coordinates": [-121.4297604974, 45.4694592543]}, "properties": {"species": "Psilocybe sp. 'PNW02'", "date": "2025-08-30", "location": "Oregon, US", "elevation": 951.0, "land_cover_label": "Tree cover", "water_mask": false, "exclude_reason": "keep", "ndvi": null, "soil_moisture": null, "solar_exposure": null, "wind_exposure": null, "water_retention": null, "slope": null, "aspect": null, "num_identification_agreements": 2, "cluster": 2, "tavg": null, "tmin": 12.0, "tmax": 30.0, "prcp_d0": 0.0, "prcp_d1": 0.0, "prcp_d2": 0.0, "prcp_d3": 0.0, "prcp_d4": 4.7455244064331055, "prcp_d5": 4.593547821044922, "prcp_d6": 0.0, "tmax_d0": 26.4, "tmax_d1": 26.7, "tmax_d2": 27.2, "tmax_d3": 27.5, "tmax_d4": 29.9, "tmax_d5": 31.6, "tmax_d6": 32.2, "tmin_d0": 15.4, "tmin_d1": 17.2, "tmin_d2": 14.8, "tmin_d3": 17.8, "tmin_d4": 18.1, "tmin_d5": 21.1, "tmin_d6": 22.4, "day_of_year": 242, "uuid": "efb20780-2265-4b84-8cdb-4dfc9a3dd2b9", "inat_id": 313144730}}, {"type": "Feature", "geometry": {"type": "Point", "coordinates": [-121.5799406482, 45.458758529]}, "properties": {"species": "Psilocybe sp. 'PNW02'", "date": "2025-08-30", "location": "Oregon, US", "elevation": 692.0, "land_cover_label": "Tree cover", "water_mask": false, "exclude_reason": "keep", "ndvi": null, "soil_moisture": null, "solar_exposure": null, "wind_exposure": null, "water_retention": null, "slope": null, "aspect": null, "num_identification_agreements": 2, "cluster": 2, "tavg": null, "tmin": 12.0, "tmax": 30.0, "prcp_d0": 0.0, "prcp_d1": 0.0, "prcp_d2": 0.0, "prcp_d3": 0.0, "prcp_d4": 7.434216499328613, "prcp_d5": 5.470734596252441, "prcp_d6": 0.0, "tmax_d0": 27.8, "tmax_d1": 28.3, "tmax_d2": 28.5, "tmax_d3": 29.6, "tmax_d4": 31.3, "tmax_d5": 33.1, "tmax_d6": 33.5, "tmin_d0": 14.6, "tmin_d1": 17.0, "tmin_d2": 14.5, "tmin_d3": 19.2, "tmin_d4": 18.1, "tmin_d5": 20.4, "tmin_d6": 22.1, "day_of_year": 242, "uuid": "f07abf16-4ddf-4b49-9107-5df98634a506", "inat_id": 313144727}}, {"type": "Feature", "geometry": {"type": "Point", "coordinates": [-121.5948816605, 45.5064794407]}, "properties": {"species": "Psilocybe sp. 'PNW02'", "date": "2025-08-30", "location": "Oregon, US", "elevation": 570.0, "land_cover_label": "Grassland", "water_mask": false, "exclude_reason": "keep", "ndvi": null, "soil_moisture": null, "solar_exposure": null, "wind_exposure": null, "water_retention": null, "slope": null, "aspect": null, "num_identification_agreements": 2, "cluster": 2, "tavg": null, "tmin": 12.0, "tmax": 30.0, "prcp_d0": 0.0, "prcp_d1": 0.0, "prcp_d2": 0.0, "prcp_d3": 0.0, "prcp_d4": 7.978402614593506, "prcp_d5": 4.89891242980957, "prcp_d6": 0.0, "tmax_d0": 27.8, "tmax_d1": 29.4, "tmax_d2": 29.7, "tmax_d3": 30.1, "tmax_d4": 31.4, "tmax_d5": 33.1, "tmax_d6": 33.7, "tmin_d0": 13.0, "tmin_d1": 16.3, "tmin_d2": 12.8, "tmin_d3": 19.0, "tmin_d4": 16.1, "tmin_d5": 19.5, "tmin_d6": 19.9, "day_of_year": 242, "uuid": "edb25b6f-02e8-437b-bbee-ae81b8e9b3ec", "inat_id": 313144739}}, {"type": "Feature", "geometry": {"type": "Point", "coordinates": [-121.4742724479, 45.4061462333]}, "properties": {"species": "Psilocybe sp. 'PNW02'", "date": "2025-08-30", "location": "Oregon, US", "elevation": 1275.0, "land_cover_label": "Tree cover", "water_mask": false, "exclude_reason": "keep", "ndvi": null, "soil_moisture": null, "solar_exposure": null, "wind_exposure": null, "water_retention": null, "slope": null, "aspect": null, "num_identification_agreements": 3, "cluster": 2, "tavg": null, "tmin": 12.0, "tmax": 30.0, "prcp_d0": 0.0, "prcp_d1": 0.0, "prcp_d2": 0.0, "prcp_d3": 0.0, "prcp_d4": 5.8144307136535645, "prcp_d5": 5.483421802520752, "prcp_d6": 0.0, "tmax_d0": 24.8, "tmax_d1": 26.2, "tmax_d2": 24.6, "tmax_d3": 22.9, "tmax_d4": 26.6, "tmax_d5": 28.8, "tmax_d6": 29.4, "tmin_d0": 13.3, "tmin_d1": 14.7, "tmin_d2": 13.5, "tmin_d3": 13.6, "tmin_d4": 14.9, "tmin_d5": 20.1, "tmin_d6": 20.0, "day_of_year": 242, "uuid": "f919c77b-e786-4805-9368-eb4744d318b7", "inat_id": 313144746}}, {"type": "Feature", "geometry": {"type": "Point", "coordinates": [-121.4678156233, 45.5574477482]}, "properties": {"species": "Psilocybe sp. 'PNW02'", "date": "2025-08-30", "location": "Oregon, US", "elevation": 1048.0, "land_cover_label": "Tree cover", "water_mask": false, "exclude_reason": "keep", "ndvi": null, "soil_moisture": null, "solar_exposure": null, "wind_exposure": null, "water_retention": null, "slope": null, "aspect": null, "num_identification_agreements": 1, "cluster": 2, "tavg": null, "tmin": 12.0, "tmax": 30.0, "prcp_d0": 0.0, "prcp_d1": 0.0, "prcp_d2": 0.0, "prcp_d3": 0.0, "prcp_d4": 4.226065635681152, "prcp_d5": 4.107081890106201, "prcp_d6": 0.0, "tmax_d0": 25.7, "tmax_d1": 26.2, "tmax_d2": 26.4, "tmax_d3": 27.5, "tmax_d4": 29.2, "tmax_d5": 31.0, "tmax_d6": 31.4, "tmin_d0": 12.5, "tmin_d1": 14.9, "tmin_d2": 12.4, "tmin_d3": 17.1, "tmin_d4": 16.0, "tmin_d5": 18.3, "tmin_d6": 20.0, "day_of_year": 242, "uuid": "ac66231c-4364-4dd3-8f13-76133541d8e5", "inat_id": 313144749}}, {"type": "Feature", "geometry": {"type": "Point", "coordinates": [-121.5292011577, 45.3171352539]}, "properties": {"species": "Psilocybe sp. 'PNW02'", "date": "2025-09-14", "location": "Oregon, US", "elevation": 1228.0, "land_cover_label": "Tree cover", "water_mask": false, "exclude_reason": "keep", "ndvi": null, "soil_moisture": null, "solar_exposure": null, "wind_exposure": null, "water_retention": null, "slope": null, "aspect": null, "num_identification_agreements": 2, "cluster": 2, "tavg": null, "tmin": 14.0, "tmax": 20.0, "prcp_d0": 0.0, "prcp_d1": 0.0, "prcp_d2": 0.0, "prcp_d3": 0.0, "prcp_d4": 3.620026588439941, "prcp_d5": 7.240053176879883, "prcp_d6": 0.0, "tmax_d0": 21.1, "tmax_d1": 22.7, "tmax_d2": 21.4, "tmax_d3": 20.2, "tmax_d4": 19.3, "tmax_d5": 18.4, "tmax_d6": 20.8, "tmin_d0": 9.7, "tmin_d1": 10.5, "tmin_d2": 8.7, "tmin_d3": 9.9, "tmin_d4": 8.7, "tmin_d5": 9.5, "tmin_d6": 9.9, "day_of_year": 257, "uuid": "8d87af57-5b4a-4d79-a9f3-681a69e9cbc1", "inat_id": 314721831}}, {"type": "Feature", "geometry": {"type": "Point", "coordinates": [-121.5026389483, 45.2857585193]}, "properties": {"species": "Psilocybe sp. 'PNW02'", "date": "2025-09-14", "location": "Oregon, US", "elevation": 1249.0, "land_cover_label": "Tree cover", "water_mask": false, "exclude_reason": "keep", "ndvi": null, "soil_moisture": null, "solar_exposure": null, "wind_exposure": null, "water_retention": null, "slope": null, "aspect": null, "num_identification_agreements": 2, "cluster": 2, "tavg": null, "tmin": 14.0, "tmax": 20.0, "prcp_d0": 0.0, "prcp_d1": 0.0, "prcp_d2": 0.0, "prcp_d3": 0.0, "prcp_d4": 4.535569667816162, "prcp_d5": 4.535569667816162, "prcp_d6": 0.0, "tmax_d0": 21.1, "tmax_d1": 22.7, "tmax_d2": 21.4, "tmax_d3": 20.2, "tmax_d4": 19.3, "tmax_d5": 18.4, "tmax_d6": 20.8, "tmin_d0": 9.7, "tmin_d1": 10.5, "tmin_d2": 8.7, "tmin_d3": 9.9, "tmin_d4": 8.7, "tmin_d5": 9.5, "tmin_d6": 9.9, "day_of_year": 257, "uuid": "7216ddd8-7add-490a-b19f-90166bebfa34", "inat_id": 314721828}}, {"type": "Feature", "geometry": {"type": "Point", "coordinates": [-121.4958837129, 45.2376295532]}, "properties": {"species": "Psilocybe sp. 'PNW02'", "date": "2025-09-14", "location": "Wasco County, US-OR, US", "elevation": 1195.0, "land_cover_label": "Tree cover", "water_mask": false, "exclude_reason": "keep", "ndvi": null, "soil_moisture": null, "solar_exposure": null, "wind_exposure": null, "water_retention": null, "slope": null, "aspect": null, "num_identification_agreements": 2, "cluster": 2, "tavg": null, "tmin": 14.0, "tmax": 20.0, "prcp_d0": 0.0, "prcp_d1": 0.0, "prcp_d2": 0.0, "prcp_d3": 0.0, "prcp_d4": 2.832772731781006, "prcp_d5": 5.665545463562012, "prcp_d6": 0.0, "tmax_d0": 21.9, "tmax_d1": 23.5, "tmax_d2": 22.2, "tmax_d3": 20.9, "tmax_d4": 20.1, "tmax_d5": 19.2, "tmax_d6": 21.6, "tmin_d0": 10.4, "tmin_d1": 11.2, "tmin_d2": 9.4, "tmin_d3": 10.7, "tmin_d4": 9.4, "tmin_d5": 10.3, "tmin_d6": 10.7, "day_of_year": 257, "uuid": "393da9ae-ddc5-4809-820e-364a602d7645", "inat_id": 314721834}}, {"type": "Feature", "geometry": {"type": "Point", "coordinates": [-121.5879681484, 45.3025283468]}, "properties": {"species": "Psilocybe sp. 'PNW02'", "date": "2025-09-14", "location": "Wasco County, US-OR, US", "elevation": 1475.0, "land_cover_label": "Tree cover", "water_mask": false, "exclude_reason": "keep", "ndvi": null, "soil_moisture": null, "solar_exposure": null, "wind_exposure": null, "water_retention": null, "slope": null, "aspect": null, "num_identification_agreements": 1, "cluster": 2, "tavg": null, "tmin": 14.0, "tmax": 20.0, "prcp_d0": 0.0, "prcp_d1": 0.0, "prcp_d2": 0.0, "prcp_d3": 0.0, "prcp_d4": 5.799529552459717, "prcp_d5": 11.599059104919434, "prcp_d6": 0.0, "tmax_d0": 17.3, "tmax_d1": 19.7, "tmax_d2": 19.4, "tmax_d3": 14.7, "tmax_d4": 16.9, "tmax_d5": 16.3, "tmax_d6": 19.9, "tmin_d0": 8.2, "tmin_d1": 10.0, "tmin_d2": 8.1, "tmin_d3": 8.9, "tmin_d4": 7.2, "tmin_d5": 8.8, "tmin_d6": 9.7, "day_of_year": 257, "uuid": "e542e29b-998f-40e6-92b8-7d3fbf1ec72b", "inat_id": 314721843}}, {"type": "Feature", "geometry": {"type": "Point", "coordinates": [-121.5070771377, 45.2708980797]}, "properties": {"species": "Psilocybe sp. 'PNW02'", "date": "2025-09-14", "location": "Wasco County, US-OR, US", "elevation": 1380.0, "land_cover_label": "Tree cover", "water_mask": false, "exclude_reason": "keep", "ndvi": null, "soil_moisture": null, "solar_exposure": null, "wind_exposure": null, "water_retention": null, "slope": null, "aspect": null, "num_identification_agreements": 2, "cluster": 2, "tavg": null, "tmin": 14.0, "tmax": 20.0, "prcp_d0": 0.0, "prcp_d1": 0.0, "prcp_d2": 0.0, "prcp_d3": 0.0, "prcp_d4": 4.535569667816162, "prcp_d5": 4.535569667816162, "prcp_d6": 0.0, "tmax_d0": 21.1, "tmax_d1": 22.7, "tmax_d2": 21.4, "tmax_d3": 20.2, "tmax_d4": 19.3, "tmax_d5": 18.4, "tmax_d6": 20.8, "tmin_d0": 9.7, "tmin_d1": 10.5, "tmin_d2": 8.7, "tmin_d3": 9.9, "tmin_d4": 8.7, "tmin_d5": 9.5, "tmin_d6": 9.9, "day_of_year": 257, "uuid": "16f7e989-73e0-4378-b2e6-0c221bca0e9d", "inat_id": 314721848}}, {"type": "Feature", "geometry": {"type": "Point", "coordinates": [-121.6284347618, 45.538475142]}, "properties": {"species": "Psilocybe sp. 'PNW02'", "date": "2025-09-14", "location": "Oregon, US", "elevation": 449.0, "land_cover_label": "Tree cover", "water_mask": false, "exclude_reason": "keep", "ndvi": null, "soil_moisture": null, "solar_exposure": null, "wind_exposure": null, "water_retention": null, "slope": null, "aspect": null, "num_identification_agreements": 2, "cluster": 2, "tavg": null, "tmin": 14.0, "tmax": 20.0, "prcp_d0": 0.0, "prcp_d1": 0.0, "prcp_d2": 0.0, "prcp_d3": 0.0, "prcp_d4": 5.127462387084961, "prcp_d5": 5.127462387084961, "prcp_d6": 0.0, "tmax_d0": 23.8, "tmax_d1": 25.9, "tmax_d2": 23.4, "tmax_d3": 23.4, "tmax_d4": 24.6, "tmax_d5": 24.2, "tmax_d6": 25.3, "tmin_d0": 13.3, "tmin_d1": 10.7, "tmin_d2": 15.1, "tmin_d3": 15.3, "tmin_d4": 12.3, "tmin_d5": 13.8, "tmin_d6": 12.6, "day_of_year": 257, "uuid": "c19b1bf2-be30-4118-84b0-272cca1debae", "inat_id": 315842108}}, {"type": "Feature", "geometry": {"type": "Point", "coordinates": [-121.6802376783, 45.4502310035]}, "properties": {"species": "Psilocybe sp. 'PNW02'", "date": "2025-09-14", "location": "Oregon, US", "elevation": 1127.0, "land_cover_label": "Tree cover", "water_mask": false, "exclude_reason": "keep", "ndvi": null, "soil_moisture": null, "solar_exposure": null, "wind_exposure": null, "water_retention": null, "slope": null, "aspect": null, "num_identification_agreements": 2, "cluster": 2, "tavg": null, "tmin": 14.0, "tmax": 20.0, "prcp_d0": 0.0, "prcp_d1": 0.0, "prcp_d2": 0.0, "prcp_d3": 0.0, "prcp_d4": 5.250738620758057, "prcp_d5": 10.70960807800293, "prcp_d6": 0.0, "tmax_d0": 17.8, "tmax_d1": 21.0, "tmax_d2": 18.5, "tmax_d3": 16.3, "tmax_d4": 18.3, "tmax_d5": 17.1, "tmax_d6": 20.2, "tmin_d0": 9.9, "tmin_d1": 8.6, "tmin_d2": 9.2, "tmin_d3": 9.8, "tmin_d4": 8.5, "tmin_d5": 9.9, "tmin_d6": 8.7, "day_of_year": 257, "uuid": "d55905ee-e480-4a54-8297-d99ddaa30d3c", "inat_id": 315841076}}, {"type": "Feature", "geometry": {"type": "Point", "coordinates": [-121.6740648748, 45.3260884206]}, "properties": {"species": "Psilocybe sp. 'PNW02'", "date": "2025-09-14", "location": "Oregon, US", "elevation": 1722.0, "land_cover_label": "Tree cover", "water_mask": false, "exclude_reason": "keep", "ndvi": null, "soil_moisture": null, "solar_exposure": null, "wind_exposure": null, "water_retention": null, "slope": null, "aspect": null, "num_identification_agreements": 2, "cluster": 2, "tavg": null, "tmin": 14.0, "tmax": 20.0, "prcp_d0": 0.0, "prcp_d1": 0.0, "prcp_d2": 0.0, "prcp_d3": 0.0, "prcp_d4": 8.283659934997559, "prcp_d5": 16.567319869995117, "prcp_d6": 0.0, "tmax_d0": 15.5, "tmax_d1": 18.0, "tmax_d2": 17.7, "tmax_d3": 12.9, "tmax_d4": 15.2, "tmax_d5": 14.6, "tmax_d6": 18.1, "tmin_d0": 6.5, "tmin_d1": 8.2, "tmin_d2": 6.4, "tmin_d3": 7.1, "tmin_d4": 5.5, "tmin_d5": 7.0, "tmin_d6": 7.9, "day_of_year": 257, "uuid": "2b9fc94b-10ed-43a8-93b5-82a2e1047fe0", "inat_id": 315840768}}, {"type": "Feature", "geometry": {"type": "Point", "coordinates": [-121.6620302596, 45.3669653242]}, "properties": {"species": "Psilocybe sp. 'PNW02'", "date": "2025-09-14", "location": "Oregon, US", "elevation": 2155.0, "land_cover_label": "Bare / sparse vegetation", "water_mask": false, "exclude_reason": "keep", "ndvi": null, "soil_moisture": null, "solar_exposure": null, "wind_exposure": null, "water_retention": null, "slope": null, "aspect": null, "num_identification_agreements": 2, "cluster": 2, "tavg": null, "tmin": 14.0, "tmax": 20.0, "prcp_d0": 0.0, "prcp_d1": 0.0, "prcp_d2": 0.0, "prcp_d3": 0.0, "prcp_d4": 7.945034503936768, "prcp_d5": 15.890069007873535, "prcp_d6": 0.0, "tmax_d0": 12.2, "tmax_d1": 15.0, "tmax_d2": 14.0, "tmax_d3": 9.7, "tmax_d4": 12.1, "tmax_d5": 11.1, "tmax_d6": 14.5, "tmin_d0": 3.5, "tmin_d1": 4.5, "tmin_d2": 3.5, "tmin_d3": 3.9, "tmin_d4": 2.7, "tmin_d5": 4.7, "tmin_d6": 4.2, "day_of_year": 257, "uuid": "3a119678-685f-40b0-bbe8-1eb2a7215c21", "inat_id": 315840634}}, {"type": "Feature", "geometry": {"type": "Point", "coordinates": [-121.4007774653, 45.3827613543]}, "properties": {"species": "Psilocybe sp. 'PNW02'", "date": "2025-09-14", "location": "Oregon, US", "elevation": 893.0, "land_cover_label": "Tree cover", "water_mask": false, "exclude_reason": "keep", "ndvi": null, "soil_moisture": null, "solar_exposure": null, "wind_exposure": null, "water_retention": null, "slope": null, "aspect": null, "num_identification_agreements": 2, "cluster": 2, "tavg": null, "tmin": 16.0, "tmax": 22.0, "prcp_d0": 0.0, "prcp_d1": 0.0, "prcp_d2": 0.0, "prcp_d3": 0.0, "prcp_d4": 2.667075157165528, "prcp_d5": 5.334150314331055, "prcp_d6": 0.0, "tmax_d0": 23.6, "tmax_d1": 24.6, "tmax_d2": 22.9, "tmax_d3": 23.6, "tmax_d4": 21.6, "tmax_d5": 20.5, "tmax_d6": 23.4, "tmin_d0": 11.9, "tmin_d1": 14.0, "tmin_d2": 10.7, "tmin_d3": 12.3, "tmin_d4": 11.4, "tmin_d5": 11.8, "tmin_d6": 12.6, "day_of_year": 257, "uuid": "3cf58693-11fb-45d5-8419-4a9355604d0e", "inat_id": 314721854}}, {"type": "Feature", "geometry": {"type": "Point", "coordinates": [-121.6378680044, 45.2689614805]}, "properties": {"species": "Psilocybe sp. 'PNW02'", "date": "2025-09-27", "location": "Oregon, US", "elevation": 1297.0, "land_cover_label": "Tree cover", "water_mask": false, "exclude_reason": "keep", "ndvi": null, "soil_moisture": null, "solar_exposure": null, "wind_exposure": null, "water_retention": null, "slope": null, "aspect": null, "num_identification_agreements": 2, "cluster": 2, "tavg": null, "tmin": 6.0, "tmax": 26.0, "prcp_d0": 0.0, "prcp_d1": 0.0, "prcp_d2": 0.0, "prcp_d3": 0.0, "prcp_d4": 0.0, "prcp_d5": 0.0, "prcp_d6": 0.0, "tmax_d0": 23.6, "tmax_d1": 19.6, "tmax_d2": 25.0, "tmax_d3": 26.5, "tmax_d4": 19.3, "tmax_d5": 17.5, "tmax_d6": 19.1, "tmin_d0": 10.1, "tmin_d1": 4.4, "tmin_d2": 11.4, "tmin_d3": 13.2, "tmin_d4": 7.6, "tmin_d5": 4.3, "tmin_d6": 7.6, "day_of_year": 270, "uuid": "239d9b67-9953-4a9c-8362-8fcb08bd9ad5", "inat_id": 320097565}}, {"type": "Feature", "geometry": {"type": "Point", "coordinates": [-121.5882184657, 45.2005689686]}, "properties": {"species": "Psilocybe sp. 'PNW02'", "date": "2025-09-27", "location": "Wasco County, US-OR, US", "elevation": 1175.0, "land_cover_label": "Tree cover", "water_mask": false, "exclude_reason": "keep", "ndvi": null, "soil_moisture": null, "solar_exposure": null, "wind_exposure": null, "water_retention": null, "slope": null, "aspect": null, "num_identification_agreements": 1, "cluster": 2, "tavg": null, "tmin": null, "tmax": null, "prcp_d0": 0.0, "prcp_d1": 0.0, "prcp_d2": 0.0, "prcp_d3": 0.0, "prcp_d4": 0.0, "prcp_d5": 0.0, "prcp_d6": 0.0, "tmax_d0": 24.1, "tmax_d1": 20.1, "tmax_d2": 25.5, "tmax_d3": 27.0, "tmax_d4": 19.8, "tmax_d5": 18.0, "tmax_d6": 19.6, "tmin_d0": 10.6, "tmin_d1": 4.9, "tmin_d2": 11.9, "tmin_d3": 13.7, "tmin_d4": 8.1, "tmin_d5": 4.8, "tmin_d6": 8.1, "day_of_year": 270, "uuid": "8c5fb02f-38dc-436e-9a56-81f72016f58e", "inat_id": 320097592}}, {"type": "Feature", "geometry": {"type": "Point", "coordinates": [-121.4884081619, 45.3341412935]}, "properties": {"species": "Psilocybe sp. 'PNW02'", "date": "2025-10-12", "location": "Wasco County, US-OR, US", "elevation": 1725.0, "land_cover_label": "Tree cover", "water_mask": false, "exclude_reason": "keep", "ndvi": null, "soil_moisture": null, "solar_exposure": null, "wind_exposure": null, "water_retention": null, "slope": null, "aspect": null, "num_identification_agreements": 2, "cluster": 2, "tavg": null, "tmin": 6.0, "tmax": 10.0, "prcp_d0": 11.039687156677246, "prcp_d1": 0.0, "prcp_d2": 0.9787046313285828, "prcp_d3": 2.37769627571106, "prcp_d4": 0.0483529791235923, "prcp_d5": 8.06482205462089e-07, "prcp_d6": 0.0, "tmax_d0": 1.6, "tmax_d1": 5.4, "tmax_d2": 9.4, "tmax_d3": 10.4, "tmax_d4": 13.9, "tmax_d5": 15.2, "tmax_d6": 9.6, "tmin_d0": -1.4, "tmin_d1": -0.1, "tmin_d2": 1.3, "tmin_d3": 1.0, "tmin_d4": 2.5, "tmin_d5": 2.1, "tmin_d6": -0.5, "day_of_year": 285, "uuid": "43350242-bfa7-4f40-a629-6a30ce09778b", "inat_id": 327633048}}, {"type": "Feature", "geometry": {"type": "Point", "coordinates": [-121.5250681223, 45.2754825635]}, "properties": {"species": "Psilocybe sp. 'PNW02'", "date": "2025-10-12", "location": "Wasco County, US-OR, US", "elevation": 1552.0, "land_cover_label": "Tree cover", "water_mask": false, "exclude_reason": "keep", "ndvi": null, "soil_moisture": null, "solar_exposure": null, "wind_exposure": null, "water_retention": null, "slope": null, "aspect": null, "num_identification_agreements": 2, "cluster": 2, "tavg": null, "tmin": 6.0, "tmax": 10.0, "prcp_d0": 0.0, "prcp_d1": 0.0, "prcp_d2": 1.2044357061386108, "prcp_d3": 2.6267025470733643, "prcp_d4": 0.060878288000822, "prcp_d5": 1.078832156053977e-06, "prcp_d6": 0.0, "tmax_d0": 2.7, "tmax_d1": 6.5, "tmax_d2": 10.5, "tmax_d3": 11.5, "tmax_d4": 15.0, "tmax_d5": 16.3, "tmax_d6": 10.7, "tmin_d0": -0.3, "tmin_d1": 1.0, "tmin_d2": 2.4, "tmin_d3": 2.1, "tmin_d4": 3.6, "tmin_d5": 3.2, "tmin_d6": 0.6, "day_of_year": 285, "uuid": "319cf87c-9511-422a-9962-6c3bb74f1a90", "inat_id": 327633051}}]}