{"type": "FeatureCollection", "features": [{"type": "Feature", "geometry": {"type": "Point", "coordinates": [-121.8703843076, 45.3854488228]}, "properties": {"species": "Pyrrhulomyces astragalinus", "date": "2020-10-24", "location": "Oregon, US", "elevation": 628.0, "land_cover_label": "Tree cover", "water_mask": false, "exclude_reason": "keep", "ndvi": null, "soil_moisture": null, "solar_exposure": null, "wind_exposure": null, "water_retention": null, "slope": null, "aspect": null, "num_identification_agreements": 3, "cluster": 0, "tavg": null, "tmin": 6.7, "tmax": 14.4, "prcp_d0": 0.0, "prcp_d1": 0.0, "prcp_d2": 0.0, "prcp_d3": 0.0, "prcp_d4": 0.0, "prcp_d5": 0.0, "prcp_d6": 0.0, "tmax_d0": 10.0, "tmax_d1": 9.2, "tmax_d2": 10.4, "tmax_d3": 10.5, "tmax_d4": 11.2, "tmax_d5": 12.5, "tmax_d6": 12.7, "tmin_d0": 4.5, "tmin_d1": -0.2, "tmin_d2": -2.5, "tmin_d3": 5.5, "tmin_d4": 5.6, "tmin_d5": 9.5, "tmin_d6": 8.8, "day_of_year": 298, "uuid": "d4175017-d0ac-43a6-8e53-de07f3197593", "inat_id": 64796721}}, {"type": "Feature", "geometry": {"type": "Point", "coordinates": [-122.0997916667, 45.56863]}, "properties": {"species": "Pyrrhulomyces astragalinus", "date": "2023-10-14", "location": "Zigzag Ranger Station, Corbett, OR, US", "elevation": 478.0, "land_cover_label": "Tree cover", "water_mask": false, "exclude_reason": "keep", "ndvi": null, "soil_moisture": null, "solar_exposure": null, "wind_exposure": null, "water_retention": null, "slope": null, "aspect": null, "num_identification_agreements": 1, "cluster": 0, "tavg": null, "tmin": 13.3, "tmax": 17.8, "prcp_d0": 20.96133804321289, "prcp_d1": 0.0, "prcp_d2": 0.0, "prcp_d3": 0.0, "prcp_d4": 0.0, "prcp_d5": 22.621456146240234, "prcp_d6": 0.0, "tmax_d0": 15.6, "tmax_d1": 16.1, "tmax_d2": 16.7, "tmax_d3": 11.4, "tmax_d4": 13.1, "tmax_d5": 21.2, "tmax_d6": 23.5, "tmin_d0": 9.8, "tmin_d1": 8.3, "tmin_d2": 9.6, "tmin_d3": 7.7, "tmin_d4": 9.5, "tmin_d5": 11.8, "tmin_d6": 11.3, "day_of_year": 287, "uuid": "2aa5ea44-b391-4686-9b1a-090f082b9c6f", "inat_id": 187740424}}, {"type": "Feature", "geometry": {"type": "Point", "coordinates": [-122.30575, 45.1393083333]}, "properties": {"species": "Pyrrhulomyces astragalinus", "date": "2025-11-02", "location": "Clackamas County, OR, USA", "elevation": 1093.0, "land_cover_label": "Tree cover", "water_mask": false, "exclude_reason": "keep", "ndvi": null, "soil_moisture": null, "solar_exposure": null, "wind_exposure": null, "water_retention": null, "slope": null, "aspect": null, "num_identification_agreements": 1, "cluster": 0, "tavg": null, "tmin": 5.0, "tmax": 14.0, "prcp_d0": 0.0, "prcp_d1": 0.0, "prcp_d2": 0.0, "prcp_d3": 0.0, "prcp_d4": 7.346912384033203, "prcp_d5": 0.0, "prcp_d6": 0.0, "tmax_d0": null, "tmax_d1": null, "tmax_d2": null, "tmax_d3": null, "tmax_d4": null, "tmax_d5": null, "tmax_d6": null, "tmin_d0": null, "tmin_d1": null, "tmin_d2": null, "tmin_d3": null, "tmin_d4": null, "tmin_d5": null, "tmin_d6": null, "day_of_year": 306, "uuid": "764643a7-0fd0-4d0c-8cc0-48c7f931eece", "inat_id": 324772818}}, {"type": "Feature", "geometry": {"type": "Point", "coordinates": [-108.0391166667, 37.795355]}, "properties": {"species": "Pyrrhulomyces astragalinus", "date": "2026-07-19", "location": "Dolores, CO, US", "elevation": 3101.0, "land_cover_label": "Tree cover", "water_mask": false, "exclude_reason": "keep", "ndvi": null, "soil_moisture": null, "solar_exposure": null, "wind_exposure": null, "water_retention": null, "slope": null, "aspect": null, "num_identification_agreements": 1, "cluster": 0, "tavg": null, "tmin": 11.0, "tmax": 23.7, "prcp_d0": 0.0, "prcp_d1": 0.0, "prcp_d2": 0.0, "prcp_d3": 0.0, "prcp_d4": 0.0, "prcp_d5": 0.0, "prcp_d6": 0.0, "tmax_d0": 21.1, "tmax_d1": 20.7, "tmax_d2": 19.6, "tmax_d3": 19.8, "tmax_d4": 21.8, "tmax_d5": 22.9, "tmax_d6": 23.3, "tmin_d0": 9.1, "tmin_d1": 7.8, "tmin_d2": 8.9, "tmin_d3": 6.4, "tmin_d4": 9.2, "tmin_d5": 11.2, "tmin_d6": 8.7, "day_of_year": 200, "uuid": "3d3c6aa4-dbcd-4e9c-853f-4cf21cb1ed45", "inat_id": 383169756}}]}