{"type": "FeatureCollection", "features": [{"type": "Feature", "geometry": {"type": "Point", "coordinates": [-121.457069, 45.4067719722]}, "properties": {"species": "Resupinatus applicatus", "date": "2021-05-15", "location": "Dufur, OR 97021, USA", "elevation": 1191.0, "land_cover_label": "Tree cover", "water_mask": false, "exclude_reason": "keep", "ndvi": null, "soil_moisture": null, "solar_exposure": null, "wind_exposure": null, "water_retention": null, "slope": null, "aspect": null, "num_identification_agreements": 2, "cluster": 2, "tavg": null, "tmin": 13.9, "tmax": 31.1, "prcp_d0": 0.0, "prcp_d1": 0.0, "prcp_d2": 0.0, "prcp_d3": 0.0, "prcp_d4": 5.0971527099609375, "prcp_d5": 0.0, "prcp_d6": 0.0, "tmax_d0": 21.2, "tmax_d1": 20.0, "tmax_d2": 19.4, "tmax_d3": 20.1, "tmax_d4": 17.1, "tmax_d5": 14.9, "tmax_d6": 10.0, "tmin_d0": 8.3, "tmin_d1": 10.0, "tmin_d2": 6.1, "tmin_d3": 7.9, "tmin_d4": 3.3, "tmin_d5": 0.9, "tmin_d6": 2.0, "day_of_year": 135, "uuid": "e3439dba-9bac-4224-8b5a-26e6f2fbc649", "inat_id": 79378543}}]}