{"type": "FeatureCollection", "features": [{"type": "Feature", "geometry": {"type": "Point", "coordinates": [-104.9183488338, 38.7902190988]}, "properties": {"species": "Russula sp. 'CO01'", "date": "2023-08-22", "location": "Colorado, US", "elevation": 2555.0, "land_cover_label": "Tree cover", "water_mask": false, "exclude_reason": "keep", "ndvi": null, "soil_moisture": null, "solar_exposure": null, "wind_exposure": null, "water_retention": null, "slope": null, "aspect": null, "num_identification_agreements": 2, "cluster": 0, "tavg": null, "tmin": 20.0, "tmax": 31.0, "prcp_d0": 0.0, "prcp_d1": 0.0, "prcp_d2": 0.0, "prcp_d3": 0.0, "prcp_d4": 0.0, "prcp_d5": 8.434094429016113, "prcp_d6": 0.0, "tmax_d0": 25.4, "tmax_d1": 26.3, "tmax_d2": 26.6, "tmax_d3": 26.6, "tmax_d4": 26.6, "tmax_d5": 24.2, "tmax_d6": 26.0, "tmin_d0": 9.5, "tmin_d1": 8.4, "tmin_d2": 10.6, "tmin_d3": 11.0, "tmin_d4": 10.5, "tmin_d5": 13.3, "tmin_d6": 10.0, "day_of_year": 234, "uuid": "63237cbc-a729-4682-b749-3e87b5d4e76e", "inat_id": 180702936}}, {"type": "Feature", "geometry": {"type": "Point", "coordinates": [-105.198614242, 38.8210329138]}, "properties": {"species": "Russula sp. 'CO01'", "date": "2023-08-30", "location": "Colorado, US", "elevation": 2833.0, "land_cover_label": "Tree cover", "water_mask": false, "exclude_reason": "keep", "ndvi": null, "soil_moisture": null, "solar_exposure": null, "wind_exposure": null, "water_retention": null, "slope": null, "aspect": null, "num_identification_agreements": 2, "cluster": 0, "tavg": null, "tmin": 16.0, "tmax": 28.0, "prcp_d0": 0.0, "prcp_d1": 0.0, "prcp_d2": 0.0, "prcp_d3": 0.0, "prcp_d4": 0.0, "prcp_d5": 0.0, "prcp_d6": 0.0, "tmax_d0": 25.3, "tmax_d1": 20.7, "tmax_d2": 19.3, "tmax_d3": 22.2, "tmax_d4": 21.3, "tmax_d5": 23.2, "tmax_d6": 25.1, "tmin_d0": 5.5, "tmin_d1": 3.2, "tmin_d2": 5.8, "tmin_d3": 7.8, "tmin_d4": 8.4, "tmin_d5": 11.1, "tmin_d6": 10.2, "day_of_year": 242, "uuid": "61cb20a5-4f8a-42dd-aca8-987559075164", "inat_id": 181000513}}, {"type": "Feature", "geometry": {"type": "Point", "coordinates": [-105.7530084385, 39.413712168]}, "properties": {"species": "Russula sp. 'CO01'", "date": "2024-08-12", "location": "Park County, US-CO, US", "elevation": 3062.0, "land_cover_label": "Tree cover", "water_mask": false, "exclude_reason": "keep", "ndvi": null, "soil_moisture": 0.3823667438963509, "solar_exposure": 0.7943767309188843, "wind_exposure": 0.3438759744167328, "water_retention": 0.2270872890949249, "slope": 4.348736763000488, "aspect": 338.1092834472656, "num_identification_agreements": 2, "cluster": 0, "tavg": null, "tmin": 1.8, "tmax": 14.4, "prcp_d0": 0.0, "prcp_d1": 18.08382225036621, "prcp_d2": 0.0, "prcp_d3": 0.0, "prcp_d4": 0.0, "prcp_d5": 0.0, "prcp_d6": 16.164432525634766, "tmax_d0": 19.0, "tmax_d1": 19.4, "tmax_d2": 19.6, "tmax_d3": 19.5, "tmax_d4": 20.3, "tmax_d5": 22.1, "tmax_d6": 21.5, "tmin_d0": 4.8, "tmin_d1": 3.3, "tmin_d2": 2.6, "tmin_d3": 6.8, "tmin_d4": 3.9, "tmin_d5": 4.9, "tmin_d6": 5.3, "day_of_year": 225, "uuid": "a51e90b0-d73b-4437-801f-8432f53edce2", "inat_id": 235452831}}, {"type": "Feature", "geometry": {"type": "Point", "coordinates": [-104.7962164851, 39.0840107076]}, "properties": {"species": "Russula sp. 'CO01'", "date": "2025-07-19", "location": "Colorado, US", "elevation": 2284.0, "land_cover_label": "Tree cover", "water_mask": false, "exclude_reason": "keep", "ndvi": null, "soil_moisture": 0.2739993796121718, "solar_exposure": 0.8362918496131897, "wind_exposure": 0.3273379504680633, "water_retention": 0.2777836918830871, "slope": 2.0534136295318604, "aspect": 81.29261779785156, "num_identification_agreements": 2, "cluster": 0, "tavg": null, "tmin": 13.3, "tmax": 30.3, "prcp_d0": 0.0, "prcp_d1": 6.135805130004883, "prcp_d2": 0.0, "prcp_d3": 6.135805130004883, "prcp_d4": 1.6490602493286133, "prcp_d5": 1.6490602493286133, "prcp_d6": 1.6490602493286133, "tmax_d0": 28.6, "tmax_d1": 28.9, "tmax_d2": 23.2, "tmax_d3": 27.4, "tmax_d4": 30.1, "tmax_d5": 25.9, "tmax_d6": 27.6, "tmin_d0": 11.4, "tmin_d1": 11.4, "tmin_d2": 12.9, "tmin_d3": 12.5, "tmin_d4": 11.1, "tmin_d5": 11.5, "tmin_d6": 9.7, "day_of_year": 200, "uuid": "11916286-3e7c-4ad0-a6a6-a8218ad4c9d6", "inat_id": 299411760}}]}