{"type": "FeatureCollection", "features": [{"type": "Feature", "geometry": {"type": "Point", "coordinates": [-105.763062, 39.891654]}, "properties": {"species": "Russula aeruginea", "date": "2010-08-14", "location": "Winter Park Co", "elevation": 2757.0, "land_cover_label": "Tree cover", "water_mask": false, "exclude_reason": "keep", "ndvi": null, "soil_moisture": 0.3335584942627451, "solar_exposure": 0.85365229845047, "wind_exposure": 0.248887151479721, "water_retention": 0.5283375382423401, "slope": 4.340421199798584, "aspect": 249.04898071289065, "num_identification_agreements": 2, "cluster": 2, "tavg": null, "tmin": 16.0, "tmax": 27.0, "prcp_d0": 0.0, "prcp_d1": 0.0, "prcp_d2": 0.0, "prcp_d3": 0.0, "prcp_d4": 0.0, "prcp_d5": 0.0, "prcp_d6": 0.0, "tmax_d0": 21.9, "tmax_d1": 20.5, "tmax_d2": 19.6, "tmax_d3": 21.8, "tmax_d4": 19.5, "tmax_d5": 18.3, "tmax_d6": 19.2, "tmin_d0": 5.7, "tmin_d1": 5.2, "tmin_d2": 6.0, "tmin_d3": 5.2, "tmin_d4": 4.6, "tmin_d5": 8.8, "tmin_d6": 5.8, "day_of_year": 226, "uuid": "e2153c7d-8cd7-4eb3-9dc3-2c5889e07c29", "inat_id": 383455279}}, {"type": "Feature", "geometry": {"type": "Point", "coordinates": [-105.44693, 39.6749533333]}, "properties": {"species": "Russula aeruginea", "date": "2018-08-09", "location": "23539\u201324799 Squaw Pass Rd, Evergreen, CO, US", "elevation": 2838.0, "land_cover_label": "Tree cover", "water_mask": false, "exclude_reason": "keep", "ndvi": null, "soil_moisture": 0.391691315368101, "solar_exposure": 0.7252262830734253, "wind_exposure": 0.3097779452800751, "water_retention": 0.2404579222202301, "slope": 10.597579002380373, "aspect": 29.50472068786621, "num_identification_agreements": 2, "cluster": 1, "tavg": null, "tmin": 14.0, "tmax": 31.0, "prcp_d0": 0.0, "prcp_d1": 0.0, "prcp_d2": 0.0, "prcp_d3": 0.0, "prcp_d4": 0.0, "prcp_d5": 0.0, "prcp_d6": 0.0, "tmax_d0": 19.9, "tmax_d1": 18.0, "tmax_d2": 19.1, "tmax_d3": 18.8, "tmax_d4": 20.7, "tmax_d5": 22.5, "tmax_d6": 20.6, "tmin_d0": 5.5, "tmin_d1": 5.0, "tmin_d2": 5.5, "tmin_d3": 6.1, "tmin_d4": 7.8, "tmin_d5": 7.4, "tmin_d6": 10.2, "day_of_year": 221, "uuid": "a4e82ed8-e57d-4014-b5e1-b3b6e016b33a", "inat_id": 15302806}}, {"type": "Feature", "geometry": {"type": "Point", "coordinates": [-105.8079638397, 39.483656021]}, "properties": {"species": "Russula aeruginea", "date": "2021-07-21", "location": "Park County, US-CO, US", "elevation": 3036.0, "land_cover_label": "Tree cover", "water_mask": false, "exclude_reason": "keep", "ndvi": null, "soil_moisture": 0.3472874504888662, "solar_exposure": 0.8616107106208801, "wind_exposure": 0.1466673761606216, "water_retention": 0.2464904189109802, "slope": 3.26401686668396, "aspect": 131.77743530273438, "num_identification_agreements": 1, "cluster": 2, "tavg": null, "tmin": null, "tmax": null, "prcp_d0": 5.612252235412598, "prcp_d1": 0.0, "prcp_d2": 0.0, "prcp_d3": 0.0, "prcp_d4": 0.0, "prcp_d5": 0.0, "prcp_d6": 0.0, "tmax_d0": 20.3, "tmax_d1": 23.2, "tmax_d2": 21.4, "tmax_d3": 22.6, "tmax_d4": 20.1, "tmax_d5": 19.7, "tmax_d6": 19.1, "tmin_d0": 8.0, "tmin_d1": 6.2, "tmin_d2": 6.1, "tmin_d3": 6.8, "tmin_d4": 6.4, "tmin_d5": 6.1, "tmin_d6": 4.0, "day_of_year": 202, "uuid": "06e140ed-2d45-4a91-8981-fcd9506a1b5d", "inat_id": 88155216}}, {"type": "Feature", "geometry": {"type": "Point", "coordinates": [-105.990229329, 40.4139864504]}, "properties": {"species": "Russula aeruginea", "date": "2021-08-13", "location": "Medicine Bow-Routt National Forest & Thunder Basin National Grassland, Walden, CO, US", "elevation": 2927.0, "land_cover_label": "Tree cover", "water_mask": false, "exclude_reason": "keep", "ndvi": null, "soil_moisture": 0.2681402031599766, "solar_exposure": 0.8752142190933228, "wind_exposure": 0.2515279650688171, "water_retention": 0.3167833089828491, "slope": 16.783422470092773, "aspect": 243.2613067626953, "num_identification_agreements": 1, "cluster": 2, "tavg": null, "tmin": 7.7, "tmax": 27.3, "prcp_d0": 0.0, "prcp_d1": 0.0, "prcp_d2": 0.0, "prcp_d3": 0.0, "prcp_d4": 0.0, "prcp_d5": 0.0, "prcp_d6": 0.0, "tmax_d0": 21.8, "tmax_d1": 22.9, "tmax_d2": 21.9, "tmax_d3": 20.7, "tmax_d4": 20.7, "tmax_d5": 21.3, "tmax_d6": 15.9, "tmin_d0": 7.8, "tmin_d1": 4.9, "tmin_d2": 5.7, "tmin_d3": 6.2, "tmin_d4": 7.1, "tmin_d5": 4.8, "tmin_d6": 5.5, "day_of_year": 225, "uuid": "f7bddd92-6a40-46dc-b83e-d14cca4d4faa", "inat_id": 91355830}}, {"type": "Feature", "geometry": {"type": "Point", "coordinates": [-105.7695562369, 39.8279525647]}, "properties": {"species": "Russula aeruginea", "date": "2021-08-13", "location": "Arapaho & Roosevelt National Forests Pawnee National Grassland, Parshall, CO, US", "elevation": 3198.0, "land_cover_label": "Tree cover", "water_mask": false, "exclude_reason": "keep", "ndvi": null, "soil_moisture": 0.3308030694877947, "solar_exposure": 0.8393102288246155, "wind_exposure": 0.2169799357652664, "water_retention": 0.3130085468292236, "slope": 2.435271978378296, "aspect": 90.0, "num_identification_agreements": 1, "cluster": 2, "tavg": null, "tmin": 7.7, "tmax": 27.3, "prcp_d0": 4.631547927856445, "prcp_d1": 0.0, "prcp_d2": 0.0, "prcp_d3": 0.0, "prcp_d4": 0.0, "prcp_d5": 0.0, "prcp_d6": 0.0, "tmax_d0": 17.2, "tmax_d1": 19.1, "tmax_d2": 20.5, "tmax_d3": 18.1, "tmax_d4": 18.3, "tmax_d5": 19.1, "tmax_d6": 15.7, "tmin_d0": 4.7, "tmin_d1": 8.9, "tmin_d2": 6.0, "tmin_d3": 6.5, "tmin_d4": 6.4, "tmin_d5": 3.9, "tmin_d6": 5.6, "day_of_year": 225, "uuid": "d7fcf222-8c5c-46ea-b570-c55e14183b39", "inat_id": 91007259}}, {"type": "Feature", "geometry": {"type": "Point", "coordinates": [-105.6350983421, 39.9945923365]}, "properties": {"species": "Russula aeruginea", "date": "2021-08-15", "location": "Boulder County, US-CO, US", "elevation": 3087.0, "land_cover_label": "Tree cover", "water_mask": false, "exclude_reason": "keep", "ndvi": null, "soil_moisture": 0.2763161116620559, "solar_exposure": 0.9063159823417664, "wind_exposure": 0.1439941674470901, "water_retention": 0.5338279604911804, "slope": 7.513205051422119, "aspect": 198.8121490478516, "num_identification_agreements": 1, "cluster": 2, "tavg": null, "tmin": 6.8, "tmax": 22.9, "prcp_d0": 3.5014209747314453, "prcp_d1": 0.0, "prcp_d2": 3.5014209747314453, "prcp_d3": 0.0, "prcp_d4": 0.0, "prcp_d5": 0.0, "prcp_d6": 0.0, "tmax_d0": 18.9, "tmax_d1": 21.7, "tmax_d2": 16.9, "tmax_d3": 20.3, "tmax_d4": 21.2, "tmax_d5": 19.4, "tmax_d6": 19.3, "tmin_d0": 7.2, "tmin_d1": 6.5, "tmin_d2": 5.7, "tmin_d3": 6.4, "tmin_d4": 6.2, "tmin_d5": 6.7, "tmin_d6": 9.2, "day_of_year": 227, "uuid": "92d34a26-2ec8-4ab6-992f-567820cd08e9", "inat_id": 91427172}}, {"type": "Feature", "geometry": {"type": "Point", "coordinates": [-105.4488533333, 39.6764]}, "properties": {"species": "Russula aeruginea", "date": "2022-08-29", "location": "Evergreen, CO, US", "elevation": 2808.0, "land_cover_label": "Tree cover", "water_mask": false, "exclude_reason": "keep", "ndvi": null, "soil_moisture": 0.3593604936451958, "solar_exposure": 0.6989461779594421, "wind_exposure": 0.3046867847442627, "water_retention": 0.1396752893924713, "slope": 15.537689208984377, "aspect": 49.89110565185547, "num_identification_agreements": 1, "cluster": 1, "tavg": null, "tmin": 3.0, "tmax": 13.6, "prcp_d0": 0.0, "prcp_d1": 0.0, "prcp_d2": 0.0, "prcp_d3": 0.0, "prcp_d4": 0.0, "prcp_d5": 0.0, "prcp_d6": 0.0, "tmax_d0": 19.5, "tmax_d1": 20.4, "tmax_d2": 19.3, "tmax_d3": 18.3, "tmax_d4": 20.2, "tmax_d5": 18.6, "tmax_d6": 18.5, "tmin_d0": 5.9, "tmin_d1": 6.3, "tmin_d2": 7.0, "tmin_d3": 6.1, "tmin_d4": 6.0, "tmin_d5": 5.0, "tmin_d6": 4.6, "day_of_year": 241, "uuid": "ad8c5e40-b5b6-4e36-b329-1f39580700e6", "inat_id": 132895165}}, {"type": "Feature", "geometry": {"type": "Point", "coordinates": [-105.53773361, 40.03081823]}, "properties": {"species": "Russula aeruginea", "date": "2022-09-17", "location": "Boulder County, US-CO, US", "elevation": 2936.0, "land_cover_label": "Tree cover", "water_mask": false, "exclude_reason": "keep", "ndvi": null, "soil_moisture": 0.29634014081032, "solar_exposure": 0.8210616707801819, "wind_exposure": 0.2635392844676971, "water_retention": 0.2845304608345032, "slope": 12.793855667114258, "aspect": 92.7401123046875, "num_identification_agreements": 5, "cluster": 2, "tavg": null, "tmin": 12.0, "tmax": 26.0, "prcp_d0": 0.0, "prcp_d1": 0.0, "prcp_d2": 0.0, "prcp_d3": 0.0, "prcp_d4": 0.0, "prcp_d5": 0.0, "prcp_d6": 0.0, "tmax_d0": 13.4, "tmax_d1": 14.6, "tmax_d2": 13.1, "tmax_d3": 15.5, "tmax_d4": 16.8, "tmax_d5": 18.2, "tmax_d6": 15.4, "tmin_d0": 3.9, "tmin_d1": 3.7, "tmin_d2": 4.9, "tmin_d3": 7.2, "tmin_d4": 7.1, "tmin_d5": 4.3, "tmin_d6": -1.0, "day_of_year": 260, "uuid": "5d2a7567-62f5-42c6-b34f-42045592b999", "inat_id": 135433466}}, {"type": "Feature", "geometry": {"type": "Point", "coordinates": [-105.439895, 40.1438916667]}, "properties": {"species": "Russula aeruginea", "date": "2023-07-30", "location": "Ceran St Vrain, Lyons, CO, US", "elevation": 2486.0, "land_cover_label": "Tree cover", "water_mask": false, "exclude_reason": "keep", "ndvi": null, "soil_moisture": 0.3098612332993639, "solar_exposure": 0.8377136588096619, "wind_exposure": 0.2271272391080856, "water_retention": 0.2436575293540954, "slope": 13.382269859313965, "aspect": 100.51669311523438, "num_identification_agreements": 1, "cluster": 0, "tavg": null, "tmin": 16.0, "tmax": 33.0, "prcp_d0": 0.0, "prcp_d1": 0.0, "prcp_d2": 0.0, "prcp_d3": 0.0, "prcp_d4": 0.0, "prcp_d5": 22.88115119934082, "prcp_d6": 0.0, "tmax_d0": 25.6, "tmax_d1": 22.6, "tmax_d2": 24.7, "tmax_d3": 26.3, "tmax_d4": 24.9, "tmax_d5": 26.7, "tmax_d6": 25.4, "tmin_d0": 11.4, "tmin_d1": 11.6, "tmin_d2": 10.2, "tmin_d3": 8.7, "tmin_d4": 10.9, "tmin_d5": 11.5, "tmin_d6": 11.0, "day_of_year": 211, "uuid": "4d7efd5c-71c8-4e27-b376-01d6039f1c57", "inat_id": 175813675}}, {"type": "Feature", "geometry": {"type": "Point", "coordinates": [-105.5375883333, 40.0307805]}, "properties": {"species": "Russula aeruginea", "date": "2023-08-12", "location": "County Road 116, Ward, CO, US", "elevation": 2936.0, "land_cover_label": "Tree cover", "water_mask": false, "exclude_reason": "keep", "ndvi": null, "soil_moisture": 0.2790490110876592, "solar_exposure": 0.8210616707801819, "wind_exposure": 0.2635392844676971, "water_retention": 0.2845304608345032, "slope": 12.793855667114258, "aspect": 92.7401123046875, "num_identification_agreements": 3, "cluster": 2, "tavg": null, "tmin": 17.0, "tmax": 28.0, "prcp_d0": 0.0, "prcp_d1": 0.0, "prcp_d2": 0.0, "prcp_d3": 0.0, "prcp_d4": 0.0, "prcp_d5": 8.656059265136719, "prcp_d6": 0.0, "tmax_d0": 18.0, "tmax_d1": 20.4, "tmax_d2": 18.7, "tmax_d3": 17.5, "tmax_d4": 17.9, "tmax_d5": 16.4, "tmax_d6": 15.2, "tmin_d0": 9.0, "tmin_d1": 8.0, "tmin_d2": 6.8, "tmin_d3": 2.9, "tmin_d4": 6.2, "tmin_d5": 3.9, "tmin_d6": 6.0, "day_of_year": 224, "uuid": "4d3b48fb-10ae-4730-8b01-2c07e01836ad", "inat_id": 178112652}}, {"type": "Feature", "geometry": {"type": "Point", "coordinates": [-105.2748137895, 39.4219435101]}, "properties": {"species": "Russula aeruginea", "date": "2023-08-26", "location": "Colorado, US", "elevation": 2458.0, "land_cover_label": "Tree cover", "water_mask": false, "exclude_reason": "keep", "ndvi": null, "soil_moisture": 0.2440140904815949, "solar_exposure": 0.918400764465332, "wind_exposure": 0.5319486856460571, "water_retention": 0.1146729961037635, "slope": 21.94171714782715, "aspect": 227.6468505859375, "num_identification_agreements": 2, "cluster": 2, "tavg": null, "tmin": 13.9, "tmax": 25.6, "prcp_d0": 0.0, "prcp_d1": 0.0, "prcp_d2": 0.0, "prcp_d3": 0.0, "prcp_d4": 0.0, "prcp_d5": 0.0, "prcp_d6": 0.0, "tmax_d0": 19.3, "tmax_d1": 20.2, "tmax_d2": 27.3, "tmax_d3": 28.8, "tmax_d4": 29.6, "tmax_d5": 30.8, "tmax_d6": 31.1, "tmin_d0": 10.2, "tmin_d1": 12.6, "tmin_d2": 15.5, "tmin_d3": 12.0, "tmin_d4": 13.8, "tmin_d5": 12.4, "tmin_d6": 11.4, "day_of_year": 238, "uuid": "6faf38bb-ff8b-486a-af94-5385cd44fe14", "inat_id": 202561593}}, {"type": "Feature", "geometry": {"type": "Point", "coordinates": [-105.5514173582, 40.0710579635]}, "properties": {"species": "Russula aeruginea", "date": "2023-09-02", "location": "Ward, CO 80481, USA", "elevation": 3219.0, "land_cover_label": "Tree cover", "water_mask": false, "exclude_reason": "keep", "ndvi": null, "soil_moisture": 0.2995313682246143, "solar_exposure": 0.7798255085945129, "wind_exposure": 0.3397647142410278, "water_retention": 0.4009910821914673, "slope": 5.271998405456543, "aspect": 0.0, "num_identification_agreements": 1, "cluster": 2, "tavg": null, "tmin": 20.0, "tmax": 33.0, "prcp_d0": 0.0, "prcp_d1": 0.0, "prcp_d2": 0.0, "prcp_d3": 0.0, "prcp_d4": 0.0, "prcp_d5": 0.0, "prcp_d6": 0.0, "tmax_d0": 19.1, "tmax_d1": 19.8, "tmax_d2": 19.4, "tmax_d3": 18.9, "tmax_d4": 15.7, "tmax_d5": 13.7, "tmax_d6": 17.2, "tmin_d0": 6.9, "tmin_d1": 7.8, "tmin_d2": 6.3, "tmin_d3": 4.5, "tmin_d4": 3.6, "tmin_d5": 4.8, "tmin_d6": 4.5, "day_of_year": 245, "uuid": "5a88dcf9-98b4-4700-bf2b-830e7d1c31c2", "inat_id": 181464143}}, {"type": "Feature", "geometry": {"type": "Point", "coordinates": [-105.5083316937, 40.0722081523]}, "properties": {"species": "Russula aeruginea", "date": "2023-09-04", "location": "Ward, CO, USA", "elevation": 2781.0, "land_cover_label": "Grassland", "water_mask": false, "exclude_reason": "keep", "ndvi": null, "soil_moisture": 0.3764935011360911, "solar_exposure": 0.873299777507782, "wind_exposure": 0.2641808092594147, "water_retention": 0.3000445663928985, "slope": 8.790327072143555, "aspect": 119.43383026123048, "num_identification_agreements": 1, "cluster": 2, "tavg": null, "tmin": 15.0, "tmax": 30.0, "prcp_d0": 0.0, "prcp_d1": 7.7656474113464355, "prcp_d2": 0.0, "prcp_d3": 0.0, "prcp_d4": 0.0, "prcp_d5": 0.0, "prcp_d6": 0.0, "tmax_d0": 20.3, "tmax_d1": 19.5, "tmax_d2": 21.7, "tmax_d3": 22.7, "tmax_d4": 23.4, "tmax_d5": 23.2, "tmax_d6": 16.1, "tmin_d0": 7.5, "tmin_d1": 8.7, "tmin_d2": 10.4, "tmin_d3": 10.3, "tmin_d4": 7.9, "tmin_d5": 6.6, "tmin_d6": 5.7, "day_of_year": 247, "uuid": "012d7e66-011a-4428-a777-045b22a119e4", "inat_id": 181808773}}, {"type": "Feature", "geometry": {"type": "Point", "coordinates": [-105.7750563, 39.7994284997]}, "properties": {"species": "Russula aeruginea", "date": "2023-09-05", "location": "Idaho Springs, CO 80452, USA", "elevation": 3447.0, "land_cover_label": "Tree cover", "water_mask": false, "exclude_reason": "keep", "ndvi": null, "soil_moisture": 0.3619250521747298, "solar_exposure": 0.6077973246574402, "wind_exposure": 0.3556899130344391, "water_retention": 0.202997475862503, "slope": 18.061479568481445, "aspect": 344.8807067871094, "num_identification_agreements": 1, "cluster": 1, "tavg": null, "tmin": -2.3, "tmax": 12.1, "prcp_d0": 0.0, "prcp_d1": 0.0, "prcp_d2": 0.0, "prcp_d3": 0.0, "prcp_d4": 0.0, "prcp_d5": 0.0, "prcp_d6": 0.0, "tmax_d0": 14.7, "tmax_d1": 14.7, "tmax_d2": 16.0, "tmax_d3": 18.0, "tmax_d4": 18.9, "tmax_d5": 18.3, "tmax_d6": 18.6, "tmin_d0": 0.3, "tmin_d1": 3.2, "tmin_d2": 4.6, "tmin_d3": 6.4, "tmin_d4": 5.4, "tmin_d5": 4.6, "tmin_d6": 1.4, "day_of_year": 248, "uuid": "6a08b283-9d95-4e99-9ce4-246132ad6ce1", "inat_id": 181978219}}, {"type": "Feature", "geometry": {"type": "Point", "coordinates": [-105.7064242944, 39.7947473384]}, "properties": {"species": "Russula aeruginea", "date": "2023-09-07", "location": "Colorado, US", "elevation": 3556.0, "land_cover_label": "Tree cover", "water_mask": false, "exclude_reason": "keep", "ndvi": null, "soil_moisture": 0.3281097096991159, "solar_exposure": 0.9570716619491576, "wind_exposure": 0.4576721787452698, "water_retention": 0.1453727483749389, "slope": 14.332708358764648, "aspect": 183.1806182861328, "num_identification_agreements": 1, "cluster": 2, "tavg": null, "tmin": 1.8, "tmax": 13.3, "prcp_d0": 0.0, "prcp_d1": 0.0, "prcp_d2": 0.0, "prcp_d3": 0.0, "prcp_d4": 0.0, "prcp_d5": 0.0, "prcp_d6": 0.0, "tmax_d0": 14.8, "tmax_d1": 15.9, "tmax_d2": 13.6, "tmax_d3": 13.3, "tmax_d4": 14.8, "tmax_d5": 16.7, "tmax_d6": 17.0, "tmin_d0": 3.4, "tmin_d1": 1.1, "tmin_d2": -0.8, "tmin_d3": 3.4, "tmin_d4": 4.3, "tmin_d5": 7.0, "tmin_d6": 5.7, "day_of_year": 250, "uuid": "2c3a477a-94b8-469d-8346-8084a48945ce", "inat_id": 182356672}}, {"type": "Feature", "geometry": {"type": "Point", "coordinates": [-105.0061396882, 39.0393131467]}, "properties": {"species": "Russula aeruginea", "date": "2023-09-11", "location": "Colorado Springs, CO 80921, USA", "elevation": 2803.0, "land_cover_label": "Tree cover", "water_mask": false, "exclude_reason": "keep", "ndvi": null, "soil_moisture": 0.2000986684689306, "solar_exposure": 0.8341062068939209, "wind_exposure": 0.3258371949195862, "water_retention": 0.225239410996437, "slope": 8.88443660736084, "aspect": 93.98223114013672, "num_identification_agreements": 2, "cluster": 1, "tavg": null, "tmin": 10.9, "tmax": 14.7, "prcp_d0": 16.579364776611328, "prcp_d1": 5.587175369262695, "prcp_d2": 0.0, "prcp_d3": 0.0, "prcp_d4": 0.0, "prcp_d5": 0.0, "prcp_d6": 0.0, "tmax_d0": 11.4, "tmax_d1": 19.8, "tmax_d2": 23.1, "tmax_d3": 24.7, "tmax_d4": 24.2, "tmax_d5": 24.8, "tmax_d6": 21.8, "tmin_d0": 6.4, "tmin_d1": 9.1, "tmin_d2": 9.4, "tmin_d3": 9.8, "tmin_d4": 11.5, "tmin_d5": 6.9, "tmin_d6": 9.4, "day_of_year": 254, "uuid": "4fde0e85-2143-4f3e-aad3-f24929dfccd1", "inat_id": 182988316}}, {"type": "Feature", "geometry": {"type": "Point", "coordinates": [-105.8048835347, 35.7952577552]}, "properties": {"species": "Russula aeruginea", "date": "2024-07-25", "location": "Sangre de Christo Mountains, NM, USA", "elevation": 3124.0, "land_cover_label": "Tree cover", "water_mask": false, "exclude_reason": "keep", "ndvi": null, "soil_moisture": null, "solar_exposure": null, "wind_exposure": null, "water_retention": null, "slope": null, "aspect": null, "num_identification_agreements": 1, "cluster": 2, "tavg": null, "tmin": 13.9, "tmax": 31.7, "prcp_d0": 0.0, "prcp_d1": 0.0, "prcp_d2": 0.0, "prcp_d3": 0.0, "prcp_d4": 0.0, "prcp_d5": 0.0, "prcp_d6": 0.0, "tmax_d0": 20.3, "tmax_d1": 19.6, "tmax_d2": 17.0, "tmax_d3": 13.8, "tmax_d4": 16.4, "tmax_d5": 19.1, "tmax_d6": 21.2, "tmin_d0": 6.5, "tmin_d1": 6.1, "tmin_d2": 3.8, "tmin_d3": 4.6, "tmin_d4": 6.5, "tmin_d5": 6.1, "tmin_d6": 8.8, "day_of_year": 207, "uuid": "568d51c8-58f0-4e2d-94a1-ed910db10473", "inat_id": 232759244}}, {"type": "Feature", "geometry": {"type": "Point", "coordinates": [-104.8183208343, 38.6636015367]}, "properties": {"species": "Russula aeruginea", "date": "2024-08-05", "location": "Colorado, US", "elevation": 1820.0, "land_cover_label": "Grassland", "water_mask": false, "exclude_reason": "keep", "ndvi": null, "soil_moisture": null, "solar_exposure": null, "wind_exposure": null, "water_retention": null, "slope": null, "aspect": null, "num_identification_agreements": 1, "cluster": 2, "tavg": null, "tmin": 17.0, "tmax": 33.2, "prcp_d0": 5.432907581329346, "prcp_d1": 0.0, "prcp_d2": 0.0, "prcp_d3": 5.432907581329346, "prcp_d4": 0.0, "prcp_d5": 0.0, "prcp_d6": 0.0, "tmax_d0": 33.7, "tmax_d1": 34.6, "tmax_d2": 35.2, "tmax_d3": 33.3, "tmax_d4": 33.9, "tmax_d5": 34.9, "tmax_d6": 36.2, "tmin_d0": 19.9, "tmin_d1": 17.9, "tmin_d2": 19.4, "tmin_d3": 18.1, "tmin_d4": 16.9, "tmin_d5": 18.3, "tmin_d6": 16.7, "day_of_year": 218, "uuid": "7de3a5ec-9096-4141-a3e0-556e8096858d", "inat_id": 234180232}}, {"type": "Feature", "geometry": {"type": "Point", "coordinates": [-106.6241187704, 35.9958334262]}, "properties": {"species": "Russula aeruginea", "date": "2024-08-05", "location": "Sandoval County, US-NM, US", "elevation": 2784.0, "land_cover_label": "Tree cover", "water_mask": false, "exclude_reason": "keep", "ndvi": null, "soil_moisture": null, "solar_exposure": null, "wind_exposure": null, "water_retention": null, "slope": null, "aspect": null, "num_identification_agreements": 1, "cluster": 2, "tavg": null, "tmin": 18.7, "tmax": 30.4, "prcp_d0": 0.0, "prcp_d1": 10.168534278869627, "prcp_d2": 0.0, "prcp_d3": 0.0, "prcp_d4": 5.084267139434815, "prcp_d5": 0.0, "prcp_d6": 0.0, "tmax_d0": 26.7, "tmax_d1": 24.3, "tmax_d2": 25.1, "tmax_d3": 24.7, "tmax_d4": 25.1, "tmax_d5": 26.2, "tmax_d6": 24.8, "tmin_d0": 11.8, "tmin_d1": 11.9, "tmin_d2": 12.4, "tmin_d3": 12.8, "tmin_d4": 12.5, "tmin_d5": 12.6, "tmin_d6": 12.2, "day_of_year": 218, "uuid": "066377b0-3263-4fcb-828b-37da1ea41b7e", "inat_id": 234225610}}, {"type": "Feature", "geometry": {"type": "Point", "coordinates": [-105.518832542, 40.0882538648]}, "properties": {"species": "Russula aeruginea", "date": "2024-09-02", "location": "Ward, CO 80481, USA", "elevation": 2902.0, "land_cover_label": "Tree cover", "water_mask": false, "exclude_reason": "keep", "ndvi": null, "soil_moisture": 0.2135833423962375, "solar_exposure": 0.677501380443573, "wind_exposure": 0.3180685043334961, "water_retention": 0.5180001258850098, "slope": 13.22011947631836, "aspect": 13.968231201171877, "num_identification_agreements": 1, "cluster": 2, "tavg": null, "tmin": 13.0, "tmax": 32.0, "prcp_d0": 0.0, "prcp_d1": 0.0, "prcp_d2": 0.0, "prcp_d3": 0.0, "prcp_d4": 0.0286777261644601, "prcp_d5": 0.0, "prcp_d6": 1.006600260734558, "tmax_d0": 18.8, "tmax_d1": 16.8, "tmax_d2": 18.4, "tmax_d3": 16.8, "tmax_d4": 18.4, "tmax_d5": 21.5, "tmax_d6": 17.6, "tmin_d0": 6.1, "tmin_d1": 8.4, "tmin_d2": 7.4, "tmin_d3": 6.8, "tmin_d4": 8.6, "tmin_d5": 6.1, "tmin_d6": 7.3, "day_of_year": 246, "uuid": "b0794a7d-4ff2-4fff-9902-c76b73e2ae37", "inat_id": 239647080}}, {"type": "Feature", "geometry": {"type": "Point", "coordinates": [-105.2807866667, 36.3784783333]}, "properties": {"species": "Russula aeruginea", "date": "2024-09-04", "location": "Angel Fire, NM, US", "elevation": 2637.0, "land_cover_label": "Tree cover", "water_mask": false, "exclude_reason": "keep", "ndvi": null, "soil_moisture": null, "solar_exposure": null, "wind_exposure": null, "water_retention": null, "slope": null, "aspect": null, "num_identification_agreements": 1, "cluster": 2, "tavg": null, "tmin": 0.5, "tmax": 25.3, "prcp_d0": 0.0, "prcp_d1": 0.0, "prcp_d2": 0.0, "prcp_d3": 0.0, "prcp_d4": 0.0, "prcp_d5": 6.367806911468506, "prcp_d6": 5.236474514007568, "tmax_d0": 23.3, "tmax_d1": 22.4, "tmax_d2": 19.0, "tmax_d3": 18.8, "tmax_d4": 20.8, "tmax_d5": 18.7, "tmax_d6": 19.5, "tmin_d0": 9.0, "tmin_d1": 6.5, "tmin_d2": 4.1, "tmin_d3": 6.6, "tmin_d4": 5.5, "tmin_d5": 8.3, "tmin_d6": 8.1, "day_of_year": 248, "uuid": "4fc2cd4c-3d77-4223-bea2-2c54661d14c6", "inat_id": 240545040}}, {"type": "Feature", "geometry": {"type": "Point", "coordinates": [-105.7883779722, 39.8112289722]}, "properties": {"species": "Russula aeruginea", "date": "2024-09-05", "location": "Winter Park, CO 80482, USA", "elevation": 3435.0, "land_cover_label": "Tree cover", "water_mask": false, "exclude_reason": "keep", "ndvi": null, "soil_moisture": 0.2734277066800903, "solar_exposure": 0.8464441299438477, "wind_exposure": 0.2317184805870056, "water_retention": 0.3530745804309845, "slope": 11.930139541625977, "aspect": 103.36844635009766, "num_identification_agreements": 1, "cluster": 2, "tavg": null, "tmin": -2.7, "tmax": 7.1, "prcp_d0": 0.0, "prcp_d1": 0.0, "prcp_d2": 0.0, "prcp_d3": 0.0, "prcp_d4": 0.0, "prcp_d5": 0.0037900351453572, "prcp_d6": 0.0, "tmax_d0": 10.9, "tmax_d1": 14.1, "tmax_d2": 16.2, "tmax_d3": 16.5, "tmax_d4": 14.6, "tmax_d5": 16.7, "tmax_d6": 16.5, "tmin_d0": -0.6, "tmin_d1": 4.2, "tmin_d2": 4.3, "tmin_d3": 1.8, "tmin_d4": 3.8, "tmin_d5": 4.4, "tmin_d6": -0.2, "day_of_year": 249, "uuid": "bb2abb77-ace4-4880-80c7-fd5572596b31", "inat_id": 240183138}}, {"type": "Feature", "geometry": {"type": "Point", "coordinates": [-105.4631277778, 36.2618055556]}, "properties": {"species": "Russula aeruginea", "date": "2024-09-08", "location": "Taos, NM 87571, USA", "elevation": 2700.0, "land_cover_label": "Tree cover", "water_mask": false, "exclude_reason": "keep", "ndvi": null, "soil_moisture": null, "solar_exposure": null, "wind_exposure": null, "water_retention": null, "slope": null, "aspect": null, "num_identification_agreements": 1, "cluster": 3, "tavg": null, "tmin": 1.3, "tmax": 21.8, "prcp_d0": 0.0, "prcp_d1": 0.0, "prcp_d2": 6.26268482208252, "prcp_d3": 10.217778205871582, "prcp_d4": 0.0, "prcp_d5": 0.0, "prcp_d6": 0.0, "tmax_d0": 20.0, "tmax_d1": 19.5, "tmax_d2": 19.9, "tmax_d3": 21.3, "tmax_d4": 23.0, "tmax_d5": 21.4, "tmax_d6": 19.4, "tmin_d0": 9.7, "tmin_d1": 5.7, "tmin_d2": 5.2, "tmin_d3": 8.1, "tmin_d4": 9.1, "tmin_d5": 6.7, "tmin_d6": 5.0, "day_of_year": 252, "uuid": "ec8f7905-50af-47b8-932d-00d7bedc00d2", "inat_id": 241057572}}, {"type": "Feature", "geometry": {"type": "Point", "coordinates": [-105.7573069, 39.8423537]}, "properties": {"species": "Russula aeruginea", "date": "2024-09-13", "location": "Winter Park, CO 80482, USA", "elevation": 3122.0, "land_cover_label": "Bare / sparse vegetation", "water_mask": false, "exclude_reason": "keep", "ndvi": null, "soil_moisture": 0.2875062435540478, "solar_exposure": 0.7277126312255859, "wind_exposure": 0.3328873217105865, "water_retention": 0.0818609595298767, "slope": 33.23915481567383, "aspect": 95.70393371582033, "num_identification_agreements": 1, "cluster": 1, "tavg": null, "tmin": -0.9, "tmax": 11.4, "prcp_d0": 0.0006694498588331, "prcp_d1": 0.551056981086731, "prcp_d2": 9.997714042663574, "prcp_d3": 0.0, "prcp_d4": 0.0, "prcp_d5": 0.0, "prcp_d6": 0.0, "tmax_d0": 16.1, "tmax_d1": 17.6, "tmax_d2": 15.8, "tmax_d3": 16.9, "tmax_d4": 17.9, "tmax_d5": 17.6, "tmax_d6": 17.2, "tmin_d0": 1.8, "tmin_d1": -0.1, "tmin_d2": -0.6, "tmin_d3": 3.8, "tmin_d4": 3.0, "tmin_d5": 2.6, "tmin_d6": 1.2, "day_of_year": 257, "uuid": "d7bafde6-c931-4116-8596-ef55f56a6511", "inat_id": 241557499}}, {"type": "Feature", "geometry": {"type": "Point", "coordinates": [-105.448874, 39.6765019722]}, "properties": {"species": "Russula aeruginea", "date": "2024-09-17", "location": "Clear Creek County, US-CO, US", "elevation": 2808.0, "land_cover_label": "Tree cover", "water_mask": false, "exclude_reason": "keep", "ndvi": null, "soil_moisture": 0.2797131690540589, "solar_exposure": 0.6989461779594421, "wind_exposure": 0.3046867847442627, "water_retention": 0.1396752893924713, "slope": 15.537689208984377, "aspect": 49.89110565185547, "num_identification_agreements": 1, "cluster": 1, "tavg": null, "tmin": -1.8, "tmax": 10.0, "prcp_d0": 0.0, "prcp_d1": 0.0, "prcp_d2": 0.440337210893631, "prcp_d3": 0.0052966168150305, "prcp_d4": 0.0, "prcp_d5": 0.2718283534049988, "prcp_d6": 4.916375637054443, "tmax_d0": 18.6, "tmax_d1": 18.8, "tmax_d2": 20.4, "tmax_d3": 21.3, "tmax_d4": 18.9, "tmax_d5": 21.3, "tmax_d6": 19.6, "tmin_d0": 3.9, "tmin_d1": 2.9, "tmin_d2": 4.5, "tmin_d3": 2.6, "tmin_d4": 3.8, "tmin_d5": 3.6, "tmin_d6": 5.0, "day_of_year": 261, "uuid": "24ff8519-4b64-4d36-a588-2e4072c4a27c", "inat_id": 244430733}}, {"type": "Feature", "geometry": {"type": "Point", "coordinates": [-105.54045, 40.0307471667]}, "properties": {"species": "Russula aeruginea", "date": "2025-06-13", "location": "County Road 116, Nederland, CO, US", "elevation": 2972.0, "land_cover_label": "Tree cover", "water_mask": false, "exclude_reason": "keep", "ndvi": null, "soil_moisture": 0.338431452289395, "solar_exposure": 0.8328374028205872, "wind_exposure": 0.3037276566028595, "water_retention": 0.2705229222774505, "slope": 11.290831565856934, "aspect": 96.2430648803711, "num_identification_agreements": 1, "cluster": 2, "tavg": null, "tmin": 13.0, "tmax": 31.0, "prcp_d0": 3.612410068511963, "prcp_d1": 5.3441572189331055, "prcp_d2": 1.296969652175903, "prcp_d3": 0.0, "prcp_d4": 0.0, "prcp_d5": 0.0, "prcp_d6": 0.0, "tmax_d0": 20.3, "tmax_d1": 19.0, "tmax_d2": 18.0, "tmax_d3": 18.7, "tmax_d4": 16.2, "tmax_d5": 14.6, "tmax_d6": 15.7, "tmin_d0": 7.7, "tmin_d1": 6.6, "tmin_d2": 6.2, "tmin_d3": 5.2, "tmin_d4": 1.0, "tmin_d5": 2.5, "tmin_d6": 1.6, "day_of_year": 164, "uuid": "38a7b38c-dc7a-49e9-a918-bfff7cdf6c07", "inat_id": 289557177}}, {"type": "Feature", "geometry": {"type": "Point", "coordinates": [-105.8000162108, 35.796340337]}, "properties": {"species": "Russula aeruginea", "date": "2025-08-01", "location": "US-285 N, Santa Fe, NM, US", "elevation": 3166.0, "land_cover_label": "Tree cover", "water_mask": false, "exclude_reason": "keep", "ndvi": null, "soil_moisture": null, "solar_exposure": null, "wind_exposure": null, "water_retention": null, "slope": null, "aspect": null, "num_identification_agreements": 1, "cluster": 2, "tavg": null, "tmin": 13.9, "tmax": 30.0, "prcp_d0": 0.0, "prcp_d1": 7.859631538391113, "prcp_d2": 0.0, "prcp_d3": 7.859631538391113, "prcp_d4": 3.9298157691955566, "prcp_d5": 0.0, "prcp_d6": 0.0, "tmax_d0": 18.0, "tmax_d1": 17.3, "tmax_d2": 19.0, "tmax_d3": 16.8, "tmax_d4": 22.2, "tmax_d5": 22.5, "tmax_d6": 20.3, "tmin_d0": 5.6, "tmin_d1": 3.6, "tmin_d2": 6.5, "tmin_d3": 7.3, "tmin_d4": 7.3, "tmin_d5": 9.6, "tmin_d6": 7.3, "day_of_year": 213, "uuid": "ff9a997a-1c85-42fa-a595-bf66990c0440", "inat_id": 308107753}}, {"type": "Feature", "geometry": {"type": "Point", "coordinates": [-105.0201384102, 38.8866121109]}, "properties": {"species": "Russula aeruginea", "date": "2025-08-24", "location": "Colorado, US", "elevation": 2793.0, "land_cover_label": "Tree cover", "water_mask": false, "exclude_reason": "keep", "ndvi": null, "soil_moisture": null, "solar_exposure": null, "wind_exposure": null, "water_retention": null, "slope": null, "aspect": null, "num_identification_agreements": 1, "cluster": 3, "tavg": null, "tmin": 12.3, "tmax": 25.6, "prcp_d0": 10.847832679748535, "prcp_d1": 21.69566535949707, "prcp_d2": 10.847832679748535, "prcp_d3": 0.0, "prcp_d4": 0.0, "prcp_d5": 0.0, "prcp_d6": 0.0, "tmax_d0": 19.4, "tmax_d1": 17.9, "tmax_d2": 23.1, "tmax_d3": 24.2, "tmax_d4": 22.1, "tmax_d5": 20.7, "tmax_d6": 21.3, "tmin_d0": 10.5, "tmin_d1": 9.0, "tmin_d2": 13.3, "tmin_d3": 11.4, "tmin_d4": 10.4, "tmin_d5": 10.8, "tmin_d6": 13.3, "day_of_year": 236, "uuid": "23f3f5f9-1189-43f9-8e17-bdfa32483fe2", "inat_id": 308862646}}, {"type": "Feature", "geometry": {"type": "Point", "coordinates": [-104.9441170997, 38.7370418]}, "properties": {"species": "Russula aeruginea", "date": "2025-08-26", "location": "Manitou Springs, CO 80829, USA", "elevation": 3031.0, "land_cover_label": "Tree cover", "water_mask": false, "exclude_reason": "keep", "ndvi": null, "soil_moisture": null, "solar_exposure": null, "wind_exposure": null, "water_retention": null, "slope": null, "aspect": null, "num_identification_agreements": 2, "cluster": 3, "tavg": null, "tmin": 13.0, "tmax": 15.0, "prcp_d0": 0.0, "prcp_d1": 23.10459327697754, "prcp_d2": 23.10459327697754, "prcp_d3": 23.10459327697754, "prcp_d4": 11.55229663848877, "prcp_d5": 0.0, "prcp_d6": 0.0, "tmax_d0": 14.8, "tmax_d1": 14.5, "tmax_d2": 17.6, "tmax_d3": 16.3, "tmax_d4": 21.9, "tmax_d5": 22.2, "tmax_d6": 20.3, "tmin_d0": 7.7, "tmin_d1": 6.9, "tmin_d2": 8.1, "tmin_d3": 8.1, "tmin_d4": 10.5, "tmin_d5": 9.2, "tmin_d6": 8.7, "day_of_year": 238, "uuid": "35a9b86f-9207-4136-b6b0-9ec86cf23b7d", "inat_id": 309413368}}, {"type": "Feature", "geometry": {"type": "Point", "coordinates": [-105.80507778, 35.79590556]}, "properties": {"species": "Russula aeruginea", "date": "2025-09-11", "location": "Santa Fe, New Mexico, United States", "elevation": 3198.0, "land_cover_label": "Tree cover", "water_mask": false, "exclude_reason": "keep", "ndvi": null, "soil_moisture": null, "solar_exposure": null, "wind_exposure": null, "water_retention": null, "slope": null, "aspect": null, "num_identification_agreements": 1, "cluster": 3, "tavg": null, "tmin": 13.0, "tmax": 28.0, "prcp_d0": 0.0, "prcp_d1": 23.24263381958008, "prcp_d2": 0.0, "prcp_d3": 0.0, "prcp_d4": 0.0, "prcp_d5": 0.0, "prcp_d6": 0.0, "tmax_d0": 16.2, "tmax_d1": 17.9, "tmax_d2": 18.0, "tmax_d3": 17.0, "tmax_d4": 15.8, "tmax_d5": 13.7, "tmax_d6": 13.3, "tmin_d0": 7.7, "tmin_d1": 7.5, "tmin_d2": 6.0, "tmin_d3": 6.6, "tmin_d4": 5.3, "tmin_d5": 3.2, "tmin_d6": 4.3, "day_of_year": 254, "uuid": "461c0941-12f8-410e-8883-f2882d6d282b", "inat_id": 313229654}}]}