{"type": "FeatureCollection", "features": [{"type": "Feature", "geometry": {"type": "Point", "coordinates": [-105.6836561819, 39.8024209434]}, "properties": {"species": "Russula sp. 'Woo13'", "date": "2024-08-22", "location": "Colorado, US", "elevation": 3280.0, "land_cover_label": "Tree cover", "water_mask": false, "exclude_reason": "keep", "ndvi": null, "soil_moisture": 0.3147307256543485, "solar_exposure": 0.9244560599327089, "wind_exposure": 0.2857484817504883, "water_retention": 0.2439859807491302, "slope": 10.068663597106934, "aspect": 161.37611389160156, "num_identification_agreements": 1, "cluster": 2, "tavg": null, "tmin": 3.6, "tmax": 11.4, "prcp_d0": 9.383399963378906, "prcp_d1": 2.259861469268799, "prcp_d2": 0.0, "prcp_d3": 0.0, "prcp_d4": 0.0, "prcp_d5": 0.0, "prcp_d6": 0.0, "tmax_d0": null, "tmax_d1": null, "tmax_d2": null, "tmax_d3": null, "tmax_d4": null, "tmax_d5": null, "tmax_d6": null, "tmin_d0": null, "tmin_d1": null, "tmin_d2": null, "tmin_d3": null, "tmin_d4": null, "tmin_d5": null, "tmin_d6": null, "day_of_year": 235, "uuid": "25142b6e-79d4-4ed6-bc5f-9ca7b8ea37dc", "inat_id": 237420158}}, {"type": "Feature", "geometry": {"type": "Point", "coordinates": [-121.7372100055, 45.2779329954]}, "properties": {"species": "Russula sp. 'Woo13'", "date": "2024-09-16", "location": "Clackamas County, US-OR, US", "elevation": 1112.0, "land_cover_label": "Tree cover", "water_mask": false, "exclude_reason": "keep", "ndvi": null, "soil_moisture": null, "solar_exposure": null, "wind_exposure": null, "water_retention": null, "slope": null, "aspect": null, "num_identification_agreements": 2, "cluster": 2, "tavg": null, "tmin": 11.2, "tmax": 25.9, "prcp_d0": 0.0, "prcp_d1": 0.0, "prcp_d2": 0.0, "prcp_d3": 0.0, "prcp_d4": 0.0, "prcp_d5": 9.45176887512207, "prcp_d6": 0.0, "tmax_d0": null, "tmax_d1": null, "tmax_d2": null, "tmax_d3": null, "tmax_d4": null, "tmax_d5": null, "tmax_d6": null, "tmin_d0": null, "tmin_d1": null, "tmin_d2": null, "tmin_d3": null, "tmin_d4": null, "tmin_d5": null, "tmin_d6": null, "day_of_year": 260, "uuid": "5b14112a-4cef-485d-b7a4-005006fd0bed", "inat_id": 242221089}}, {"type": "Feature", "geometry": {"type": "Point", "coordinates": [-105.6246310072, 39.8225298871]}, "properties": {"species": "Russula sp. 'Woo13'", "date": "2025-08-17", "location": "Colorado, US", "elevation": 3314.0, "land_cover_label": "Tree cover", "water_mask": false, "exclude_reason": "keep", "ndvi": null, "soil_moisture": 0.3731738221776747, "solar_exposure": 0.8232592940330505, "wind_exposure": 0.4436177909374237, "water_retention": 0.1848952025175094, "slope": 8.092010498046875, "aspect": 274.37896728515625, "num_identification_agreements": 1, "cluster": 2, "tavg": null, "tmin": 3.0, "tmax": 12.0, "prcp_d0": 0.0, "prcp_d1": 0.0, "prcp_d2": 0.0, "prcp_d3": 0.0, "prcp_d4": 0.0, "prcp_d5": 0.0, "prcp_d6": 0.0, "tmax_d0": null, "tmax_d1": null, "tmax_d2": null, "tmax_d3": null, "tmax_d4": null, "tmax_d5": null, "tmax_d6": null, "tmin_d0": null, "tmin_d1": null, "tmin_d2": null, "tmin_d3": null, "tmin_d4": null, "tmin_d5": null, "tmin_d6": null, "day_of_year": 229, "uuid": "6d1b8737-eae4-4ab4-bd8e-fa4f5001a2c0", "inat_id": 307190432}}]}