{"type": "FeatureCollection", "features": [{"type": "Feature", "geometry": {"type": "Point", "coordinates": [-105.53682, 40.0316805]}, "properties": {"species": "Russula sp. 'IUMQ4342'", "date": "2023-08-12", "location": "County Road 116, Ward, CO, US", "elevation": 2911.0, "land_cover_label": "Tree cover", "water_mask": false, "exclude_reason": "keep", "ndvi": null, "soil_moisture": 0.2788995645668143, "solar_exposure": 0.917682945728302, "wind_exposure": 0.279572069644928, "water_retention": 0.3006027936935425, "slope": 10.144049644470217, "aspect": 151.6147918701172, "num_identification_agreements": 4, "cluster": 0, "tavg": null, "tmin": 17.0, "tmax": 28.0, "prcp_d0": 0.0, "prcp_d1": 0.0, "prcp_d2": 0.0, "prcp_d3": 0.0, "prcp_d4": 0.0, "prcp_d5": 8.656059265136719, "prcp_d6": 0.0, "tmax_d0": 18.0, "tmax_d1": 20.4, "tmax_d2": 18.7, "tmax_d3": 17.5, "tmax_d4": 17.9, "tmax_d5": 16.4, "tmax_d6": 15.2, "tmin_d0": 9.0, "tmin_d1": 8.0, "tmin_d2": 6.8, "tmin_d3": 2.9, "tmin_d4": 6.2, "tmin_d5": 3.9, "tmin_d6": 6.0, "day_of_year": 224, "uuid": "1d9ac6b2-830a-48a8-9d9b-dd7076ce79ab", "inat_id": 178111047}}, {"type": "Feature", "geometry": {"type": "Point", "coordinates": [-105.5367366667, 40.0317]}, "properties": {"species": "Russula sp. 'IUMQ4342'", "date": "2023-08-12", "location": "County Road 116, Ward, CO, US", "elevation": 2911.0, "land_cover_label": "Tree cover", "water_mask": false, "exclude_reason": "keep", "ndvi": null, "soil_moisture": 0.2788820124923884, "solar_exposure": 0.917682945728302, "wind_exposure": 0.279572069644928, "water_retention": 0.3006027936935425, "slope": 10.144049644470217, "aspect": 151.6147918701172, "num_identification_agreements": 4, "cluster": 0, "tavg": null, "tmin": 17.0, "tmax": 28.0, "prcp_d0": 0.0, "prcp_d1": 0.0, "prcp_d2": 0.0, "prcp_d3": 0.0, "prcp_d4": 0.0, "prcp_d5": 8.656059265136719, "prcp_d6": 0.0, "tmax_d0": 18.0, "tmax_d1": 20.4, "tmax_d2": 18.7, "tmax_d3": 17.5, "tmax_d4": 17.9, "tmax_d5": 16.4, "tmax_d6": 15.2, "tmin_d0": 9.0, "tmin_d1": 8.0, "tmin_d2": 6.8, "tmin_d3": 2.9, "tmin_d4": 6.2, "tmin_d5": 3.9, "tmin_d6": 6.0, "day_of_year": 224, "uuid": "470f1da7-5eed-41b0-a3a4-63a98e4a1ed7", "inat_id": 178110621}}, {"type": "Feature", "geometry": {"type": "Point", "coordinates": [-104.8882085887, 39.1283240238]}, "properties": {"species": "Russula sp. 'IUMQ4342'", "date": "2023-09-15", "location": "Colorado, US", "elevation": 2226.0, "land_cover_label": "Grassland", "water_mask": false, "exclude_reason": "keep", "ndvi": null, "soil_moisture": 0.3330257492329151, "solar_exposure": 0.7794197201728821, "wind_exposure": 0.333451360464096, "water_retention": 0.2850791215896606, "slope": 5.513790607452393, "aspect": 342.9195861816406, "num_identification_agreements": 2, "cluster": 0, "tavg": null, "tmin": 5.0, "tmax": 12.9, "prcp_d0": 0.0, "prcp_d1": 0.0, "prcp_d2": 0.0, "prcp_d3": 0.0, "prcp_d4": 27.80648803710937, "prcp_d5": 0.0, "prcp_d6": 0.0, "tmax_d0": 10.9, "tmax_d1": 18.1, "tmax_d2": 19.9, "tmax_d3": 16.9, "tmax_d4": 13.9, "tmax_d5": 23.8, "tmax_d6": 26.3, "tmin_d0": 6.8, "tmin_d1": 5.4, "tmin_d2": 6.1, "tmin_d3": 8.2, "tmin_d4": 9.5, "tmin_d5": 10.3, "tmin_d6": 9.2, "day_of_year": 258, "uuid": "8056f8b0-0d95-48f6-b769-414e30834bbe", "inat_id": 183462278}}]}