{"type": "FeatureCollection", "features": [{"type": "Feature", "geometry": {"type": "Point", "coordinates": [-106.6468938813, 35.8848484694]}, "properties": {"species": "Russula sardonia", "date": "2024-07-04", "location": "V9M3+W5, Jemez Springs, NM 87025, USA", "elevation": 2359.0, "land_cover_label": "Tree cover", "water_mask": false, "exclude_reason": "keep", "ndvi": null, "soil_moisture": null, "solar_exposure": null, "wind_exposure": null, "water_retention": null, "slope": null, "aspect": null, "num_identification_agreements": 1, "cluster": 3, "tavg": null, "tmin": 17.5, "tmax": 30.5, "prcp_d0": 0.0, "prcp_d1": 0.0, "prcp_d2": 7.187918663024902, "prcp_d3": 7.187918663024902, "prcp_d4": 15.445051193237305, "prcp_d5": 0.0, "prcp_d6": 0.0, "tmax_d0": null, "tmax_d1": null, "tmax_d2": null, "tmax_d3": null, "tmax_d4": null, "tmax_d5": null, "tmax_d6": null, "tmin_d0": null, "tmin_d1": null, "tmin_d2": null, "tmin_d3": null, "tmin_d4": null, "tmin_d5": null, "tmin_d6": null, "day_of_year": 186, "uuid": "f127c9cf-86ee-4c00-ad6d-22f3f4751572", "inat_id": 227813832}}]}