{"type": "FeatureCollection", "features": [{"type": "Feature", "geometry": {"type": "Point", "coordinates": [-105.81081389, 35.77390556]}, "properties": {"species": "Russula densifolia dilatoria", "date": "2025-09-24", "location": "Santa Fe, New Mexico, United States", "elevation": 2979.0, "land_cover_label": "Tree cover", "water_mask": false, "exclude_reason": "keep", "ndvi": null, "soil_moisture": null, "solar_exposure": null, "wind_exposure": null, "water_retention": null, "slope": null, "aspect": null, "num_identification_agreements": 3, "cluster": 0, "tavg": null, "tmin": 6.0, "tmax": 22.0, "prcp_d0": 0.0, "prcp_d1": 0.0, "prcp_d2": 0.0, "prcp_d3": 0.0, "prcp_d4": 0.0, "prcp_d5": 0.0, "prcp_d6": 0.0, "tmax_d0": 12.8, "tmax_d1": 12.9, "tmax_d2": 16.0, "tmax_d3": 16.7, "tmax_d4": 15.7, "tmax_d5": 14.9, "tmax_d6": 15.7, "tmin_d0": 0.4, "tmin_d1": 3.3, "tmin_d2": 7.7, "tmin_d3": 6.7, "tmin_d4": 5.9, "tmin_d5": 4.4, "tmin_d6": 5.3, "day_of_year": 267, "uuid": "b867ea63-4c93-4d0c-a5f1-1d2d11718edf", "inat_id": 316594217}}]}