{"type": "FeatureCollection", "features": [{"type": "Feature", "geometry": {"type": "Point", "coordinates": [-107.787225, 38.1118445]}, "properties": {"species": "Russula sp. 'brevipes-CO01'", "date": "2024-09-05", "location": "Highland Dr, Ridgway, CO, US", "elevation": 2641.0, "land_cover_label": "Tree cover", "water_mask": false, "exclude_reason": "keep", "ndvi": null, "soil_moisture": null, "solar_exposure": null, "wind_exposure": null, "water_retention": null, "slope": null, "aspect": null, "num_identification_agreements": 2, "cluster": 2, "tavg": null, "tmin": 10.0, "tmax": 20.0, "prcp_d0": 0.0, "prcp_d1": 0.0, "prcp_d2": 0.0, "prcp_d3": 0.0, "prcp_d4": 5.463916778564453, "prcp_d5": 0.0544811598956584, "prcp_d6": 1.3577123880386353, "tmax_d0": 20.7, "tmax_d1": 22.9, "tmax_d2": 23.3, "tmax_d3": 21.8, "tmax_d4": 21.3, "tmax_d5": 22.7, "tmax_d6": 22.0, "tmin_d0": 3.6, "tmin_d1": 4.6, "tmin_d2": 3.8, "tmin_d3": 5.2, "tmin_d4": 4.1, "tmin_d5": 3.1, "tmin_d6": 3.1, "day_of_year": 249, "uuid": "d3c76f33-e514-44e8-a657-451d48df077d", "inat_id": 240135890}}]}