{"type": "FeatureCollection", "features": [{"type": "Feature", "geometry": {"type": "Point", "coordinates": [-104.7914922237, 39.0619019814]}, "properties": {"species": "Russula brevipes acrior", "date": "2022-08-08", "location": "Colorado Springs, CO 80921, USA", "elevation": 2250.0, "land_cover_label": "Tree cover", "water_mask": false, "exclude_reason": "keep", "ndvi": null, "soil_moisture": 0.2101772138163545, "solar_exposure": 0.904097616672516, "wind_exposure": 0.3586205542087555, "water_retention": 0.325020432472229, "slope": 7.100310325622559, "aspect": 196.5304107666016, "num_identification_agreements": 2, "cluster": 0, "tavg": null, "tmin": 12.8, "tmax": 25.3, "prcp_d0": 9.419435501098633, "prcp_d1": 4.709717750549316, "prcp_d2": 4.709717750549316, "prcp_d3": 8.485983848571777, "prcp_d4": 0.0, "prcp_d5": 0.0, "prcp_d6": 0.0, "tmax_d0": null, "tmax_d1": null, "tmax_d2": null, "tmax_d3": null, "tmax_d4": null, "tmax_d5": null, "tmax_d6": null, "tmin_d0": null, "tmin_d1": null, "tmin_d2": null, "tmin_d3": null, "tmin_d4": null, "tmin_d5": null, "tmin_d6": null, "day_of_year": 220, "uuid": "2851f79f-7bd2-436b-a471-cc04ef818622", "inat_id": 134988153}}, {"type": "Feature", "geometry": {"type": "Point", "coordinates": [-104.8234304865, 38.6438967742]}, "properties": {"species": "Russula brevipes acrior", "date": "2025-09-05", "location": "Colorado, US", "elevation": 1962.0, "land_cover_label": "Grassland", "water_mask": false, "exclude_reason": "keep", "ndvi": null, "soil_moisture": null, "solar_exposure": null, "wind_exposure": null, "water_retention": null, "slope": null, "aspect": null, "num_identification_agreements": 2, "cluster": 0, "tavg": null, "tmin": 9.0, "tmax": 17.0, "prcp_d0": 0.0, "prcp_d1": 0.0, "prcp_d2": 0.0, "prcp_d3": 0.0, "prcp_d4": 0.0, "prcp_d5": 0.0, "prcp_d6": 0.0, "tmax_d0": null, "tmax_d1": null, "tmax_d2": null, "tmax_d3": null, "tmax_d4": null, "tmax_d5": null, "tmax_d6": null, "tmin_d0": null, "tmin_d1": null, "tmin_d2": null, "tmin_d3": null, "tmin_d4": null, "tmin_d5": null, "tmin_d6": null, "day_of_year": 248, "uuid": "298226e3-114e-462c-8dfa-21a6b9b59b63", "inat_id": 311845600}}]}