{"type": "FeatureCollection", "features": [{"type": "Feature", "geometry": {"type": "Point", "coordinates": [-122.068403749, 45.2524294464]}, "properties": {"species": "Russula benwooii", "date": "2024-08-08", "location": "Clackamas County, OR, USA", "elevation": 1322.0, "land_cover_label": "Tree cover", "water_mask": false, "exclude_reason": "keep", "ndvi": null, "soil_moisture": null, "solar_exposure": null, "wind_exposure": null, "water_retention": null, "slope": null, "aspect": null, "num_identification_agreements": 1, "cluster": 2, "tavg": null, "tmin": 16.7, "tmax": 35.6, "prcp_d0": 0.0, "prcp_d1": 0.0, "prcp_d2": 0.0, "prcp_d3": 0.0, "prcp_d4": 0.0, "prcp_d5": 0.0, "prcp_d6": 0.0, "tmax_d0": 27.1, "tmax_d1": 23.3, "tmax_d2": 21.3, "tmax_d3": 23.4, "tmax_d4": 24.3, "tmax_d5": 23.3, "tmax_d6": 27.5, "tmin_d0": 7.0, "tmin_d1": 7.4, "tmin_d2": 7.6, "tmin_d3": 11.6, "tmin_d4": 10.7, "tmin_d5": 12.1, "tmin_d6": 13.0, "day_of_year": 221, "uuid": "a7b11030-a3f8-4299-bef6-b1fc3fdc9345", "inat_id": 237141943}}, {"type": "Feature", "geometry": {"type": "Point", "coordinates": [-122.0691165527, 45.2532171049]}, "properties": {"species": "Russula benwooii", "date": "2024-08-08", "location": "Clackamas County, US-OR, US", "elevation": 1301.0, "land_cover_label": "Tree cover", "water_mask": false, "exclude_reason": "keep", "ndvi": null, "soil_moisture": null, "solar_exposure": null, "wind_exposure": null, "water_retention": null, "slope": null, "aspect": null, "num_identification_agreements": 1, "cluster": 2, "tavg": null, "tmin": 16.7, "tmax": 35.6, "prcp_d0": 0.0, "prcp_d1": 0.0, "prcp_d2": 0.0, "prcp_d3": 0.0, "prcp_d4": 0.0, "prcp_d5": 0.0, "prcp_d6": 0.0, "tmax_d0": 27.1, "tmax_d1": 23.3, "tmax_d2": 21.4, "tmax_d3": 23.5, "tmax_d4": 24.3, "tmax_d5": 23.4, "tmax_d6": 27.5, "tmin_d0": 7.1, "tmin_d1": 7.5, "tmin_d2": 7.6, "tmin_d3": 11.7, "tmin_d4": 10.8, "tmin_d5": 12.2, "tmin_d6": 13.0, "day_of_year": 221, "uuid": "fd9cf6ea-bf9d-40a2-b0de-25ac0bc56d84", "inat_id": 237141013}}, {"type": "Feature", "geometry": {"type": "Point", "coordinates": [-122.0819665013, 45.267151978]}, "properties": {"species": "Russula benwooii", "date": "2024-08-08", "location": "Clackamas County, OR, USA", "elevation": 1142.0, "land_cover_label": "Tree cover", "water_mask": false, "exclude_reason": "keep", "ndvi": null, "soil_moisture": null, "solar_exposure": null, "wind_exposure": null, "water_retention": null, "slope": null, "aspect": null, "num_identification_agreements": 1, "cluster": 2, "tavg": null, "tmin": 16.7, "tmax": 35.6, "prcp_d0": 0.0, "prcp_d1": 0.0, "prcp_d2": 0.0, "prcp_d3": 0.0, "prcp_d4": 0.0, "prcp_d5": 0.0, "prcp_d6": 0.0, "tmax_d0": 28.2, "tmax_d1": 24.4, "tmax_d2": 22.5, "tmax_d3": 24.6, "tmax_d4": 25.4, "tmax_d5": 24.5, "tmax_d6": 28.6, "tmin_d0": 8.2, "tmin_d1": 8.6, "tmin_d2": 8.7, "tmin_d3": 12.8, "tmin_d4": 11.9, "tmin_d5": 13.3, "tmin_d6": 14.1, "day_of_year": 221, "uuid": "c59afa57-a62f-4f88-a065-2a7bd2ded0a6", "inat_id": 237145168}}, {"type": "Feature", "geometry": {"type": "Point", "coordinates": [-122.0674239254, 45.2524273417]}, "properties": {"species": "Russula benwooii", "date": "2024-08-08", "location": "Clackamas County, OR, USA", "elevation": 1322.0, "land_cover_label": "Tree cover", "water_mask": false, "exclude_reason": "keep", "ndvi": null, "soil_moisture": null, "solar_exposure": null, "wind_exposure": null, "water_retention": null, "slope": null, "aspect": null, "num_identification_agreements": 1, "cluster": 2, "tavg": null, "tmin": 16.7, "tmax": 35.6, "prcp_d0": 0.0, "prcp_d1": 0.0, "prcp_d2": 0.0, "prcp_d3": 0.0, "prcp_d4": 0.0, "prcp_d5": 0.0, "prcp_d6": 0.0, "tmax_d0": 26.9, "tmax_d1": 23.1, "tmax_d2": 21.1, "tmax_d3": 23.2, "tmax_d4": 24.1, "tmax_d5": 23.1, "tmax_d6": 27.3, "tmin_d0": 6.8, "tmin_d1": 7.2, "tmin_d2": 7.4, "tmin_d3": 11.4, "tmin_d4": 10.5, "tmin_d5": 11.9, "tmin_d6": 12.8, "day_of_year": 221, "uuid": "07f67f09-10b0-49b8-a128-88e9fdfc1887", "inat_id": 237143635}}, {"type": "Feature", "geometry": {"type": "Point", "coordinates": [-122.0693158884, 45.2538842921]}, "properties": {"species": "Russula benwooii", "date": "2024-08-08", "location": "Clackamas County, OR, USA", "elevation": 1301.0, "land_cover_label": "Tree cover", "water_mask": false, "exclude_reason": "keep", "ndvi": null, "soil_moisture": null, "solar_exposure": null, "wind_exposure": null, "water_retention": null, "slope": null, "aspect": null, "num_identification_agreements": 1, "cluster": 2, "tavg": null, "tmin": 16.7, "tmax": 35.6, "prcp_d0": 0.0, "prcp_d1": 0.0, "prcp_d2": 0.0, "prcp_d3": 0.0, "prcp_d4": 0.0, "prcp_d5": 0.0, "prcp_d6": 0.0, "tmax_d0": 27.4, "tmax_d1": 23.6, "tmax_d2": 21.6, "tmax_d3": 23.7, "tmax_d4": 24.6, "tmax_d5": 23.6, "tmax_d6": 27.8, "tmin_d0": 7.3, "tmin_d1": 7.7, "tmin_d2": 7.9, "tmin_d3": 11.9, "tmin_d4": 11.0, "tmin_d5": 12.4, "tmin_d6": 13.3, "day_of_year": 221, "uuid": "380a7f10-95a9-4184-9df7-1d08614a12a9", "inat_id": 237142723}}]}