{"type": "FeatureCollection", "features": [{"type": "Feature", "geometry": {"type": "Point", "coordinates": [-105.6541781112, 35.8164278076]}, "properties": {"species": "Russula claroflava", "date": "2025-09-01", "location": "San Miguel County, US-NM, US", "elevation": 2593.0, "num_identification_agreements": 1, "tavg": null, "tmin": 12.0, "tmax": 27.0, "day_of_year": 244, "uuid": "6eb2df0d-ccde-4994-9bad-a109560b8f5a", "inat_id": 310919972}}, {"type": "Feature", "geometry": {"type": "Point", "coordinates": [-105.8060525927, 35.791559948]}, "properties": {"species": "Russula claroflava", "date": "2025-08-20", "location": "Winsor Trail, Tererro, NM, US", "elevation": 3135.0, "num_identification_agreements": 1, "tavg": null, "tmin": 14.4, "tmax": 31.1, "day_of_year": 232, "uuid": "0ef13f47-721c-44bc-b6a8-059a7ce13249", "inat_id": 307875959}}]}