{"type": "FeatureCollection", "features": [{"type": "Feature", "geometry": {"type": "Point", "coordinates": [-122.0167482, 45.3762302]}, "properties": {"species": "Russula bicolor", "date": "2023-10-30", "location": "E Rufus Ridge Ln, Brightwood, OR, US", "elevation": 356.0, "land_cover_label": "Tree cover", "water_mask": false, "exclude_reason": "keep", "ndvi": null, "soil_moisture": null, "solar_exposure": null, "wind_exposure": null, "water_retention": null, "slope": null, "aspect": null, "num_identification_agreements": 1, "cluster": 2, "tavg": null, "tmin": 6.1, "tmax": 13.3, "prcp_d0": 0.0, "prcp_d1": 0.0, "prcp_d2": 0.0, "prcp_d3": 0.0, "prcp_d4": 0.0, "prcp_d5": 16.76865005493164, "prcp_d6": 33.53730010986328, "tmax_d0": 16.4, "tmax_d1": 14.9, "tmax_d2": 11.9, "tmax_d3": 11.1, "tmax_d4": 8.2, "tmax_d5": 6.9, "tmax_d6": 10.0, "tmin_d0": 4.9, "tmin_d1": 2.7, "tmin_d2": -0.6, "tmin_d3": -1.3, "tmin_d4": 4.6, "tmin_d5": 4.4, "tmin_d6": 6.5, "day_of_year": 303, "uuid": "79eafc74-7741-473d-b095-3fb347a5583f", "inat_id": 205605886}}]}