{"type": "FeatureCollection", "features": [{"type": "Feature", "geometry": {"type": "Point", "coordinates": [-105.5379466667, 40.0310583333]}, "properties": {"species": "Russula clavipes", "date": "2023-08-12", "location": "County Road 116, Ward, CO, US", "elevation": 2936.0, "num_identification_agreements": 3, "tavg": null, "tmin": 17.0, "tmax": 28.0, "day_of_year": 224, "uuid": "dc7b08d4-72c7-4780-80c7-79a24965ad3e", "inat_id": 178114890}}, {"type": "Feature", "geometry": {"type": "Point", "coordinates": [-105.5361478206, 40.0328309079]}, "properties": {"species": "Russula clavipes", "date": "2022-09-17", "location": "Niwot Ridge, CO, US", "elevation": 2911.0, "num_identification_agreements": 4, "tavg": null, "tmin": 12.0, "tmax": 26.0, "day_of_year": 260, "uuid": "bb3a9747-959d-432d-bce7-702c81b27c4c", "inat_id": 155805490}}]}