{"type": "FeatureCollection", "features": [{"type": "Feature", "geometry": {"type": "Point", "coordinates": [-104.9684087236, 38.7015463193]}, "properties": {"species": "Russula sp. 'pseudodecolorans'", "date": "2023-08-22", "location": "Colorado, US", "elevation": 2966.0, "land_cover_label": "Tree cover", "water_mask": false, "exclude_reason": "keep", "ndvi": null, "soil_moisture": null, "solar_exposure": null, "wind_exposure": null, "water_retention": null, "slope": null, "aspect": null, "num_identification_agreements": 2, "cluster": 2, "tavg": null, "tmin": 20.0, "tmax": 31.0, "prcp_d0": 0.0, "prcp_d1": 0.0, "prcp_d2": 0.0, "prcp_d3": 0.0, "prcp_d4": 0.0, "prcp_d5": 6.98875617980957, "prcp_d6": 0.0, "tmax_d0": null, "tmax_d1": null, "tmax_d2": null, "tmax_d3": null, "tmax_d4": null, "tmax_d5": null, "tmax_d6": null, "tmin_d0": null, "tmin_d1": null, "tmin_d2": null, "tmin_d3": null, "tmin_d4": null, "tmin_d5": null, "tmin_d6": null, "day_of_year": 234, "uuid": "9c1fb9df-f9a9-46e1-8af6-d79b334aad6c", "inat_id": 180341189}}, {"type": "Feature", "geometry": {"type": "Point", "coordinates": [-105.0194300339, 39.0680546217]}, "properties": {"species": "Russula sp. 'pseudodecolorans'", "date": "2023-09-17", "location": "Colorado Springs, CO 80921, USA", "elevation": 2843.0, "land_cover_label": "Tree cover", "water_mask": false, "exclude_reason": "keep", "ndvi": null, "soil_moisture": 0.3209279905726979, "solar_exposure": 0.776482343673706, "wind_exposure": 0.3484987318515777, "water_retention": 0.1933103799819946, "slope": 7.153042316436768, "aspect": 42.6697998046875, "num_identification_agreements": 2, "cluster": 3, "tavg": null, "tmin": 4.5, "tmax": 24.6, "prcp_d0": 0.0, "prcp_d1": 0.0, "prcp_d2": 12.676140785217283, "prcp_d3": 0.0, "prcp_d4": 0.0, "prcp_d5": 0.0, "prcp_d6": 12.676140785217283, "tmax_d0": null, "tmax_d1": null, "tmax_d2": null, "tmax_d3": null, "tmax_d4": null, "tmax_d5": null, "tmax_d6": null, "tmin_d0": null, "tmin_d1": null, "tmin_d2": null, "tmin_d3": null, "tmin_d4": null, "tmin_d5": null, "tmin_d6": null, "day_of_year": 260, "uuid": "4b8b2eed-b4c6-44e5-a6c6-26711a42d1b7", "inat_id": 183807039}}, {"type": "Feature", "geometry": {"type": "Point", "coordinates": [-105.3819287939, 39.5664732614]}, "properties": {"species": "Russula sp. 'pseudodecolorans'", "date": "2024-09-08", "location": "Jefferson County, US-CO, US", "elevation": 2575.0, "land_cover_label": "Tree cover", "water_mask": false, "exclude_reason": "keep", "ndvi": null, "soil_moisture": 0.2296087708835585, "solar_exposure": 0.7710549831390381, "wind_exposure": 0.3097688555717468, "water_retention": 0.5093590617179871, "slope": 6.5288190841674805, "aspect": 334.3071594238281, "num_identification_agreements": 2, "cluster": 2, "tavg": null, "tmin": -1.0, "tmax": 12.6, "prcp_d0": 0.0, "prcp_d1": 0.0, "prcp_d2": 0.0, "prcp_d3": 0.0, "prcp_d4": 17.78205108642578, "prcp_d5": 0.0, "prcp_d6": 0.0, "tmax_d0": null, "tmax_d1": null, "tmax_d2": null, "tmax_d3": null, "tmax_d4": null, "tmax_d5": null, "tmax_d6": null, "tmin_d0": null, "tmin_d1": null, "tmin_d2": null, "tmin_d3": null, "tmin_d4": null, "tmin_d5": null, "tmin_d6": null, "day_of_year": 252, "uuid": "ac4c2c15-be5a-4482-9927-23584feabc89", "inat_id": 240588222}}, {"type": "Feature", "geometry": {"type": "Point", "coordinates": [-105.3821768479, 39.5659450528]}, "properties": {"species": "Russula sp. 'pseudodecolorans'", "date": "2024-09-08", "location": "Carol Ln, Conifer, CO, US", "elevation": 2575.0, "land_cover_label": "Tree cover", "water_mask": false, "exclude_reason": "keep", "ndvi": null, "soil_moisture": 0.2296678926302153, "solar_exposure": 0.744692325592041, "wind_exposure": 0.301840215921402, "water_retention": 0.4952296316623688, "slope": 8.032840728759766, "aspect": 0.0, "num_identification_agreements": 2, "cluster": 2, "tavg": null, "tmin": -1.0, "tmax": 12.6, "prcp_d0": 0.0, "prcp_d1": 0.0, "prcp_d2": 0.0, "prcp_d3": 0.0, "prcp_d4": 17.78205108642578, "prcp_d5": 0.0, "prcp_d6": 0.0, "tmax_d0": null, "tmax_d1": null, "tmax_d2": null, "tmax_d3": null, "tmax_d4": null, "tmax_d5": null, "tmax_d6": null, "tmin_d0": null, "tmin_d1": null, "tmin_d2": null, "tmin_d3": null, "tmin_d4": null, "tmin_d5": null, "tmin_d6": null, "day_of_year": 252, "uuid": "a1760484-4a08-4256-9865-9453c7f1a224", "inat_id": 240586141}}, {"type": "Feature", "geometry": {"type": "Point", "coordinates": [-105.7528383123, 39.4132560417]}, "properties": {"species": "Russula sp. 'pseudodecolorans'", "date": "2024-09-18", "location": "Park County, US-CO, US", "elevation": 3062.0, "land_cover_label": "Tree cover", "water_mask": false, "exclude_reason": "keep", "ndvi": null, "soil_moisture": 0.3202708900926655, "solar_exposure": 0.7681056261062622, "wind_exposure": 0.3478850722312927, "water_retention": 0.2485540956258773, "slope": 6.312454700469971, "aspect": 348.9171142578125, "num_identification_agreements": 2, "cluster": 2, "tavg": null, "tmin": -2.7, "tmax": 9.0, "prcp_d0": 0.0, "prcp_d1": 0.0, "prcp_d2": 0.0, "prcp_d3": 0.0, "prcp_d4": 0.0, "prcp_d5": 0.0, "prcp_d6": 0.0, "tmax_d0": null, "tmax_d1": null, "tmax_d2": null, "tmax_d3": null, "tmax_d4": null, "tmax_d5": null, "tmax_d6": null, "tmin_d0": null, "tmin_d1": null, "tmin_d2": null, "tmin_d3": null, "tmin_d4": null, "tmin_d5": null, "tmin_d6": null, "day_of_year": 262, "uuid": "df4920e1-082b-4dcc-8925-72ba998b9b77", "inat_id": 242548487}}, {"type": "Feature", "geometry": {"type": "Point", "coordinates": [-105.7482103503, 39.4149876061]}, "properties": {"species": "Russula sp. 'pseudodecolorans'", "date": "2024-09-18", "location": "Park County, US-CO, US", "elevation": 3033.0, "land_cover_label": "Tree cover", "water_mask": false, "exclude_reason": "keep", "ndvi": null, "soil_moisture": 0.3197690849703024, "solar_exposure": 0.7565910816192627, "wind_exposure": 0.3108803629875183, "water_retention": 0.2870278060436249, "slope": 7.12742805480957, "aspect": 356.7503967285156, "num_identification_agreements": 2, "cluster": 2, "tavg": null, "tmin": -2.7, "tmax": 9.0, "prcp_d0": 0.0, "prcp_d1": 0.0, "prcp_d2": 0.0, "prcp_d3": 0.0, "prcp_d4": 0.0, "prcp_d5": 0.0, "prcp_d6": 0.0, "tmax_d0": null, "tmax_d1": null, "tmax_d2": null, "tmax_d3": null, "tmax_d4": null, "tmax_d5": null, "tmax_d6": null, "tmin_d0": null, "tmin_d1": null, "tmin_d2": null, "tmin_d3": null, "tmin_d4": null, "tmin_d5": null, "tmin_d6": null, "day_of_year": 262, "uuid": "fb32bfbf-760a-4254-9a66-a2ad5089baa2", "inat_id": 242804956}}, {"type": "Feature", "geometry": {"type": "Point", "coordinates": [-105.03157123, 39.18142195]}, "properties": {"species": "Russula sp. 'pseudodecolorans'", "date": "2025-09-06", "location": "Sedalia, CO 80135, USA", "elevation": 2772.0, "land_cover_label": "Tree cover", "water_mask": false, "exclude_reason": "keep", "ndvi": null, "soil_moisture": 0.2933246081635304, "solar_exposure": 0.7871306538581848, "wind_exposure": 0.3613291680812835, "water_retention": 0.3410718441009521, "slope": 4.810083866119385, "aspect": 14.637316703796388, "num_identification_agreements": 2, "cluster": 2, "tavg": null, "tmin": 8.0, "tmax": 22.0, "prcp_d0": 4.0687408447265625, "prcp_d1": 0.0, "prcp_d2": 0.0, "prcp_d3": 0.0, "prcp_d4": 0.0, "prcp_d5": 0.0, "prcp_d6": 0.0, "tmax_d0": null, "tmax_d1": null, "tmax_d2": null, "tmax_d3": null, "tmax_d4": null, "tmax_d5": null, "tmax_d6": null, "tmin_d0": null, "tmin_d1": null, "tmin_d2": null, "tmin_d3": null, "tmin_d4": null, "tmin_d5": null, "tmin_d6": null, "day_of_year": 249, "uuid": "bc53b150-9bff-4168-9531-8c3cdaaa7dc7", "inat_id": 312047870}}, {"type": "Feature", "geometry": {"type": "Point", "coordinates": [-105.03160068, 39.18164417]}, "properties": {"species": "Russula sp. 'pseudodecolorans'", "date": "2025-09-06", "location": "Douglas County, US-CO, US", "elevation": 2772.0, "land_cover_label": "Tree cover", "water_mask": false, "exclude_reason": "keep", "ndvi": null, "soil_moisture": 0.2932973992822855, "solar_exposure": 0.7871306538581848, "wind_exposure": 0.3613291680812835, "water_retention": 0.3410718441009521, "slope": 4.810083866119385, "aspect": 14.637316703796388, "num_identification_agreements": 1, "cluster": 2, "tavg": null, "tmin": 8.0, "tmax": 22.0, "prcp_d0": 4.0687408447265625, "prcp_d1": 0.0, "prcp_d2": 0.0, "prcp_d3": 0.0, "prcp_d4": 0.0, "prcp_d5": 0.0, "prcp_d6": 0.0, "tmax_d0": null, "tmax_d1": null, "tmax_d2": null, "tmax_d3": null, "tmax_d4": null, "tmax_d5": null, "tmax_d6": null, "tmin_d0": null, "tmin_d1": null, "tmin_d2": null, "tmin_d3": null, "tmin_d4": null, "tmin_d5": null, "tmin_d6": null, "day_of_year": 249, "uuid": "4e741cfc-41db-4d06-84d1-152040adc41e", "inat_id": 312047810}}, {"type": "Feature", "geometry": {"type": "Point", "coordinates": [-105.03153328, 39.18168683]}, "properties": {"species": "Russula sp. 'pseudodecolorans'", "date": "2025-09-06", "location": "Douglas County, US-CO, US", "elevation": 2772.0, "land_cover_label": "Tree cover", "water_mask": false, "exclude_reason": "keep", "ndvi": null, "soil_moisture": 0.2932692274622629, "solar_exposure": 0.7871306538581848, "wind_exposure": 0.3613291680812835, "water_retention": 0.3410718441009521, "slope": 4.810083866119385, "aspect": 14.637316703796388, "num_identification_agreements": 1, "cluster": 2, "tavg": null, "tmin": 8.0, "tmax": 22.0, "prcp_d0": 4.0687408447265625, "prcp_d1": 0.0, "prcp_d2": 0.0, "prcp_d3": 0.0, "prcp_d4": 0.0, "prcp_d5": 0.0, "prcp_d6": 0.0, "tmax_d0": null, "tmax_d1": null, "tmax_d2": null, "tmax_d3": null, "tmax_d4": null, "tmax_d5": null, "tmax_d6": null, "tmin_d0": null, "tmin_d1": null, "tmin_d2": null, "tmin_d3": null, "tmin_d4": null, "tmin_d5": null, "tmin_d6": null, "day_of_year": 249, "uuid": "beddbf0c-be13-4d1f-a1a8-9fe40e60e874", "inat_id": 312047784}}, {"type": "Feature", "geometry": {"type": "Point", "coordinates": [-105.0314758, 39.181616]}, "properties": {"species": "Russula sp. 'pseudodecolorans'", "date": "2025-09-06", "location": "Douglas County, US-CO, US", "elevation": 2772.0, "land_cover_label": "Tree cover", "water_mask": false, "exclude_reason": "keep", "ndvi": null, "soil_moisture": 0.2932628003801605, "solar_exposure": 0.7871306538581848, "wind_exposure": 0.3613291680812835, "water_retention": 0.3410718441009521, "slope": 4.810083866119385, "aspect": 14.637316703796388, "num_identification_agreements": 1, "cluster": 2, "tavg": null, "tmin": 8.0, "tmax": 22.0, "prcp_d0": 4.0687408447265625, "prcp_d1": 0.0, "prcp_d2": 0.0, "prcp_d3": 0.0, "prcp_d4": 0.0, "prcp_d5": 0.0, "prcp_d6": 0.0, "tmax_d0": null, "tmax_d1": null, "tmax_d2": null, "tmax_d3": null, "tmax_d4": null, "tmax_d5": null, "tmax_d6": null, "tmin_d0": null, "tmin_d1": null, "tmin_d2": null, "tmin_d3": null, "tmin_d4": null, "tmin_d5": null, "tmin_d6": null, "day_of_year": 249, "uuid": "59145c35-748a-45ea-b2fb-4aa4dcfe75c8", "inat_id": 312047755}}, {"type": "Feature", "geometry": {"type": "Point", "coordinates": [-105.04651303, 39.18977224]}, "properties": {"species": "Russula sp. 'pseudodecolorans'", "date": "2025-09-06", "location": "Douglas County, US-CO, US", "elevation": 2723.0, "land_cover_label": "Tree cover", "water_mask": false, "exclude_reason": "keep", "ndvi": null, "soil_moisture": 0.2968290404062518, "solar_exposure": 0.8875652551651001, "wind_exposure": 0.347340315580368, "water_retention": 0.208987146615982, "slope": 11.250677108764648, "aspect": 124.96041870117188, "num_identification_agreements": 1, "cluster": 2, "tavg": null, "tmin": 8.0, "tmax": 22.0, "prcp_d0": 4.0687408447265625, "prcp_d1": 0.0, "prcp_d2": 0.0, "prcp_d3": 0.0, "prcp_d4": 0.0, "prcp_d5": 0.0, "prcp_d6": 0.0, "tmax_d0": null, "tmax_d1": null, "tmax_d2": null, "tmax_d3": null, "tmax_d4": null, "tmax_d5": null, "tmax_d6": null, "tmin_d0": null, "tmin_d1": null, "tmin_d2": null, "tmin_d3": null, "tmin_d4": null, "tmin_d5": null, "tmin_d6": null, "day_of_year": 249, "uuid": "7bcc2e87-d4fd-4317-8143-61efd4e62354", "inat_id": 312047278}}, {"type": "Feature", "geometry": {"type": "Point", "coordinates": [-105.04586037, 39.18889314]}, "properties": {"species": "Russula sp. 'pseudodecolorans'", "date": "2025-09-06", "location": "Douglas County, US-CO, US", "elevation": 2716.0, "land_cover_label": "Tree cover", "water_mask": false, "exclude_reason": "keep", "ndvi": null, "soil_moisture": 0.2967416100226558, "solar_exposure": 0.8522332906723022, "wind_exposure": 0.3136408925056457, "water_retention": 0.2040448784828186, "slope": 12.08202075958252, "aspect": 106.19664001464844, "num_identification_agreements": 1, "cluster": 2, "tavg": null, "tmin": 8.0, "tmax": 22.0, "prcp_d0": 4.0687408447265625, "prcp_d1": 0.0, "prcp_d2": 0.0, "prcp_d3": 0.0, "prcp_d4": 0.0, "prcp_d5": 0.0, "prcp_d6": 0.0, "tmax_d0": null, "tmax_d1": null, "tmax_d2": null, "tmax_d3": null, "tmax_d4": null, "tmax_d5": null, "tmax_d6": null, "tmin_d0": null, "tmin_d1": null, "tmin_d2": null, "tmin_d3": null, "tmin_d4": null, "tmin_d5": null, "tmin_d6": null, "day_of_year": 249, "uuid": "d1e7966a-1b41-4ac8-85a6-bd2d6a2eb774", "inat_id": 312047428}}, {"type": "Feature", "geometry": {"type": "Point", "coordinates": [-105.0412445, 39.1125144722]}, "properties": {"species": "Russula sp. 'pseudodecolorans'", "date": "2025-09-13", "location": "Woodland Park, CO 80863, USA", "elevation": 2855.0, "land_cover_label": "Tree cover", "water_mask": false, "exclude_reason": "keep", "ndvi": null, "soil_moisture": 0.2531391374856411, "solar_exposure": 0.8192483186721802, "wind_exposure": 0.3805071711540222, "water_retention": 0.2579273581504822, "slope": 2.7556374073028564, "aspect": 47.41946792602539, "num_identification_agreements": 1, "cluster": 2, "tavg": null, "tmin": 8.5, "tmax": 22.0, "prcp_d0": 0.0, "prcp_d1": 10.253896713256836, "prcp_d2": 0.0, "prcp_d3": 0.0, "prcp_d4": 8.179306030273438, "prcp_d5": 0.0, "prcp_d6": 0.0, "tmax_d0": null, "tmax_d1": null, "tmax_d2": null, "tmax_d3": null, "tmax_d4": null, "tmax_d5": null, "tmax_d6": null, "tmin_d0": null, "tmin_d1": null, "tmin_d2": null, "tmin_d3": null, "tmin_d4": null, "tmin_d5": null, "tmin_d6": null, "day_of_year": 256, "uuid": "1178e4d7-9f4b-4478-8ba5-2d7fba72c55b", "inat_id": 313946136}}, {"type": "Feature", "geometry": {"type": "Point", "coordinates": [-105.0390319722, 39.1122970556]}, "properties": {"species": "Russula sp. 'pseudodecolorans'", "date": "2025-09-13", "location": "Woodland Park, CO 80863, USA", "elevation": 2851.0, "land_cover_label": "Tree cover", "water_mask": false, "exclude_reason": "keep", "ndvi": null, "soil_moisture": 0.2524830083244013, "solar_exposure": 0.8067019581794739, "wind_exposure": 0.3607345819473266, "water_retention": 0.2187262922525406, "slope": 4.920191764831543, "aspect": 55.4257698059082, "num_identification_agreements": 1, "cluster": 2, "tavg": null, "tmin": 8.5, "tmax": 22.0, "prcp_d0": 0.0, "prcp_d1": 10.253896713256836, "prcp_d2": 0.0, "prcp_d3": 0.0, "prcp_d4": 8.179306030273438, "prcp_d5": 0.0, "prcp_d6": 0.0, "tmax_d0": null, "tmax_d1": null, "tmax_d2": null, "tmax_d3": null, "tmax_d4": null, "tmax_d5": null, "tmax_d6": null, "tmin_d0": null, "tmin_d1": null, "tmin_d2": null, "tmin_d3": null, "tmin_d4": null, "tmin_d5": null, "tmin_d6": null, "day_of_year": 256, "uuid": "506d8f7d-e5b9-49fd-b41a-75b1906f7cc5", "inat_id": 313950529}}]}