{"type": "FeatureCollection", "features": [{"type": "Feature", "geometry": {"type": "Point", "coordinates": [-105.6121631999, 36.18951507]}, "properties": {"species": "Russula xerampelina", "date": "2024-09-28", "location": "Taos, New Mexico, United States", "elevation": 2566.0, "num_identification_agreements": 1, "tavg": null, "tmin": 12.8, "tmax": 24.0, "day_of_year": 272, "uuid": "015c942d-46b6-4ef2-b476-0906983fb8a7", "inat_id": 350625720}}, {"type": "Feature", "geometry": {"type": "Point", "coordinates": [-105.7998593991, 35.797239407]}, "properties": {"species": "Russula xerampelina", "date": "2025-08-04", "location": "Tererro, NM, US", "elevation": 3238.0, "num_identification_agreements": 1, "tavg": null, "tmin": 12.2, "tmax": 33.9, "day_of_year": 216, "uuid": "d2e19ac2-ee82-409c-beab-33d612080bab", "inat_id": 306177002}}, {"type": "Feature", "geometry": {"type": "Point", "coordinates": [-105.7983276063, 35.7949664863]}, "properties": {"species": "Russula xerampelina", "date": "2025-08-04", "location": "Tererro, NM, US", "elevation": 3198.0, "num_identification_agreements": 1, "tavg": null, "tmin": 12.2, "tmax": 33.9, "day_of_year": 216, "uuid": "e396af94-3be9-456b-9c77-21e748fc9626", "inat_id": 303866297}}, {"type": "Feature", "geometry": {"type": "Point", "coordinates": [-105.8015912679, 35.7987305895]}, "properties": {"species": "Russula xerampelina", "date": "2025-08-04", "location": "Tererro, NM, US", "elevation": 3208.0, "num_identification_agreements": 1, "tavg": null, "tmin": 12.2, "tmax": 33.9, "day_of_year": 216, "uuid": "a2270401-4723-4a78-af7b-1cccd7d75f51", "inat_id": 303842145}}, {"type": "Feature", "geometry": {"type": "Point", "coordinates": [-105.8440471824, 35.7852867725]}, "properties": {"species": "Russula xerampelina", "date": "2025-07-27", "location": "New Mexico, US", "elevation": 2668.0, "num_identification_agreements": 1, "tavg": null, "tmin": 13.9, "tmax": 33.9, "day_of_year": 208, "uuid": "63091cc9-e713-4acd-81fe-08ac33d5cc59", "inat_id": 301755874}}, {"type": "Feature", "geometry": {"type": "Point", "coordinates": [-103.3697366667, 43.8880583333]}, "properties": {"species": "Russula xerampelina", "date": "2025-07-26", "location": "Pennington County, US-SD, US", "elevation": 1333.0, "num_identification_agreements": 1, "tavg": null, "tmin": 15.6, "tmax": 30.6, "day_of_year": 207, "uuid": "c069662f-8101-442d-af7e-f6f5534c7f58", "inat_id": 301655186}}, {"type": "Feature", "geometry": {"type": "Point", "coordinates": [-107.73441, 37.8611416667]}, "properties": {"species": "Russula xerampelina", "date": "2024-09-08", "location": "San Juan County, US-CO, US", "elevation": 3479.0, "num_identification_agreements": 1, "tavg": null, "tmin": 10.0, "tmax": 20.0, "day_of_year": 252, "uuid": "a7603b77-7504-4249-ac02-57851a661093", "inat_id": 240666222}}, {"type": "Feature", "geometry": {"type": "Point", "coordinates": [-105.7984226628, 35.7977784057]}, "properties": {"species": "Russula xerampelina", "date": "2024-08-28", "location": "Santa Fe National Forest, Tererro, NM, US", "elevation": 3238.0, "num_identification_agreements": 1, "tavg": null, "tmin": 12.8, "tmax": 27.2, "day_of_year": 241, "uuid": "b54dde38-d5e0-4a37-a5e3-1ca482fd9c83", "inat_id": 238517269}}, {"type": "Feature", "geometry": {"type": "Point", "coordinates": [-106.627225, 39.34095]}, "properties": {"species": "Russula xerampelina", "date": "2024-08-25", "location": "Meredith, CO 81642, USA", "elevation": 2711.0, "num_identification_agreements": 1, "tavg": null, "tmin": 9.4, "tmax": 19.4, "day_of_year": 238, "uuid": "c0f04a02-66b2-4617-9f32-537a71108003", "inat_id": 238097068}}, {"type": "Feature", "geometry": {"type": "Point", "coordinates": [-105.3445236, 36.4331446997]}, "properties": {"species": "Russula xerampelina", "date": "2024-07-25", "location": "Taos, NM 87571, USA", "elevation": 2832.0, "num_identification_agreements": 1, "tavg": null, "tmin": 4.1, "tmax": 23.8, "day_of_year": 207, "uuid": "59abe848-5ff4-4cb5-8a26-a5b3843c23e8", "inat_id": 232096833}}, {"type": "Feature", "geometry": {"type": "Point", "coordinates": [-105.6944159425, 35.8158908677]}, "properties": {"species": "Russula xerampelina", "date": "2024-07-10", "location": "San Miguel County, US-NM, US", "elevation": 2717.0, "num_identification_agreements": 1, "tavg": null, "tmin": 13.9, "tmax": 31.7, "day_of_year": 192, "uuid": "03ee2735-3bee-4726-875c-3e2198b52707", "inat_id": 228908131}}, {"type": "Feature", "geometry": {"type": "Point", "coordinates": [-106.2344726951, 36.7042077385]}, "properties": {"species": "Russula xerampelina", "date": "2024-07-03", "location": "Carson National Forest, Cebolla, NM, US", "elevation": 2970.0, "num_identification_agreements": 1, "tavg": null, "tmin": null, "tmax": null, "day_of_year": 185, "uuid": "2602f3eb-2265-45ac-8fc5-df22bb4f7a7d", "inat_id": 227430171}}, {"type": "Feature", "geometry": {"type": "Point", "coordinates": [-105.6945583333, 35.8157383333]}, "properties": {"species": "Russula xerampelina", "date": "2023-09-04", "location": "Santa Fe National Forest, Pecos, NM, US", "elevation": 2717.0, "num_identification_agreements": 1, "tavg": null, "tmin": 16.7, "tmax": 30.0, "day_of_year": 247, "uuid": "f9162cc5-215c-4f50-823d-49bd5e90d1aa", "inat_id": 181855851}}, {"type": "Feature", "geometry": {"type": "Point", "coordinates": [-105.7425551316, 39.6145262512]}, "properties": {"species": "Russula xerampelina", "date": "2023-08-29", "location": "Colorado, US", "elevation": 3773.0, "num_identification_agreements": 1, "tavg": null, "tmin": 0.8, "tmax": 13.6, "day_of_year": 241, "uuid": "96e8cd1e-2aa7-464a-9d26-e15c33a06833", "inat_id": 180893745}}, {"type": "Feature", "geometry": {"type": "Point", "coordinates": [-105.0040123612, 38.0132789088]}, "properties": {"species": "Russula xerampelina", "date": "2023-08-05", "location": "Beulah, CO 81023, USA", "elevation": 2431.0, "num_identification_agreements": 1, "tavg": null, "tmin": 16.2, "tmax": 30.9, "day_of_year": 217, "uuid": "d0c4ad50-46df-4566-9abe-7a663d76ab5a", "inat_id": 176902068}}, {"type": "Feature", "geometry": {"type": "Point", "coordinates": [-105.0998528333, 39.380346675]}, "properties": {"species": "Russula xerampelina", "date": "2023-07-21", "location": "Pike and San Isabel National Forests, Sedalia, CO, US", "elevation": 2299.0, "num_identification_agreements": 1, "tavg": null, "tmin": 12.8, "tmax": 27.2, "day_of_year": 202, "uuid": "bf35192f-85ef-45eb-8fbc-594af9516b7d", "inat_id": 174353290}}, {"type": "Feature", "geometry": {"type": "Point", "coordinates": [-103.4680633545, 44.1549987793]}, "properties": {"species": "Russula xerampelina", "date": "2023-07-16", "location": "Lawrence County, US-SD, US", "elevation": 1395.0, "num_identification_agreements": 1, "tavg": null, "tmin": 14.0, "tmax": 28.0, "day_of_year": 197, "uuid": "64c93c20-bb80-4e41-8b60-ae2a2d325f2c", "inat_id": 173495218}}, {"type": "Feature", "geometry": {"type": "Point", "coordinates": [-104.99619274, 37.96687474]}, "properties": {"species": "Russula xerampelina", "date": "2023-07-15", "location": "Beulah, CO 81023, USA", "elevation": 2423.0, "num_identification_agreements": 1, "tavg": null, "tmin": 16.3, "tmax": 28.9, "day_of_year": 196, "uuid": "7afd8d10-5f04-403e-ba31-c5838d90d296", "inat_id": 173328890}}, {"type": "Feature", "geometry": {"type": "Point", "coordinates": [-105.6570959722, 40.305875]}, "properties": {"species": "Russula xerampelina", "date": "2022-09-04", "location": "Estes Park, CO 80517, USA", "elevation": 3109.0, "num_identification_agreements": 1, "tavg": null, "tmin": 4.7, "tmax": 26.8, "day_of_year": 247, "uuid": "54e4e667-da39-4fc2-8562-5072fc18f177", "inat_id": 137577392}}, {"type": "Feature", "geometry": {"type": "Point", "coordinates": [-105.612655, 39.9556116667]}, "properties": {"species": "Russula xerampelina", "date": "2022-09-05", "location": "Devils Thumb, Nederland, CO, US", "elevation": 2899.0, "num_identification_agreements": 1, "tavg": null, "tmin": 6.8, "tmax": 17.0, "day_of_year": 248, "uuid": "66f36fc1-f0ea-475a-a210-bdf55ef03f36", "inat_id": 134258529}}, {"type": "Feature", "geometry": {"type": "Point", "coordinates": [-105.8100117483, 39.7396132861]}, "properties": {"species": "Russula xerampelina", "date": "2022-09-08", "location": "Colorado, US", "elevation": 3722.0, "num_identification_agreements": 1, "tavg": null, "tmin": 3.6, "tmax": 16.6, "day_of_year": 251, "uuid": "22efa88b-2c5b-41f7-991e-5f4554f34cf9", "inat_id": 134229375}}, {"type": "Feature", "geometry": {"type": "Point", "coordinates": [-106.0659945, 39.364125]}, "properties": {"species": "Russula xerampelina", "date": "2022-08-28", "location": "White River National Forest, Breckenridge, CO, US", "elevation": 3548.0, "num_identification_agreements": 1, "tavg": null, "tmin": 2.8, "tmax": 17.8, "day_of_year": 240, "uuid": "94e3c70f-ba6f-42d7-82c5-a9a05183f51c", "inat_id": 134103842}}, {"type": "Feature", "geometry": {"type": "Point", "coordinates": [-105.4394452281, 39.8757489198]}, "properties": {"species": "Russula xerampelina", "date": "2022-09-05", "location": "Gilpin County, CO, USA", "elevation": 2829.0, "num_identification_agreements": 1, "tavg": null, "tmin": 16.0, "tmax": 35.0, "day_of_year": 248, "uuid": "9e3d6f7d-eaa7-479e-a8b6-dea7d65f242c", "inat_id": 134004980}}, {"type": "Feature", "geometry": {"type": "Point", "coordinates": [-107.0742888333, 39.0334778333]}, "properties": {"species": "Russula xerampelina", "date": "2022-09-02", "location": "White River National Forest, Carbondale, CO, US", "elevation": 3339.0, "num_identification_agreements": 1, "tavg": null, "tmin": 8.9, "tmax": 30.0, "day_of_year": 245, "uuid": "46095a9f-ea8a-4f6f-ae33-19cc6be5aee6", "inat_id": 133532225}}, {"type": "Feature", "geometry": {"type": "Point", "coordinates": [-106.0659945, 39.364125]}, "properties": {"species": "Russula xerampelina", "date": "2022-08-28", "location": "White River National Forest, Breckenridge, CO, US", "elevation": 3548.0, "num_identification_agreements": 1, "tavg": null, "tmin": 2.8, "tmax": 17.8, "day_of_year": 240, "uuid": "6a1ddc59-d12b-4775-b68e-900e114d2bdc", "inat_id": 132869721}}, {"type": "Feature", "geometry": {"type": "Point", "coordinates": [-109.2262719722, 38.4909079722]}, "properties": {"species": "Russula xerampelina", "date": "2022-08-07", "location": "San Juan, Utah, United States", "elevation": 3194.0, "num_identification_agreements": 1, "tavg": null, "tmin": null, "tmax": null, "day_of_year": 219, "uuid": "4fae1744-ce4c-4fb2-8485-9244f13a5642", "inat_id": 131017350}}, {"type": "Feature", "geometry": {"type": "Point", "coordinates": [-105.31685, 39.5378883333]}, "properties": {"species": "Russula xerampelina", "date": "2022-07-30", "location": "CR-73, Conifer, CO, US", "elevation": 2461.0, "num_identification_agreements": 1, "tavg": null, "tmin": 13.3, "tmax": 31.1, "day_of_year": 211, "uuid": "44f120e2-4a7a-42c7-8961-dcefe847b0a8", "inat_id": 128660073}}, {"type": "Feature", "geometry": {"type": "Point", "coordinates": [-105.378455, 39.5658416667]}, "properties": {"species": "Russula xerampelina", "date": "2022-07-29", "location": "Arapaho & Roosevelt National Forests Pawnee National Grassland, Conifer, CO, US", "elevation": 2560.0, "num_identification_agreements": 1, "tavg": null, "tmin": 1.4, "tmax": 11.7, "day_of_year": 210, "uuid": "771e75a2-b7b0-41ae-ba01-7c761351a6c5", "inat_id": 128568816}}, {"type": "Feature", "geometry": {"type": "Point", "coordinates": [-106.7497607946, 39.2456083813]}, "properties": {"species": "Russula xerampelina", "date": "2022-07-29", "location": "White River National Forest, Meredith, CO, US", "elevation": 2714.0, "num_identification_agreements": 2, "tavg": null, "tmin": 9.4, "tmax": 23.9, "day_of_year": 210, "uuid": "b5894171-7952-4b93-8dd5-0f5866d75417", "inat_id": 128501840}}, {"type": "Feature", "geometry": {"type": "Point", "coordinates": [-106.6241083333, 39.1211666667]}, "properties": {"species": "Russula xerampelina", "date": "2022-07-27", "location": "White River National Forest, Aspen, CO, US", "elevation": 3217.0, "num_identification_agreements": 1, "tavg": null, "tmin": 9.4, "tmax": 28.9, "day_of_year": 208, "uuid": "f68b9c4d-b939-4247-a1fb-8e820f4f0f9e", "inat_id": 128356437}}, {"type": "Feature", "geometry": {"type": "Point", "coordinates": [-104.9732944444, 38.8085166667]}, "properties": {"species": "Russula xerampelina", "date": "2019-08-17", "location": "Manitou Springs, CO 80829, USA", "elevation": 3085.0, "num_identification_agreements": 1, "tavg": null, "tmin": 13.6, "tmax": 34.0, "day_of_year": 229, "uuid": "0bf3f5a3-da92-419d-99fd-a3bd30d6a5c8", "inat_id": 111399166}}, {"type": "Feature", "geometry": {"type": "Point", "coordinates": [-108.0511181429, 39.0598898592]}, "properties": {"species": "Russula xerampelina", "date": "2021-08-11", "location": "Cedaredge, CO 81413, USA", "elevation": 3111.0, "num_identification_agreements": 1, "tavg": null, "tmin": 17.2, "tmax": 36.0, "day_of_year": 223, "uuid": "5cef207a-78e2-41f8-9f17-95d9d5d364d3", "inat_id": 91678506}}, {"type": "Feature", "geometry": {"type": "Point", "coordinates": [-105.3716684505, 39.5557441277]}, "properties": {"species": "Russula xerampelina", "date": "2021-08-08", "location": "Shadow Mountain", "elevation": 2643.0, "num_identification_agreements": 1, "tavg": null, "tmin": 15.0, "tmax": 31.7, "day_of_year": 220, "uuid": "3efe6519-1afa-4102-bca5-5910e833a00e", "inat_id": 90530029}}, {"type": "Feature", "geometry": {"type": "Point", "coordinates": [-107.21653238, 37.51023711]}, "properties": {"species": "Russula xerampelina", "date": "2021-08-07", "location": "Hinsdale County, US-CO, US", "elevation": 2555.0, "num_identification_agreements": 1, "tavg": null, "tmin": 7.0, "tmax": 14.0, "day_of_year": 219, "uuid": "c1e0616c-7d04-4f47-9c3c-5d4c3a99e586", "inat_id": 90342547}}, {"type": "Feature", "geometry": {"type": "Point", "coordinates": [-105.5700683594, 40.2730178833]}, "properties": {"species": "Russula xerampelina", "date": "2021-08-07", "location": "Rocky Mountain, Rocky Mountain National Park, Rocky Mountain National Park, Larimer County, US-CO, US", "elevation": 3136.0, "num_identification_agreements": 1, "tavg": null, "tmin": 6.4, "tmax": 20.4, "day_of_year": 219, "uuid": "079699e9-9aec-4b01-9d61-3f8a3446d42d", "inat_id": 90330635}}, {"type": "Feature", "geometry": {"type": "Point", "coordinates": [-105.5100361111, 39.978325]}, "properties": {"species": "Russula xerampelina", "date": "2021-08-06", "location": "Boulder County, CO, USA", "elevation": 2560.0, "num_identification_agreements": 1, "tavg": null, "tmin": 17.0, "tmax": 32.0, "day_of_year": 218, "uuid": "24646120-653b-495e-9506-c2c01564a750", "inat_id": 90209002}}, {"type": "Feature", "geometry": {"type": "Point", "coordinates": [-105.569277532, 40.3406271314]}, "properties": {"species": "Russula xerampelina", "date": "2021-07-26", "location": "Larimer County, CO, USA", "elevation": 2435.0, "num_identification_agreements": 1, "tavg": null, "tmin": 15.7, "tmax": 36.0, "day_of_year": 207, "uuid": "d604027d-3332-44b8-b7e0-2b32e510b45e", "inat_id": 89742873}}, {"type": "Feature", "geometry": {"type": "Point", "coordinates": [-105.3558529384, 39.5331793075]}, "properties": {"species": "Russula xerampelina", "date": "2021-07-30", "location": "Colorado, US", "elevation": 2719.0, "num_identification_agreements": 1, "tavg": null, "tmin": 18.3, "tmax": 32.2, "day_of_year": 211, "uuid": "a8c2406d-dd44-4445-9823-5037e67ab82d", "inat_id": 89272325}}, {"type": "Feature", "geometry": {"type": "Point", "coordinates": [-105.3729333333, 39.57283]}, "properties": {"species": "Russula xerampelina", "date": "2021-07-24", "location": "Arapaho & Roosevelt National Forests Pawnee National Grassland, Evergreen, CO, US", "elevation": 2489.0, "num_identification_agreements": 1, "tavg": null, "tmin": 20.0, "tmax": 30.0, "day_of_year": 205, "uuid": "e082cb08-a570-490e-8376-81bcff322f62", "inat_id": 88425926}}, {"type": "Feature", "geometry": {"type": "Point", "coordinates": [-105.1730883333, 39.5356916667]}, "properties": {"species": "Russula xerampelina", "date": "2021-07-22", "location": "Deer Creek Canyon Park, Littleton, CO, US", "elevation": 2187.0, "num_identification_agreements": 2, "tavg": null, "tmin": 18.9, "tmax": 32.8, "day_of_year": 203, "uuid": "1bde4c8d-74ef-4f99-b2db-3179ec16b94f", "inat_id": 88212694}}, {"type": "Feature", "geometry": {"type": "Point", "coordinates": [-105.6029461466, 40.3547203346]}, "properties": {"species": "Russula xerampelina", "date": "2017-09-08", "location": "Larimer County, CO, USA", "elevation": 2454.0, "num_identification_agreements": 1, "tavg": null, "tmin": null, "tmax": null, "day_of_year": 251, "uuid": "43dd625c-8b26-4672-b2c0-8e5e17dbd2f1", "inat_id": 69333683}}, {"type": "Feature", "geometry": {"type": "Point", "coordinates": [-105.5760234833, 39.8401152603]}, "properties": {"species": "Russula xerampelina", "date": "2020-08-28", "location": "Colorado, US", "elevation": 2860.0, "num_identification_agreements": 1, "tavg": null, "tmin": 15.4, "tmax": 25.9, "day_of_year": 241, "uuid": "63d50d7f-5e61-414f-ad5b-88fff04213b9", "inat_id": 57894913}}, {"type": "Feature", "geometry": {"type": "Point", "coordinates": [-107.6273116667, 38.0591305]}, "properties": {"species": "Russula xerampelina", "date": "2019-08-25", "location": "Grand Mesa National Forest, Ridgway, CO, US", "elevation": 3175.0, "num_identification_agreements": 1, "tavg": null, "tmin": 10.0, "tmax": 26.0, "day_of_year": 237, "uuid": "106cc56b-9da4-4e9a-80fb-522f2a68aefe", "inat_id": 47551425}}, {"type": "Feature", "geometry": {"type": "Point", "coordinates": [-107.836, 37.9421]}, "properties": {"species": "Russula xerampelina", "date": "2018-08-16", "location": "Telluride, Colorado, USA", "elevation": 2652.0, "num_identification_agreements": 1, "tavg": null, "tmin": 11.0, "tmax": 23.0, "day_of_year": 228, "uuid": "bdee9302-fb7b-4bf9-98cf-100c2cac4696", "inat_id": 40349109}}]}