{"type": "FeatureCollection", "features": [{"type": "Feature", "geometry": {"type": "Point", "coordinates": [-105.7850033333, 35.8037083333]}, "properties": {"species": "Russula atropurpurea", "date": "2024-08-07", "location": "Santa Fe National Forest, Tererro, NM, US", "elevation": 3337.0, "land_cover_label": "Tree cover", "water_mask": false, "exclude_reason": "keep", "ndvi": null, "soil_moisture": null, "solar_exposure": null, "wind_exposure": null, "water_retention": null, "slope": null, "aspect": null, "num_identification_agreements": 1, "cluster": 0, "tavg": null, "tmin": 17.2, "tmax": 34.4, "prcp_d0": 0.0, "prcp_d1": 6.709542274475098, "prcp_d2": 9.968097686767578, "prcp_d3": 0.0, "prcp_d4": 0.0, "prcp_d5": 0.0, "prcp_d6": 9.968097686767578, "tmax_d0": 19.8, "tmax_d1": 19.8, "tmax_d2": 20.1, "tmax_d3": 19.9, "tmax_d4": 19.4, "tmax_d5": 19.1, "tmax_d6": 19.4, "tmin_d0": 9.6, "tmin_d1": 7.3, "tmin_d2": 8.4, "tmin_d3": 8.5, "tmin_d4": 8.7, "tmin_d5": 9.1, "tmin_d6": 10.1, "day_of_year": 220, "uuid": "794ff3c1-b4c9-4d3c-9f1d-7aaf2bf00dfa", "inat_id": 234540654}}, {"type": "Feature", "geometry": {"type": "Point", "coordinates": [-121.941925, 45.293945]}, "properties": {"species": "Russula atropurpurea", "date": "2024-10-12", "location": "Zigzag Ranger Station, Government Camp, OR, US", "elevation": 509.0, "land_cover_label": "Tree cover", "water_mask": false, "exclude_reason": "keep", "ndvi": null, "soil_moisture": null, "solar_exposure": null, "wind_exposure": null, "water_retention": null, "slope": null, "aspect": null, "num_identification_agreements": 1, "cluster": 0, "tavg": null, "tmin": 8.9, "tmax": 24.4, "prcp_d0": 0.0, "prcp_d1": 16.696866989135742, "prcp_d2": 0.0, "prcp_d3": 0.0, "prcp_d4": 0.0, "prcp_d5": 0.0, "prcp_d6": 0.0, "tmax_d0": 23.8, "tmax_d1": 23.9, "tmax_d2": 19.7, "tmax_d3": 18.2, "tmax_d4": 24.9, "tmax_d5": 26.4, "tmax_d6": 22.3, "tmin_d0": 12.1, "tmin_d1": 9.7, "tmin_d2": 2.6, "tmin_d3": 11.5, "tmin_d4": 13.0, "tmin_d5": 11.4, "tmin_d6": 8.6, "day_of_year": 286, "uuid": "6ad5a541-46cf-465e-95e9-c76a5715e5c5", "inat_id": 247162335}}]}