{"type": "FeatureCollection", "features": [{"type": "Feature", "geometry": {"type": "Point", "coordinates": [-121.795, 45.30895]}, "properties": {"species": "Russula fragrantissima", "date": "2018-08-02", "location": "Barlow Trail, Laurel Ridge, Government Camp, Zigzag Ranger District, Mount Hood National Forest, Clackamas Co., Oregon, USA", "elevation": 1029.0, "land_cover_label": "Tree cover", "water_mask": false, "exclude_reason": "keep", "ndvi": null, "soil_moisture": null, "solar_exposure": null, "wind_exposure": null, "water_retention": null, "slope": null, "aspect": null, "num_identification_agreements": 1, "cluster": 0, "tavg": null, "tmin": null, "tmax": null, "prcp_d0": 0.0, "prcp_d1": 0.0, "prcp_d2": 0.0, "prcp_d3": 0.0, "prcp_d4": 0.0, "prcp_d5": 0.0, "prcp_d6": 0.0, "tmax_d0": 23.5, "tmax_d1": 25.1, "tmax_d2": 27.0, "tmax_d3": 33.6, "tmax_d4": 32.7, "tmax_d5": 27.2, "tmax_d6": 27.0, "tmin_d0": 11.6, "tmin_d1": 12.5, "tmin_d2": 15.3, "tmin_d3": 17.4, "tmin_d4": 14.9, "tmin_d5": 13.8, "tmin_d6": 14.3, "day_of_year": 214, "uuid": "d94a5d48-90b4-44d2-85b4-08cbf5e65c30", "inat_id": 15096706}}, {"type": "Feature", "geometry": {"type": "Point", "coordinates": [-121.938575, 45.25687]}, "properties": {"species": "Russula fragrantissima", "date": "2021-08-22", "location": "Salmon-Huckleberry Wilderness, Welches, OR, US", "elevation": 733.0, "land_cover_label": "Tree cover", "water_mask": false, "exclude_reason": "keep", "ndvi": null, "soil_moisture": null, "solar_exposure": null, "wind_exposure": null, "water_retention": null, "slope": null, "aspect": null, "num_identification_agreements": 1, "cluster": 0, "tavg": null, "tmin": 15.0, "tmax": 20.0, "prcp_d0": 0.0, "prcp_d1": 0.0, "prcp_d2": 5.6915812492370605, "prcp_d3": 0.0, "prcp_d4": 0.0, "prcp_d5": 0.0, "prcp_d6": 0.0, "tmax_d0": 15.8, "tmax_d1": 17.2, "tmax_d2": 19.5, "tmax_d3": 20.9, "tmax_d4": 21.4, "tmax_d5": 22.6, "tmax_d6": 28.2, "tmin_d0": 10.4, "tmin_d1": 9.2, "tmin_d2": 11.2, "tmin_d3": 11.2, "tmin_d4": 9.1, "tmin_d5": 8.2, "tmin_d6": 16.6, "day_of_year": 234, "uuid": "2ae07f89-7b65-4ee5-a555-8250dcdd94c0", "inat_id": 92186175}}, {"type": "Feature", "geometry": {"type": "Point", "coordinates": [-121.7018310524, 45.281988657]}, "properties": {"species": "Russula fragrantissima", "date": "2022-09-24", "location": "TIMBRLINE LDG, OR 97028, USA", "elevation": 1146.0, "land_cover_label": "Tree cover", "water_mask": false, "exclude_reason": "keep", "ndvi": null, "soil_moisture": null, "solar_exposure": null, "wind_exposure": null, "water_retention": null, "slope": null, "aspect": null, "num_identification_agreements": 1, "cluster": 0, "tavg": null, "tmin": 9.7, "tmax": 26.5, "prcp_d0": 0.0, "prcp_d1": 0.0, "prcp_d2": 0.0, "prcp_d3": 0.0, "prcp_d4": 0.0, "prcp_d5": 0.0, "prcp_d6": 0.0, "tmax_d0": 23.0, "tmax_d1": 18.2, "tmax_d2": 13.9, "tmax_d3": 18.0, "tmax_d4": 19.1, "tmax_d5": 22.9, "tmax_d6": 17.5, "tmin_d0": 7.7, "tmin_d1": 7.3, "tmin_d2": 8.5, "tmin_d3": 9.6, "tmin_d4": 10.6, "tmin_d5": 8.6, "tmin_d6": 6.7, "day_of_year": 267, "uuid": "bc63d710-5af1-4f54-bca5-eba639b5a517", "inat_id": 136325209}}, {"type": "Feature", "geometry": {"type": "Point", "coordinates": [-121.6839059959, 45.2778264998]}, "properties": {"species": "Russula fragrantissima", "date": "2022-09-30", "location": "Mt. Hood Park Division Recreation Area, Mount Hood Parkdale, OR, US", "elevation": 1288.0, "land_cover_label": "Tree cover", "water_mask": false, "exclude_reason": "keep", "ndvi": null, "soil_moisture": null, "solar_exposure": null, "wind_exposure": null, "water_retention": null, "slope": null, "aspect": null, "num_identification_agreements": 1, "cluster": 0, "tavg": null, "tmin": 11.8, "tmax": 23.6, "prcp_d0": 1.341011881828308, "prcp_d1": 19.95478248596192, "prcp_d2": 0.462457537651062, "prcp_d3": 0.0, "prcp_d4": 0.0, "prcp_d5": 0.0, "prcp_d6": 0.0, "tmax_d0": 17.9, "tmax_d1": 12.9, "tmax_d2": 19.4, "tmax_d3": 23.9, "tmax_d4": 24.6, "tmax_d5": 21.9, "tmax_d6": 22.1, "tmin_d0": 4.7, "tmin_d1": 7.6, "tmin_d2": 9.3, "tmin_d3": 12.6, "tmin_d4": 13.9, "tmin_d5": 11.7, "tmin_d6": 6.8, "day_of_year": 273, "uuid": "146949e3-d4b0-4b51-897b-2ebe542d5b78", "inat_id": 137113407}}, {"type": "Feature", "geometry": {"type": "Point", "coordinates": [-121.7934388889, 45.3135416667]}, "properties": {"species": "Russula fragrantissima", "date": "2024-08-21", "location": "MT HOOD PRKDL, OR 97041, USA", "elevation": 1001.0, "land_cover_label": "Tree cover", "water_mask": false, "exclude_reason": "keep", "ndvi": null, "soil_moisture": null, "solar_exposure": null, "wind_exposure": null, "water_retention": null, "slope": null, "aspect": null, "num_identification_agreements": 1, "cluster": 0, "tavg": null, "tmin": 13.0, "tmax": 24.3, "prcp_d0": 0.3501847684383392, "prcp_d1": 0.0, "prcp_d2": 0.0, "prcp_d3": 15.577507019042969, "prcp_d4": 0.0, "prcp_d5": 0.0, "prcp_d6": 0.0, "tmax_d0": 18.5, "tmax_d1": 19.1, "tmax_d2": 17.8, "tmax_d3": 21.4, "tmax_d4": 26.5, "tmax_d5": 20.2, "tmax_d6": 19.0, "tmin_d0": 8.7, "tmin_d1": 8.5, "tmin_d2": 9.4, "tmin_d3": 8.4, "tmin_d4": 11.9, "tmin_d5": 10.0, "tmin_d6": 10.3, "day_of_year": 234, "uuid": "5ca36cdd-282e-4ee5-8977-dab668078ecd", "inat_id": 237191981}}, {"type": "Feature", "geometry": {"type": "Point", "coordinates": [-121.698295, 45.23022]}, "properties": {"species": "Russula fragrantissima", "date": "2024-09-03", "location": "Zigzag Ranger Station, Government Camp, OR, US", "elevation": 1212.0, "land_cover_label": "Tree cover", "water_mask": false, "exclude_reason": "keep", "ndvi": null, "soil_moisture": null, "solar_exposure": null, "wind_exposure": null, "water_retention": null, "slope": null, "aspect": null, "num_identification_agreements": 1, "cluster": 0, "tavg": null, "tmin": null, "tmax": null, "prcp_d0": 0.0, "prcp_d1": 0.0, "prcp_d2": 0.0, "prcp_d3": 0.0, "prcp_d4": 3.7730985695816335e-06, "prcp_d5": 0.0, "prcp_d6": 0.3764130473136902, "tmax_d0": 20.2, "tmax_d1": 25.1, "tmax_d2": 29.4, "tmax_d3": 28.4, "tmax_d4": 27.6, "tmax_d5": 20.8, "tmax_d6": 18.9, "tmin_d0": 7.8, "tmin_d1": 10.3, "tmin_d2": 17.5, "tmin_d3": 16.2, "tmin_d4": 13.1, "tmin_d5": 9.9, "tmin_d6": 2.5, "day_of_year": 247, "uuid": "61cdb8fd-96bd-41d6-b3cf-33d98bab658d", "inat_id": 239715327}}]}