{"type": "FeatureCollection", "features": [{"type": "Feature", "geometry": {"type": "Point", "coordinates": [-106.817695, 39.1973533333]}, "properties": {"species": "Russula olivacea", "date": "2022-07-28", "location": "American Ln, Aspen, CO, US", "elevation": 2407.0, "land_cover_label": "Tree cover", "water_mask": false, "exclude_reason": "keep", "ndvi": null, "soil_moisture": null, "solar_exposure": null, "wind_exposure": null, "water_retention": null, "slope": null, "aspect": null, "num_identification_agreements": 1, "cluster": 0, "tavg": null, "tmin": 13.9, "tmax": 20.6, "prcp_d0": 0.0, "prcp_d1": 0.0, "prcp_d2": 0.0, "prcp_d3": 0.0, "prcp_d4": 0.0, "prcp_d5": 0.0, "prcp_d6": 0.0, "tmax_d0": 25.2, "tmax_d1": 27.0, "tmax_d2": 26.1, "tmax_d3": 26.3, "tmax_d4": 23.6, "tmax_d5": 28.1, "tmax_d6": 28.8, "tmin_d0": 11.4, "tmin_d1": 8.6, "tmin_d2": 8.2, "tmin_d3": 8.4, "tmin_d4": 10.2, "tmin_d5": 10.4, "tmin_d6": 7.5, "day_of_year": 209, "uuid": "613a124f-fd7e-4477-9cf1-d76f8f4b2d29", "inat_id": 129025054}}]}