{"type": "FeatureCollection", "features": [{"type": "Feature", "geometry": {"type": "Point", "coordinates": [-104.8669239, 38.7886098]}, "properties": {"species": "Russula sp. 'IN71'", "date": "2024-08-21", "location": "2130 S Cheyenne Canyon Rd, Colorado Springs, CO 80906, USA", "elevation": 1937.0, "land_cover_label": "Tree cover", "water_mask": false, "exclude_reason": "keep", "ndvi": null, "soil_moisture": null, "solar_exposure": null, "wind_exposure": null, "water_retention": null, "slope": null, "aspect": null, "num_identification_agreements": 2, "cluster": 2, "tavg": null, "tmin": 15.5, "tmax": 29.0, "prcp_d0": 8.103190422058105, "prcp_d1": 13.97312831878662, "prcp_d2": 0.0, "prcp_d3": 0.0, "prcp_d4": 0.0, "prcp_d5": 0.0, "prcp_d6": 0.0, "tmax_d0": null, "tmax_d1": null, "tmax_d2": null, "tmax_d3": null, "tmax_d4": null, "tmax_d5": null, "tmax_d6": null, "tmin_d0": null, "tmin_d1": null, "tmin_d2": null, "tmin_d3": null, "tmin_d4": null, "tmin_d5": null, "tmin_d6": null, "day_of_year": 234, "uuid": "3a449bef-c14d-4d99-abbb-401b1c43e318", "inat_id": 237155926}}]}