{"type": "FeatureCollection", "features": [{"type": "Feature", "geometry": {"type": "Point", "coordinates": [-105.7706, 39.5729472222]}, "properties": {"species": "Russula rhodocephala", "date": "2026-08-23", "location": "Dillon, CO 80435, USA", "elevation": 3384.0, "num_identification_agreements": 1, "tavg": null, "tmin": null, "tmax": null, "day_of_year": 235, "uuid": "88205d64-33b8-428a-aa35-2248df48f911", "inat_id": 393982623}}, {"type": "Feature", "geometry": {"type": "Point", "coordinates": [-105.3927533333, 36.2200866667]}, "properties": {"species": "Russula rhodocephala", "date": "2024-08-13", "location": "Carson National Forest, Chacon, NM, US", "elevation": 3369.0, "num_identification_agreements": 1, "tavg": null, "tmin": 7.7, "tmax": 21.6, "day_of_year": 226, "uuid": "e109cdf8-e9d4-4ef0-a76c-a156c712882c", "inat_id": 235665854}}]}