{"type": "FeatureCollection", "features": [{"type": "Feature", "geometry": {"type": "Point", "coordinates": [-106.3931788997, 35.9102985]}, "properties": {"species": "Russula sp. 'CA05'", "date": "2025-08-08", "location": "Los Alamos County, NM, USA", "elevation": 2884.0, "num_identification_agreements": 2, "tavg": null, "tmin": 20.9, "tmax": 32.5, "day_of_year": 220, "uuid": "a900f671-d324-4427-89f8-0964ab4bb993", "inat_id": 304867986}}, {"type": "Feature", "geometry": {"type": "Point", "coordinates": [-105.80155278, 35.79815]}, "properties": {"species": "Russula sp. 'CA05'", "date": "2025-08-05", "location": "Santa Fe, New Mexico, United States", "elevation": 3208.0, "num_identification_agreements": 1, "tavg": null, "tmin": 12.8, "tmax": 35.0, "day_of_year": 217, "uuid": "6fbd29a7-04aa-4449-a910-0e30162e5d42", "inat_id": 304262515}}, {"type": "Feature", "geometry": {"type": "Point", "coordinates": [-106.8026537821, 37.4737296228]}, "properties": {"species": "Russula sp. 'CA05'", "date": "2024-08-12", "location": "Mineral County, CO, USA", "elevation": 3464.0, "num_identification_agreements": 2, "tavg": null, "tmin": 5.0, "tmax": 13.0, "day_of_year": 225, "uuid": "eb6e2084-6b7c-42ec-9d46-1ce7f074f33c", "inat_id": 235558711}}, {"type": "Feature", "geometry": {"type": "Point", "coordinates": [-108.0054219341, 39.014496781]}, "properties": {"species": "Russula sp. 'CA05'", "date": "2024-08-05", "location": "Grand Mesa Uncompahgre and Gunnison National Forests, Cedaredge, CO, US", "elevation": 3076.0, "num_identification_agreements": 2, "tavg": null, "tmin": 18.6, "tmax": 33.8, "day_of_year": 218, "uuid": "4052a298-ec7f-45d7-84f6-0671deafd035", "inat_id": 234132595}}]}