{"type": "FeatureCollection", "features": [{"type": "Feature", "geometry": {"type": "Point", "coordinates": [-105.1602505009, 38.0167891345]}, "properties": {"species": "Spodocybe trulliformis", "date": "2022-08-17", "location": "Rye, CO 81069, USA", "elevation": 3275.0, "land_cover_label": "Tree cover", "water_mask": false, "exclude_reason": "keep", "ndvi": null, "soil_moisture": null, "solar_exposure": null, "wind_exposure": null, "water_retention": null, "slope": null, "aspect": null, "num_identification_agreements": 3, "cluster": 1, "tavg": null, "tmin": 16.2, "tmax": 24.1, "prcp_d0": 10.838895797729492, "prcp_d1": 10.838895797729492, "prcp_d2": 0.0, "prcp_d3": 0.0, "prcp_d4": 0.0, "prcp_d5": 0.0, "prcp_d6": 0.0, "tmax_d0": 12.0, "tmax_d1": 17.6, "tmax_d2": 18.0, "tmax_d3": 20.5, "tmax_d4": 18.7, "tmax_d5": 19.2, "tmax_d6": 19.5, "tmin_d0": 5.2, "tmin_d1": 6.4, "tmin_d2": 8.8, "tmin_d3": 11.1, "tmin_d4": 8.8, "tmin_d5": 9.1, "tmin_d6": 9.5, "day_of_year": 229, "uuid": "9f160edb-fcd4-4769-910b-b848b70e7ace", "inat_id": 131286362}}]}