{"type": "FeatureCollection", "features": [{"type": "Feature", "geometry": {"type": "Point", "coordinates": [-105.670775, 35.7617916667]}, "properties": {"species": "Steccherinum ochraceum", "date": "2024-09-29", "location": "Santa Fe National Forest, Tererro, NM, US", "elevation": 2400.0, "land_cover_label": "Grassland", "water_mask": false, "exclude_reason": "keep", "ndvi": null, "soil_moisture": null, "solar_exposure": null, "wind_exposure": null, "water_retention": null, "slope": null, "aspect": null, "num_identification_agreements": 1, "cluster": 0, "tavg": null, "tmin": 12.8, "tmax": 29.4, "prcp_d0": 0.0, "prcp_d1": 0.0, "prcp_d2": 0.0, "prcp_d3": 0.0, "prcp_d4": 0.0, "prcp_d5": 0.0, "prcp_d6": 0.0, "tmax_d0": 21.5, "tmax_d1": 21.1, "tmax_d2": 22.7, "tmax_d3": 24.7, "tmax_d4": 21.7, "tmax_d5": 22.4, "tmax_d6": 18.0, "tmin_d0": 7.4, "tmin_d1": 9.1, "tmin_d2": 8.5, "tmin_d3": 8.9, "tmin_d4": 7.9, "tmin_d5": 5.9, "tmin_d6": 5.3, "day_of_year": 273, "uuid": "94086cdd-6a0e-4445-9ae4-a6989700e0e7", "inat_id": 256465019}}]}