{"type": "FeatureCollection", "features": [{"type": "Feature", "geometry": {"type": "Point", "coordinates": [-104.8936004444, 39.6675987222]}, "properties": {"species": "Suillus granulatus", "date": "2025-09-08", "location": "Four Square Mile, CO, USA", "elevation": 1678.0, "num_identification_agreements": 1, "tavg": null, "tmin": 14.0, "tmax": 29.0, "day_of_year": 251, "uuid": "74a5debc-c0a0-4d00-afb9-4d76ad242856", "inat_id": 312558203}}, {"type": "Feature", "geometry": {"type": "Point", "coordinates": [-104.8591635534, 38.9236300549]}, "properties": {"species": "Suillus granulatus", "date": "2025-07-04", "location": "Northwest Colorado Springs, Colorado Springs, CO, USA", "elevation": 2003.0, "num_identification_agreements": 1, "tavg": null, "tmin": 16.0, "tmax": 28.1, "day_of_year": 185, "uuid": "9610073b-9851-4bfc-bbf2-a5927d59a41a", "inat_id": 311143490}}, {"type": "Feature", "geometry": {"type": "Point", "coordinates": [-104.9916381836, 39.5812988281]}, "properties": {"species": "Suillus granulatus", "date": "2024-09-23", "location": "Littleton", "elevation": 1697.0, "num_identification_agreements": 1, "tavg": null, "tmin": 6.7, "tmax": 25.0, "day_of_year": 267, "uuid": "3415ab73-bc15-4e39-9957-615c4dc7d31d", "inat_id": 243659079}}, {"type": "Feature", "geometry": {"type": "Point", "coordinates": [-105.849715, 40.4288401]}, "properties": {"species": "Suillus granulatus", "date": "2024-08-11", "location": "Estes Park, CO 80517, USA", "elevation": 2857.0, "num_identification_agreements": 1, "tavg": null, "tmin": 5.5, "tmax": 20.8, "day_of_year": 224, "uuid": "fce84442-cdb5-4795-9f53-1488afd52d08", "inat_id": 235645540}}, {"type": "Feature", "geometry": {"type": "Point", "coordinates": [-105.5031151404, 36.7775947751]}, "properties": {"species": "Suillus granulatus", "date": "2024-08-10", "location": "Taos County, US-NM, US", "elevation": 3687.0, "num_identification_agreements": 1, "tavg": null, "tmin": 13.9, "tmax": 25.0, "day_of_year": 223, "uuid": "97a804df-6003-46f4-926d-085983196b55", "inat_id": 234995799}}, {"type": "Feature", "geometry": {"type": "Point", "coordinates": [-105.2536879258, 39.9841490723]}, "properties": {"species": "Suillus granulatus", "date": "2022-08-10", "location": "Table Mesa Dr, Boulder, CO, US", "elevation": 1665.0, "num_identification_agreements": 1, "tavg": null, "tmin": 18.0, "tmax": 35.0, "day_of_year": 222, "uuid": "cd1887b7-ce9e-4353-92f1-e77204ea96a3", "inat_id": 130282472}}, {"type": "Feature", "geometry": {"type": "Point", "coordinates": [-105.1066027778, 40.0031444444]}, "properties": {"species": "Suillus granulatus", "date": "2022-06-24", "location": "Aspen Ridge Dr & Diamond Cir, Lafayette, CO 80026, USA", "elevation": 1630.0, "num_identification_agreements": 1, "tavg": null, "tmin": 13.3, "tmax": 31.3, "day_of_year": 175, "uuid": "739f5440-8224-49c2-82bd-cdefdbd10aae", "inat_id": 123280185}}, {"type": "Feature", "geometry": {"type": "Point", "coordinates": [-103.4573583333, 43.7676083333]}, "properties": {"species": "Suillus granulatus", "date": "2022-06-13", "location": "Custer County, US-SD, US", "elevation": 1532.0, "num_identification_agreements": 1, "tavg": null, "tmin": 12.8, "tmax": 27.8, "day_of_year": 164, "uuid": "a537933c-8db7-4d2b-b74e-db7c1233bbb3", "inat_id": 121808543}}, {"type": "Feature", "geometry": {"type": "Point", "coordinates": [-104.0120827687, 44.3431215641]}, "properties": {"species": "Suillus granulatus", "date": "2021-06-04", "location": "Black Hills National Forest, Spearfish, SD, US", "elevation": 1869.0, "num_identification_agreements": 1, "tavg": null, "tmin": 18.0, "tmax": 33.0, "day_of_year": 155, "uuid": "1bfbb8f7-6563-417b-95fe-9b194744296c", "inat_id": 82100325}}, {"type": "Feature", "geometry": {"type": "Point", "coordinates": [-103.4190616667, 43.6490883333]}, "properties": {"species": "Suillus granulatus", "date": "2021-06-05", "location": "Custer State Park, Hermosa, SD, US", "elevation": 1336.0, "num_identification_agreements": 1, "tavg": null, "tmin": 12.8, "tmax": 30.6, "day_of_year": 156, "uuid": "b5fa8ff4-6eee-4936-84f3-bc8f3f2b5fef", "inat_id": 81979004}}, {"type": "Feature", "geometry": {"type": "Point", "coordinates": [-103.49786333, 44.09898333]}, "properties": {"species": "Suillus granulatus", "date": "2020-06-09", "location": "Black Hills National Forest, Rapid City, SD, US", "elevation": 1451.0, "num_identification_agreements": 1, "tavg": null, "tmin": 6.1, "tmax": 19.4, "day_of_year": 161, "uuid": "d38406af-f82f-4a9d-befc-46aed47a3a75", "inat_id": 49505600}}, {"type": "Feature", "geometry": {"type": "Point", "coordinates": [-105.246155, 40.0107222167]}, "properties": {"species": "Suillus granulatus", "date": "2018-09-14", "location": "University of Colorado at Boulder - East Campus, Boulder, CO, US", "elevation": 1608.0, "num_identification_agreements": 2, "tavg": null, "tmin": 13.0, "tmax": 32.0, "day_of_year": 257, "uuid": "e5c80416-4cb7-4da5-8bdd-145890bcd688", "inat_id": 16537534}}, {"type": "Feature", "geometry": {"type": "Point", "coordinates": [-104.88623, 38.9491]}, "properties": {"species": "Suillus granulatus", "date": "2017-06-16", "location": "3786\u20133798 W Woodmen Rd, Colorado Springs, CO, US", "elevation": 2162.0, "num_identification_agreements": 1, "tavg": null, "tmin": 8.4, "tmax": 32.3, "day_of_year": 167, "uuid": "9f3223a3-491b-409f-85bf-8c1558732ab9", "inat_id": 6685010}}]}