{"type": "FeatureCollection", "features": [{"type": "Feature", "geometry": {"type": "Point", "coordinates": [-105.7258387282, 39.6960979382]}, "properties": {"species": "Suillus tomentosus", "date": "2026-08-08", "location": "Woodward/Water St, Silver Plume, CO 80476, USA", "elevation": 2800.0, "num_identification_agreements": 1, "tavg": null, "tmin": 10.0, "tmax": 16.0, "day_of_year": 220, "uuid": "f786c706-e74c-4624-afdf-8cfc493a725f", "inat_id": 389463266}}, {"type": "Feature", "geometry": {"type": "Point", "coordinates": [-105.6584454, 39.677588]}, "properties": {"species": "Suillus tomentosus", "date": "2026-07-22", "location": "Golden, CO 80439, USA", "elevation": 2950.0, "num_identification_agreements": 1, "tavg": null, "tmin": 6.0, "tmax": 13.0, "day_of_year": 203, "uuid": "aadbef31-a693-4842-b3f9-7b894f0c29c6", "inat_id": 384065402}}]}