{"type": "FeatureCollection", "features": [{"type": "Feature", "geometry": {"type": "Point", "coordinates": [-105.0398940833, 39.1128082222]}, "properties": {"species": "Suillus luteus", "date": "2025-09-13", "location": "Woodland Park, CO 80863, USA", "elevation": 2855.0, "land_cover_label": "Tree cover", "water_mask": false, "exclude_reason": "keep", "ndvi": null, "soil_moisture": 0.2526894886615886, "solar_exposure": 0.8107498288154602, "wind_exposure": 0.3702260255813598, "water_retention": 0.2260978519916534, "slope": 4.412769794464111, "aspect": 55.757598876953125, "num_identification_agreements": 2, "cluster": 0, "tavg": null, "tmin": 8.5, "tmax": 22.0, "prcp_d0": 0.0, "prcp_d1": 10.253896713256836, "prcp_d2": 0.0, "prcp_d3": 0.0, "prcp_d4": 8.179306030273438, "prcp_d5": 0.0, "prcp_d6": 0.0, "tmax_d0": null, "tmax_d1": null, "tmax_d2": null, "tmax_d3": null, "tmax_d4": null, "tmax_d5": null, "tmax_d6": null, "tmin_d0": null, "tmin_d1": null, "tmin_d2": null, "tmin_d3": null, "tmin_d4": null, "tmin_d5": null, "tmin_d6": null, "day_of_year": 256, "uuid": "49c21ed6-0301-4567-9e0c-b845eb558094", "inat_id": 313950003}}]}