{"type": "FeatureCollection", "features": [{"type": "Feature", "geometry": {"type": "Point", "coordinates": [-105.810425, 35.773675]}, "properties": {"species": "Thaxterogaster subporphyropus", "date": "2025-09-19", "location": "Santa Fe, New Mexico, United States", "elevation": 2979.0, "land_cover_label": "Tree cover", "water_mask": false, "exclude_reason": "keep", "ndvi": null, "soil_moisture": null, "solar_exposure": null, "wind_exposure": null, "water_retention": null, "slope": null, "aspect": null, "num_identification_agreements": 2, "cluster": 0, "tavg": null, "tmin": 11.0, "tmax": 25.0, "prcp_d0": 0.0, "prcp_d1": 0.0, "prcp_d2": 0.0, "prcp_d3": 0.0, "prcp_d4": 0.0, "prcp_d5": 0.0, "prcp_d6": 13.416844367980955, "tmax_d0": 14.9, "tmax_d1": 15.7, "tmax_d2": 16.1, "tmax_d3": 16.5, "tmax_d4": 16.7, "tmax_d5": 14.0, "tmax_d6": 15.8, "tmin_d0": 4.4, "tmin_d1": 5.3, "tmin_d2": 5.1, "tmin_d3": 6.2, "tmin_d4": 3.6, "tmin_d5": 3.7, "tmin_d6": 6.3, "day_of_year": 262, "uuid": "979fcd3e-3d2b-49ef-bf2d-53df996c45ea", "inat_id": 315336142}}]}