{"type": "FeatureCollection", "features": [{"type": "Feature", "geometry": {"type": "Point", "coordinates": [-109.266, 38.4432]}, "properties": {"species": "Tremella mesenterica", "date": "2016-09-29", "location": "Manti-La Sal National Forest, Utah, USA", "elevation": 3548.0, "land_cover_label": "Bare / sparse vegetation", "water_mask": false, "exclude_reason": "keep", "ndvi": null, "soil_moisture": null, "solar_exposure": null, "wind_exposure": null, "water_retention": null, "slope": null, "aspect": null, "num_identification_agreements": 1, "cluster": 0, "tavg": null, "tmin": null, "tmax": null, "prcp_d0": 0.0, "prcp_d1": 0.0, "prcp_d2": 0.0, "prcp_d3": 0.0, "prcp_d4": 0.0, "prcp_d5": 0.0, "prcp_d6": 0.0, "tmax_d0": 11.6, "tmax_d1": 13.6, "tmax_d2": 12.4, "tmax_d3": 10.8, "tmax_d4": 7.5, "tmax_d5": 1.5, "tmax_d6": 9.0, "tmin_d0": 0.8, "tmin_d1": -0.3, "tmin_d2": -0.9, "tmin_d3": -3.4, "tmin_d4": -5.4, "tmin_d5": -4.7, "tmin_d6": -1.8, "day_of_year": 273, "uuid": "2d9daae4-31a8-4dbc-953d-285324b68efc", "inat_id": 76439114}}, {"type": "Feature", "geometry": {"type": "Point", "coordinates": [-121.8906497955, 45.6579676859]}, "properties": {"species": "Tremella mesenterica", "date": "2016-11-25", "location": "PCT-Cascade Locks, Hood River County, OR, USA", "elevation": 199.0, "land_cover_label": "Tree cover", "water_mask": false, "exclude_reason": "keep", "ndvi": null, "soil_moisture": null, "solar_exposure": null, "wind_exposure": null, "water_retention": null, "slope": null, "aspect": null, "num_identification_agreements": 1, "cluster": 1, "tavg": null, "tmin": 7.8, "tmax": 10.6, "prcp_d0": 14.13019847869873, "prcp_d1": 56.52079391479492, "prcp_d2": 14.13019847869873, "prcp_d3": 0.0, "prcp_d4": 0.0, "prcp_d5": 29.669721603393555, "prcp_d6": 0.0, "tmax_d0": 8.0, "tmax_d1": 7.2, "tmax_d2": 8.2, "tmax_d3": 9.2, "tmax_d4": 9.3, "tmax_d5": 9.4, "tmax_d6": 8.5, "tmin_d0": 5.1, "tmin_d1": 4.3, "tmin_d2": 4.9, "tmin_d3": 1.8, "tmin_d4": 7.5, "tmin_d5": 4.8, "tmin_d6": 4.1, "day_of_year": 330, "uuid": "5f7bbd1d-aa44-46aa-9761-e87435b95701", "inat_id": 4637326}}, {"type": "Feature", "geometry": {"type": "Point", "coordinates": [-122.1534160897, 45.5698755445]}, "properties": {"species": "Tremella mesenterica", "date": "2019-10-23", "location": "Corbett, OR 97019, USA", "elevation": 97.0, "land_cover_label": "Tree cover", "water_mask": false, "exclude_reason": "keep", "ndvi": null, "soil_moisture": null, "solar_exposure": null, "wind_exposure": null, "water_retention": null, "slope": null, "aspect": null, "num_identification_agreements": 1, "cluster": 2, "tavg": null, "tmin": 6.1, "tmax": 15.0, "prcp_d0": 0.0, "prcp_d1": 0.0, "prcp_d2": 0.0, "prcp_d3": 0.0, "prcp_d4": 110.29385375976562, "prcp_d5": 0.0, "prcp_d6": 0.0, "tmax_d0": 17.5, "tmax_d1": 15.2, "tmax_d2": 13.2, "tmax_d3": 12.4, "tmax_d4": 11.1, "tmax_d5": 13.1, "tmax_d6": 14.1, "tmin_d0": 5.3, "tmin_d1": 12.5, "tmin_d2": 10.6, "tmin_d3": 6.5, "tmin_d4": 8.4, "tmin_d5": 8.2, "tmin_d6": 9.6, "day_of_year": 296, "uuid": "462aef73-a81c-40d9-8f12-489d25809847", "inat_id": 34808143}}, {"type": "Feature", "geometry": {"type": "Point", "coordinates": [-121.86710778, 45.30387613]}, "properties": {"species": "Tremella mesenterica", "date": "2019-11-03", "location": "Clackamas County, US-OR, US", "elevation": 684.0, "land_cover_label": "Tree cover", "water_mask": false, "exclude_reason": "keep", "ndvi": null, "soil_moisture": null, "solar_exposure": null, "wind_exposure": null, "water_retention": null, "slope": null, "aspect": null, "num_identification_agreements": 1, "cluster": 0, "tavg": null, "tmin": 2.2, "tmax": 14.4, "prcp_d0": 0.0, "prcp_d1": 0.0, "prcp_d2": 0.0, "prcp_d3": 0.0, "prcp_d4": 0.0, "prcp_d5": 0.0, "prcp_d6": 0.0, "tmax_d0": 14.5, "tmax_d1": 17.0, "tmax_d2": 12.6, "tmax_d3": 12.5, "tmax_d4": 9.2, "tmax_d5": 5.0, "tmax_d6": 7.4, "tmin_d0": 4.1, "tmin_d1": 3.8, "tmin_d2": 0.9, "tmin_d3": 0.1, "tmin_d4": -2.2, "tmin_d5": -5.6, "tmin_d6": -2.1, "day_of_year": 307, "uuid": "a1d22171-2f53-420e-a917-e1de82d083cf", "inat_id": 35269172}}, {"type": "Feature", "geometry": {"type": "Point", "coordinates": [-122.2645085, 45.401719]}, "properties": {"species": "Tremella mesenterica", "date": "2021-01-02", "location": "Sandy, OR, US", "elevation": 274.0, "land_cover_label": "Tree cover", "water_mask": false, "exclude_reason": "keep", "ndvi": null, "soil_moisture": null, "solar_exposure": null, "wind_exposure": null, "water_retention": null, "slope": null, "aspect": null, "num_identification_agreements": 1, "cluster": 0, "tavg": null, "tmin": 10.0, "tmax": 11.7, "prcp_d0": 15.618309020996094, "prcp_d1": 7.809154510498047, "prcp_d2": 0.0, "prcp_d3": 8.528614044189453, "prcp_d4": 17.057228088378906, "prcp_d5": 0.0, "prcp_d6": 8.528614044189453, "tmax_d0": 8.0, "tmax_d1": 13.9, "tmax_d2": 8.0, "tmax_d3": 7.1, "tmax_d4": 6.3, "tmax_d5": 10.2, "tmax_d6": 10.9, "tmin_d0": 6.0, "tmin_d1": 6.1, "tmin_d2": 5.8, "tmin_d3": 3.1, "tmin_d4": -2.4, "tmin_d5": 2.9, "tmin_d6": 3.6, "day_of_year": 2, "uuid": "3f616fff-e7fc-45cc-b307-231e935561b5", "inat_id": 96498467}}, {"type": "Feature", "geometry": {"type": "Point", "coordinates": [-122.1075278333, 45.3633583333]}, "properties": {"species": "Tremella mesenterica", "date": "2021-10-30", "location": "Sandy, OR, US", "elevation": 476.0, "land_cover_label": "Tree cover", "water_mask": false, "exclude_reason": "keep", "ndvi": null, "soil_moisture": null, "solar_exposure": null, "wind_exposure": null, "water_retention": null, "slope": null, "aspect": null, "num_identification_agreements": 1, "cluster": 2, "tavg": null, "tmin": 6.1, "tmax": 15.6, "prcp_d0": 0.0, "prcp_d1": 0.0, "prcp_d2": 0.0, "prcp_d3": 0.0, "prcp_d4": 0.0, "prcp_d5": 0.0, "prcp_d6": 108.76736450195312, "tmax_d0": 12.3, "tmax_d1": 14.7, "tmax_d2": 14.8, "tmax_d3": 10.6, "tmax_d4": 9.4, "tmax_d5": 10.8, "tmax_d6": 11.7, "tmin_d0": 0.9, "tmin_d1": 6.5, "tmin_d2": 7.8, "tmin_d3": 6.9, "tmin_d4": 6.0, "tmin_d5": 5.3, "tmin_d6": 7.1, "day_of_year": 303, "uuid": "772d7120-8afb-4cb6-b0b2-8cb184efef0d", "inat_id": 99937795}}, {"type": "Feature", "geometry": {"type": "Point", "coordinates": [-122.3737123032, 45.2417603246]}, "properties": {"species": "Tremella mesenterica", "date": "2022-01-22", "location": "S Shady Forest Ln, Beavercreek, OR, US", "elevation": 344.0, "land_cover_label": "Tree cover", "water_mask": false, "exclude_reason": "keep", "ndvi": null, "soil_moisture": null, "solar_exposure": null, "wind_exposure": null, "water_retention": null, "slope": null, "aspect": null, "num_identification_agreements": 1, "cluster": 0, "tavg": null, "tmin": 4.4, "tmax": 10.0, "prcp_d0": 0.0, "prcp_d1": 0.0, "prcp_d2": 0.0, "prcp_d3": 0.0, "prcp_d4": 0.0, "prcp_d5": 0.0, "prcp_d6": 0.0, "tmax_d0": 9.1, "tmax_d1": 8.9, "tmax_d2": 10.5, "tmax_d3": 9.5, "tmax_d4": 7.3, "tmax_d5": 9.9, "tmax_d6": 8.3, "tmin_d0": -2.2, "tmin_d1": 3.7, "tmin_d2": 7.5, "tmin_d3": 3.6, "tmin_d4": 2.4, "tmin_d5": 1.5, "tmin_d6": -0.9, "day_of_year": 22, "uuid": "477a0757-2480-438d-bbfd-093c138452dd", "inat_id": 105402787}}, {"type": "Feature", "geometry": {"type": "Point", "coordinates": [-122.1169278333, 45.5771333333]}, "properties": {"species": "Tremella mesenterica", "date": "2022-03-20", "location": "Zigzag Ranger Station, Corbett, OR, US", "elevation": 12.0, "land_cover_label": "Tree cover", "water_mask": false, "exclude_reason": "keep", "ndvi": null, "soil_moisture": null, "solar_exposure": null, "wind_exposure": null, "water_retention": null, "slope": null, "aspect": null, "num_identification_agreements": 1, "cluster": 0, "tavg": null, "tmin": 4.4, "tmax": 10.6, "prcp_d0": 0.0, "prcp_d1": 0.0, "prcp_d2": 0.0, "prcp_d3": 0.0, "prcp_d4": 0.0, "prcp_d5": 0.0, "prcp_d6": 0.0, "tmax_d0": 8.2, "tmax_d1": 12.7, "tmax_d2": 13.1, "tmax_d3": 11.5, "tmax_d4": 11.3, "tmax_d5": 10.6, "tmax_d6": 10.0, "tmin_d0": 3.5, "tmin_d1": 6.9, "tmin_d2": 5.8, "tmin_d3": 3.7, "tmin_d4": 5.5, "tmin_d5": 7.7, "tmin_d6": 6.0, "day_of_year": 79, "uuid": "718832fb-2ff1-4ace-8b15-796a3c925010", "inat_id": 109181646}}, {"type": "Feature", "geometry": {"type": "Point", "coordinates": [-122.4585892982, 45.3812177851]}, "properties": {"species": "Tremella mesenterica", "date": "2022-05-06", "location": "Clackamas County, OR, USA", "elevation": 60.0, "land_cover_label": "Tree cover", "water_mask": false, "exclude_reason": "keep", "ndvi": null, "soil_moisture": null, "solar_exposure": null, "wind_exposure": null, "water_retention": null, "slope": null, "aspect": null, "num_identification_agreements": 3, "cluster": 2, "tavg": null, "tmin": 10.6, "tmax": 15.6, "prcp_d0": 0.0, "prcp_d1": 46.78013610839844, "prcp_d2": 0.0, "prcp_d3": 0.0, "prcp_d4": 0.0, "prcp_d5": 0.0, "prcp_d6": 105.96058654785156, "tmax_d0": 14.3, "tmax_d1": 20.8, "tmax_d2": 20.3, "tmax_d3": 14.0, "tmax_d4": 16.4, "tmax_d5": 16.3, "tmax_d6": 14.6, "tmin_d0": 9.2, "tmin_d1": 8.1, "tmin_d2": 4.3, "tmin_d3": 7.7, "tmin_d4": 7.5, "tmin_d5": 5.6, "tmin_d6": 9.0, "day_of_year": 126, "uuid": "0ef5d01a-1ae3-4107-9cf6-646e7c2da512", "inat_id": 115932302}}, {"type": "Feature", "geometry": {"type": "Point", "coordinates": [-122.0681083333, 45.5902333333]}, "properties": {"species": "Tremella mesenterica", "date": "2022-05-15", "location": "Columbia River Gorge National Scenic Area - Headquarters, Corbett, OR, US", "elevation": 22.0, "land_cover_label": "Tree cover", "water_mask": false, "exclude_reason": "keep", "ndvi": null, "soil_moisture": null, "solar_exposure": null, "wind_exposure": null, "water_retention": null, "slope": null, "aspect": null, "num_identification_agreements": 1, "cluster": 1, "tavg": null, "tmin": 14.4, "tmax": 20.6, "prcp_d0": 37.728981018066406, "prcp_d1": 75.45796203613281, "prcp_d2": 0.0, "prcp_d3": 0.0, "prcp_d4": 0.0, "prcp_d5": 0.0, "prcp_d6": 0.0, "tmax_d0": 18.8, "tmax_d1": 17.1, "tmax_d2": 14.3, "tmax_d3": 14.1, "tmax_d4": 14.7, "tmax_d5": 14.1, "tmax_d6": 10.3, "tmin_d0": 11.4, "tmin_d1": 8.6, "tmin_d2": 4.2, "tmin_d3": 7.4, "tmin_d4": 4.7, "tmin_d5": 5.3, "tmin_d6": 4.5, "day_of_year": 135, "uuid": "f2883011-fe7b-45ef-b967-6ea9031f4b01", "inat_id": 125301964}}, {"type": "Feature", "geometry": {"type": "Point", "coordinates": [-122.2188, 45.5349861111]}, "properties": {"species": "Tremella mesenterica", "date": "2022-05-27", "location": "Corbett, OR 97019, USA", "elevation": 211.0, "land_cover_label": "Tree cover", "water_mask": false, "exclude_reason": "keep", "ndvi": null, "soil_moisture": null, "solar_exposure": null, "wind_exposure": null, "water_retention": null, "slope": null, "aspect": null, "num_identification_agreements": 1, "cluster": 0, "tavg": null, "tmin": 12.8, "tmax": 17.2, "prcp_d0": 0.0, "prcp_d1": 0.0, "prcp_d2": 0.0, "prcp_d3": 0.0, "prcp_d4": 0.0, "prcp_d5": 0.0, "prcp_d6": 0.0, "tmax_d0": 17.7, "tmax_d1": 20.5, "tmax_d2": 17.7, "tmax_d3": 17.5, "tmax_d4": 19.1, "tmax_d5": 20.0, "tmax_d6": 18.4, "tmin_d0": 11.1, "tmin_d1": 9.4, "tmin_d2": 11.3, "tmin_d3": 7.4, "tmin_d4": 9.8, "tmin_d5": 3.9, "tmin_d6": 2.6, "day_of_year": 147, "uuid": "c92cdca7-68ef-479a-bd93-7c485f700936", "inat_id": 119010999}}, {"type": "Feature", "geometry": {"type": "Point", "coordinates": [-122.0148916667, 45.64278]}, "properties": {"species": "Tremella mesenterica", "date": "2022-06-05", "location": "Beacon Rock State Park, Stevenson, WA, US", "elevation": 295.0, "land_cover_label": "Tree cover", "water_mask": false, "exclude_reason": "keep", "ndvi": null, "soil_moisture": null, "solar_exposure": null, "wind_exposure": null, "water_retention": null, "slope": null, "aspect": null, "num_identification_agreements": 1, "cluster": 1, "tavg": null, "tmin": 13.3, "tmax": 21.7, "prcp_d0": 103.72159576416016, "prcp_d1": 0.0, "prcp_d2": 0.0, "prcp_d3": 0.0, "prcp_d4": 0.0, "prcp_d5": 0.0, "prcp_d6": 0.0, "tmax_d0": 16.1, "tmax_d1": 15.4, "tmax_d2": 21.8, "tmax_d3": 23.0, "tmax_d4": 21.4, "tmax_d5": 21.7, "tmax_d6": 12.5, "tmin_d0": 11.2, "tmin_d1": 10.0, "tmin_d2": 12.3, "tmin_d3": 11.1, "tmin_d4": 9.5, "tmin_d5": 5.6, "tmin_d6": 6.2, "day_of_year": 156, "uuid": "c9688a32-ba0b-42f1-9f31-6352437d673d", "inat_id": 120398646}}, {"type": "Feature", "geometry": {"type": "Point", "coordinates": [-122.0967755467, 45.5374966937]}, "properties": {"species": "Tremella mesenterica", "date": "2022-06-16", "location": "Cascade Locks, OR 97014, USA", "elevation": 1107.0, "land_cover_label": "Tree cover", "water_mask": false, "exclude_reason": "keep", "ndvi": null, "soil_moisture": null, "solar_exposure": null, "wind_exposure": null, "water_retention": null, "slope": null, "aspect": null, "num_identification_agreements": 1, "cluster": 0, "tavg": null, "tmin": 13.9, "tmax": 21.7, "prcp_d0": 0.953997790813446, "prcp_d1": 0.0, "prcp_d2": 0.0, "prcp_d3": 0.0, "prcp_d4": 0.0, "prcp_d5": 0.0, "prcp_d6": 0.0, "tmax_d0": 13.9, "tmax_d1": 14.5, "tmax_d2": 7.9, "tmax_d3": 5.6, "tmax_d4": 9.9, "tmax_d5": 11.9, "tmax_d6": 13.0, "tmin_d0": 5.4, "tmin_d1": 1.0, "tmin_d2": 2.4, "tmin_d3": 1.6, "tmin_d4": 3.8, "tmin_d5": 7.4, "tmin_d6": 9.2, "day_of_year": 167, "uuid": "d91d0210-9b1b-41d5-9132-64201add55e3", "inat_id": 122123293}}, {"type": "Feature", "geometry": {"type": "Point", "coordinates": [-122.2374719948, 45.4242587799]}, "properties": {"species": "Tremella mesenterica", "date": "2022-06-17", "location": "SE Thomas Rd, Sandy, OR, US", "elevation": 198.0, "land_cover_label": "Tree cover", "water_mask": false, "exclude_reason": "keep", "ndvi": null, "soil_moisture": null, "solar_exposure": null, "wind_exposure": null, "water_retention": null, "slope": null, "aspect": null, "num_identification_agreements": 2, "cluster": 0, "tavg": null, "tmin": 12.2, "tmax": 15.0, "prcp_d0": 24.88481903076172, "prcp_d1": 1.3674969673156738, "prcp_d2": 0.0, "prcp_d3": 0.0, "prcp_d4": 0.0, "prcp_d5": 0.0, "prcp_d6": 0.0, "tmax_d0": 17.7, "tmax_d1": 17.9, "tmax_d2": 17.9, "tmax_d3": 14.2, "tmax_d4": 11.8, "tmax_d5": 14.9, "tmax_d6": 17.5, "tmin_d0": 8.9, "tmin_d1": 10.1, "tmin_d2": 5.2, "tmin_d3": 7.4, "tmin_d4": 6.3, "tmin_d5": 9.7, "tmin_d6": 12.6, "day_of_year": 168, "uuid": "9d91a0bc-7824-4500-a7ef-673fc405b7b9", "inat_id": 122198810}}, {"type": "Feature", "geometry": {"type": "Point", "coordinates": [-107.7458583333, 37.3873861111]}, "properties": {"species": "Tremella mesenterica", "date": "2022-07-04", "location": "La Plata County, CO, USA", "elevation": 2803.0, "land_cover_label": "Tree cover", "water_mask": false, "exclude_reason": "keep", "ndvi": null, "soil_moisture": null, "solar_exposure": null, "wind_exposure": null, "water_retention": null, "slope": null, "aspect": null, "num_identification_agreements": 1, "cluster": 0, "tavg": null, "tmin": 11.7, "tmax": 29.4, "prcp_d0": 0.0, "prcp_d1": 0.0, "prcp_d2": 0.0, "prcp_d3": 0.0, "prcp_d4": 0.0, "prcp_d5": 0.0, "prcp_d6": 11.810997009277344, "tmax_d0": 20.6, "tmax_d1": 18.2, "tmax_d2": 21.3, "tmax_d3": 20.6, "tmax_d4": 20.9, "tmax_d5": 21.1, "tmax_d6": 20.3, "tmin_d0": 6.6, "tmin_d1": 6.9, "tmin_d2": 7.3, "tmin_d3": 7.4, "tmin_d4": 9.5, "tmin_d5": 5.9, "tmin_d6": 5.3, "day_of_year": 185, "uuid": "f2140e63-d44c-4766-98be-bbcc5a6fc933", "inat_id": 125355488}}, {"type": "Feature", "geometry": {"type": "Point", "coordinates": [-109.2601444444, 38.4657277778]}, "properties": {"species": "Tremella mesenterica", "date": "2022-08-27", "location": "Moab, UT 84532, USA", "elevation": 3137.0, "land_cover_label": "Tree cover", "water_mask": false, "exclude_reason": "keep", "ndvi": null, "soil_moisture": null, "solar_exposure": null, "wind_exposure": null, "water_retention": null, "slope": null, "aspect": null, "num_identification_agreements": 1, "cluster": 0, "tavg": null, "tmin": null, "tmax": null, "prcp_d0": 0.0, "prcp_d1": 0.0, "prcp_d2": 0.0, "prcp_d3": 0.0, "prcp_d4": 0.0, "prcp_d5": 0.0, "prcp_d6": 14.523321151733398, "tmax_d0": 16.8, "tmax_d1": 13.6, "tmax_d2": 15.2, "tmax_d3": 19.3, "tmax_d4": 17.4, "tmax_d5": 17.4, "tmax_d6": 15.2, "tmin_d0": 5.3, "tmin_d1": 6.0, "tmin_d2": 8.5, "tmin_d3": 9.0, "tmin_d4": 7.3, "tmin_d5": 7.5, "tmin_d6": 5.4, "day_of_year": 239, "uuid": "a6b5ded3-a0c5-40c5-84d4-7b34ec869177", "inat_id": 132694673}}, {"type": "Feature", "geometry": {"type": "Point", "coordinates": [-122.1185695, 45.30135]}, "properties": {"species": "Tremella mesenterica", "date": "2023-01-16", "location": "Zigzag Ranger Station, Estacada, OR, US", "elevation": 549.0, "land_cover_label": "Tree cover", "water_mask": false, "exclude_reason": "keep", "ndvi": null, "soil_moisture": null, "solar_exposure": null, "wind_exposure": null, "water_retention": null, "slope": null, "aspect": null, "num_identification_agreements": 1, "cluster": 1, "tavg": null, "tmin": 3.3, "tmax": 10.0, "prcp_d0": 18.136314392089844, "prcp_d1": 10.866571426391602, "prcp_d2": 5.433285713195801, "prcp_d3": 16.29985809326172, "prcp_d4": 27.16642951965332, "prcp_d5": 5.433285713195801, "prcp_d6": 4.440813064575195, "tmax_d0": 5.0, "tmax_d1": 8.2, "tmax_d2": 9.0, "tmax_d3": 11.7, "tmax_d4": 9.9, "tmax_d5": 9.6, "tmax_d6": 8.6, "tmin_d0": 0.7, "tmin_d1": 3.2, "tmin_d2": 4.1, "tmin_d3": 7.2, "tmin_d4": 4.1, "tmin_d5": 2.3, "tmin_d6": 0.8, "day_of_year": 16, "uuid": "68a55c6f-5ae7-4c01-82c3-903f3d7d6e3e", "inat_id": 146735153}}, {"type": "Feature", "geometry": {"type": "Point", "coordinates": [-122.3043216667, 45.4899633333]}, "properties": {"species": "Tremella mesenterica", "date": "2023-04-13", "location": "Oxbow Regional Park, Gresham, OR, US", "elevation": 28.0, "land_cover_label": "Tree cover", "water_mask": false, "exclude_reason": "keep", "ndvi": null, "soil_moisture": null, "solar_exposure": null, "wind_exposure": null, "water_retention": null, "slope": null, "aspect": null, "num_identification_agreements": 1, "cluster": 2, "tavg": null, "tmin": 4.4, "tmax": 13.9, "prcp_d0": 0.0, "prcp_d1": 0.0, "prcp_d2": 0.0, "prcp_d3": 0.0, "prcp_d4": 0.0, "prcp_d5": 0.0, "prcp_d6": 77.12655639648438, "tmax_d0": 10.8, "tmax_d1": 9.5, "tmax_d2": 9.7, "tmax_d3": 12.3, "tmax_d4": 12.6, "tmax_d5": 13.3, "tmax_d6": 12.8, "tmin_d0": 1.3, "tmin_d1": 2.5, "tmin_d2": 4.8, "tmin_d3": 8.5, "tmin_d4": 8.1, "tmin_d5": 4.2, "tmin_d6": 7.0, "day_of_year": 103, "uuid": "14fcd6c2-3947-47a4-a5a7-5dd18e521fb4", "inat_id": 154901671}}, {"type": "Feature", "geometry": {"type": "Point", "coordinates": [-105.2420745, 39.4657274997]}, "properties": {"species": "Tremella mesenterica", "date": "2023-08-09", "location": "Jefferson County, US-CO, US", "elevation": 2260.0, "land_cover_label": "Tree cover", "water_mask": false, "exclude_reason": "keep", "ndvi": null, "soil_moisture": 0.3491334945384496, "solar_exposure": 0.6890848875045776, "wind_exposure": 0.2438803166151046, "water_retention": 0.2005051374435424, "slope": 12.712594032287598, "aspect": 20.220027923583984, "num_identification_agreements": 1, "cluster": 0, "tavg": null, "tmin": 12.8, "tmax": 25.6, "prcp_d0": 0.0, "prcp_d1": 0.0, "prcp_d2": 0.0, "prcp_d3": 0.0, "prcp_d4": 0.0, "prcp_d5": 0.0, "prcp_d6": 0.0, "tmax_d0": 23.3, "tmax_d1": 25.9, "tmax_d2": 24.8, "tmax_d3": 21.6, "tmax_d4": 23.2, "tmax_d5": 27.9, "tmax_d6": 25.3, "tmin_d0": 8.3, "tmin_d1": 8.4, "tmin_d2": 9.3, "tmin_d3": 9.9, "tmin_d4": 11.4, "tmin_d5": 10.1, "tmin_d6": 12.1, "day_of_year": 221, "uuid": "046e6a81-39f7-418c-9813-8a5d136c93da", "inat_id": 177573226}}, {"type": "Feature", "geometry": {"type": "Point", "coordinates": [-105.2426344, 39.4642484997]}, "properties": {"species": "Tremella mesenterica", "date": "2023-08-09", "location": "Jefferson County, US-CO, US", "elevation": 2332.0, "land_cover_label": "Tree cover", "water_mask": false, "exclude_reason": "keep", "ndvi": null, "soil_moisture": 0.3490866329978294, "solar_exposure": 0.5516698956489563, "wind_exposure": 0.3616549968719482, "water_retention": 0.2713128328323364, "slope": 21.53696632385254, "aspect": 347.5536499023437, "num_identification_agreements": 1, "cluster": 0, "tavg": null, "tmin": 12.8, "tmax": 25.6, "prcp_d0": 0.0, "prcp_d1": 0.0, "prcp_d2": 0.0, "prcp_d3": 0.0, "prcp_d4": 0.0, "prcp_d5": 0.0, "prcp_d6": 0.0, "tmax_d0": 23.3, "tmax_d1": 25.9, "tmax_d2": 24.8, "tmax_d3": 21.6, "tmax_d4": 23.2, "tmax_d5": 27.9, "tmax_d6": 25.3, "tmin_d0": 8.3, "tmin_d1": 8.4, "tmin_d2": 9.3, "tmin_d3": 9.9, "tmin_d4": 11.4, "tmin_d5": 10.1, "tmin_d6": 12.1, "day_of_year": 221, "uuid": "14afd02a-d69a-42de-a568-d8c7ce9c1ddd", "inat_id": 177573044}}, {"type": "Feature", "geometry": {"type": "Point", "coordinates": [-103.5430666667, 43.8531333333]}, "properties": {"species": "Tremella mesenterica", "date": "2023-09-12", "location": "Custer County, SD, USA", "elevation": 1999.0, "land_cover_label": "Tree cover", "water_mask": false, "exclude_reason": "keep", "ndvi": null, "soil_moisture": null, "solar_exposure": null, "wind_exposure": null, "water_retention": null, "slope": null, "aspect": null, "num_identification_agreements": 1, "cluster": 0, "tavg": null, "tmin": 5.0, "tmax": 21.1, "prcp_d0": 0.0, "prcp_d1": 0.0, "prcp_d2": 13.449742317199709, "prcp_d3": 13.449742317199709, "prcp_d4": 0.0, "prcp_d5": 0.0, "prcp_d6": 0.0, "tmax_d0": 17.5, "tmax_d1": 15.5, "tmax_d2": 12.1, "tmax_d3": 18.9, "tmax_d4": 20.7, "tmax_d5": 22.7, "tmax_d6": 20.4, "tmin_d0": 6.4, "tmin_d1": 2.4, "tmin_d2": 8.1, "tmin_d3": 9.0, "tmin_d4": 11.2, "tmin_d5": 12.5, "tmin_d6": 6.6, "day_of_year": 255, "uuid": "a752a15d-41df-4ab0-8d01-4013b7aecefc", "inat_id": 184864079}}, {"type": "Feature", "geometry": {"type": "Point", "coordinates": [-108.1686721154, 37.5113421511]}, "properties": {"species": "Tremella mesenterica", "date": "2024-07-02", "location": "San Juan National Forest - Headquarters, Dolores, CO, US", "elevation": 3092.0, "land_cover_label": "Tree cover", "water_mask": false, "exclude_reason": "keep", "ndvi": null, "soil_moisture": null, "solar_exposure": null, "wind_exposure": null, "water_retention": null, "slope": null, "aspect": null, "num_identification_agreements": 1, "cluster": 0, "tavg": null, "tmin": 14.3, "tmax": 31.0, "prcp_d0": 0.0, "prcp_d1": 13.560821533203123, "prcp_d2": 0.0, "prcp_d3": 0.0, "prcp_d4": 0.0, "prcp_d5": 6.687952518463135, "prcp_d6": 0.0, "tmax_d0": 18.6, "tmax_d1": 16.4, "tmax_d2": 19.4, "tmax_d3": 20.7, "tmax_d4": 18.5, "tmax_d5": 18.4, "tmax_d6": 20.3, "tmin_d0": 4.5, "tmin_d1": 8.2, "tmin_d2": 8.0, "tmin_d3": 4.1, "tmin_d4": 2.3, "tmin_d5": 6.6, "tmin_d6": 7.9, "day_of_year": 184, "uuid": "50fdda4c-a634-461d-abee-9792d5a1b80a", "inat_id": 238838603}}, {"type": "Feature", "geometry": {"type": "Point", "coordinates": [-105.7535812211, 39.4135255441]}, "properties": {"species": "Tremella mesenterica", "date": "2024-08-12", "location": "Park County, US-CO, US", "elevation": 3062.0, "land_cover_label": "Tree cover", "water_mask": false, "exclude_reason": "keep", "ndvi": null, "soil_moisture": 0.3823234917818132, "solar_exposure": 0.7943767309188843, "wind_exposure": 0.3438759744167328, "water_retention": 0.2270872890949249, "slope": 4.348736763000488, "aspect": 338.1092834472656, "num_identification_agreements": 1, "cluster": 0, "tavg": null, "tmin": 1.8, "tmax": 14.4, "prcp_d0": 0.0, "prcp_d1": 18.08382225036621, "prcp_d2": 0.0, "prcp_d3": 0.0, "prcp_d4": 0.0, "prcp_d5": 0.0, "prcp_d6": 16.164432525634766, "tmax_d0": 19.0, "tmax_d1": 19.4, "tmax_d2": 19.6, "tmax_d3": 19.5, "tmax_d4": 20.3, "tmax_d5": 22.1, "tmax_d6": 21.5, "tmin_d0": 4.8, "tmin_d1": 3.3, "tmin_d2": 2.6, "tmin_d3": 6.8, "tmin_d4": 3.9, "tmin_d5": 4.9, "tmin_d6": 5.3, "day_of_year": 225, "uuid": "5d179cee-4a70-49f2-8002-1c04d45107fb", "inat_id": 235451971}}, {"type": "Feature", "geometry": {"type": "Point", "coordinates": [-105.838599565, 35.6944833171]}, "properties": {"species": "Tremella mesenterica", "date": "2024-09-01", "location": "Santa Fe National Forest, Tererro, NM, US", "elevation": 2479.0, "land_cover_label": "Tree cover", "water_mask": false, "exclude_reason": "keep", "ndvi": null, "soil_moisture": null, "solar_exposure": null, "wind_exposure": null, "water_retention": null, "slope": null, "aspect": null, "num_identification_agreements": 1, "cluster": 0, "tavg": null, "tmin": 12.8, "tmax": 28.3, "prcp_d0": 0.0, "prcp_d1": 0.0, "prcp_d2": 5.6496453285217285, "prcp_d3": 1.9342217445373533, "prcp_d4": 0.2779031991958618, "prcp_d5": 3.000439405441284, "prcp_d6": 1.184747338294983, "tmax_d0": 21.9, "tmax_d1": 21.5, "tmax_d2": 21.6, "tmax_d3": 20.1, "tmax_d4": 22.6, "tmax_d5": 21.8, "tmax_d6": 23.9, "tmin_d0": 8.6, "tmin_d1": 9.6, "tmin_d2": 9.8, "tmin_d3": 10.9, "tmin_d4": 11.5, "tmin_d5": 11.8, "tmin_d6": 13.4, "day_of_year": 245, "uuid": "710701bd-0177-4f1a-8fa4-0e9152402397", "inat_id": 239276448}}, {"type": "Feature", "geometry": {"type": "Point", "coordinates": [-105.6409133333, 35.8761533333]}, "properties": {"species": "Tremella mesenterica", "date": "2024-09-07", "location": "Santa Fe National Forest, Cleveland, NM, US", "elevation": 3170.0, "land_cover_label": "Tree cover", "water_mask": false, "exclude_reason": "keep", "ndvi": null, "soil_moisture": null, "solar_exposure": null, "wind_exposure": null, "water_retention": null, "slope": null, "aspect": null, "num_identification_agreements": 1, "cluster": 0, "tavg": null, "tmin": 10.0, "tmax": 28.3, "prcp_d0": 0.0, "prcp_d1": 5.814331531524658, "prcp_d2": 8.926209449768066, "prcp_d3": 0.0, "prcp_d4": 0.0, "prcp_d5": 0.0, "prcp_d6": 0.0, "tmax_d0": 15.6, "tmax_d1": 14.7, "tmax_d2": 15.3, "tmax_d3": 18.4, "tmax_d4": 17.0, "tmax_d5": 14.8, "tmax_d6": 14.9, "tmin_d0": 3.3, "tmin_d1": 1.6, "tmin_d2": 3.6, "tmin_d3": 5.7, "tmin_d4": 3.7, "tmin_d5": 1.5, "tmin_d6": 4.9, "day_of_year": 251, "uuid": "cc840fd7-05c9-4ef9-928c-5065cca04522", "inat_id": 240691116}}, {"type": "Feature", "geometry": {"type": "Point", "coordinates": [-122.3188104201, 45.3326726073]}, "properties": {"species": "Tremella mesenterica", "date": "2025-02-20", "location": "SE Eagle Fern Rd, Eagle Creek, OR, US", "elevation": 121.0, "land_cover_label": "Tree cover", "water_mask": false, "exclude_reason": "keep", "ndvi": null, "soil_moisture": null, "solar_exposure": null, "wind_exposure": null, "water_retention": null, "slope": null, "aspect": null, "num_identification_agreements": 1, "cluster": 1, "tavg": null, "tmin": 3.3, "tmax": 10.6, "prcp_d0": 11.401402473449709, "prcp_d1": 22.80280494689941, "prcp_d2": 34.20420837402344, "prcp_d3": 0.0, "prcp_d4": 0.0, "prcp_d5": 12.42147159576416, "prcp_d6": 0.0, "tmax_d0": 11.3, "tmax_d1": 10.5, "tmax_d2": 10.7, "tmax_d3": 9.0, "tmax_d4": 10.7, "tmax_d5": 10.7, "tmax_d6": 5.1, "tmin_d0": 4.8, "tmin_d1": 6.8, "tmin_d2": 5.8, "tmin_d3": 6.1, "tmin_d4": 4.2, "tmin_d5": 2.2, "tmin_d6": 0.2, "day_of_year": 51, "uuid": "6d5febcd-075b-47f5-bdcf-b9b5114f3fbf", "inat_id": 262418179}}, {"type": "Feature", "geometry": {"type": "Point", "coordinates": [-122.2929383333, 45.4876116667]}, "properties": {"species": "Tremella mesenterica", "date": "2025-03-27", "location": "Oxbow Regional Park, Gresham, OR, US", "elevation": 142.0, "land_cover_label": "Tree cover", "water_mask": false, "exclude_reason": "keep", "ndvi": null, "soil_moisture": null, "solar_exposure": null, "wind_exposure": null, "water_retention": null, "slope": null, "aspect": null, "num_identification_agreements": 1, "cluster": 2, "tavg": null, "tmin": 9.4, "tmax": 13.9, "prcp_d0": 0.0, "prcp_d1": 0.0, "prcp_d2": 0.0, "prcp_d3": 21.49787330627441, "prcp_d4": 0.0, "prcp_d5": 0.0, "prcp_d6": 64.49362182617188, "tmax_d0": 18.2, "tmax_d1": 27.8, "tmax_d2": 25.7, "tmax_d3": 19.1, "tmax_d4": 12.2, "tmax_d5": 12.3, "tmax_d6": 8.1, "tmin_d0": 7.9, "tmin_d1": 11.9, "tmin_d2": 7.9, "tmin_d3": 12.0, "tmin_d4": 6.3, "tmin_d5": 4.3, "tmin_d6": 6.0, "day_of_year": 86, "uuid": "77582414-6ec0-4ef8-b54e-da9bc7c8e291", "inat_id": 268381310}}, {"type": "Feature", "geometry": {"type": "Point", "coordinates": [-105.4746116667, 39.96137]}, "properties": {"species": "Tremella mesenterica", "date": "2025-05-29", "location": "Tungsten Spur Trail, Nederland, CO, US", "elevation": 2549.0, "land_cover_label": "Tree cover", "water_mask": false, "exclude_reason": "keep", "ndvi": null, "soil_moisture": 0.4338486992955573, "solar_exposure": 0.736574649810791, "wind_exposure": 0.2784951031208038, "water_retention": 0.404425173997879, "slope": 8.724637031555176, "aspect": 7.964877128601074, "num_identification_agreements": 1, "cluster": 3, "tavg": null, "tmin": 9.0, "tmax": 19.0, "prcp_d0": 0.0, "prcp_d1": 6.6182074546813965, "prcp_d2": 0.0, "prcp_d3": 13.236414909362791, "prcp_d4": 6.100533485412598, "prcp_d5": 0.0, "prcp_d6": 0.0, "tmax_d0": 10.8, "tmax_d1": 15.0, "tmax_d2": 16.7, "tmax_d3": 9.8, "tmax_d4": 10.9, "tmax_d5": 16.5, "tmax_d6": 19.5, "tmin_d0": 2.6, "tmin_d1": 2.2, "tmin_d2": 0.5, "tmin_d3": -1.2, "tmin_d4": 5.1, "tmin_d5": 3.8, "tmin_d6": 1.2, "day_of_year": 149, "uuid": "d576d589-ba87-4570-9692-32f6acffe0a1", "inat_id": 285194872}}, {"type": "Feature", "geometry": {"type": "Point", "coordinates": [-105.807625, 35.77071389]}, "properties": {"species": "Tremella mesenterica", "date": "2025-07-01", "location": "Santa Fe, New Mexico, United States", "elevation": 3006.0, "land_cover_label": "Tree cover", "water_mask": false, "exclude_reason": "keep", "ndvi": null, "soil_moisture": null, "solar_exposure": null, "wind_exposure": null, "water_retention": null, "slope": null, "aspect": null, "num_identification_agreements": 4, "cluster": 0, "tavg": null, "tmin": 11.1, "tmax": 26.1, "prcp_d0": 0.2212052047252655, "prcp_d1": 3.631688356399536, "prcp_d2": 0.0, "prcp_d3": 0.0, "prcp_d4": 0.0, "prcp_d5": 0.0, "prcp_d6": 14.021544456481934, "tmax_d0": 17.8, "tmax_d1": 21.7, "tmax_d2": 21.9, "tmax_d3": 21.7, "tmax_d4": 19.8, "tmax_d5": 18.9, "tmax_d6": 16.4, "tmin_d0": 3.3, "tmin_d1": 6.2, "tmin_d2": 8.1, "tmin_d3": 7.8, "tmin_d4": 7.2, "tmin_d5": 5.3, "tmin_d6": 7.5, "day_of_year": 182, "uuid": "93b60c97-c218-4fd5-a5ac-08dce5e287c1", "inat_id": 294693401}}, {"type": "Feature", "geometry": {"type": "Point", "coordinates": [-107.0470766377, 38.609167999]}, "properties": {"species": "Tremella mesenterica", "date": "2025-09-06", "location": "Gunnison County, US-CO, US", "elevation": 2856.0, "land_cover_label": "Tree cover", "water_mask": false, "exclude_reason": "keep", "ndvi": null, "soil_moisture": null, "solar_exposure": null, "wind_exposure": null, "water_retention": null, "slope": null, "aspect": null, "num_identification_agreements": 1, "cluster": 0, "tavg": null, "tmin": 3.0, "tmax": 23.0, "prcp_d0": 9.751246452331545, "prcp_d1": 7.242534637451172, "prcp_d2": 7.756117820739746, "prcp_d3": 0.0, "prcp_d4": 0.0, "prcp_d5": 0.0, "prcp_d6": 0.0, "tmax_d0": 18.2, "tmax_d1": 16.4, "tmax_d2": 20.5, "tmax_d3": 21.1, "tmax_d4": 20.6, "tmax_d5": 20.6, "tmax_d6": 19.8, "tmin_d0": 3.4, "tmin_d1": 7.2, "tmin_d2": 3.3, "tmin_d3": 4.6, "tmin_d4": 4.8, "tmin_d5": 4.4, "tmin_d6": 3.2, "day_of_year": 249, "uuid": "4a62f227-70f6-498f-b5de-3958390c9ecd", "inat_id": 312081440}}, {"type": "Feature", "geometry": {"type": "Point", "coordinates": [-122.127581723, 45.5746720329]}, "properties": {"species": "Tremella mesenterica", "date": "2025-11-08", "location": "Corbett, OR 97019, USA", "elevation": 183.0, "land_cover_label": "Tree cover", "water_mask": false, "exclude_reason": "keep", "ndvi": null, "soil_moisture": null, "solar_exposure": null, "wind_exposure": null, "water_retention": null, "slope": null, "aspect": null, "num_identification_agreements": 1, "cluster": 1, "tavg": null, "tmin": 4.0, "tmax": 14.3, "prcp_d0": 0.0, "prcp_d1": 0.0, "prcp_d2": 0.0, "prcp_d3": 173.6074981689453, "prcp_d4": 0.0, "prcp_d5": 43.40187454223633, "prcp_d6": 0.0, "tmax_d0": 12.3, "tmax_d1": 12.9, "tmax_d2": 15.4, "tmax_d3": 16.2, "tmax_d4": 10.4, "tmax_d5": 12.5, "tmax_d6": 13.9, "tmin_d0": 5.6, "tmin_d1": 8.2, "tmin_d2": 9.6, "tmin_d3": 7.9, "tmin_d4": 6.4, "tmin_d5": 7.0, "tmin_d6": 8.2, "day_of_year": 312, "uuid": "4e5b9c91-6f6f-4637-af68-f46fa0a74655", "inat_id": 325524583}}, {"type": "Feature", "geometry": {"type": "Point", "coordinates": [-121.8645866667, 45.3032633333]}, "properties": {"species": "Tremella mesenterica", "date": "2025-12-13", "location": "Government Camp, OR, US", "elevation": 684.0, "land_cover_label": "Tree cover", "water_mask": false, "exclude_reason": "keep", "ndvi": null, "soil_moisture": null, "solar_exposure": null, "wind_exposure": null, "water_retention": null, "slope": null, "aspect": null, "num_identification_agreements": 1, "cluster": 2, "tavg": null, "tmin": 3.0, "tmax": 12.5, "prcp_d0": 0.0, "prcp_d1": 0.0, "prcp_d2": 0.0, "prcp_d3": 13.092090606689451, "prcp_d4": 65.46044921875, "prcp_d5": 26.184181213378903, "prcp_d6": 26.184181213378903, "tmax_d0": 18.7, "tmax_d1": 15.3, "tmax_d2": 10.8, "tmax_d3": 12.0, "tmax_d4": 9.7, "tmax_d5": 10.4, "tmax_d6": 8.7, "tmin_d0": 5.4, "tmin_d1": 3.8, "tmin_d2": 9.2, "tmin_d3": 9.1, "tmin_d4": 6.2, "tmin_d5": 7.0, "tmin_d6": 4.4, "day_of_year": 347, "uuid": "5ba1d5f7-a914-43ec-8290-0cdc42101333", "inat_id": 331654668}}, {"type": "Feature", "geometry": {"type": "Point", "coordinates": [-121.8636783333, 45.3034633333]}, "properties": {"species": "Tremella mesenterica", "date": "2025-12-13", "location": "Government Camp, OR, US", "elevation": 686.0, "land_cover_label": "Tree cover", "water_mask": false, "exclude_reason": "keep", "ndvi": null, "soil_moisture": null, "solar_exposure": null, "wind_exposure": null, "water_retention": null, "slope": null, "aspect": null, "num_identification_agreements": 1, "cluster": 2, "tavg": null, "tmin": 3.0, "tmax": 12.5, "prcp_d0": 0.0, "prcp_d1": 0.0, "prcp_d2": 0.0, "prcp_d3": 13.092090606689451, "prcp_d4": 65.46044921875, "prcp_d5": 26.184181213378903, "prcp_d6": 26.184181213378903, "tmax_d0": 18.7, "tmax_d1": 15.3, "tmax_d2": 10.7, "tmax_d3": 11.9, "tmax_d4": 9.7, "tmax_d5": 10.3, "tmax_d6": 8.6, "tmin_d0": 5.4, "tmin_d1": 3.8, "tmin_d2": 9.2, "tmin_d3": 9.0, "tmin_d4": 6.1, "tmin_d5": 6.9, "tmin_d6": 4.3, "day_of_year": 347, "uuid": "60f6d9b3-88ff-4517-8fc0-56a258d31ca7", "inat_id": 331654643}}, {"type": "Feature", "geometry": {"type": "Point", "coordinates": [-122.2791561116, 45.4165794677]}, "properties": {"species": "Tremella mesenterica", "date": "2026-03-14", "location": "United States", "elevation": 245.0, "land_cover_label": "Tree cover", "water_mask": false, "exclude_reason": "keep", "ndvi": null, "soil_moisture": null, "solar_exposure": null, "wind_exposure": null, "water_retention": null, "slope": null, "aspect": null, "num_identification_agreements": 1, "cluster": 1, "tavg": null, "tmin": 4.0, "tmax": 12.0, "prcp_d0": 30.71599578857422, "prcp_d1": 0.0, "prcp_d2": 92.14797973632812, "prcp_d3": 30.71599578857422, "prcp_d4": 0.0, "prcp_d5": 0.0, "prcp_d6": 0.0, "tmax_d0": 11.6, "tmax_d1": 12.6, "tmax_d2": 9.6, "tmax_d3": 9.2, "tmax_d4": 7.5, "tmax_d5": 11.7, "tmax_d6": 15.4, "tmin_d0": 3.7, "tmin_d1": 6.4, "tmin_d2": 5.9, "tmin_d3": 4.6, "tmin_d4": -0.2, "tmin_d5": 2.0, "tmin_d6": 8.2, "day_of_year": 73, "uuid": "c43624ae-2748-422d-9688-ad8b304bded8", "inat_id": 343018872}}, {"type": "Feature", "geometry": {"type": "Point", "coordinates": [-105.6592289997, 39.6769840997]}, "properties": {"species": "Tremella mesenterica", "date": "2026-07-22", "location": "Golden, CO 80439, USA", "elevation": 2973.0, "land_cover_label": "Tree cover", "water_mask": false, "exclude_reason": "keep", "ndvi": null, "soil_moisture": 0.2689072069444737, "solar_exposure": 0.6873306035995483, "wind_exposure": 0.2249464839696884, "water_retention": 0.3960393071174621, "slope": 12.256038665771484, "aspect": 358.130126953125, "num_identification_agreements": 1, "cluster": 3, "tavg": null, "tmin": 6.0, "tmax": 13.0, "prcp_d0": 0.0, "prcp_d1": 0.0, "prcp_d2": 0.0, "prcp_d3": 0.0, "prcp_d4": 0.0, "prcp_d5": 0.0, "prcp_d6": 0.0, "tmax_d0": 23.7, "tmax_d1": 23.7, "tmax_d2": 26.8, "tmax_d3": 25.1, "tmax_d4": 22.4, "tmax_d5": 21.3, "tmax_d6": 20.9, "tmin_d0": 10.6, "tmin_d1": 11.0, "tmin_d2": 11.2, "tmin_d3": 9.4, "tmin_d4": 7.6, "tmin_d5": 8.5, "tmin_d6": 8.9, "day_of_year": 203, "uuid": "26e686a0-5ce0-41cd-b68b-56b1810bbc00", "inat_id": 384064758}}]}