{"type": "FeatureCollection", "features": [{"type": "Feature", "geometry": {"type": "Point", "coordinates": [-121.7859416667, 45.3844694444]}, "properties": {"species": "Tricholoma subsejunctum", "date": "2019-08-31", "location": "Clackamas County, OR, USA", "elevation": 985.0, "land_cover_label": "Tree cover", "water_mask": false, "exclude_reason": "keep", "ndvi": null, "soil_moisture": null, "solar_exposure": null, "wind_exposure": null, "water_retention": null, "slope": null, "aspect": null, "num_identification_agreements": 1, "cluster": 0, "tavg": null, "tmin": null, "tmax": null, "prcp_d0": 0.0, "prcp_d1": 0.0, "prcp_d2": 0.0, "prcp_d3": 0.0, "prcp_d4": 0.0, "prcp_d5": 0.0, "prcp_d6": 0.0, "tmax_d0": 22.1, "tmax_d1": 22.2, "tmax_d2": 27.1, "tmax_d3": 29.1, "tmax_d4": 27.4, "tmax_d5": 25.4, "tmax_d6": 17.7, "tmin_d0": 11.1, "tmin_d1": 12.6, "tmin_d2": 14.8, "tmin_d3": 11.3, "tmin_d4": 12.0, "tmin_d5": 7.4, "tmin_d6": 8.4, "day_of_year": 243, "uuid": "d4670c97-3b25-43f6-ae06-fecc06ab7449", "inat_id": 32279705}}, {"type": "Feature", "geometry": {"type": "Point", "coordinates": [-121.81, 45.31605]}, "properties": {"species": "Tricholoma subsejunctum", "date": "2019-10-02", "location": "SW Mount Hood, Clackamas Co., Oregon, USA", "elevation": 916.0, "land_cover_label": "Tree cover", "water_mask": false, "exclude_reason": "keep", "ndvi": null, "soil_moisture": null, "solar_exposure": null, "wind_exposure": null, "water_retention": null, "slope": null, "aspect": null, "num_identification_agreements": 1, "cluster": 0, "tavg": null, "tmin": null, "tmax": null, "prcp_d0": 0.0, "prcp_d1": 0.0, "prcp_d2": 0.0, "prcp_d3": 0.0, "prcp_d4": 0.0, "prcp_d5": 0.0, "prcp_d6": 0.0, "tmax_d0": 12.3, "tmax_d1": 9.7, "tmax_d2": 5.0, "tmax_d3": 5.2, "tmax_d4": 6.3, "tmax_d5": 12.0, "tmax_d6": 16.3, "tmin_d0": -1.9, "tmin_d1": -3.1, "tmin_d2": -0.5, "tmin_d3": 0.3, "tmin_d4": 2.2, "tmin_d5": 6.1, "tmin_d6": 8.4, "day_of_year": 275, "uuid": "0dfd33bc-1ddd-423e-bd6d-1739666f5fea", "inat_id": 35019299}}]}