{"type": "FeatureCollection", "features": [{"type": "Feature", "geometry": {"type": "Point", "coordinates": [-105.793, 35.81725]}, "properties": {"species": "Tricholoma vaccinum", "date": "2008-08-18", "location": "Windsor Trail, Pecos Wilderness, Santa Fe, New Mexico, USA", "elevation": 2902.0, "land_cover_label": "Tree cover", "water_mask": false, "exclude_reason": "keep", "ndvi": null, "soil_moisture": null, "solar_exposure": null, "wind_exposure": null, "water_retention": null, "slope": null, "aspect": null, "num_identification_agreements": 1, "cluster": 2, "tavg": null, "tmin": 8.3, "tmax": 27.2, "prcp_d0": 0.0, "prcp_d1": 0.0, "prcp_d2": 0.0, "prcp_d3": 0.0, "prcp_d4": 0.0, "prcp_d5": 0.0, "prcp_d6": 0.0, "tmax_d0": null, "tmax_d1": null, "tmax_d2": null, "tmax_d3": null, "tmax_d4": null, "tmax_d5": null, "tmax_d6": null, "tmin_d0": null, "tmin_d1": null, "tmin_d2": null, "tmin_d3": null, "tmin_d4": null, "tmin_d5": null, "tmin_d6": null, "day_of_year": 231, "uuid": "1a48beb6-62d9-4648-a2f5-d310a1ad2e87", "inat_id": 60663440}}, {"type": "Feature", "geometry": {"type": "Point", "coordinates": [-106.1395, 40.0852]}, "properties": {"species": "Tricholoma vaccinum", "date": "2010-08-23", "location": "Grand Co., Colorado, USA", "elevation": 2696.0, "land_cover_label": "Grassland", "water_mask": false, "exclude_reason": "keep", "ndvi": null, "soil_moisture": null, "solar_exposure": null, "wind_exposure": null, "water_retention": null, "slope": null, "aspect": null, "num_identification_agreements": 1, "cluster": 2, "tavg": null, "tmin": null, "tmax": null, "prcp_d0": 0.0, "prcp_d1": 0.0, "prcp_d2": 0.0, "prcp_d3": 0.0, "prcp_d4": 0.0, "prcp_d5": 0.0, "prcp_d6": 0.0, "tmax_d0": null, "tmax_d1": null, "tmax_d2": null, "tmax_d3": null, "tmax_d4": null, "tmax_d5": null, "tmax_d6": null, "tmin_d0": null, "tmin_d1": null, "tmin_d2": null, "tmin_d3": null, "tmin_d4": null, "tmin_d5": null, "tmin_d6": null, "day_of_year": 235, "uuid": "25819b68-4530-44d3-a89a-ca1ae8a8d217", "inat_id": 10631543}}, {"type": "Feature", "geometry": {"type": "Point", "coordinates": [-105.87935, 39.908945]}, "properties": {"species": "Tricholoma vaccinum", "date": "2021-08-13", "location": "Arapaho & Roosevelt National Forests Pawnee National Grassland, Parshall, CO, US", "elevation": 2764.0, "land_cover_label": "Tree cover", "water_mask": false, "exclude_reason": "keep", "ndvi": null, "soil_moisture": 0.3031411779849819, "solar_exposure": 0.8389591574668884, "wind_exposure": 0.2474478483200073, "water_retention": 0.302614688873291, "slope": 2.8405332565307617, "aspect": 90.0, "num_identification_agreements": 2, "cluster": 2, "tavg": null, "tmin": 7.7, "tmax": 27.3, "prcp_d0": 5.318371295928955, "prcp_d1": 5.318371295928955, "prcp_d2": 0.0, "prcp_d3": 0.0, "prcp_d4": 0.0, "prcp_d5": 0.0, "prcp_d6": 0.0, "tmax_d0": null, "tmax_d1": null, "tmax_d2": null, "tmax_d3": null, "tmax_d4": null, "tmax_d5": null, "tmax_d6": null, "tmin_d0": null, "tmin_d1": null, "tmin_d2": null, "tmin_d3": null, "tmin_d4": null, "tmin_d5": null, "tmin_d6": null, "day_of_year": 225, "uuid": "5dc01ee7-0428-4913-b449-45c644675c33", "inat_id": 91022694}}, {"type": "Feature", "geometry": {"type": "Point", "coordinates": [-105.973654, 39.937107]}, "properties": {"species": "Tricholoma vaccinum", "date": "2021-08-13", "location": "Grand County, CO, USA", "elevation": 3036.0, "land_cover_label": "Tree cover", "water_mask": false, "exclude_reason": "keep", "ndvi": null, "soil_moisture": 0.2827853365035507, "solar_exposure": 0.8577459454536438, "wind_exposure": 0.2863994538784027, "water_retention": 0.1919342279434204, "slope": 7.298957824707031, "aspect": 109.81717681884766, "num_identification_agreements": 2, "cluster": 2, "tavg": null, "tmin": 7.7, "tmax": 27.3, "prcp_d0": 0.0, "prcp_d1": 0.0, "prcp_d2": 0.0, "prcp_d3": 0.0, "prcp_d4": 0.0, "prcp_d5": 0.0, "prcp_d6": 0.0, "tmax_d0": null, "tmax_d1": null, "tmax_d2": null, "tmax_d3": null, "tmax_d4": null, "tmax_d5": null, "tmax_d6": null, "tmin_d0": null, "tmin_d1": null, "tmin_d2": null, "tmin_d3": null, "tmin_d4": null, "tmin_d5": null, "tmin_d6": null, "day_of_year": 225, "uuid": "51e7f3d8-cb1c-46af-9e52-8165ac6aac9b", "inat_id": 91124051}}, {"type": "Feature", "geometry": {"type": "Point", "coordinates": [-107.8527989829, 37.8854634641]}, "properties": {"species": "Tricholoma vaccinum", "date": "2021-08-18", "location": "San Miguel County, CO, USA", "elevation": 3374.0, "land_cover_label": "Tree cover", "water_mask": false, "exclude_reason": "keep", "ndvi": null, "soil_moisture": null, "solar_exposure": null, "wind_exposure": null, "water_retention": null, "slope": null, "aspect": null, "num_identification_agreements": 1, "cluster": 1, "tavg": null, "tmin": 11.0, "tmax": 21.0, "prcp_d0": 61.442169189453125, "prcp_d1": 0.0, "prcp_d2": 0.0, "prcp_d3": 0.0, "prcp_d4": 0.0, "prcp_d5": 0.0, "prcp_d6": 0.0, "tmax_d0": null, "tmax_d1": null, "tmax_d2": null, "tmax_d3": null, "tmax_d4": null, "tmax_d5": null, "tmax_d6": null, "tmin_d0": null, "tmin_d1": null, "tmin_d2": null, "tmin_d3": null, "tmin_d4": null, "tmin_d5": null, "tmin_d6": null, "day_of_year": 230, "uuid": "80c9ccdd-ce18-4ebc-93c0-4d6b31bcab94", "inat_id": 131844419}}, {"type": "Feature", "geometry": {"type": "Point", "coordinates": [-105.3364611045, 39.9430771065]}, "properties": {"species": "Tricholoma vaccinum", "date": "2022-08-01", "location": "Boulder, CO 80302, USA", "elevation": 2059.0, "land_cover_label": "Tree cover", "water_mask": false, "exclude_reason": "keep", "ndvi": null, "soil_moisture": 0.2950439436336056, "solar_exposure": 0.8804275393486023, "wind_exposure": 0.2247623056173324, "water_retention": 0.3406519591808319, "slope": 4.036254405975342, "aspect": 180.0, "num_identification_agreements": 1, "cluster": 2, "tavg": null, "tmin": 17.0, "tmax": 35.0, "prcp_d0": 0.0, "prcp_d1": 0.0, "prcp_d2": 0.0, "prcp_d3": 0.0, "prcp_d4": 0.0, "prcp_d5": 0.0, "prcp_d6": 0.0, "tmax_d0": null, "tmax_d1": null, "tmax_d2": null, "tmax_d3": null, "tmax_d4": null, "tmax_d5": null, "tmax_d6": null, "tmin_d0": null, "tmin_d1": null, "tmin_d2": null, "tmin_d3": null, "tmin_d4": null, "tmin_d5": null, "tmin_d6": null, "day_of_year": 213, "uuid": "5511f324-ef2f-4434-93c1-35709388ac44", "inat_id": 129150946}}, {"type": "Feature", "geometry": {"type": "Point", "coordinates": [-106.9121945272, 37.1173141195]}, "properties": {"species": "Tricholoma vaccinum", "date": "2022-08-25", "location": "United States", "elevation": 2346.0, "land_cover_label": "Tree cover", "water_mask": false, "exclude_reason": "keep", "ndvi": null, "soil_moisture": null, "solar_exposure": null, "wind_exposure": null, "water_retention": null, "slope": null, "aspect": null, "num_identification_agreements": 1, "cluster": 2, "tavg": null, "tmin": 10.0, "tmax": 24.0, "prcp_d0": 0.0, "prcp_d1": 0.0, "prcp_d2": 0.0, "prcp_d3": 0.0, "prcp_d4": 0.0, "prcp_d5": 0.0, "prcp_d6": 0.0, "tmax_d0": null, "tmax_d1": null, "tmax_d2": null, "tmax_d3": null, "tmax_d4": null, "tmax_d5": null, "tmax_d6": null, "tmin_d0": null, "tmin_d1": null, "tmin_d2": null, "tmin_d3": null, "tmin_d4": null, "tmin_d5": null, "tmin_d6": null, "day_of_year": 237, "uuid": "55857c6c-17d4-40a7-9deb-d1e950850a73", "inat_id": 135830123}}, {"type": "Feature", "geometry": {"type": "Point", "coordinates": [-106.4431, 39.2617]}, "properties": {"species": "Tricholoma vaccinum", "date": "2022-08-30", "location": "Colorado. Lake Co., San Isabel National Forest, FR 105 to Native Lake Trailhead, near jct with CR 4, SW of Lake Turquoise.", "elevation": 3235.0, "land_cover_label": "Tree cover", "water_mask": false, "exclude_reason": "keep", "ndvi": null, "soil_moisture": null, "solar_exposure": null, "wind_exposure": null, "water_retention": null, "slope": null, "aspect": null, "num_identification_agreements": 1, "cluster": 2, "tavg": null, "tmin": 2.8, "tmax": 22.8, "prcp_d0": 0.0, "prcp_d1": 0.0, "prcp_d2": 0.0, "prcp_d3": 0.0, "prcp_d4": 0.0, "prcp_d5": 0.0, "prcp_d6": 0.0, "tmax_d0": null, "tmax_d1": null, "tmax_d2": null, "tmax_d3": null, "tmax_d4": null, "tmax_d5": null, "tmax_d6": null, "tmin_d0": null, "tmin_d1": null, "tmin_d2": null, "tmin_d3": null, "tmin_d4": null, "tmin_d5": null, "tmin_d6": null, "day_of_year": 242, "uuid": "64dc8563-5a91-4330-9a9a-af331f60236f", "inat_id": 134349949}}, {"type": "Feature", "geometry": {"type": "Point", "coordinates": [-105.4230470175, 39.6901202298]}, "properties": {"species": "Tricholoma vaccinum", "date": "2023-07-22", "location": "Old Squaw Pass Rd, Evergreen, CO, US", "elevation": 2637.0, "land_cover_label": "Bare / sparse vegetation", "water_mask": false, "exclude_reason": "keep", "ndvi": null, "soil_moisture": 0.3917928306045935, "solar_exposure": 0.8493626117706299, "wind_exposure": 0.30682373046875, "water_retention": 0.3929203152656555, "slope": 2.233564138412476, "aspect": 245.32310485839844, "num_identification_agreements": 2, "cluster": 3, "tavg": null, "tmin": 3.5, "tmax": 14.6, "prcp_d0": 0.0, "prcp_d1": 8.31950569152832, "prcp_d2": 0.0, "prcp_d3": 5.568824768066406, "prcp_d4": 0.0, "prcp_d5": 0.0, "prcp_d6": 0.0, "tmax_d0": null, "tmax_d1": null, "tmax_d2": null, "tmax_d3": null, "tmax_d4": null, "tmax_d5": null, "tmax_d6": null, "tmin_d0": null, "tmin_d1": null, "tmin_d2": null, "tmin_d3": null, "tmin_d4": null, "tmin_d5": null, "tmin_d6": null, "day_of_year": 203, "uuid": "6708597e-2398-43bf-b57a-588a619ed654", "inat_id": 177762044}}, {"type": "Feature", "geometry": {"type": "Point", "coordinates": [-105.667336204, 39.6403718688]}, "properties": {"species": "Tricholoma vaccinum", "date": "2023-08-05", "location": "Colorado, US", "elevation": 3330.0, "land_cover_label": "Tree cover", "water_mask": false, "exclude_reason": "keep", "ndvi": null, "soil_moisture": 0.3709135878458968, "solar_exposure": 0.7306113243103027, "wind_exposure": 0.3106820583343506, "water_retention": 0.2181734293699264, "slope": 19.145776748657227, "aspect": 286.344970703125, "num_identification_agreements": 1, "cluster": 0, "tavg": null, "tmin": 2.3, "tmax": 11.8, "prcp_d0": 0.0, "prcp_d1": 0.0, "prcp_d2": 0.0, "prcp_d3": 17.452566146850586, "prcp_d4": 52.357696533203125, "prcp_d5": 0.0, "prcp_d6": 13.556626319885254, "tmax_d0": null, "tmax_d1": null, "tmax_d2": null, "tmax_d3": null, "tmax_d4": null, "tmax_d5": null, "tmax_d6": null, "tmin_d0": null, "tmin_d1": null, "tmin_d2": null, "tmin_d3": null, "tmin_d4": null, "tmin_d5": null, "tmin_d6": null, "day_of_year": 217, "uuid": "4732a4ad-08df-4fda-b7e0-e37937485724", "inat_id": 176974586}}, {"type": "Feature", "geometry": {"type": "Point", "coordinates": [-105.089209713, 38.9228087307]}, "properties": {"species": "Tricholoma vaccinum", "date": "2023-08-05", "location": "Woodland Park, CO 80863, USA", "elevation": 2905.0, "land_cover_label": "Tree cover", "water_mask": false, "exclude_reason": "keep", "ndvi": null, "soil_moisture": null, "solar_exposure": null, "wind_exposure": null, "water_retention": null, "slope": null, "aspect": null, "num_identification_agreements": 2, "cluster": 0, "tavg": null, "tmin": 13.6, "tmax": 24.5, "prcp_d0": 0.0, "prcp_d1": 0.0, "prcp_d2": 0.0, "prcp_d3": 0.0, "prcp_d4": 80.3138427734375, "prcp_d5": 6.077476501464844, "prcp_d6": 18.23242950439453, "tmax_d0": null, "tmax_d1": null, "tmax_d2": null, "tmax_d3": null, "tmax_d4": null, "tmax_d5": null, "tmax_d6": null, "tmin_d0": null, "tmin_d1": null, "tmin_d2": null, "tmin_d3": null, "tmin_d4": null, "tmin_d5": null, "tmin_d6": null, "day_of_year": 217, "uuid": "1f2e4dfb-d1e0-4879-b7b0-a09908c4e6db", "inat_id": 176973640}}, {"type": "Feature", "geometry": {"type": "Point", "coordinates": [-106.0632171631, 39.4827575684]}, "properties": {"species": "Tricholoma vaccinum", "date": "2023-08-14", "location": "Breckenridge", "elevation": 3018.0, "land_cover_label": "Tree cover", "water_mask": false, "exclude_reason": "keep", "ndvi": null, "soil_moisture": null, "solar_exposure": null, "wind_exposure": null, "water_retention": null, "slope": null, "aspect": null, "num_identification_agreements": 2, "cluster": 2, "tavg": null, "tmin": 7.8, "tmax": 22.8, "prcp_d0": 0.0, "prcp_d1": 0.0, "prcp_d2": 0.0, "prcp_d3": 0.0, "prcp_d4": 0.0, "prcp_d5": 0.0, "prcp_d6": 0.0, "tmax_d0": null, "tmax_d1": null, "tmax_d2": null, "tmax_d3": null, "tmax_d4": null, "tmax_d5": null, "tmax_d6": null, "tmin_d0": null, "tmin_d1": null, "tmin_d2": null, "tmin_d3": null, "tmin_d4": null, "tmin_d5": null, "tmin_d6": null, "day_of_year": 226, "uuid": "3b963fcc-6615-480d-8f11-92ebb7739aaa", "inat_id": 178399770}}, {"type": "Feature", "geometry": {"type": "Point", "coordinates": [-105.4011163837, 39.5009458749]}, "properties": {"species": "Tricholoma vaccinum", "date": "2023-08-20", "location": "S Juniper Rd, Pine, CO, US", "elevation": 2521.0, "land_cover_label": "Grassland", "water_mask": false, "exclude_reason": "keep", "ndvi": null, "soil_moisture": 0.2676318013183579, "solar_exposure": 0.904691755771637, "wind_exposure": 0.2835827767848968, "water_retention": 0.3637373447418213, "slope": 6.857025146484375, "aspect": 186.770263671875, "num_identification_agreements": 1, "cluster": 3, "tavg": null, "tmin": 1.9, "tmax": 18.0, "prcp_d0": 0.0, "prcp_d1": 9.715539932250977, "prcp_d2": 9.715539932250977, "prcp_d3": 0.0, "prcp_d4": 0.0, "prcp_d5": 0.0, "prcp_d6": 0.0, "tmax_d0": null, "tmax_d1": null, "tmax_d2": null, "tmax_d3": null, "tmax_d4": null, "tmax_d5": null, "tmax_d6": null, "tmin_d0": null, "tmin_d1": null, "tmin_d2": null, "tmin_d3": null, "tmin_d4": null, "tmin_d5": null, "tmin_d6": null, "day_of_year": 232, "uuid": "a71cdf9d-0531-42ea-9526-96a5e7ca764c", "inat_id": 183940801}}, {"type": "Feature", "geometry": {"type": "Point", "coordinates": [-106.0985677763, 39.4017774858]}, "properties": {"species": "Tricholoma vaccinum", "date": "2023-08-27", "location": "Colorado, US", "elevation": 3978.0, "land_cover_label": "Bare / sparse vegetation", "water_mask": false, "exclude_reason": "keep", "ndvi": null, "soil_moisture": null, "solar_exposure": null, "wind_exposure": null, "water_retention": null, "slope": null, "aspect": null, "num_identification_agreements": 2, "cluster": 2, "tavg": null, "tmin": 7.2, "tmax": 18.3, "prcp_d0": 0.0, "prcp_d1": 0.0, "prcp_d2": 0.0, "prcp_d3": 0.0, "prcp_d4": 0.0, "prcp_d5": 0.0, "prcp_d6": 0.0, "tmax_d0": null, "tmax_d1": null, "tmax_d2": null, "tmax_d3": null, "tmax_d4": null, "tmax_d5": null, "tmax_d6": null, "tmin_d0": null, "tmin_d1": null, "tmin_d2": null, "tmin_d3": null, "tmin_d4": null, "tmin_d5": null, "tmin_d6": null, "day_of_year": 239, "uuid": "4564524d-d3ce-4bdf-8102-261c31913869", "inat_id": 180569178}}, {"type": "Feature", "geometry": {"type": "Point", "coordinates": [-104.9919450997, 39.0556594997]}, "properties": {"species": "Tricholoma vaccinum", "date": "2023-09-02", "location": "Colorado Springs, CO 80921, USA", "elevation": 2802.0, "land_cover_label": "Tree cover", "water_mask": false, "exclude_reason": "keep", "ndvi": null, "soil_moisture": 0.1588955296922662, "solar_exposure": 0.8643049001693726, "wind_exposure": 0.3447215259075165, "water_retention": 0.2367066144943237, "slope": 3.7723488807678223, "aspect": 228.80880737304688, "num_identification_agreements": 1, "cluster": 0, "tavg": null, "tmin": 14.9, "tmax": 32.0, "prcp_d0": 0.0, "prcp_d1": 0.0, "prcp_d2": 0.0, "prcp_d3": 0.0, "prcp_d4": 0.0, "prcp_d5": 33.8675651550293, "prcp_d6": 0.0, "tmax_d0": null, "tmax_d1": null, "tmax_d2": null, "tmax_d3": null, "tmax_d4": null, "tmax_d5": null, "tmax_d6": null, "tmin_d0": null, "tmin_d1": null, "tmin_d2": null, "tmin_d3": null, "tmin_d4": null, "tmin_d5": null, "tmin_d6": null, "day_of_year": 245, "uuid": "23f425d7-9ea4-428e-83dd-05b3f588fbac", "inat_id": 181495034}}, {"type": "Feature", "geometry": {"type": "Point", "coordinates": [-105.0097720698, 39.02941387]}, "properties": {"species": "Tricholoma vaccinum", "date": "2023-09-04", "location": "Colorado Springs, CO 80921, USA", "elevation": 2837.0, "land_cover_label": "Tree cover", "water_mask": false, "exclude_reason": "keep", "ndvi": null, "soil_moisture": 0.197825350394902, "solar_exposure": 0.8201724290847778, "wind_exposure": 0.3772778511047363, "water_retention": 0.2215469181537628, "slope": 4.719542980194092, "aspect": 289.1917724609375, "num_identification_agreements": 1, "cluster": 2, "tavg": null, "tmin": 11.2, "tmax": 29.9, "prcp_d0": 0.0, "prcp_d1": 0.0, "prcp_d2": 0.0, "prcp_d3": 0.0, "prcp_d4": 0.0, "prcp_d5": 0.0, "prcp_d6": 0.0, "tmax_d0": null, "tmax_d1": null, "tmax_d2": null, "tmax_d3": null, "tmax_d4": null, "tmax_d5": null, "tmax_d6": null, "tmin_d0": null, "tmin_d1": null, "tmin_d2": null, "tmin_d3": null, "tmin_d4": null, "tmin_d5": null, "tmin_d6": null, "day_of_year": 247, "uuid": "2b91a830-82b4-496e-8747-d0ff9dda8f67", "inat_id": 181814089}}, {"type": "Feature", "geometry": {"type": "Point", "coordinates": [-105.8029771787, 39.6450085057]}, "properties": {"species": "Tricholoma vaccinum", "date": "2023-09-17", "location": "Colorado, US", "elevation": 3730.0, "land_cover_label": "Moss and lichen", "water_mask": false, "exclude_reason": "keep", "ndvi": null, "soil_moisture": 0.3584217789514973, "solar_exposure": 0.8302096724510193, "wind_exposure": 0.2335309833288192, "water_retention": 0.4459654986858368, "slope": 1.0174397230148315, "aspect": 336.476806640625, "num_identification_agreements": 1, "cluster": 2, "tavg": null, "tmin": -0.6, "tmax": 10.4, "prcp_d0": 0.0, "prcp_d1": 0.0, "prcp_d2": 0.0, "prcp_d3": 0.0, "prcp_d4": 0.0, "prcp_d5": 0.0, "prcp_d6": 0.0, "tmax_d0": null, "tmax_d1": null, "tmax_d2": null, "tmax_d3": null, "tmax_d4": null, "tmax_d5": null, "tmax_d6": null, "tmin_d0": null, "tmin_d1": null, "tmin_d2": null, "tmin_d3": null, "tmin_d4": null, "tmin_d5": null, "tmin_d6": null, "day_of_year": 260, "uuid": "56326499-a728-4c57-8b6c-6ec0de3c1031", "inat_id": 183798398}}, {"type": "Feature", "geometry": {"type": "Point", "coordinates": [-106.8464404758, 36.045581781]}, "properties": {"species": "Tricholoma vaccinum", "date": "2024-07-21", "location": "Rio Arriba County, US-NM, US", "elevation": 2893.0, "land_cover_label": "Tree cover", "water_mask": false, "exclude_reason": "keep", "ndvi": null, "soil_moisture": null, "solar_exposure": null, "wind_exposure": null, "water_retention": null, "slope": null, "aspect": null, "num_identification_agreements": 1, "cluster": 3, "tavg": null, "tmin": null, "tmax": null, "prcp_d0": 0.0, "prcp_d1": 0.0, "prcp_d2": 7.786377429962158, "prcp_d3": 7.786377429962158, "prcp_d4": 0.0, "prcp_d5": 0.0, "prcp_d6": 2.90903639793396, "tmax_d0": null, "tmax_d1": null, "tmax_d2": null, "tmax_d3": null, "tmax_d4": null, "tmax_d5": null, "tmax_d6": null, "tmin_d0": null, "tmin_d1": null, "tmin_d2": null, "tmin_d3": null, "tmin_d4": null, "tmin_d5": null, "tmin_d6": null, "day_of_year": 203, "uuid": "b5e4d4de-9007-4779-888a-b013a12f6980", "inat_id": 231036680}}, {"type": "Feature", "geometry": {"type": "Point", "coordinates": [-106.681695, 39.49353]}, "properties": {"species": "Tricholoma vaccinum", "date": "2024-08-11", "location": "White River National Forest, Eagle, CO, US", "elevation": 2950.0, "land_cover_label": "Tree cover", "water_mask": false, "exclude_reason": "keep", "ndvi": null, "soil_moisture": null, "solar_exposure": null, "wind_exposure": null, "water_retention": null, "slope": null, "aspect": null, "num_identification_agreements": 1, "cluster": 0, "tavg": null, "tmin": 10.6, "tmax": 27.8, "prcp_d0": 15.708772659301758, "prcp_d1": 0.0, "prcp_d2": 0.0, "prcp_d3": 0.0, "prcp_d4": 0.0, "prcp_d5": 15.017114639282228, "prcp_d6": 9.973939895629885, "tmax_d0": null, "tmax_d1": null, "tmax_d2": null, "tmax_d3": null, "tmax_d4": null, "tmax_d5": null, "tmax_d6": null, "tmin_d0": null, "tmin_d1": null, "tmin_d2": null, "tmin_d3": null, "tmin_d4": null, "tmin_d5": null, "tmin_d6": null, "day_of_year": 224, "uuid": "b17c829f-e32f-494d-a75a-afa3ea956c60", "inat_id": 235392040}}, {"type": "Feature", "geometry": {"type": "Point", "coordinates": [-105.694825, 39.5264383333]}, "properties": {"species": "Tricholoma vaccinum", "date": "2024-08-13", "location": "Pike and San Isabel National Forests, Grant, CO, US", "elevation": 3066.0, "land_cover_label": "Tree cover", "water_mask": false, "exclude_reason": "keep", "ndvi": null, "soil_moisture": 0.3816055749132182, "solar_exposure": 0.879265546798706, "wind_exposure": 0.1975058317184448, "water_retention": 0.2932269275188446, "slope": 6.506984710693359, "aspect": 131.77743530273438, "num_identification_agreements": 1, "cluster": 0, "tavg": null, "tmin": 2.1, "tmax": 12.7, "prcp_d0": 0.0, "prcp_d1": 0.0, "prcp_d2": 0.0, "prcp_d3": 0.0, "prcp_d4": 0.0, "prcp_d5": 8.827655792236328, "prcp_d6": 8.827655792236328, "tmax_d0": null, "tmax_d1": null, "tmax_d2": null, "tmax_d3": null, "tmax_d4": null, "tmax_d5": null, "tmax_d6": null, "tmin_d0": null, "tmin_d1": null, "tmin_d2": null, "tmin_d3": null, "tmin_d4": null, "tmin_d5": null, "tmin_d6": null, "day_of_year": 226, "uuid": "4b22df73-834b-492b-8d46-7a09121d687a", "inat_id": 235783007}}, {"type": "Feature", "geometry": {"type": "Point", "coordinates": [-107.8999783333, 37.92618]}, "properties": {"species": "Tricholoma vaccinum", "date": "2024-08-14", "location": "Grand Mesa Uncompahgre and Gunnison National Forests, Telluride, CO, US", "elevation": 2508.0, "land_cover_label": "Tree cover", "water_mask": false, "exclude_reason": "keep", "ndvi": null, "soil_moisture": null, "solar_exposure": null, "wind_exposure": null, "water_retention": null, "slope": null, "aspect": null, "num_identification_agreements": 4, "cluster": 3, "tavg": null, "tmin": 9.0, "tmax": 20.0, "prcp_d0": 0.0, "prcp_d1": 23.053241729736328, "prcp_d2": 11.526620864868164, "prcp_d3": 0.0, "prcp_d4": 0.0, "prcp_d5": 0.0, "prcp_d6": 7.814668655395508, "tmax_d0": null, "tmax_d1": null, "tmax_d2": null, "tmax_d3": null, "tmax_d4": null, "tmax_d5": null, "tmax_d6": null, "tmin_d0": null, "tmin_d1": null, "tmin_d2": null, "tmin_d3": null, "tmin_d4": null, "tmin_d5": null, "tmin_d6": null, "day_of_year": 227, "uuid": "003e0d32-b7ce-4d08-9e42-5a1f97d489c9", "inat_id": 235763279}}, {"type": "Feature", "geometry": {"type": "Point", "coordinates": [-107.9003793375, 37.9257896869]}, "properties": {"species": "Tricholoma vaccinum", "date": "2024-08-14", "location": "Grand Mesa Uncompahgre and Gunnison National Forests, Telluride, CO, US", "elevation": 2508.0, "land_cover_label": "Tree cover", "water_mask": false, "exclude_reason": "keep", "ndvi": null, "soil_moisture": null, "solar_exposure": null, "wind_exposure": null, "water_retention": null, "slope": null, "aspect": null, "num_identification_agreements": 1, "cluster": 3, "tavg": null, "tmin": 9.0, "tmax": 20.0, "prcp_d0": 0.0, "prcp_d1": 24.89239501953125, "prcp_d2": 12.446197509765623, "prcp_d3": 0.0, "prcp_d4": 0.0, "prcp_d5": 0.0, "prcp_d6": 8.577743530273438, "tmax_d0": null, "tmax_d1": null, "tmax_d2": null, "tmax_d3": null, "tmax_d4": null, "tmax_d5": null, "tmax_d6": null, "tmin_d0": null, "tmin_d1": null, "tmin_d2": null, "tmin_d3": null, "tmin_d4": null, "tmin_d5": null, "tmin_d6": null, "day_of_year": 227, "uuid": "a025de6a-3aa8-47e4-a808-17b5fadcf70b", "inat_id": 235774780}}, {"type": "Feature", "geometry": {"type": "Point", "coordinates": [-107.8833777778, 37.9374722222]}, "properties": {"species": "Tricholoma vaccinum", "date": "2024-08-14", "location": "Mountain Village, CO 81435, USA", "elevation": 2819.0, "land_cover_label": "Grassland", "water_mask": false, "exclude_reason": "keep", "ndvi": null, "soil_moisture": null, "solar_exposure": null, "wind_exposure": null, "water_retention": null, "slope": null, "aspect": null, "num_identification_agreements": 1, "cluster": 3, "tavg": null, "tmin": 9.0, "tmax": 20.0, "prcp_d0": 0.0, "prcp_d1": 23.053241729736328, "prcp_d2": 11.526620864868164, "prcp_d3": 0.0, "prcp_d4": 0.0, "prcp_d5": 0.0, "prcp_d6": 7.814668655395508, "tmax_d0": null, "tmax_d1": null, "tmax_d2": null, "tmax_d3": null, "tmax_d4": null, "tmax_d5": null, "tmax_d6": null, "tmin_d0": null, "tmin_d1": null, "tmin_d2": null, "tmin_d3": null, "tmin_d4": null, "tmin_d5": null, "tmin_d6": null, "day_of_year": 227, "uuid": "dbd49841-a867-49cc-89ab-39994adf7408", "inat_id": 235770652}}, {"type": "Feature", "geometry": {"type": "Point", "coordinates": [-107.9087338318, 37.8964876011]}, "properties": {"species": "Tricholoma vaccinum", "date": "2024-08-16", "location": "Grand Mesa Uncompahgre and Gunnison National Forests, Ophir, CO, US", "elevation": 2535.0, "land_cover_label": "Tree cover", "water_mask": false, "exclude_reason": "keep", "ndvi": null, "soil_moisture": null, "solar_exposure": null, "wind_exposure": null, "water_retention": null, "slope": null, "aspect": null, "num_identification_agreements": 1, "cluster": 3, "tavg": null, "tmin": 12.0, "tmax": 25.0, "prcp_d0": 0.0, "prcp_d1": 0.0, "prcp_d2": 0.0, "prcp_d3": 22.02738380432129, "prcp_d4": 22.02738380432129, "prcp_d5": 0.0, "prcp_d6": 0.0, "tmax_d0": null, "tmax_d1": null, "tmax_d2": null, "tmax_d3": null, "tmax_d4": null, "tmax_d5": null, "tmax_d6": null, "tmin_d0": null, "tmin_d1": null, "tmin_d2": null, "tmin_d3": null, "tmin_d4": null, "tmin_d5": null, "tmin_d6": null, "day_of_year": 229, "uuid": "9638dcc0-a913-4e9f-acb7-2b36496fed2b", "inat_id": 236187532}}, {"type": "Feature", "geometry": {"type": "Point", "coordinates": [-107.8552333333, 37.8836116667]}, "properties": {"species": "Tricholoma vaccinum", "date": "2024-08-17", "location": "Grand Mesa Uncompahgre and Gunnison National Forests, Ophir, CO, US", "elevation": 3338.0, "land_cover_label": "Tree cover", "water_mask": false, "exclude_reason": "keep", "ndvi": null, "soil_moisture": null, "solar_exposure": null, "wind_exposure": null, "water_retention": null, "slope": null, "aspect": null, "num_identification_agreements": 1, "cluster": 1, "tavg": null, "tmin": 12.0, "tmax": 23.0, "prcp_d0": 14.800861358642578, "prcp_d1": 0.0, "prcp_d2": 0.0, "prcp_d3": 0.0, "prcp_d4": 43.863800048828125, "prcp_d5": 0.0, "prcp_d6": 0.0, "tmax_d0": null, "tmax_d1": null, "tmax_d2": null, "tmax_d3": null, "tmax_d4": null, "tmax_d5": null, "tmax_d6": null, "tmin_d0": null, "tmin_d1": null, "tmin_d2": null, "tmin_d3": null, "tmin_d4": null, "tmin_d5": null, "tmin_d6": null, "day_of_year": 230, "uuid": "9042dedb-e63c-4b81-9608-1dfcd3625cb7", "inat_id": 236401468}}, {"type": "Feature", "geometry": {"type": "Point", "coordinates": [-106.0477361667, 39.4722466667]}, "properties": {"species": "Tricholoma vaccinum", "date": "2024-08-19", "location": "White River National Forest, Breckenridge, CO, US", "elevation": 2948.0, "land_cover_label": "Tree cover", "water_mask": false, "exclude_reason": "keep", "ndvi": null, "soil_moisture": null, "solar_exposure": null, "wind_exposure": null, "water_retention": null, "slope": null, "aspect": null, "num_identification_agreements": 1, "cluster": 2, "tavg": null, "tmin": 6.1, "tmax": 20.6, "prcp_d0": 0.0, "prcp_d1": 0.0, "prcp_d2": 0.0, "prcp_d3": 0.0, "prcp_d4": 0.0, "prcp_d5": 0.0, "prcp_d6": 0.0, "tmax_d0": null, "tmax_d1": null, "tmax_d2": null, "tmax_d3": null, "tmax_d4": null, "tmax_d5": null, "tmax_d6": null, "tmin_d0": null, "tmin_d1": null, "tmin_d2": null, "tmin_d3": null, "tmin_d4": null, "tmin_d5": null, "tmin_d6": null, "day_of_year": 232, "uuid": "1d295f32-6d06-4f55-b0af-f9c9930604de", "inat_id": 236752710}}, {"type": "Feature", "geometry": {"type": "Point", "coordinates": [-107.99498, 39.0050583333]}, "properties": {"species": "Tricholoma vaccinum", "date": "2024-08-20", "location": "Grand Mesa Uncompahgre and Gunnison National Forests, Cedaredge, CO, US", "elevation": 2951.0, "land_cover_label": "Tree cover", "water_mask": false, "exclude_reason": "keep", "ndvi": null, "soil_moisture": null, "solar_exposure": null, "wind_exposure": null, "water_retention": null, "slope": null, "aspect": null, "num_identification_agreements": 2, "cluster": 0, "tavg": null, "tmin": 16.5, "tmax": 34.3, "prcp_d0": 0.0, "prcp_d1": 0.0, "prcp_d2": 0.0, "prcp_d3": 0.0, "prcp_d4": 0.0, "prcp_d5": 0.0, "prcp_d6": 19.62216758728028, "tmax_d0": null, "tmax_d1": null, "tmax_d2": null, "tmax_d3": null, "tmax_d4": null, "tmax_d5": null, "tmax_d6": null, "tmin_d0": null, "tmin_d1": null, "tmin_d2": null, "tmin_d3": null, "tmin_d4": null, "tmin_d5": null, "tmin_d6": null, "day_of_year": 233, "uuid": "8a90c238-1efe-4682-99db-68843f223a97", "inat_id": 237022531}}, {"type": "Feature", "geometry": {"type": "Point", "coordinates": [-107.9940116667, 39.005725]}, "properties": {"species": "Tricholoma vaccinum", "date": "2024-09-04", "location": "Grand Mesa Uncompahgre and Gunnison National Forests, Cedaredge, CO, US", "elevation": 2951.0, "land_cover_label": "Moss and lichen", "water_mask": false, "exclude_reason": "keep", "ndvi": null, "soil_moisture": null, "solar_exposure": null, "wind_exposure": null, "water_retention": null, "slope": null, "aspect": null, "num_identification_agreements": 1, "cluster": 2, "tavg": null, "tmin": 15.1, "tmax": 31.1, "prcp_d0": 0.0, "prcp_d1": 0.0, "prcp_d2": 0.0, "prcp_d3": 0.0, "prcp_d4": 0.0075609311461448, "prcp_d5": 0.2813694179058075, "prcp_d6": 0.1130448803305625, "tmax_d0": null, "tmax_d1": null, "tmax_d2": null, "tmax_d3": null, "tmax_d4": null, "tmax_d5": null, "tmax_d6": null, "tmin_d0": null, "tmin_d1": null, "tmin_d2": null, "tmin_d3": null, "tmin_d4": null, "tmin_d5": null, "tmin_d6": null, "day_of_year": 248, "uuid": "a832e4fa-3b12-4575-9408-71a1ebc95671", "inat_id": 239882630}}, {"type": "Feature", "geometry": {"type": "Point", "coordinates": [-107.0094494556, 38.8678663791]}, "properties": {"species": "Tricholoma vaccinum", "date": "2024-09-14", "location": "Gunnison County, CO, USA", "elevation": 2821.0, "land_cover_label": "Tree cover", "water_mask": false, "exclude_reason": "keep", "ndvi": null, "soil_moisture": null, "solar_exposure": null, "wind_exposure": null, "water_retention": null, "slope": null, "aspect": null, "num_identification_agreements": 1, "cluster": 2, "tavg": null, "tmin": -0.6, "tmax": 25.6, "prcp_d0": 3.244867343710212e-07, "prcp_d1": 0.0070571056567132, "prcp_d2": 0.5655273795127869, "prcp_d3": 7.899613857269287, "prcp_d4": 0.0, "prcp_d5": 0.0, "prcp_d6": 0.0, "tmax_d0": null, "tmax_d1": null, "tmax_d2": null, "tmax_d3": null, "tmax_d4": null, "tmax_d5": null, "tmax_d6": null, "tmin_d0": null, "tmin_d1": null, "tmin_d2": null, "tmin_d3": null, "tmin_d4": null, "tmin_d5": null, "tmin_d6": null, "day_of_year": 258, "uuid": "14aad220-48fd-4b6c-bf3a-16c92ddf9884", "inat_id": 241981773}}, {"type": "Feature", "geometry": {"type": "Point", "coordinates": [-105.364425, 39.57695]}, "properties": {"species": "Tricholoma vaccinum", "date": "2024-09-15", "location": "Maxwell Falls Trail, Evergreen, CO, US", "elevation": 2462.0, "land_cover_label": "Tree cover", "water_mask": false, "exclude_reason": "keep", "ndvi": null, "soil_moisture": 0.1784014985027196, "solar_exposure": 0.7524845004081726, "wind_exposure": 0.2727323770523071, "water_retention": 0.3768531382083893, "slope": 7.519217491149902, "aspect": 350.7290954589844, "num_identification_agreements": 1, "cluster": 2, "tavg": null, "tmin": -1.6, "tmax": 11.6, "prcp_d0": 0.2596041560173034, "prcp_d1": 0.0037025513593107, "prcp_d2": 0.0, "prcp_d3": 0.1890424787998199, "prcp_d4": 3.433948040008545, "prcp_d5": 0.0, "prcp_d6": 0.0, "tmax_d0": null, "tmax_d1": null, "tmax_d2": null, "tmax_d3": null, "tmax_d4": null, "tmax_d5": null, "tmax_d6": null, "tmin_d0": null, "tmin_d1": null, "tmin_d2": null, "tmin_d3": null, "tmin_d4": null, "tmin_d5": null, "tmin_d6": null, "day_of_year": 259, "uuid": "25988534-eade-4fa3-b269-27e0a6ba027a", "inat_id": 241980887}}, {"type": "Feature", "geometry": {"type": "Point", "coordinates": [-104.9337859181, 38.767064303]}, "properties": {"species": "Tricholoma vaccinum", "date": "2025-06-29", "location": "Colorado, US", "elevation": 3114.0, "land_cover_label": "Tree cover", "water_mask": false, "exclude_reason": "keep", "ndvi": null, "soil_moisture": null, "solar_exposure": null, "wind_exposure": null, "water_retention": null, "slope": null, "aspect": null, "num_identification_agreements": 1, "cluster": 2, "tavg": null, "tmin": 19.0, "tmax": 28.0, "prcp_d0": 0.0, "prcp_d1": 0.0, "prcp_d2": 0.0, "prcp_d3": 0.0, "prcp_d4": 0.0, "prcp_d5": 0.0, "prcp_d6": 0.0, "tmax_d0": null, "tmax_d1": null, "tmax_d2": null, "tmax_d3": null, "tmax_d4": null, "tmax_d5": null, "tmax_d6": null, "tmin_d0": null, "tmin_d1": null, "tmin_d2": null, "tmin_d3": null, "tmin_d4": null, "tmin_d5": null, "tmin_d6": null, "day_of_year": 180, "uuid": "b3465df5-a2a4-4ea2-ab76-e7c8e240bc18", "inat_id": 293959794}}, {"type": "Feature", "geometry": {"type": "Point", "coordinates": [-105.3357383333, 39.3428616667]}, "properties": {"species": "Tricholoma vaccinum", "date": "2025-07-15", "location": "Pike and San Isabel National Forests, Bailey, CO, US", "elevation": 2242.0, "land_cover_label": "Tree cover", "water_mask": false, "exclude_reason": "keep", "ndvi": null, "soil_moisture": 0.1979798594217895, "solar_exposure": 0.8265844583511353, "wind_exposure": 0.2686026394367218, "water_retention": 0.6835253238677979, "slope": 1.7407047748565674, "aspect": 315.5959777832031, "num_identification_agreements": 2, "cluster": 2, "tavg": null, "tmin": 11.0, "tmax": 20.0, "prcp_d0": 0.0, "prcp_d1": 11.029379844665527, "prcp_d2": 0.0, "prcp_d3": 7.352919578552246, "prcp_d4": 0.0, "prcp_d5": 0.0, "prcp_d6": 0.0, "tmax_d0": null, "tmax_d1": null, "tmax_d2": null, "tmax_d3": null, "tmax_d4": null, "tmax_d5": null, "tmax_d6": null, "tmin_d0": null, "tmin_d1": null, "tmin_d2": null, "tmin_d3": null, "tmin_d4": null, "tmin_d5": null, "tmin_d6": null, "day_of_year": 196, "uuid": "af66a804-f72c-4423-9cf3-d03710164b63", "inat_id": 298587582}}, {"type": "Feature", "geometry": {"type": "Point", "coordinates": [-105.80251389, 35.79766389]}, "properties": {"species": "Tricholoma vaccinum", "date": "2025-07-22", "location": "Santa Fe, New Mexico, United States", "elevation": 3149.0, "land_cover_label": "Tree cover", "water_mask": false, "exclude_reason": "keep", "ndvi": null, "soil_moisture": null, "solar_exposure": null, "wind_exposure": null, "water_retention": null, "slope": null, "aspect": null, "num_identification_agreements": 1, "cluster": 2, "tavg": null, "tmin": 15.6, "tmax": 29.4, "prcp_d0": 7.594229221343994, "prcp_d1": 0.0, "prcp_d2": 5.500234127044678, "prcp_d3": 0.0, "prcp_d4": 5.500234127044678, "prcp_d5": 0.0, "prcp_d6": 0.0, "tmax_d0": null, "tmax_d1": null, "tmax_d2": null, "tmax_d3": null, "tmax_d4": null, "tmax_d5": null, "tmax_d6": null, "tmin_d0": null, "tmin_d1": null, "tmin_d2": null, "tmin_d3": null, "tmin_d4": null, "tmin_d5": null, "tmin_d6": null, "day_of_year": 203, "uuid": "ee572785-f45c-4d04-b34b-994f097d3dac", "inat_id": 300425331}}, {"type": "Feature", "geometry": {"type": "Point", "coordinates": [-105.032985488, 39.1006169305]}, "properties": {"species": "Tricholoma vaccinum", "date": "2025-08-06", "location": "Teller County, US-CO, US", "elevation": 2816.0, "land_cover_label": "Tree cover", "water_mask": false, "exclude_reason": "keep", "ndvi": null, "soil_moisture": 0.1399063602708404, "solar_exposure": 0.8446223139762878, "wind_exposure": 0.3389122784137726, "water_retention": 0.2379705309867859, "slope": 3.702491760253906, "aspect": 260.34246826171875, "num_identification_agreements": 1, "cluster": 2, "tavg": null, "tmin": 16.4, "tmax": 33.9, "prcp_d0": 0.0, "prcp_d1": 0.0, "prcp_d2": 0.0, "prcp_d3": 0.0, "prcp_d4": 0.0, "prcp_d5": 0.0, "prcp_d6": 5.792646884918213, "tmax_d0": null, "tmax_d1": null, "tmax_d2": null, "tmax_d3": null, "tmax_d4": null, "tmax_d5": null, "tmax_d6": null, "tmin_d0": null, "tmin_d1": null, "tmin_d2": null, "tmin_d3": null, "tmin_d4": null, "tmin_d5": null, "tmin_d6": null, "day_of_year": 218, "uuid": "418627eb-4855-4167-91c2-eaa07294205d", "inat_id": 304595423}}, {"type": "Feature", "geometry": {"type": "Point", "coordinates": [-105.0348795, 39.0998535]}, "properties": {"species": "Tricholoma vaccinum", "date": "2025-08-06", "location": "Woodland Park, CO 80863, USA", "elevation": 2823.0, "land_cover_label": "Tree cover", "water_mask": false, "exclude_reason": "keep", "ndvi": null, "soil_moisture": 0.1405099409416645, "solar_exposure": 0.8124561905860901, "wind_exposure": 0.3185947239398956, "water_retention": 0.3737096190452575, "slope": 2.968695640563965, "aspect": 326.8578491210937, "num_identification_agreements": 1, "cluster": 2, "tavg": null, "tmin": 16.4, "tmax": 33.9, "prcp_d0": 0.0, "prcp_d1": 0.0, "prcp_d2": 0.0, "prcp_d3": 0.0, "prcp_d4": 0.0, "prcp_d5": 8.101410865783691, "prcp_d6": 6.274511814117432, "tmax_d0": null, "tmax_d1": null, "tmax_d2": null, "tmax_d3": null, "tmax_d4": null, "tmax_d5": null, "tmax_d6": null, "tmin_d0": null, "tmin_d1": null, "tmin_d2": null, "tmin_d3": null, "tmin_d4": null, "tmin_d5": null, "tmin_d6": null, "day_of_year": 218, "uuid": "36fcdb6d-981f-4226-8137-e1daaed9b03e", "inat_id": 304480722}}, {"type": "Feature", "geometry": {"type": "Point", "coordinates": [-105.4470966667, 39.6749416667]}, "properties": {"species": "Tricholoma vaccinum", "date": "2025-08-09", "location": "SH-103, Evergreen, CO, US", "elevation": 2838.0, "land_cover_label": "Tree cover", "water_mask": false, "exclude_reason": "keep", "ndvi": null, "soil_moisture": 0.1953329518745361, "solar_exposure": 0.6911677122116089, "wind_exposure": 0.3215212225914001, "water_retention": 0.225940391421318, "slope": 13.064339637756348, "aspect": 27.27016258239746, "num_identification_agreements": 1, "cluster": 2, "tavg": null, "tmin": 1.4, "tmax": 12.0, "prcp_d0": 0.0, "prcp_d1": 0.0, "prcp_d2": 0.0, "prcp_d3": 0.0, "prcp_d4": 0.0, "prcp_d5": 0.0, "prcp_d6": 0.0, "tmax_d0": null, "tmax_d1": null, "tmax_d2": null, "tmax_d3": null, "tmax_d4": null, "tmax_d5": null, "tmax_d6": null, "tmin_d0": null, "tmin_d1": null, "tmin_d2": null, "tmin_d3": null, "tmin_d4": null, "tmin_d5": null, "tmin_d6": null, "day_of_year": 221, "uuid": "1f5b7d09-28ee-4395-9544-390cf4418e6d", "inat_id": 305121197}}, {"type": "Feature", "geometry": {"type": "Point", "coordinates": [-107.98048286, 37.76837345]}, "properties": {"species": "Tricholoma vaccinum", "date": "2025-08-12", "location": "Dolores County, US-CO, US", "elevation": 2863.0, "land_cover_label": "Tree cover", "water_mask": false, "exclude_reason": "keep", "ndvi": null, "soil_moisture": null, "solar_exposure": null, "wind_exposure": null, "water_retention": null, "slope": null, "aspect": null, "num_identification_agreements": 1, "cluster": 2, "tavg": null, "tmin": 10.0, "tmax": 24.0, "prcp_d0": 0.0, "prcp_d1": 0.0, "prcp_d2": 0.0, "prcp_d3": 0.0, "prcp_d4": 0.0, "prcp_d5": 0.0, "prcp_d6": 0.0, "tmax_d0": null, "tmax_d1": null, "tmax_d2": null, "tmax_d3": null, "tmax_d4": null, "tmax_d5": null, "tmax_d6": null, "tmin_d0": null, "tmin_d1": null, "tmin_d2": null, "tmin_d3": null, "tmin_d4": null, "tmin_d5": null, "tmin_d6": null, "day_of_year": 224, "uuid": "2cef1e69-d0e4-42f5-b2d6-5e8a7405113d", "inat_id": 306147927}}, {"type": "Feature", "geometry": {"type": "Point", "coordinates": [-107.9815059997, 37.769809]}, "properties": {"species": "Tricholoma vaccinum", "date": "2025-08-13", "location": "Durango, CO 81301, USA", "elevation": 2847.0, "land_cover_label": "Grassland", "water_mask": false, "exclude_reason": "keep", "ndvi": null, "soil_moisture": null, "solar_exposure": null, "wind_exposure": null, "water_retention": null, "slope": null, "aspect": null, "num_identification_agreements": 1, "cluster": 2, "tavg": null, "tmin": 13.0, "tmax": 26.0, "prcp_d0": 0.0, "prcp_d1": 0.0, "prcp_d2": 0.0, "prcp_d3": 0.0, "prcp_d4": 0.0, "prcp_d5": 0.0, "prcp_d6": 0.0, "tmax_d0": null, "tmax_d1": null, "tmax_d2": null, "tmax_d3": null, "tmax_d4": null, "tmax_d5": null, "tmax_d6": null, "tmin_d0": null, "tmin_d1": null, "tmin_d2": null, "tmin_d3": null, "tmin_d4": null, "tmin_d5": null, "tmin_d6": null, "day_of_year": 225, "uuid": "add2b81a-693d-4b5b-93a4-7e75838a72d2", "inat_id": 306124562}}, {"type": "Feature", "geometry": {"type": "Point", "coordinates": [-105.003464, 37.3635789999]}, "properties": {"species": "Tricholoma vaccinum", "date": "2025-08-16", "location": "Las Animas County, CO, USA", "elevation": 3551.0, "land_cover_label": "Tree cover", "water_mask": false, "exclude_reason": "keep", "ndvi": null, "soil_moisture": null, "solar_exposure": null, "wind_exposure": null, "water_retention": null, "slope": null, "aspect": null, "num_identification_agreements": 1, "cluster": 3, "tavg": null, "tmin": 9.6, "tmax": 20.0, "prcp_d0": 0.0, "prcp_d1": 0.0, "prcp_d2": 18.708709716796875, "prcp_d3": 0.0, "prcp_d4": 0.0, "prcp_d5": 9.354354858398438, "prcp_d6": 3.767921924591065, "tmax_d0": null, "tmax_d1": null, "tmax_d2": null, "tmax_d3": null, "tmax_d4": null, "tmax_d5": null, "tmax_d6": null, "tmin_d0": null, "tmin_d1": null, "tmin_d2": null, "tmin_d3": null, "tmin_d4": null, "tmin_d5": null, "tmin_d6": null, "day_of_year": 228, "uuid": "8f6e567e-b4c0-4734-9883-1fd3b6d69e8f", "inat_id": 360967873}}, {"type": "Feature", "geometry": {"type": "Point", "coordinates": [-105.7994083333, 35.7998716667]}, "properties": {"species": "Tricholoma vaccinum", "date": "2025-08-27", "location": "Tererro, NM, US", "elevation": 3249.0, "land_cover_label": "Tree cover", "water_mask": false, "exclude_reason": "keep", "ndvi": null, "soil_moisture": null, "solar_exposure": null, "wind_exposure": null, "water_retention": null, "slope": null, "aspect": null, "num_identification_agreements": 1, "cluster": 1, "tavg": null, "tmin": 15.0, "tmax": 26.0, "prcp_d0": 29.806293487548828, "prcp_d1": 29.806293487548828, "prcp_d2": 7.914974212646484, "prcp_d3": 3.957487106323242, "prcp_d4": 3.957487106323242, "prcp_d5": 3.957487106323242, "prcp_d6": 7.914974212646484, "tmax_d0": null, "tmax_d1": null, "tmax_d2": null, "tmax_d3": null, "tmax_d4": null, "tmax_d5": null, "tmax_d6": null, "tmin_d0": null, "tmin_d1": null, "tmin_d2": null, "tmin_d3": null, "tmin_d4": null, "tmin_d5": null, "tmin_d6": null, "day_of_year": 239, "uuid": "ba5b78a2-b460-4d67-a876-4229816963e1", "inat_id": 309603395}}, {"type": "Feature", "geometry": {"type": "Point", "coordinates": [-105.5258777778, 36.1341222222]}, "properties": {"species": "Tricholoma vaccinum", "date": "2026-07-31", "location": "Taos County, NM, USA", "elevation": 2571.0, "land_cover_label": "Tree cover", "water_mask": false, "exclude_reason": "keep", "ndvi": null, "soil_moisture": null, "solar_exposure": null, "wind_exposure": null, "water_retention": null, "slope": null, "aspect": null, "num_identification_agreements": 1, "cluster": 0, "tavg": null, "tmin": 16.8, "tmax": 31.6, "prcp_d0": 0.0, "prcp_d1": 0.0, "prcp_d2": 8.403246879577637, "prcp_d3": 8.403246879577637, "prcp_d4": 4.201623439788818, "prcp_d5": 0.0, "prcp_d6": 18.635093688964844, "tmax_d0": null, "tmax_d1": null, "tmax_d2": null, "tmax_d3": null, "tmax_d4": null, "tmax_d5": null, "tmax_d6": null, "tmin_d0": null, "tmin_d1": null, "tmin_d2": null, "tmin_d3": null, "tmin_d4": null, "tmin_d5": null, "tmin_d6": null, "day_of_year": 212, "uuid": "fe0bfe37-5e90-42f8-bb8a-4ffb9b45ee2d", "inat_id": 388007958}}, {"type": "Feature", "geometry": {"type": "Point", "coordinates": [-105.4551222222, 36.1406888889]}, "properties": {"species": "Tricholoma vaccinum", "date": "2026-08-01", "location": "Chacon, NM 87713, USA", "elevation": 2762.0, "land_cover_label": "Tree cover", "water_mask": false, "exclude_reason": "keep", "ndvi": null, "soil_moisture": null, "solar_exposure": null, "wind_exposure": null, "water_retention": null, "slope": null, "aspect": null, "num_identification_agreements": 2, "cluster": 2, "tavg": null, "tmin": 8.7, "tmax": 24.1, "prcp_d0": null, "prcp_d1": 0.0, "prcp_d2": 0.0, "prcp_d3": 10.252366065979004, "prcp_d4": 10.252366065979004, "prcp_d5": 0.0, "prcp_d6": 0.0, "tmax_d0": null, "tmax_d1": null, "tmax_d2": null, "tmax_d3": null, "tmax_d4": null, "tmax_d5": null, "tmax_d6": null, "tmin_d0": null, "tmin_d1": null, "tmin_d2": null, "tmin_d3": null, "tmin_d4": null, "tmin_d5": null, "tmin_d6": null, "day_of_year": 213, "uuid": "82773097-bb7d-49aa-a438-76e75a6152d6", "inat_id": 387351481}}, {"type": "Feature", "geometry": {"type": "Point", "coordinates": [-110.8124800959, 40.5943260751]}, "properties": {"species": "Tricholoma vaccinum", "date": "2026-08-01", "location": "Duchesne County, US-UT, US", "elevation": 3225.0, "land_cover_label": "Tree cover", "water_mask": false, "exclude_reason": "keep", "ndvi": null, "soil_moisture": null, "solar_exposure": null, "wind_exposure": null, "water_retention": null, "slope": null, "aspect": null, "num_identification_agreements": 2, "cluster": 2, "tavg": null, "tmin": null, "tmax": null, "prcp_d0": null, "prcp_d1": 0.0, "prcp_d2": 0.0, "prcp_d3": 0.0, "prcp_d4": 6.356283664703369, "prcp_d5": 0.0, "prcp_d6": 0.0, "tmax_d0": null, "tmax_d1": null, "tmax_d2": null, "tmax_d3": null, "tmax_d4": null, "tmax_d5": null, "tmax_d6": null, "tmin_d0": null, "tmin_d1": null, "tmin_d2": null, "tmin_d3": null, "tmin_d4": null, "tmin_d5": null, "tmin_d6": null, "day_of_year": 213, "uuid": "ecb9a796-6162-4622-97b7-2668a615ca95", "inat_id": 387377935}}, {"type": "Feature", "geometry": {"type": "Point", "coordinates": [-105.5290133333, 36.1310945]}, "properties": {"species": "Tricholoma vaccinum", "date": "2026-08-01", "location": "Angostura Cutoff Trail, Vadito, NM, US", "elevation": 2623.0, "land_cover_label": "Tree cover", "water_mask": false, "exclude_reason": "keep", "ndvi": null, "soil_moisture": null, "solar_exposure": null, "wind_exposure": null, "water_retention": null, "slope": null, "aspect": null, "num_identification_agreements": 1, "cluster": 2, "tavg": null, "tmin": 14.5, "tmax": 29.6, "prcp_d0": null, "prcp_d1": 0.0, "prcp_d2": 0.0, "prcp_d3": 8.403246879577637, "prcp_d4": 8.403246879577637, "prcp_d5": 4.201623439788818, "prcp_d6": 0.0, "tmax_d0": null, "tmax_d1": null, "tmax_d2": null, "tmax_d3": null, "tmax_d4": null, "tmax_d5": null, "tmax_d6": null, "tmin_d0": null, "tmin_d1": null, "tmin_d2": null, "tmin_d3": null, "tmin_d4": null, "tmin_d5": null, "tmin_d6": null, "day_of_year": 213, "uuid": "eda7788c-6ed9-4eec-aabc-70dcd16e73ec", "inat_id": 387290647}}, {"type": "Feature", "geometry": {"type": "Point", "coordinates": [-105.5295741175, 36.1301303257]}, "properties": {"species": "Tricholoma vaccinum", "date": "2026-08-01", "location": "Taos County, US-NM, US", "elevation": 2629.0, "land_cover_label": "Tree cover", "water_mask": false, "exclude_reason": "keep", "ndvi": null, "soil_moisture": null, "solar_exposure": null, "wind_exposure": null, "water_retention": null, "slope": null, "aspect": null, "num_identification_agreements": 2, "cluster": 2, "tavg": null, "tmin": 14.5, "tmax": 29.6, "prcp_d0": null, "prcp_d1": 0.0, "prcp_d2": 0.0, "prcp_d3": 8.403246879577637, "prcp_d4": 8.403246879577637, "prcp_d5": 4.201623439788818, "prcp_d6": 0.0, "tmax_d0": null, "tmax_d1": null, "tmax_d2": null, "tmax_d3": null, "tmax_d4": null, "tmax_d5": null, "tmax_d6": null, "tmin_d0": null, "tmin_d1": null, "tmin_d2": null, "tmin_d3": null, "tmin_d4": null, "tmin_d5": null, "tmin_d6": null, "day_of_year": 213, "uuid": "72102ea4-a68e-4878-9d10-c07c6712c949", "inat_id": 387275874}}, {"type": "Feature", "geometry": {"type": "Point", "coordinates": [-105.4753293799, 36.1390182572]}, "properties": {"species": "Tricholoma vaccinum", "date": "2026-08-01", "location": "Taos County, US-NM, US", "elevation": 2694.0, "land_cover_label": "Tree cover", "water_mask": false, "exclude_reason": "keep", "ndvi": null, "soil_moisture": null, "solar_exposure": null, "wind_exposure": null, "water_retention": null, "slope": null, "aspect": null, "num_identification_agreements": 1, "cluster": 2, "tavg": null, "tmin": 8.7, "tmax": 24.1, "prcp_d0": null, "prcp_d1": 0.0, "prcp_d2": 0.0, "prcp_d3": 10.252366065979004, "prcp_d4": 10.252366065979004, "prcp_d5": 0.0, "prcp_d6": 0.0, "tmax_d0": null, "tmax_d1": null, "tmax_d2": null, "tmax_d3": null, "tmax_d4": null, "tmax_d5": null, "tmax_d6": null, "tmin_d0": null, "tmin_d1": null, "tmin_d2": null, "tmin_d3": null, "tmin_d4": null, "tmin_d5": null, "tmin_d6": null, "day_of_year": 213, "uuid": "dbe6ef33-a79a-4dda-a429-b43d88d4e669", "inat_id": 387262434}}, {"type": "Feature", "geometry": {"type": "Point", "coordinates": [-105.4609524093, 36.1738249225]}, "properties": {"species": "Tricholoma vaccinum", "date": "2026-08-01", "location": "Carson National Forest, Vadito, NM, US", "elevation": 2880.0, "land_cover_label": "Tree cover", "water_mask": false, "exclude_reason": "keep", "ndvi": null, "soil_moisture": null, "solar_exposure": null, "wind_exposure": null, "water_retention": null, "slope": null, "aspect": null, "num_identification_agreements": 1, "cluster": 2, "tavg": null, "tmin": 8.7, "tmax": 24.1, "prcp_d0": null, "prcp_d1": 0.0, "prcp_d2": 0.0, "prcp_d3": 9.657373428344728, "prcp_d4": 9.657373428344728, "prcp_d5": 4.828686714172363, "prcp_d6": 0.0, "tmax_d0": null, "tmax_d1": null, "tmax_d2": null, "tmax_d3": null, "tmax_d4": null, "tmax_d5": null, "tmax_d6": null, "tmin_d0": null, "tmin_d1": null, "tmin_d2": null, "tmin_d3": null, "tmin_d4": null, "tmin_d5": null, "tmin_d6": null, "day_of_year": 213, "uuid": "f25342a0-d3a4-42fa-a8ce-8cb1758b0144", "inat_id": 387307437}}, {"type": "Feature", "geometry": {"type": "Point", "coordinates": [-105.8030996578, 35.7964404796]}, "properties": {"species": "Tricholoma vaccinum", "date": "2026-08-04", "location": "NM-475, Tererro, NM, US", "elevation": 3149.0, "land_cover_label": "Grassland", "water_mask": false, "exclude_reason": "keep", "ndvi": null, "soil_moisture": null, "solar_exposure": null, "wind_exposure": null, "water_retention": null, "slope": null, "aspect": null, "num_identification_agreements": 1, "cluster": 2, "tavg": null, "tmin": 16.7, "tmax": 35.0, "prcp_d0": null, "prcp_d1": null, "prcp_d2": null, "prcp_d3": null, "prcp_d4": 0.0, "prcp_d5": 0.0, "prcp_d6": 0.0, "tmax_d0": null, "tmax_d1": null, "tmax_d2": null, "tmax_d3": null, "tmax_d4": null, "tmax_d5": null, "tmax_d6": null, "tmin_d0": null, "tmin_d1": null, "tmin_d2": null, "tmin_d3": null, "tmin_d4": null, "tmin_d5": null, "tmin_d6": null, "day_of_year": 216, "uuid": "65afa77c-ec97-413b-9760-4e0ed4be3461", "inat_id": 388359294}}, {"type": "Feature", "geometry": {"type": "Point", "coordinates": [-105.5574873923, 39.5596045479]}, "properties": {"species": "Tricholoma vaccinum", "date": "2026-08-14", "location": "Colorado, US", "elevation": 3452.0, "land_cover_label": "Tree cover", "water_mask": false, "exclude_reason": "keep", "ndvi": null, "soil_moisture": 0.400527638729658, "solar_exposure": 0.7164063453674316, "wind_exposure": 0.3440843820571899, "water_retention": 0.2433442771434784, "slope": 10.162948608398438, "aspect": 2.266134023666382, "num_identification_agreements": 1, "cluster": 1, "tavg": null, "tmin": 4.0, "tmax": 10.0, "prcp_d0": null, "prcp_d1": null, "prcp_d2": null, "prcp_d3": null, "prcp_d4": null, "prcp_d5": null, "prcp_d6": null, "tmax_d0": null, "tmax_d1": null, "tmax_d2": null, "tmax_d3": null, "tmax_d4": null, "tmax_d5": null, "tmax_d6": null, "tmin_d0": null, "tmin_d1": null, "tmin_d2": null, "tmin_d3": null, "tmin_d4": null, "tmin_d5": null, "tmin_d6": null, "day_of_year": 226, "uuid": "0e3c5f65-fac2-432b-bb76-d20c23c38807", "inat_id": 391267468}}, {"type": "Feature", "geometry": {"type": "Point", "coordinates": [-107.8280992323, 37.8541182555]}, "properties": {"species": "Tricholoma vaccinum", "date": "2026-08-14", "location": "San Miguel County, US-CO, US", "elevation": 3028.0, "land_cover_label": "Tree cover", "water_mask": false, "exclude_reason": "keep", "ndvi": null, "soil_moisture": null, "solar_exposure": null, "wind_exposure": null, "water_retention": null, "slope": null, "aspect": null, "num_identification_agreements": 3, "cluster": null, "tavg": null, "tmin": 10.0, "tmax": 19.0, "prcp_d0": null, "prcp_d1": null, "prcp_d2": null, "prcp_d3": null, "prcp_d4": null, "prcp_d5": null, "prcp_d6": null, "tmax_d0": null, "tmax_d1": null, "tmax_d2": null, "tmax_d3": null, "tmax_d4": null, "tmax_d5": null, "tmax_d6": null, "tmin_d0": null, "tmin_d1": null, "tmin_d2": null, "tmin_d3": null, "tmin_d4": null, "tmin_d5": null, "tmin_d6": null, "day_of_year": 226, "uuid": "a9c6971f-9745-4ed2-98f5-e79e3c6a0765", "inat_id": 391196026}}, {"type": "Feature", "geometry": {"type": "Point", "coordinates": [-107.8804231731, 37.8407010706]}, "properties": {"species": "Tricholoma vaccinum", "date": "2026-08-22", "location": "San Miguel County, US-CO, US", "elevation": 2899.0, "land_cover_label": "Grassland", "water_mask": false, "exclude_reason": "keep", "ndvi": null, "soil_moisture": null, "solar_exposure": null, "wind_exposure": null, "water_retention": null, "slope": null, "aspect": null, "num_identification_agreements": 1, "cluster": null, "tavg": null, "tmin": null, "tmax": null, "prcp_d0": null, "prcp_d1": null, "prcp_d2": null, "prcp_d3": null, "prcp_d4": null, "prcp_d5": null, "prcp_d6": null, "tmax_d0": null, "tmax_d1": null, "tmax_d2": null, "tmax_d3": null, "tmax_d4": null, "tmax_d5": null, "tmax_d6": null, "tmin_d0": null, "tmin_d1": null, "tmin_d2": null, "tmin_d3": null, "tmin_d4": null, "tmin_d5": null, "tmin_d6": null, "day_of_year": 234, "uuid": "dba0d747-e791-45cf-b94c-13a71b268587", "inat_id": 393597314}}]}