{"type": "FeatureCollection", "features": [{"type": "Feature", "geometry": {"type": "Point", "coordinates": [-105.4864305021, 40.1475840067]}, "properties": {"species": "Tricholoma argyraceum", "date": "2025-09-16", "location": "Colorado, US", "elevation": 2601.0, "land_cover_label": "Tree cover", "water_mask": false, "exclude_reason": "keep", "ndvi": null, "soil_moisture": 0.3365591044012535, "solar_exposure": 0.7983774542808533, "wind_exposure": 0.3117362856864929, "water_retention": 0.2376296371221542, "slope": 11.040626525878906, "aspect": 78.77095794677734, "num_identification_agreements": 1, "cluster": 0, "tavg": null, "tmin": 10.0, "tmax": 24.0, "prcp_d0": 8.410440444946289, "prcp_d1": 0.0, "prcp_d2": 0.0, "prcp_d3": 12.265338897705078, "prcp_d4": 0.0, "prcp_d5": 12.265338897705078, "prcp_d6": 0.0, "tmax_d0": 17.1, "tmax_d1": 18.1, "tmax_d2": 14.6, "tmax_d3": 14.5, "tmax_d4": 19.9, "tmax_d5": 20.2, "tmax_d6": 21.4, "tmin_d0": 8.0, "tmin_d1": 6.0, "tmin_d2": 5.2, "tmin_d3": 5.4, "tmin_d4": 8.0, "tmin_d5": 10.2, "tmin_d6": 10.1, "day_of_year": 259, "uuid": "0d0dfeb5-b97d-4858-a348-6c811871fd57", "inat_id": 314694569}}]}