{"type": "FeatureCollection", "features": [{"type": "Feature", "geometry": {"type": "Point", "coordinates": [-105.549095, 40.0356721667]}, "properties": {"species": "Tricholoma sp. 'saponaceum-PNW02'", "date": "2023-08-12", "location": "Ward, CO, US", "elevation": 3081.0, "land_cover_label": "Tree cover", "water_mask": false, "exclude_reason": "keep", "ndvi": null, "soil_moisture": 0.2816575802787877, "solar_exposure": 0.879875898361206, "wind_exposure": 0.3213286697864532, "water_retention": 0.179361343383789, "slope": 8.773801803588867, "aspect": 124.24240112304688, "num_identification_agreements": 5, "cluster": 2, "tavg": null, "tmin": 17.0, "tmax": 28.0, "prcp_d0": 0.0, "prcp_d1": 0.0, "prcp_d2": 0.0, "prcp_d3": 0.0, "prcp_d4": 0.0, "prcp_d5": 8.656059265136719, "prcp_d6": 0.0, "tmax_d0": null, "tmax_d1": null, "tmax_d2": null, "tmax_d3": null, "tmax_d4": null, "tmax_d5": null, "tmax_d6": null, "tmin_d0": null, "tmin_d1": null, "tmin_d2": null, "tmin_d3": null, "tmin_d4": null, "tmin_d5": null, "tmin_d6": null, "day_of_year": 224, "uuid": "35253cf4-4ca7-4e84-ab1c-9deaeb803a37", "inat_id": 178094777}}, {"type": "Feature", "geometry": {"type": "Point", "coordinates": [-105.5785009531, 40.0472561129]}, "properties": {"species": "Tricholoma sp. 'saponaceum-PNW02'", "date": "2023-08-12", "location": "Boulder County, US-CO, US", "elevation": 3332.0, "land_cover_label": "Tree cover", "water_mask": false, "exclude_reason": "keep", "ndvi": null, "soil_moisture": 0.2889238242862308, "solar_exposure": 0.9355238676071168, "wind_exposure": 0.3192684650421142, "water_retention": 0.1568740010261535, "slope": 12.15778923034668, "aspect": 158.7820587158203, "num_identification_agreements": 3, "cluster": 2, "tavg": null, "tmin": 7.6, "tmax": 22.4, "prcp_d0": 0.0, "prcp_d1": 0.0, "prcp_d2": 0.0, "prcp_d3": 0.0, "prcp_d4": 0.0, "prcp_d5": 8.326016426086426, "prcp_d6": 0.0, "tmax_d0": null, "tmax_d1": null, "tmax_d2": null, "tmax_d3": null, "tmax_d4": null, "tmax_d5": null, "tmax_d6": null, "tmin_d0": null, "tmin_d1": null, "tmin_d2": null, "tmin_d3": null, "tmin_d4": null, "tmin_d5": null, "tmin_d6": null, "day_of_year": 224, "uuid": "a1e52a4f-eb04-491b-b1fc-6694d89513b8", "inat_id": 178053430}}, {"type": "Feature", "geometry": {"type": "Point", "coordinates": [-107.5526612932, 38.2407936895]}, "properties": {"species": "Tricholoma sp. 'saponaceum-PNW02'", "date": "2024-07-16", "location": "Grand Mesa Uncompahgre and Gunnison National Forests, Cimarron, CO, US", "elevation": 2772.0, "land_cover_label": "Tree cover", "water_mask": false, "exclude_reason": "keep", "ndvi": null, "soil_moisture": null, "solar_exposure": null, "wind_exposure": null, "water_retention": null, "slope": null, "aspect": null, "num_identification_agreements": 3, "cluster": 2, "tavg": null, "tmin": 16.7, "tmax": 31.7, "prcp_d0": 8.084663391113281, "prcp_d1": 1.920446515083313, "prcp_d2": 3.840893030166626, "prcp_d3": 0.0, "prcp_d4": 0.0, "prcp_d5": 0.0, "prcp_d6": 0.0, "tmax_d0": null, "tmax_d1": null, "tmax_d2": null, "tmax_d3": null, "tmax_d4": null, "tmax_d5": null, "tmax_d6": null, "tmin_d0": null, "tmin_d1": null, "tmin_d2": null, "tmin_d3": null, "tmin_d4": null, "tmin_d5": null, "tmin_d6": null, "day_of_year": 198, "uuid": "0fbef6a0-ac02-43fc-8675-90d003b6913f", "inat_id": 229815801}}, {"type": "Feature", "geometry": {"type": "Point", "coordinates": [-106.400925, 38.8112361111]}, "properties": {"species": "Tricholoma sp. 'saponaceum-PNW02'", "date": "2024-08-20", "location": "Chaffee County, CO, USA", "elevation": 3524.0, "land_cover_label": "Tree cover", "water_mask": false, "exclude_reason": "keep", "ndvi": null, "soil_moisture": null, "solar_exposure": null, "wind_exposure": null, "water_retention": null, "slope": null, "aspect": null, "num_identification_agreements": 2, "cluster": 2, "tavg": null, "tmin": 4.1, "tmax": 23.6, "prcp_d0": 0.0, "prcp_d1": 0.0, "prcp_d2": 0.0, "prcp_d3": 0.0, "prcp_d4": 0.0, "prcp_d5": 0.0, "prcp_d6": 0.0, "tmax_d0": null, "tmax_d1": null, "tmax_d2": null, "tmax_d3": null, "tmax_d4": null, "tmax_d5": null, "tmax_d6": null, "tmin_d0": null, "tmin_d1": null, "tmin_d2": null, "tmin_d3": null, "tmin_d4": null, "tmin_d5": null, "tmin_d6": null, "day_of_year": 233, "uuid": "8308b1fa-40f1-4c21-adbe-e3666bfcfe81", "inat_id": 237223572}}, {"type": "Feature", "geometry": {"type": "Point", "coordinates": [-107.993845, 39.0047416667]}, "properties": {"species": "Tricholoma sp. 'saponaceum-PNW02'", "date": "2024-09-04", "location": "Grand Mesa Uncompahgre and Gunnison National Forests, Cedaredge, CO, US", "elevation": 2951.0, "land_cover_label": "Tree cover", "water_mask": false, "exclude_reason": "keep", "ndvi": null, "soil_moisture": null, "solar_exposure": null, "wind_exposure": null, "water_retention": null, "slope": null, "aspect": null, "num_identification_agreements": 4, "cluster": 2, "tavg": null, "tmin": 15.1, "tmax": 31.1, "prcp_d0": 0.0, "prcp_d1": 0.0, "prcp_d2": 0.0, "prcp_d3": 0.0, "prcp_d4": 0.0075609311461448, "prcp_d5": 0.2813694179058075, "prcp_d6": 0.1130448803305625, "tmax_d0": null, "tmax_d1": null, "tmax_d2": null, "tmax_d3": null, "tmax_d4": null, "tmax_d5": null, "tmax_d6": null, "tmin_d0": null, "tmin_d1": null, "tmin_d2": null, "tmin_d3": null, "tmin_d4": null, "tmin_d5": null, "tmin_d6": null, "day_of_year": 248, "uuid": "3a7e9c82-a541-45b7-b5ab-f6ed04f0f4e8", "inat_id": 239882462}}, {"type": "Feature", "geometry": {"type": "Point", "coordinates": [-105.79987222, 35.79671111]}, "properties": {"species": "Tricholoma sp. 'saponaceum-PNW02'", "date": "2025-07-18", "location": "Santa Fe, New Mexico, United States", "elevation": 3238.0, "land_cover_label": "Tree cover", "water_mask": false, "exclude_reason": "keep", "ndvi": null, "soil_moisture": null, "solar_exposure": null, "wind_exposure": null, "water_retention": null, "slope": null, "aspect": null, "num_identification_agreements": 2, "cluster": 2, "tavg": null, "tmin": 16.1, "tmax": 31.7, "prcp_d0": 6.3291449546813965, "prcp_d1": 0.0, "prcp_d2": 0.0, "prcp_d3": 3.0603013038635254, "prcp_d4": 1.5301506519317627, "prcp_d5": 4.590452194213867, "prcp_d6": 1.5301506519317627, "tmax_d0": null, "tmax_d1": null, "tmax_d2": null, "tmax_d3": null, "tmax_d4": null, "tmax_d5": null, "tmax_d6": null, "tmin_d0": null, "tmin_d1": null, "tmin_d2": null, "tmin_d3": null, "tmin_d4": null, "tmin_d5": null, "tmin_d6": null, "day_of_year": 199, "uuid": "5bf263e7-ae5b-4d84-9ffc-3b4efec408b1", "inat_id": 299041179}}, {"type": "Feature", "geometry": {"type": "Point", "coordinates": [-105.0307348743, 39.104600944]}, "properties": {"species": "Tricholoma sp. 'saponaceum-PNW02'", "date": "2025-08-07", "location": "Woodland Park, CO 80863, USA", "elevation": 2822.0, "land_cover_label": "Tree cover", "water_mask": false, "exclude_reason": "keep", "ndvi": null, "soil_moisture": 0.1189580826944357, "solar_exposure": 0.8090811371803284, "wind_exposure": 0.3258614242076874, "water_retention": 0.2510777413845062, "slope": 3.049756526947021, "aspect": 23.52318000793457, "num_identification_agreements": 4, "cluster": 2, "tavg": null, "tmin": 14.5, "tmax": 34.0, "prcp_d0": 0.0, "prcp_d1": 0.0, "prcp_d2": 0.0, "prcp_d3": 0.0, "prcp_d4": 0.0, "prcp_d5": 0.0, "prcp_d6": 0.0, "tmax_d0": null, "tmax_d1": null, "tmax_d2": null, "tmax_d3": null, "tmax_d4": null, "tmax_d5": null, "tmax_d6": null, "tmin_d0": null, "tmin_d1": null, "tmin_d2": null, "tmin_d3": null, "tmin_d4": null, "tmin_d5": null, "tmin_d6": null, "day_of_year": 219, "uuid": "6981ffbe-b239-4b09-9f30-6d3a8b393d89", "inat_id": 324012169}}, {"type": "Feature", "geometry": {"type": "Point", "coordinates": [-105.7777850702, 39.7983193575]}, "properties": {"species": "Tricholoma sp. 'saponaceum-PNW02'", "date": "2025-08-08", "location": "Empire, CO 80438, USA", "elevation": 3454.0, "land_cover_label": "Tree cover", "water_mask": false, "exclude_reason": "keep", "ndvi": null, "soil_moisture": 0.2331734006321958, "solar_exposure": 0.84292072057724, "wind_exposure": 0.2928450107574463, "water_retention": 0.2657273113727569, "slope": 4.901021957397461, "aspect": 97.2732162475586, "num_identification_agreements": 2, "cluster": 2, "tavg": null, "tmin": 5.0, "tmax": 14.7, "prcp_d0": 0.0, "prcp_d1": 0.0, "prcp_d2": 0.0, "prcp_d3": 0.0, "prcp_d4": 0.0, "prcp_d5": 0.0, "prcp_d6": 0.0, "tmax_d0": null, "tmax_d1": null, "tmax_d2": null, "tmax_d3": null, "tmax_d4": null, "tmax_d5": null, "tmax_d6": null, "tmin_d0": null, "tmin_d1": null, "tmin_d2": null, "tmin_d3": null, "tmin_d4": null, "tmin_d5": null, "tmin_d6": null, "day_of_year": 220, "uuid": "9259b2bb-471a-46c3-a7e6-0e35780ef19d", "inat_id": 305215379}}, {"type": "Feature", "geometry": {"type": "Point", "coordinates": [-105.4459932808, 36.6103894294]}, "properties": {"species": "Tricholoma sp. 'saponaceum-PNW02'", "date": "2025-08-11", "location": "Carson National Forest, Taos, NM, US", "elevation": 3228.0, "land_cover_label": "Tree cover", "water_mask": false, "exclude_reason": "keep", "ndvi": null, "soil_moisture": null, "solar_exposure": null, "wind_exposure": null, "water_retention": null, "slope": null, "aspect": null, "num_identification_agreements": 2, "cluster": 2, "tavg": null, "tmin": 5.0, "tmax": 22.5, "prcp_d0": 0.0, "prcp_d1": 4.658001899719238, "prcp_d2": 0.0, "prcp_d3": 0.0, "prcp_d4": 0.0, "prcp_d5": 0.0, "prcp_d6": 0.0, "tmax_d0": null, "tmax_d1": null, "tmax_d2": null, "tmax_d3": null, "tmax_d4": null, "tmax_d5": null, "tmax_d6": null, "tmin_d0": null, "tmin_d1": null, "tmin_d2": null, "tmin_d3": null, "tmin_d4": null, "tmin_d5": null, "tmin_d6": null, "day_of_year": 223, "uuid": "9bf106c9-41f8-4b64-8f3a-749c237885b8", "inat_id": 305557653}}, {"type": "Feature", "geometry": {"type": "Point", "coordinates": [-104.8722536089, 38.6047844503]}, "properties": {"species": "Tricholoma sp. 'saponaceum-PNW02'", "date": "2025-08-22", "location": "Colorado, US", "elevation": 1926.0, "land_cover_label": "Grassland", "water_mask": false, "exclude_reason": "keep", "ndvi": null, "soil_moisture": null, "solar_exposure": null, "wind_exposure": null, "water_retention": null, "slope": null, "aspect": null, "num_identification_agreements": 2, "cluster": 2, "tavg": null, "tmin": 14.9, "tmax": 30.9, "prcp_d0": 7.5688042640686035, "prcp_d1": 0.0, "prcp_d2": 0.0, "prcp_d3": 0.0, "prcp_d4": 0.0, "prcp_d5": 0.0, "prcp_d6": 0.0, "tmax_d0": null, "tmax_d1": null, "tmax_d2": null, "tmax_d3": null, "tmax_d4": null, "tmax_d5": null, "tmax_d6": null, "tmin_d0": null, "tmin_d1": null, "tmin_d2": null, "tmin_d3": null, "tmin_d4": null, "tmin_d5": null, "tmin_d6": null, "day_of_year": 234, "uuid": "af55b61d-b8f6-4233-81bf-6e0bd2a9002a", "inat_id": 308359460}}, {"type": "Feature", "geometry": {"type": "Point", "coordinates": [-105.5020159997, 39.4057152]}, "properties": {"species": "Tricholoma sp. 'saponaceum-PNW02'", "date": "2025-09-07", "location": "Bailey, CO 80421, USA", "elevation": 2440.0, "land_cover_label": "Tree cover", "water_mask": false, "exclude_reason": "keep", "ndvi": null, "soil_moisture": 0.3662083756086135, "solar_exposure": 0.809290885925293, "wind_exposure": 0.2598201930522918, "water_retention": 0.2562251389026642, "slope": 2.8259780406951904, "aspect": 351.7441101074219, "num_identification_agreements": 2, "cluster": 2, "tavg": null, "tmin": 1.8, "tmax": 15.6, "prcp_d0": 0.0, "prcp_d1": 0.0, "prcp_d2": 0.0, "prcp_d3": 0.0, "prcp_d4": 0.0, "prcp_d5": 0.0, "prcp_d6": 0.0, "tmax_d0": null, "tmax_d1": null, "tmax_d2": null, "tmax_d3": null, "tmax_d4": null, "tmax_d5": null, "tmax_d6": null, "tmin_d0": null, "tmin_d1": null, "tmin_d2": null, "tmin_d3": null, "tmin_d4": null, "tmin_d5": null, "tmin_d6": null, "day_of_year": 250, "uuid": "c321ad1b-444f-4d02-9f82-ba827a92e488", "inat_id": 312297520}}, {"type": "Feature", "geometry": {"type": "Point", "coordinates": [-105.8048452152, 35.7937191931]}, "properties": {"species": "Tricholoma sp. 'saponaceum-PNW02'", "date": "2025-09-24", "location": "Santa Fe County, NM, USA", "elevation": 3107.0, "land_cover_label": "Tree cover", "water_mask": false, "exclude_reason": "keep", "ndvi": null, "soil_moisture": null, "solar_exposure": null, "wind_exposure": null, "water_retention": null, "slope": null, "aspect": null, "num_identification_agreements": 2, "cluster": 2, "tavg": null, "tmin": 6.0, "tmax": 22.0, "prcp_d0": 0.0, "prcp_d1": 0.0, "prcp_d2": 0.0, "prcp_d3": 0.0, "prcp_d4": 0.0, "prcp_d5": 0.0, "prcp_d6": 0.0, "tmax_d0": null, "tmax_d1": null, "tmax_d2": null, "tmax_d3": null, "tmax_d4": null, "tmax_d5": null, "tmax_d6": null, "tmin_d0": null, "tmin_d1": null, "tmin_d2": null, "tmin_d3": null, "tmin_d4": null, "tmin_d5": null, "tmin_d6": null, "day_of_year": 267, "uuid": "aadcd304-b3b3-41f6-9920-2bd0f66ce374", "inat_id": 316594715}}]}