{"type": "FeatureCollection", "features": [{"type": "Feature", "geometry": {"type": "Point", "coordinates": [-105.7591, 39.5575]}, "properties": {"species": "Tricholoma fulvum", "date": "2022-08-03", "location": "Colorado, Park Co., Pike National Forest, Geneva Creek, on CR 1038", "elevation": 3059.0, "land_cover_label": "Tree cover", "water_mask": false, "exclude_reason": "keep", "ndvi": null, "soil_moisture": 0.3659874084472695, "solar_exposure": 0.8994203805923462, "wind_exposure": 0.2162805497646331, "water_retention": 0.4613844752311706, "slope": 7.644974708557129, "aspect": 211.8753204345703, "num_identification_agreements": 1, "cluster": 0, "tavg": null, "tmin": 4.6, "tmax": 14.7, "prcp_d0": 6.131138324737549, "prcp_d1": 12.262276649475098, "prcp_d2": 0.0, "prcp_d3": 0.0, "prcp_d4": 0.0, "prcp_d5": 0.0, "prcp_d6": 11.536619186401367, "tmax_d0": 19.0, "tmax_d1": 20.2, "tmax_d2": 19.8, "tmax_d3": 17.8, "tmax_d4": 18.8, "tmax_d5": 15.6, "tmax_d6": 20.0, "tmin_d0": 7.1, "tmin_d1": 8.0, "tmin_d2": 6.8, "tmin_d3": 6.2, "tmin_d4": 4.8, "tmin_d5": 5.7, "tmin_d6": 8.7, "day_of_year": 215, "uuid": "641c38c8-864d-4aed-ad9e-7a0f668d5b9d", "inat_id": 129562708}}, {"type": "Feature", "geometry": {"type": "Point", "coordinates": [-105.536595, 40.035367]}, "properties": {"species": "Tricholoma fulvum", "date": "2022-09-17", "location": "Denver Botanic Gardens, Denver, CO, US", "elevation": 2970.0, "land_cover_label": "Tree cover", "water_mask": false, "exclude_reason": "keep", "ndvi": null, "soil_moisture": 0.2964075166007435, "solar_exposure": 0.8479024767875671, "wind_exposure": 0.3634287416934967, "water_retention": 0.2075652778148651, "slope": 5.800324440002441, "aspect": 102.34130096435548, "num_identification_agreements": 2, "cluster": 2, "tavg": null, "tmin": 12.0, "tmax": 26.0, "prcp_d0": 0.0, "prcp_d1": 0.0, "prcp_d2": 0.0, "prcp_d3": 0.0, "prcp_d4": 0.0, "prcp_d5": 0.0, "prcp_d6": 0.0, "tmax_d0": 13.1, "tmax_d1": 14.3, "tmax_d2": 12.8, "tmax_d3": 15.2, "tmax_d4": 16.5, "tmax_d5": 17.9, "tmax_d6": 15.1, "tmin_d0": 3.6, "tmin_d1": 3.4, "tmin_d2": 4.6, "tmin_d3": 6.9, "tmin_d4": 6.8, "tmin_d5": 4.0, "tmin_d6": -1.3, "day_of_year": 260, "uuid": "769186a9-6c3e-450d-8d90-cb089faf27e4", "inat_id": 152857193}}, {"type": "Feature", "geometry": {"type": "Point", "coordinates": [-122.2327567374, 45.3094902676]}, "properties": {"species": "Tricholoma fulvum", "date": "2023-11-05", "location": "Clackamas County, OR, USA", "elevation": 377.0, "land_cover_label": "Tree cover", "water_mask": false, "exclude_reason": "keep", "ndvi": null, "soil_moisture": null, "solar_exposure": null, "wind_exposure": null, "water_retention": null, "slope": null, "aspect": null, "num_identification_agreements": 1, "cluster": 1, "tavg": null, "tmin": 8.3, "tmax": 16.1, "prcp_d0": 21.061464309692383, "prcp_d1": 84.24585723876953, "prcp_d2": 0.0, "prcp_d3": 21.061464309692383, "prcp_d4": 21.061464309692383, "prcp_d5": 0.0, "prcp_d6": 0.0, "tmax_d0": 13.0, "tmax_d1": 15.4, "tmax_d2": 16.6, "tmax_d3": 14.2, "tmax_d4": 13.0, "tmax_d5": 16.7, "tmax_d6": 15.9, "tmin_d0": 8.3, "tmin_d1": 13.0, "tmin_d2": 8.7, "tmin_d3": 10.7, "tmin_d4": 7.4, "tmin_d5": 5.1, "tmin_d6": 4.6, "day_of_year": 309, "uuid": "14d2ef57-4e91-44be-86db-558708c30b3e", "inat_id": 228278479}}, {"type": "Feature", "geometry": {"type": "Point", "coordinates": [-122.2316981497, 45.308890715]}, "properties": {"species": "Tricholoma fulvum", "date": "2025-11-16", "location": "Clackamas County, OR, USA", "elevation": 377.0, "land_cover_label": "Tree cover", "water_mask": false, "exclude_reason": "keep", "ndvi": null, "soil_moisture": null, "solar_exposure": null, "wind_exposure": null, "water_retention": null, "slope": null, "aspect": null, "num_identification_agreements": 1, "cluster": 2, "tavg": null, "tmin": 8.0, "tmax": 12.0, "prcp_d0": 0.0, "prcp_d1": 0.0, "prcp_d2": 0.0, "prcp_d3": 27.36569595336914, "prcp_d4": 0.0, "prcp_d5": 0.0, "prcp_d6": 0.0, "tmax_d0": 13.2, "tmax_d1": 14.7, "tmax_d2": 12.9, "tmax_d3": 19.8, "tmax_d4": 17.4, "tmax_d5": 14.4, "tmax_d6": 16.3, "tmin_d0": 7.0, "tmin_d1": 10.3, "tmin_d2": 8.6, "tmin_d3": 9.7, "tmin_d4": 9.3, "tmin_d5": 8.8, "tmin_d6": 7.2, "day_of_year": 320, "uuid": "4b847124-95f1-46cf-bdf2-a97c4bbf33a8", "inat_id": 326883789}}]}