{"type": "FeatureCollection", "features": [{"type": "Feature", "geometry": {"type": "Point", "coordinates": [-105.5975794856, 40.1097844309]}, "properties": {"species": "Tricholoma magnivelare", "date": "2021-09-11", "location": "Colorado, US", "elevation": 3600.0, "land_cover_label": "Grassland", "water_mask": false, "exclude_reason": "keep", "ndvi": null, "soil_moisture": 0.2393698336350758, "solar_exposure": 0.5491827130317688, "wind_exposure": 0.4536704421043396, "water_retention": 0.1633548736572265, "slope": 21.37472152709961, "aspect": 3.1144888401031494, "num_identification_agreements": 2, "cluster": 1, "tavg": null, "tmin": 4.2, "tmax": 26.5, "prcp_d0": 0.0, "prcp_d1": 0.0, "prcp_d2": 0.0, "prcp_d3": 0.0, "prcp_d4": 0.0, "prcp_d5": 0.0, "prcp_d6": 0.0, "tmax_d0": 16.2, "tmax_d1": 18.0, "tmax_d2": 17.9, "tmax_d3": 17.5, "tmax_d4": 16.7, "tmax_d5": 15.7, "tmax_d6": 14.3, "tmin_d0": 3.6, "tmin_d1": 7.2, "tmin_d2": 3.4, "tmin_d3": 3.9, "tmin_d4": 2.8, "tmin_d5": 2.1, "tmin_d6": -0.6, "day_of_year": 254, "uuid": "468ed2d7-8124-413a-b57a-8438b054686b", "inat_id": 94532013}}, {"type": "Feature", "geometry": {"type": "Point", "coordinates": [-105.5401222961, 40.0487402762]}, "properties": {"species": "Tricholoma magnivelare", "date": "2024-07-28", "location": "Colorado, US", "elevation": 3117.0, "land_cover_label": "Tree cover", "water_mask": false, "exclude_reason": "keep", "ndvi": null, "soil_moisture": 0.3245036474015595, "solar_exposure": 0.9056165218353271, "wind_exposure": 0.364175796508789, "water_retention": 0.1652571260929107, "slope": 10.771769523620604, "aspect": 137.88417053222656, "num_identification_agreements": 2, "cluster": 2, "tavg": null, "tmin": 16.0, "tmax": 35.0, "prcp_d0": 0.0, "prcp_d1": 0.0, "prcp_d2": 0.0, "prcp_d3": 0.0, "prcp_d4": 0.0, "prcp_d5": 0.0, "prcp_d6": 0.0, "tmax_d0": 20.1, "tmax_d1": 19.9, "tmax_d2": 20.0, "tmax_d3": 22.2, "tmax_d4": 19.4, "tmax_d5": 17.9, "tmax_d6": 14.3, "tmin_d0": 6.6, "tmin_d1": 6.3, "tmin_d2": 9.7, "tmin_d3": 6.6, "tmin_d4": 5.7, "tmin_d5": 2.3, "tmin_d6": 2.5, "day_of_year": 210, "uuid": "57f99466-1a94-444e-a5c7-3c3dcd47d2b1", "inat_id": 344986363}}]}