{"type": "FeatureCollection", "features": [{"type": "Feature", "geometry": {"type": "Point", "coordinates": [-121.8116388889, 45.3174972222]}, "properties": {"species": "Tricholoma apium", "date": "2019-08-14", "location": "Clackamas County, OR, USA", "elevation": 1010.0, "land_cover_label": "Tree cover", "water_mask": false, "exclude_reason": "keep", "ndvi": null, "soil_moisture": null, "solar_exposure": null, "wind_exposure": null, "water_retention": null, "slope": null, "aspect": null, "num_identification_agreements": 2, "cluster": 2, "tavg": null, "tmin": null, "tmax": null, "prcp_d0": 0.0, "prcp_d1": 0.0, "prcp_d2": 0.0, "prcp_d3": 0.0, "prcp_d4": 16.199600219726562, "prcp_d5": 0.0, "prcp_d6": 0.0, "tmax_d0": 22.1, "tmax_d1": 22.8, "tmax_d2": 20.8, "tmax_d3": 15.1, "tmax_d4": 17.7, "tmax_d5": 20.6, "tmax_d6": 19.3, "tmin_d0": 11.0, "tmin_d1": 9.0, "tmin_d2": 7.2, "tmin_d3": 9.2, "tmin_d4": 7.5, "tmin_d5": 10.5, "tmin_d6": 11.3, "day_of_year": 226, "uuid": "d48713bc-2ca9-41f9-bb40-a91748feed66", "inat_id": 31763115}}, {"type": "Feature", "geometry": {"type": "Point", "coordinates": [-121.601194, 45.4146]}, "properties": {"species": "Tricholoma apium", "date": "2023-10-29", "location": "Mt Hood", "elevation": 1157.0, "land_cover_label": "Tree cover", "water_mask": false, "exclude_reason": "keep", "ndvi": null, "soil_moisture": null, "solar_exposure": null, "wind_exposure": null, "water_retention": null, "slope": null, "aspect": null, "num_identification_agreements": 1, "cluster": 2, "tavg": null, "tmin": 0.0, "tmax": 7.5, "prcp_d0": 0.0, "prcp_d1": 0.0, "prcp_d2": 0.0, "prcp_d3": 0.0, "prcp_d4": 12.770732879638672, "prcp_d5": 12.770732879638672, "prcp_d6": 0.0, "tmax_d0": 6.2, "tmax_d1": 3.6, "tmax_d2": 1.9, "tmax_d3": 3.0, "tmax_d4": 2.4, "tmax_d5": 5.1, "tmax_d6": 9.6, "tmin_d0": -4.4, "tmin_d1": -6.3, "tmin_d2": -1.6, "tmin_d3": -1.7, "tmin_d4": -0.9, "tmin_d5": 0.1, "tmin_d6": 4.1, "day_of_year": 302, "uuid": "f0acb55f-e49c-4670-84d7-2c931aa1b170", "inat_id": 189606136}}, {"type": "Feature", "geometry": {"type": "Point", "coordinates": [-122.1160578772, 45.2412403645]}, "properties": {"species": "Tricholoma apium", "date": "2024-08-27", "location": "Clackamas County, US-OR, US", "elevation": 1033.0, "land_cover_label": "Tree cover", "water_mask": false, "exclude_reason": "keep", "ndvi": null, "soil_moisture": null, "solar_exposure": null, "wind_exposure": null, "water_retention": null, "slope": null, "aspect": null, "num_identification_agreements": 1, "cluster": 2, "tavg": null, "tmin": 16.1, "tmax": 23.9, "prcp_d0": 3.2487332820892334, "prcp_d1": 3.951945018343395e-06, "prcp_d2": 0.0560710951685905, "prcp_d3": 0.2371961325407028, "prcp_d4": 8.15347957611084, "prcp_d5": 0.0892274007201194, "prcp_d6": 0.1266020238399505, "tmax_d0": 20.7, "tmax_d1": 21.6, "tmax_d2": 19.0, "tmax_d3": 13.6, "tmax_d4": 12.5, "tmax_d5": 18.0, "tmax_d6": 19.0, "tmin_d0": 8.6, "tmin_d1": 5.7, "tmin_d2": 3.5, "tmin_d3": 4.7, "tmin_d4": 8.1, "tmin_d5": 6.5, "tmin_d6": 7.1, "day_of_year": 240, "uuid": "bf7b49e2-0c08-46cf-adb1-22c1deef83a9", "inat_id": 238277309}}, {"type": "Feature", "geometry": {"type": "Point", "coordinates": [-121.9608962489, 45.2627873167]}, "properties": {"species": "Tricholoma apium", "date": "2024-10-14", "location": "Oregon, US", "elevation": 1127.0, "land_cover_label": "Tree cover", "water_mask": false, "exclude_reason": "keep", "ndvi": null, "soil_moisture": null, "solar_exposure": null, "wind_exposure": null, "water_retention": null, "slope": null, "aspect": null, "num_identification_agreements": 3, "cluster": 2, "tavg": null, "tmin": 10.6, "tmax": 23.9, "prcp_d0": 0.0, "prcp_d1": 0.0, "prcp_d2": 0.0, "prcp_d3": 19.02330207824707, "prcp_d4": 0.0, "prcp_d5": 0.0, "prcp_d6": 0.0, "tmax_d0": 17.9, "tmax_d1": 19.5, "tmax_d2": 19.0, "tmax_d3": 19.0, "tmax_d4": 14.3, "tmax_d5": 14.4, "tmax_d6": 20.9, "tmin_d0": 7.4, "tmin_d1": 6.4, "tmin_d2": 8.9, "tmin_d3": 6.1, "tmin_d4": -0.2, "tmin_d5": 7.4, "tmin_d6": 8.4, "day_of_year": 288, "uuid": "f63b0a2d-3d3e-4a0c-8e03-93bb594ecdc8", "inat_id": 247498574}}]}