{"type": "FeatureCollection", "features": [{"type": "Feature", "geometry": {"type": "Point", "coordinates": [-105.6057656184, 39.6495537262]}, "properties": {"species": "Tricholoma caligatum", "date": "2021-08-16", "location": "Evergreen, CO 80439, USA", "elevation": 3445.0, "land_cover_label": "Tree cover", "water_mask": false, "exclude_reason": "keep", "ndvi": null, "soil_moisture": 0.3572263137916565, "solar_exposure": 0.6295747756958008, "wind_exposure": 0.4694134593009949, "water_retention": 0.1817225068807602, "slope": 16.597089767456055, "aspect": 344.8353271484375, "num_identification_agreements": 2, "cluster": 0, "tavg": null, "tmin": null, "tmax": null, "prcp_d0": 0.0, "prcp_d1": 0.0, "prcp_d2": 11.372892379760742, "prcp_d3": 0.0, "prcp_d4": 0.0, "prcp_d5": 0.0, "prcp_d6": 0.0, "tmax_d0": 16.3, "tmax_d1": 16.5, "tmax_d2": 18.1, "tmax_d3": 14.0, "tmax_d4": 17.6, "tmax_d5": 19.7, "tmax_d6": 16.7, "tmin_d0": 5.6, "tmin_d1": 6.8, "tmin_d2": 4.9, "tmin_d3": 6.1, "tmin_d4": 8.3, "tmin_d5": 4.8, "tmin_d6": 4.6, "day_of_year": 228, "uuid": "6878979c-406e-4c57-a171-85b21cdb676e", "inat_id": 91602494}}]}