{"type": "FeatureCollection", "features": [{"type": "Feature", "geometry": {"type": "Point", "coordinates": [-105.97523901, 39.9333789]}, "properties": {"species": "Tricholoma terreum", "date": "2021-08-14", "location": "Grand County, US-CO, US", "elevation": 3023.0, "land_cover_label": "Tree cover", "water_mask": false, "exclude_reason": "keep", "ndvi": null, "soil_moisture": 0.278946602451486, "solar_exposure": 0.8047871589660645, "wind_exposure": 0.3150227665901184, "water_retention": 0.2336861342191696, "slope": 3.944646120071411, "aspect": 321.9202880859375, "num_identification_agreements": 2, "cluster": 0, "tavg": null, "tmin": 6.0, "tmax": 28.3, "prcp_d0": 0.0, "prcp_d1": 0.0, "prcp_d2": 0.0, "prcp_d3": 0.0, "prcp_d4": 0.0, "prcp_d5": 0.0, "prcp_d6": 0.0, "tmax_d0": null, "tmax_d1": null, "tmax_d2": null, "tmax_d3": null, "tmax_d4": null, "tmax_d5": null, "tmax_d6": null, "tmin_d0": null, "tmin_d1": null, "tmin_d2": null, "tmin_d3": null, "tmin_d4": null, "tmin_d5": null, "tmin_d6": null, "day_of_year": 226, "uuid": "0b454f8e-51ad-47fa-965f-6abec604d79a", "inat_id": 91188039}}, {"type": "Feature", "geometry": {"type": "Point", "coordinates": [-104.8671416667, 38.7881555556]}, "properties": {"species": "Tricholoma terreum", "date": "2023-06-09", "location": "Colorado Springs, CO 80906, USA", "elevation": 1937.0, "land_cover_label": "Tree cover", "water_mask": false, "exclude_reason": "keep", "ndvi": null, "soil_moisture": null, "solar_exposure": null, "wind_exposure": null, "water_retention": null, "slope": null, "aspect": null, "num_identification_agreements": 1, "cluster": 0, "tavg": null, "tmin": 14.0, "tmax": 23.0, "prcp_d0": 7.454037189483643, "prcp_d1": 0.0, "prcp_d2": 4.969357967376709, "prcp_d3": 2.4846789836883545, "prcp_d4": 5.8732099533081055, "prcp_d5": 0.0, "prcp_d6": 11.746419906616213, "tmax_d0": null, "tmax_d1": null, "tmax_d2": null, "tmax_d3": null, "tmax_d4": null, "tmax_d5": null, "tmax_d6": null, "tmin_d0": null, "tmin_d1": null, "tmin_d2": null, "tmin_d3": null, "tmin_d4": null, "tmin_d5": null, "tmin_d6": null, "day_of_year": 160, "uuid": "71c08f36-ef61-49ac-9ae2-a33f2f10734d", "inat_id": 166449862}}, {"type": "Feature", "geometry": {"type": "Point", "coordinates": [-105.1629222222, 38.0120333333]}, "properties": {"species": "Tricholoma terreum", "date": "2024-08-02", "location": "Gardner, CO 81040, USA", "elevation": 3231.0, "land_cover_label": "Tree cover", "water_mask": false, "exclude_reason": "keep", "ndvi": null, "soil_moisture": null, "solar_exposure": null, "wind_exposure": null, "water_retention": null, "slope": null, "aspect": null, "num_identification_agreements": 1, "cluster": 0, "tavg": null, "tmin": 20.2, "tmax": 36.1, "prcp_d0": 0.0, "prcp_d1": 0.0, "prcp_d2": 0.0, "prcp_d3": 0.0, "prcp_d4": 0.0, "prcp_d5": 0.0, "prcp_d6": 0.0, "tmax_d0": null, "tmax_d1": null, "tmax_d2": null, "tmax_d3": null, "tmax_d4": null, "tmax_d5": null, "tmax_d6": null, "tmin_d0": null, "tmin_d1": null, "tmin_d2": null, "tmin_d3": null, "tmin_d4": null, "tmin_d5": null, "tmin_d6": null, "day_of_year": 215, "uuid": "ab25ab24-cd2c-4ebd-b0b6-ae147e59ebf4", "inat_id": 235477217}}, {"type": "Feature", "geometry": {"type": "Point", "coordinates": [-105.8503747, 40.4219176]}, "properties": {"species": "Tricholoma terreum", "date": "2024-08-11", "location": "Estes Park, CO 80517, USA", "elevation": 2797.0, "land_cover_label": "Tree cover", "water_mask": false, "exclude_reason": "keep", "ndvi": null, "soil_moisture": 0.294438039030186, "solar_exposure": 0.7908130884170532, "wind_exposure": 0.2237215340137481, "water_retention": 0.1935198456048965, "slope": 14.04784107208252, "aspect": 277.47869873046875, "num_identification_agreements": 1, "cluster": 0, "tavg": null, "tmin": 5.5, "tmax": 20.8, "prcp_d0": 0.0, "prcp_d1": 0.0, "prcp_d2": 0.0, "prcp_d3": 0.0, "prcp_d4": 0.0, "prcp_d5": 0.0, "prcp_d6": 0.0, "tmax_d0": null, "tmax_d1": null, "tmax_d2": null, "tmax_d3": null, "tmax_d4": null, "tmax_d5": null, "tmax_d6": null, "tmin_d0": null, "tmin_d1": null, "tmin_d2": null, "tmin_d3": null, "tmin_d4": null, "tmin_d5": null, "tmin_d6": null, "day_of_year": 224, "uuid": "baedc9c8-6221-4043-a9b7-29af59e63aa3", "inat_id": 235645737}}, {"type": "Feature", "geometry": {"type": "Point", "coordinates": [-105.1541995654, 39.0814261919]}, "properties": {"species": "Tricholoma terreum", "date": "2024-09-01", "location": "Colorado, US", "elevation": 2495.0, "land_cover_label": "Tree cover", "water_mask": false, "exclude_reason": "keep", "ndvi": null, "soil_moisture": 0.1207353835163618, "solar_exposure": 0.8255810141563416, "wind_exposure": 0.3979897797107696, "water_retention": 0.3379521071910858, "slope": 12.425800323486328, "aspect": 265.7617492675781, "num_identification_agreements": 1, "cluster": 0, "tavg": null, "tmin": 9.5, "tmax": 27.0, "prcp_d0": 0.0, "prcp_d1": 1.3165567906980868e-05, "prcp_d2": 0.0279457010328769, "prcp_d3": 1.0668165683746338, "prcp_d4": 3.2513794394617435e-06, "prcp_d5": 0.2408734112977981, "prcp_d6": 4.549541473388672, "tmax_d0": null, "tmax_d1": null, "tmax_d2": null, "tmax_d3": null, "tmax_d4": null, "tmax_d5": null, "tmax_d6": null, "tmin_d0": null, "tmin_d1": null, "tmin_d2": null, "tmin_d3": null, "tmin_d4": null, "tmin_d5": null, "tmin_d6": null, "day_of_year": 245, "uuid": "b1d30152-0506-4d95-b5dc-925a823a1940", "inat_id": 239332594}}, {"type": "Feature", "geometry": {"type": "Point", "coordinates": [-105.60582, 39.9538416667]}, "properties": {"species": "Tricholoma terreum", "date": "2025-10-13", "location": "Devils Thumb Trail, Nederland, CO, US", "elevation": 2782.0, "land_cover_label": "Tree cover", "water_mask": false, "exclude_reason": "keep", "ndvi": null, "soil_moisture": 0.3757622459225798, "solar_exposure": 0.8334143757820129, "wind_exposure": 0.1481302082538604, "water_retention": 0.4436098039150238, "slope": 6.470325946807861, "aspect": 90.0, "num_identification_agreements": 1, "cluster": 2, "tavg": null, "tmin": -7.1, "tmax": 3.9, "prcp_d0": 0.0, "prcp_d1": 0.0, "prcp_d2": 0.0, "prcp_d3": 8.241218566894531, "prcp_d4": 0.0266906172037124, "prcp_d5": 0.0335375368595123, "prcp_d6": 1.967495322227478, "tmax_d0": null, "tmax_d1": null, "tmax_d2": null, "tmax_d3": null, "tmax_d4": null, "tmax_d5": null, "tmax_d6": null, "tmin_d0": null, "tmin_d1": null, "tmin_d2": null, "tmin_d3": null, "tmin_d4": null, "tmin_d5": null, "tmin_d6": null, "day_of_year": 286, "uuid": "bc73982c-707e-495e-a65d-70688f8fd336", "inat_id": 320785320}}]}