{"type": "FeatureCollection", "features": [{"type": "Feature", "geometry": {"type": "Point", "coordinates": [-105.9091944444, 35.68135]}, "properties": {"species": "Tricholoma ammophilum", "date": "2024-10-28", "location": "Santa Fe, NM, USA", "elevation": 2197.0, "land_cover_label": "Tree cover", "water_mask": false, "exclude_reason": "keep", "ndvi": null, "soil_moisture": null, "solar_exposure": null, "wind_exposure": null, "water_retention": null, "slope": null, "aspect": null, "num_identification_agreements": 3, "cluster": 2, "tavg": null, "tmin": 6.1, "tmax": 23.9, "prcp_d0": 0.0, "prcp_d1": 0.0, "prcp_d2": 0.0, "prcp_d3": 0.0, "prcp_d4": 0.0, "prcp_d5": 0.0, "prcp_d6": 0.0, "tmax_d0": 19.8, "tmax_d1": 19.1, "tmax_d2": 18.3, "tmax_d3": 15.1, "tmax_d4": 19.3, "tmax_d5": 17.3, "tmax_d6": 15.5, "tmin_d0": 14.3, "tmin_d1": 6.6, "tmin_d2": 7.8, "tmin_d3": 4.0, "tmin_d4": 10.0, "tmin_d5": 6.4, "tmin_d6": 5.4, "day_of_year": 302, "uuid": "e33ea908-3044-4b60-a568-7c66f544dc50", "inat_id": 257521522}}, {"type": "Feature", "geometry": {"type": "Point", "coordinates": [-105.9740835774, 35.8029725553]}, "properties": {"species": "Tricholoma ammophilum", "date": "2025-09-29", "location": "TP 806, Santa Fe, NM, US", "elevation": 1943.0, "land_cover_label": "Tree cover", "water_mask": false, "exclude_reason": "keep", "ndvi": null, "soil_moisture": null, "solar_exposure": null, "wind_exposure": null, "water_retention": null, "slope": null, "aspect": null, "num_identification_agreements": 2, "cluster": 2, "tavg": null, "tmin": 8.0, "tmax": 22.0, "prcp_d0": 0.0, "prcp_d1": 16.009077072143555, "prcp_d2": 0.0, "prcp_d3": 0.0, "prcp_d4": 0.0, "prcp_d5": 0.0, "prcp_d6": 0.0, "tmax_d0": 21.1, "tmax_d1": 22.0, "tmax_d2": 23.1, "tmax_d3": 24.9, "tmax_d4": 24.5, "tmax_d5": 22.3, "tmax_d6": 24.1, "tmin_d0": 8.5, "tmin_d1": 9.4, "tmin_d2": 12.9, "tmin_d3": 11.8, "tmin_d4": 8.3, "tmin_d5": 7.1, "tmin_d6": 10.0, "day_of_year": 272, "uuid": "e8fc8ff9-cc52-4ca0-916f-2e854de449d5", "inat_id": 317588629}}, {"type": "Feature", "geometry": {"type": "Point", "coordinates": [-105.9192583333, 35.6804805556]}, "properties": {"species": "Tricholoma ammophilum", "date": "2025-11-29", "location": "Santa Fe, NM, USA", "elevation": 2171.0, "land_cover_label": "Tree cover", "water_mask": false, "exclude_reason": "keep", "ndvi": null, "soil_moisture": null, "solar_exposure": null, "wind_exposure": null, "water_retention": null, "slope": null, "aspect": null, "num_identification_agreements": 1, "cluster": 2, "tavg": null, "tmin": -1.0, "tmax": 12.0, "prcp_d0": 0.0, "prcp_d1": 0.0, "prcp_d2": 1.6761316061019895, "prcp_d3": 0.0, "prcp_d4": 0.040030088275671, "prcp_d5": 0.6572691798210144, "prcp_d6": 7.080877780914307, "tmax_d0": 8.8, "tmax_d1": 8.9, "tmax_d2": 10.0, "tmax_d3": 7.6, "tmax_d4": 7.9, "tmax_d5": 8.4, "tmax_d6": 7.4, "tmin_d0": -0.3, "tmin_d1": 1.9, "tmin_d2": -1.4, "tmin_d3": -2.6, "tmin_d4": -0.7, "tmin_d5": 1.2, "tmin_d6": 1.7, "day_of_year": 333, "uuid": "fa176dc2-37b1-4282-84b9-5f8e661fd25d", "inat_id": 328945417}}]}