{"type": "FeatureCollection", "features": [{"type": "Feature", "geometry": {"type": "Point", "coordinates": [-105.0828333333, 39.3463883333]}, "properties": {"species": "Trichaptum subchartaceum", "date": "2023-07-04", "location": "Pike and San Isabel National Forests, Sedalia, CO, US", "elevation": 2407.0, "land_cover_label": "Tree cover", "water_mask": false, "exclude_reason": "keep", "ndvi": null, "soil_moisture": 0.2411650115267534, "solar_exposure": 0.7535520792007446, "wind_exposure": 0.3563248515129089, "water_retention": 0.2548835277557373, "slope": 8.590381622314453, "aspect": 34.26773834228516, "num_identification_agreements": 3, "cluster": 0, "tavg": null, "tmin": 13.0, "tmax": 23.9, "prcp_d0": 0.0, "prcp_d1": 0.0, "prcp_d2": 0.0, "prcp_d3": 0.0, "prcp_d4": 0.0, "prcp_d5": 0.0, "prcp_d6": 0.0, "tmax_d0": 24.1, "tmax_d1": 26.8, "tmax_d2": 23.8, "tmax_d3": 22.0, "tmax_d4": 19.9, "tmax_d5": 26.1, "tmax_d6": 28.3, "tmin_d0": 12.3, "tmin_d1": 10.7, "tmin_d2": 10.7, "tmin_d3": 7.9, "tmin_d4": 9.4, "tmin_d5": 11.2, "tmin_d6": 10.3, "day_of_year": 185, "uuid": "3f83b717-a916-417e-934f-2cb2cfa0c569", "inat_id": 171158818}}, {"type": "Feature", "geometry": {"type": "Point", "coordinates": [-109.273025, 38.49262]}, "properties": {"species": "Trichaptum subchartaceum", "date": "2023-08-15", "location": "Manti-La Sal National Forest, Moab, UT, US", "elevation": 2866.0, "land_cover_label": "Tree cover", "water_mask": false, "exclude_reason": "keep", "ndvi": null, "soil_moisture": null, "solar_exposure": null, "wind_exposure": null, "water_retention": null, "slope": null, "aspect": null, "num_identification_agreements": 1, "cluster": 0, "tavg": null, "tmin": null, "tmax": null, "prcp_d0": 0.0, "prcp_d1": 0.0, "prcp_d2": 0.0, "prcp_d3": 0.0, "prcp_d4": 0.0, "prcp_d5": 0.0, "prcp_d6": 0.0, "tmax_d0": 21.4, "tmax_d1": 20.4, "tmax_d2": 21.0, "tmax_d3": 20.6, "tmax_d4": 20.4, "tmax_d5": 20.8, "tmax_d6": 21.0, "tmin_d0": 11.4, "tmin_d1": 12.5, "tmin_d2": 10.5, "tmin_d3": 10.1, "tmin_d4": 9.3, "tmin_d5": 10.2, "tmin_d6": 8.8, "day_of_year": 227, "uuid": "d08a007b-9aab-448a-b78f-247860162cd3", "inat_id": 178589116}}, {"type": "Feature", "geometry": {"type": "Point", "coordinates": [-105.35041222, 36.23435032]}, "properties": {"species": "Trichaptum subchartaceum", "date": "2024-06-05", "location": "Mora County, US-NM, US", "elevation": 2857.0, "land_cover_label": "Tree cover", "water_mask": false, "exclude_reason": "keep", "ndvi": null, "soil_moisture": null, "solar_exposure": null, "wind_exposure": null, "water_retention": null, "slope": null, "aspect": null, "num_identification_agreements": 3, "cluster": 0, "tavg": null, "tmin": 0.0, "tmax": 28.9, "prcp_d0": 0.0, "prcp_d1": 0.0, "prcp_d2": 0.0, "prcp_d3": 0.0, "prcp_d4": 0.0, "prcp_d5": 0.0, "prcp_d6": 0.0, "tmax_d0": 22.7, "tmax_d1": 20.7, "tmax_d2": 20.5, "tmax_d3": 19.0, "tmax_d4": 19.5, "tmax_d5": 18.3, "tmax_d6": 17.6, "tmin_d0": 6.7, "tmin_d1": 7.3, "tmin_d2": 6.1, "tmin_d3": 4.2, "tmin_d4": 4.6, "tmin_d5": 4.1, "tmin_d6": 6.0, "day_of_year": 157, "uuid": "d49d0242-c6d0-4389-9a77-f2621ac2d9d8", "inat_id": 220901387}}, {"type": "Feature", "geometry": {"type": "Point", "coordinates": [-104.8004723746, 38.6686872119]}, "properties": {"species": "Trichaptum subchartaceum", "date": "2024-06-25", "location": "Colorado, US", "elevation": 1803.0, "land_cover_label": "Grassland", "water_mask": false, "exclude_reason": "keep", "ndvi": null, "soil_moisture": null, "solar_exposure": null, "wind_exposure": null, "water_retention": null, "slope": null, "aspect": null, "num_identification_agreements": 1, "cluster": 0, "tavg": null, "tmin": 19.0, "tmax": 35.5, "prcp_d0": 0.0, "prcp_d1": 0.0, "prcp_d2": 0.0, "prcp_d3": 3.775931835174561, "prcp_d4": 0.0, "prcp_d5": 0.0, "prcp_d6": 0.0, "tmax_d0": 34.4, "tmax_d1": 33.9, "tmax_d2": 34.8, "tmax_d3": 30.6, "tmax_d4": 31.8, "tmax_d5": 27.8, "tmax_d6": 25.0, "tmin_d0": 18.6, "tmin_d1": 18.5, "tmin_d2": 15.5, "tmin_d3": 15.6, "tmin_d4": 17.0, "tmin_d5": 14.0, "tmin_d6": 10.8, "day_of_year": 177, "uuid": "fb5f921e-c3bc-46fa-adce-3fa02fcaac56", "inat_id": 225231371}}, {"type": "Feature", "geometry": {"type": "Point", "coordinates": [-105.0150472222, 38.7352972222]}, "properties": {"species": "Trichaptum subchartaceum", "date": "2024-06-29", "location": "Cascade, CO 80809, USA", "elevation": 2908.0, "land_cover_label": "Tree cover", "water_mask": false, "exclude_reason": "keep", "ndvi": null, "soil_moisture": null, "solar_exposure": null, "wind_exposure": null, "water_retention": null, "slope": null, "aspect": null, "num_identification_agreements": 2, "cluster": 0, "tavg": null, "tmin": 15.0, "tmax": 25.0, "prcp_d0": 0.0, "prcp_d1": 0.0, "prcp_d2": 0.0, "prcp_d3": 0.0, "prcp_d4": 0.0, "prcp_d5": 0.0, "prcp_d6": 0.0, "tmax_d0": 18.5, "tmax_d1": 22.2, "tmax_d2": 22.4, "tmax_d3": 22.0, "tmax_d4": 23.0, "tmax_d5": 21.5, "tmax_d6": 20.8, "tmin_d0": 9.0, "tmin_d1": 10.2, "tmin_d2": 10.5, "tmin_d3": 13.1, "tmin_d4": 11.2, "tmin_d5": 12.6, "tmin_d6": 9.5, "day_of_year": 181, "uuid": "066b6442-6781-4496-aa9d-3406b4075ab4", "inat_id": 226025199}}, {"type": "Feature", "geometry": {"type": "Point", "coordinates": [-105.0302581286, 38.6564857901]}, "properties": {"species": "Trichaptum subchartaceum", "date": "2024-06-29", "location": "Colorado, US", "elevation": 2818.0, "land_cover_label": "Grassland", "water_mask": false, "exclude_reason": "keep", "ndvi": null, "soil_moisture": null, "solar_exposure": null, "wind_exposure": null, "water_retention": null, "slope": null, "aspect": null, "num_identification_agreements": 3, "cluster": 0, "tavg": null, "tmin": 15.0, "tmax": 25.0, "prcp_d0": 0.0, "prcp_d1": 0.0, "prcp_d2": 4.429783821105957, "prcp_d3": 0.0, "prcp_d4": 0.0, "prcp_d5": 0.0, "prcp_d6": 0.0, "tmax_d0": 23.5, "tmax_d1": 25.0, "tmax_d2": 25.1, "tmax_d3": 24.1, "tmax_d4": 25.0, "tmax_d5": 24.1, "tmax_d6": 23.5, "tmin_d0": 12.7, "tmin_d1": 12.4, "tmin_d2": 14.0, "tmin_d3": 15.7, "tmin_d4": 13.2, "tmin_d5": 14.0, "tmin_d6": 11.8, "day_of_year": 181, "uuid": "2e0c04ec-a7d2-4afb-ae50-614d6ac64cd7", "inat_id": 226020701}}, {"type": "Feature", "geometry": {"type": "Point", "coordinates": [-105.0210571289, 38.732772798]}, "properties": {"species": "Trichaptum subchartaceum", "date": "2024-06-29", "location": "Manitou Springs, CO 80829, USA", "elevation": 2876.0, "land_cover_label": "Tree cover", "water_mask": false, "exclude_reason": "keep", "ndvi": null, "soil_moisture": null, "solar_exposure": null, "wind_exposure": null, "water_retention": null, "slope": null, "aspect": null, "num_identification_agreements": 1, "cluster": 0, "tavg": null, "tmin": 15.0, "tmax": 25.0, "prcp_d0": 0.0, "prcp_d1": 0.0, "prcp_d2": 0.0, "prcp_d3": 0.0, "prcp_d4": 0.0, "prcp_d5": 0.0, "prcp_d6": 0.0, "tmax_d0": 19.3, "tmax_d1": 23.0, "tmax_d2": 23.2, "tmax_d3": 22.8, "tmax_d4": 23.8, "tmax_d5": 22.3, "tmax_d6": 21.6, "tmin_d0": 9.8, "tmin_d1": 11.0, "tmin_d2": 11.3, "tmin_d3": 13.9, "tmin_d4": 12.0, "tmin_d5": 13.4, "tmin_d6": 10.3, "day_of_year": 181, "uuid": "372b0dbc-1e16-40c5-beaf-b4ca99f157d4", "inat_id": 226016779}}, {"type": "Feature", "geometry": {"type": "Point", "coordinates": [-108.0098035659, 39.0144952523]}, "properties": {"species": "Trichaptum subchartaceum", "date": "2024-08-28", "location": "Grand Mesa Uncompahgre and Gunnison National Forests, Cedaredge, CO, US", "elevation": 3101.0, "land_cover_label": "Tree cover", "water_mask": false, "exclude_reason": "keep", "ndvi": null, "soil_moisture": null, "solar_exposure": null, "wind_exposure": null, "water_retention": null, "slope": null, "aspect": null, "num_identification_agreements": 2, "cluster": 0, "tavg": null, "tmin": 15.0, "tmax": 33.9, "prcp_d0": 0.3427153527736664, "prcp_d1": 0.1074207946658134, "prcp_d2": 6.593220233917236, "prcp_d3": 3.7315518856048575, "prcp_d4": 10.00120735168457, "prcp_d5": 0.92551189661026, "prcp_d6": 3.180231094360352, "tmax_d0": 18.3, "tmax_d1": 17.6, "tmax_d2": 16.0, "tmax_d3": 13.5, "tmax_d4": 15.3, "tmax_d5": 14.8, "tmax_d6": 14.2, "tmin_d0": 7.5, "tmin_d1": 6.1, "tmin_d2": 5.3, "tmin_d3": 5.8, "tmin_d4": 6.8, "tmin_d5": 7.6, "tmin_d6": 7.8, "day_of_year": 241, "uuid": "00427876-28a2-47c4-b920-02876285a873", "inat_id": 238527211}}, {"type": "Feature", "geometry": {"type": "Point", "coordinates": [-105.2776466667, 36.3792216667]}, "properties": {"species": "Trichaptum subchartaceum", "date": "2024-09-04", "location": "Angel Fire, NM, US", "elevation": 2661.0, "land_cover_label": "Tree cover", "water_mask": false, "exclude_reason": "keep", "ndvi": null, "soil_moisture": null, "solar_exposure": null, "wind_exposure": null, "water_retention": null, "slope": null, "aspect": null, "num_identification_agreements": 1, "cluster": 0, "tavg": null, "tmin": 0.5, "tmax": 25.3, "prcp_d0": 0.0, "prcp_d1": 0.0, "prcp_d2": 0.0, "prcp_d3": 0.0, "prcp_d4": 0.0, "prcp_d5": 6.367806911468506, "prcp_d6": 5.236474514007568, "tmax_d0": 23.2, "tmax_d1": 22.2, "tmax_d2": 18.8, "tmax_d3": 18.7, "tmax_d4": 20.6, "tmax_d5": 18.6, "tmax_d6": 19.4, "tmin_d0": 8.8, "tmin_d1": 6.3, "tmin_d2": 4.0, "tmin_d3": 6.4, "tmin_d4": 5.3, "tmin_d5": 8.2, "tmin_d6": 7.9, "day_of_year": 248, "uuid": "5b1cdf53-dd66-4063-a32a-ffb358615d4e", "inat_id": 240547632}}, {"type": "Feature", "geometry": {"type": "Point", "coordinates": [-106.0991221667, 39.651705]}, "properties": {"species": "Trichaptum subchartaceum", "date": "2024-09-21", "location": "White River National Forest, Silverthorne, CO, US", "elevation": 2752.0, "land_cover_label": "Tree cover", "water_mask": false, "exclude_reason": "keep", "ndvi": null, "soil_moisture": null, "solar_exposure": null, "wind_exposure": null, "water_retention": null, "slope": null, "aspect": null, "num_identification_agreements": 1, "cluster": 0, "tavg": null, "tmin": 2.0, "tmax": 15.0, "prcp_d0": 0.0, "prcp_d1": 0.0, "prcp_d2": 0.0, "prcp_d3": 0.0, "prcp_d4": 0.0, "prcp_d5": 0.0, "prcp_d6": 0.0, "tmax_d0": 16.8, "tmax_d1": 19.9, "tmax_d2": 18.4, "tmax_d3": 16.3, "tmax_d4": 16.9, "tmax_d5": 17.3, "tmax_d6": 18.5, "tmin_d0": 0.1, "tmin_d1": 0.8, "tmin_d2": -1.1, "tmin_d3": 1.3, "tmin_d4": 2.0, "tmin_d5": 1.3, "tmin_d6": 1.3, "day_of_year": 265, "uuid": "58760f7a-24f7-4a5a-9706-0607ee9a5ab5", "inat_id": 243246825}}, {"type": "Feature", "geometry": {"type": "Point", "coordinates": [-106.3902666667, 35.8918033333]}, "properties": {"species": "Trichaptum subchartaceum", "date": "2024-09-21", "location": "Pajarito Mountain, Los Alamos, NM, US", "elevation": 2856.0, "land_cover_label": "Tree cover", "water_mask": false, "exclude_reason": "keep", "ndvi": null, "soil_moisture": null, "solar_exposure": null, "wind_exposure": null, "water_retention": null, "slope": null, "aspect": null, "num_identification_agreements": 1, "cluster": 0, "tavg": null, "tmin": 10.8, "tmax": 21.2, "prcp_d0": 7.539669513702393, "prcp_d1": 0.0, "prcp_d2": 0.0, "prcp_d3": 0.0, "prcp_d4": 0.0, "prcp_d5": 6.61293888092041, "prcp_d6": 0.0, "tmax_d0": 16.0, "tmax_d1": 17.6, "tmax_d2": 16.8, "tmax_d3": 16.5, "tmax_d4": 13.3, "tmax_d5": 16.7, "tmax_d6": 18.9, "tmin_d0": 6.8, "tmin_d1": 7.3, "tmin_d2": 5.4, "tmin_d3": 4.2, "tmin_d4": 6.4, "tmin_d5": 7.5, "tmin_d6": 10.4, "day_of_year": 265, "uuid": "2c8942d5-ecef-440c-954d-cf6d921329b4", "inat_id": 243178724}}, {"type": "Feature", "geometry": {"type": "Point", "coordinates": [-105.7556107027, 35.8086665709]}, "properties": {"species": "Trichaptum subchartaceum", "date": "2024-09-22", "location": "Santa Fe National Forest, Tererro, NM, US", "elevation": 3427.0, "land_cover_label": "Tree cover", "water_mask": false, "exclude_reason": "keep", "ndvi": null, "soil_moisture": null, "solar_exposure": null, "wind_exposure": null, "water_retention": null, "slope": null, "aspect": null, "num_identification_agreements": 1, "cluster": 0, "tavg": null, "tmin": 8.9, "tmax": 20.6, "prcp_d0": 0.0, "prcp_d1": 6.1698527336120605, "prcp_d2": 0.0, "prcp_d3": 0.0, "prcp_d4": 0.0, "prcp_d5": 0.0, "prcp_d6": 0.0, "tmax_d0": 8.0, "tmax_d1": 10.9, "tmax_d2": 13.0, "tmax_d3": 14.0, "tmax_d4": 11.1, "tmax_d5": 10.5, "tmax_d6": 11.6, "tmin_d0": -1.4, "tmin_d1": 4.5, "tmin_d2": 6.4, "tmin_d3": 2.1, "tmin_d4": 0.9, "tmin_d5": 4.9, "tmin_d6": 3.7, "day_of_year": 266, "uuid": "b430132e-334f-4631-acd2-a8aa6ad29ab9", "inat_id": 243612443}}, {"type": "Feature", "geometry": {"type": "Point", "coordinates": [-105.8029405143, 35.776457167]}, "properties": {"species": "Trichaptum subchartaceum", "date": "2025-05-03", "location": "Santa Fe County, US-NM, US", "elevation": 3084.0, "land_cover_label": "Tree cover", "water_mask": false, "exclude_reason": "keep", "ndvi": null, "soil_moisture": null, "solar_exposure": null, "wind_exposure": null, "water_retention": null, "slope": null, "aspect": null, "num_identification_agreements": 1, "cluster": 0, "tavg": null, "tmin": 7.2, "tmax": 21.1, "prcp_d0": 0.0, "prcp_d1": 0.0, "prcp_d2": 0.0, "prcp_d3": 0.0, "prcp_d4": 0.0, "prcp_d5": 0.0, "prcp_d6": 0.0, "tmax_d0": 10.8, "tmax_d1": 7.5, "tmax_d2": 10.3, "tmax_d3": 8.8, "tmax_d4": 6.9, "tmax_d5": 11.5, "tmax_d6": 13.6, "tmin_d0": -5.0, "tmin_d1": -3.4, "tmin_d2": -0.3, "tmin_d3": -5.9, "tmin_d4": -6.7, "tmin_d5": -4.7, "tmin_d6": 0.7, "day_of_year": 123, "uuid": "0f307644-c5d7-4754-bc5d-1995281312cc", "inat_id": 278124523}}, {"type": "Feature", "geometry": {"type": "Point", "coordinates": [-106.961525, 38.8855783333]}, "properties": {"species": "Trichaptum subchartaceum", "date": "2025-05-09", "location": "Crested Butte Mountain Resort, Crested Butte, CO, US", "elevation": 2846.0, "land_cover_label": "Tree cover", "water_mask": false, "exclude_reason": "keep", "ndvi": null, "soil_moisture": null, "solar_exposure": null, "wind_exposure": null, "water_retention": null, "slope": null, "aspect": null, "num_identification_agreements": 1, "cluster": 0, "tavg": null, "tmin": 2.2, "tmax": 18.3, "prcp_d0": 1.1545575857162476, "prcp_d1": 1.175281047821045, "prcp_d2": 0.7322349548339844, "prcp_d3": 1.303897261619568, "prcp_d4": 5.3528361320495605, "prcp_d5": 2.6764180660247803, "prcp_d6": 0.0, "tmax_d0": 11.9, "tmax_d1": 10.4, "tmax_d2": 7.1, "tmax_d3": 5.7, "tmax_d4": 6.5, "tmax_d5": 9.8, "tmax_d6": 10.9, "tmin_d0": -5.0, "tmin_d1": -6.1, "tmin_d2": -5.8, "tmin_d3": -5.9, "tmin_d4": -1.4, "tmin_d5": -3.9, "tmin_d6": -7.5, "day_of_year": 129, "uuid": "f4590346-e0d4-4311-b997-8e4d73af8867", "inat_id": 279801352}}, {"type": "Feature", "geometry": {"type": "Point", "coordinates": [-107.9423666667, 39.0046777833]}, "properties": {"species": "Trichaptum subchartaceum", "date": "2025-05-22", "location": "Grand Mesa Uncompahgre and Gunnison National Forests, Cedaredge, CO, US", "elevation": 2682.0, "land_cover_label": "Tree cover", "water_mask": false, "exclude_reason": "keep", "ndvi": null, "soil_moisture": null, "solar_exposure": null, "wind_exposure": null, "water_retention": null, "slope": null, "aspect": null, "num_identification_agreements": 3, "cluster": 0, "tavg": null, "tmin": 8.5, "tmax": 33.1, "prcp_d0": 0.0, "prcp_d1": 0.0, "prcp_d2": 0.0046888124197721, "prcp_d3": 5.51781177520752, "prcp_d4": 1.6972651481628418, "prcp_d5": 0.0061179758049547, "prcp_d6": 0.179237350821495, "tmax_d0": 18.5, "tmax_d1": 15.5, "tmax_d2": 11.1, "tmax_d3": 5.9, "tmax_d4": 12.9, "tmax_d5": 13.2, "tmax_d6": 11.6, "tmin_d0": 4.6, "tmin_d1": 1.2, "tmin_d2": -3.2, "tmin_d3": -4.5, "tmin_d4": 4.1, "tmin_d5": 4.4, "tmin_d6": -2.0, "day_of_year": 142, "uuid": "213c98bd-fb96-4f51-ab14-54b4fa6deba9", "inat_id": 284821461}}, {"type": "Feature", "geometry": {"type": "Point", "coordinates": [-106.3848500997, 35.8907718]}, "properties": {"species": "Trichaptum subchartaceum", "date": "2025-06-28", "location": "Los Alamos County, NM, USA", "elevation": 2865.0, "land_cover_label": "Tree cover", "water_mask": false, "exclude_reason": "keep", "ndvi": null, "soil_moisture": null, "solar_exposure": null, "wind_exposure": null, "water_retention": null, "slope": null, "aspect": null, "num_identification_agreements": 2, "cluster": 0, "tavg": null, "tmin": 15.5, "tmax": 28.9, "prcp_d0": 0.0, "prcp_d1": 0.0, "prcp_d2": 0.0, "prcp_d3": 8.538818359375, "prcp_d4": 4.2694091796875, "prcp_d5": 0.0, "prcp_d6": 0.0, "tmax_d0": 22.8, "tmax_d1": 21.4, "tmax_d2": 19.9, "tmax_d3": 18.9, "tmax_d4": 20.9, "tmax_d5": 21.5, "tmax_d6": 22.4, "tmin_d0": 9.1, "tmin_d1": 8.9, "tmin_d2": 7.4, "tmin_d3": 9.2, "tmin_d4": 9.5, "tmin_d5": 9.7, "tmin_d6": 9.7, "day_of_year": 179, "uuid": "bfb62616-a87f-458e-a7e6-04388d6e743b", "inat_id": 293587334}}, {"type": "Feature", "geometry": {"type": "Point", "coordinates": [-105.80745833, 35.771075]}, "properties": {"species": "Trichaptum subchartaceum", "date": "2025-07-01", "location": "Santa Fe, New Mexico, United States", "elevation": 3008.0, "land_cover_label": "Tree cover", "water_mask": false, "exclude_reason": "keep", "ndvi": null, "soil_moisture": null, "solar_exposure": null, "wind_exposure": null, "water_retention": null, "slope": null, "aspect": null, "num_identification_agreements": 1, "cluster": 0, "tavg": null, "tmin": 11.1, "tmax": 26.1, "prcp_d0": 0.2212052047252655, "prcp_d1": 3.631688356399536, "prcp_d2": 0.0, "prcp_d3": 0.0, "prcp_d4": 0.0, "prcp_d5": 0.0, "prcp_d6": 14.021544456481934, "tmax_d0": 17.6, "tmax_d1": 21.5, "tmax_d2": 21.7, "tmax_d3": 21.5, "tmax_d4": 19.6, "tmax_d5": 18.7, "tmax_d6": 16.2, "tmin_d0": 3.1, "tmin_d1": 6.0, "tmin_d2": 7.9, "tmin_d3": 7.6, "tmin_d4": 7.0, "tmin_d5": 5.1, "tmin_d6": 7.3, "day_of_year": 182, "uuid": "25b90b96-9549-46fd-843f-79a68005479b", "inat_id": 296041233}}, {"type": "Feature", "geometry": {"type": "Point", "coordinates": [-106.3824819997, 35.8918145997]}, "properties": {"species": "Trichaptum subchartaceum", "date": "2025-08-07", "location": "Los Alamos County, NM, USA", "elevation": 2795.0, "land_cover_label": "Tree cover", "water_mask": false, "exclude_reason": "keep", "ndvi": null, "soil_moisture": null, "solar_exposure": null, "wind_exposure": null, "water_retention": null, "slope": null, "aspect": null, "num_identification_agreements": 1, "cluster": 0, "tavg": null, "tmin": 20.1, "tmax": 30.3, "prcp_d0": 2.8344829082489014, "prcp_d1": 0.0, "prcp_d2": 0.0, "prcp_d3": 0.0, "prcp_d4": 0.0, "prcp_d5": 0.0, "prcp_d6": 0.0, "tmax_d0": 25.6, "tmax_d1": 24.8, "tmax_d2": 23.9, "tmax_d3": 24.4, "tmax_d4": 23.8, "tmax_d5": 22.3, "tmax_d6": 20.3, "tmin_d0": 12.9, "tmin_d1": 12.3, "tmin_d2": 10.3, "tmin_d3": 10.8, "tmin_d4": 9.8, "tmin_d5": 10.9, "tmin_d6": 10.0, "day_of_year": 219, "uuid": "50380216-7fb0-415c-93db-8fdb8f1c95ba", "inat_id": 304864076}}, {"type": "Feature", "geometry": {"type": "Point", "coordinates": [-107.9387138889, 39.0371555556]}, "properties": {"species": "Trichaptum subchartaceum", "date": "2025-08-09", "location": "Cedaredge, CO 81413, USA", "elevation": 3058.0, "land_cover_label": "Tree cover", "water_mask": false, "exclude_reason": "keep", "ndvi": null, "soil_moisture": null, "solar_exposure": null, "wind_exposure": null, "water_retention": null, "slope": null, "aspect": null, "num_identification_agreements": 1, "cluster": 0, "tavg": null, "tmin": 15.1, "tmax": 36.5, "prcp_d0": 0.0, "prcp_d1": 0.0, "prcp_d2": 0.0, "prcp_d3": 0.0, "prcp_d4": 0.0, "prcp_d5": 0.0, "prcp_d6": 0.0, "tmax_d0": 20.6, "tmax_d1": 21.8, "tmax_d2": 22.9, "tmax_d3": 21.7, "tmax_d4": 22.3, "tmax_d5": 22.0, "tmax_d6": 20.6, "tmin_d0": 9.1, "tmin_d1": 9.7, "tmin_d2": 10.3, "tmin_d3": 10.3, "tmin_d4": 9.1, "tmin_d5": 8.2, "tmin_d6": 8.1, "day_of_year": 221, "uuid": "c5225680-233b-4bff-9ff2-1ff8058e56d0", "inat_id": 305229297}}, {"type": "Feature", "geometry": {"type": "Point", "coordinates": [-107.9934982624, 37.9115386566]}, "properties": {"species": "Trichaptum subchartaceum", "date": "2025-08-11", "location": "Colorado, US", "elevation": 2849.0, "land_cover_label": "Tree cover", "water_mask": false, "exclude_reason": "keep", "ndvi": null, "soil_moisture": null, "solar_exposure": null, "wind_exposure": null, "water_retention": null, "slope": null, "aspect": null, "num_identification_agreements": 2, "cluster": 0, "tavg": null, "tmin": 7.0, "tmax": 22.0, "prcp_d0": 0.0, "prcp_d1": 0.0, "prcp_d2": 0.0, "prcp_d3": 5.916031360626221, "prcp_d4": 0.0, "prcp_d5": 0.0, "prcp_d6": 0.0, "tmax_d0": 21.5, "tmax_d1": 22.8, "tmax_d2": 23.9, "tmax_d3": 23.5, "tmax_d4": 24.6, "tmax_d5": 22.5, "tmax_d6": 23.6, "tmin_d0": 5.4, "tmin_d1": 10.2, "tmin_d2": 6.0, "tmin_d3": 9.8, "tmin_d4": 8.6, "tmin_d5": 8.8, "tmin_d6": 7.7, "day_of_year": 223, "uuid": "682897ce-909c-42a4-9591-79dcfe0e0121", "inat_id": 305663448}}, {"type": "Feature", "geometry": {"type": "Point", "coordinates": [-106.7410133333, 36.2668916667]}, "properties": {"species": "Trichaptum subchartaceum", "date": "2025-08-18", "location": "Mesa Alta Rd, Chama, NM, US", "elevation": 2634.0, "land_cover_label": "Tree cover", "water_mask": false, "exclude_reason": "keep", "ndvi": null, "soil_moisture": null, "solar_exposure": null, "wind_exposure": null, "water_retention": null, "slope": null, "aspect": null, "num_identification_agreements": 1, "cluster": 0, "tavg": null, "tmin": null, "tmax": null, "prcp_d0": 0.0, "prcp_d1": 0.0, "prcp_d2": 0.0, "prcp_d3": 0.0, "prcp_d4": 0.0, "prcp_d5": 0.0, "prcp_d6": 4.997114658355713, "tmax_d0": 25.3, "tmax_d1": 24.3, "tmax_d2": 21.4, "tmax_d3": 25.6, "tmax_d4": 27.0, "tmax_d5": 26.7, "tmax_d6": 24.2, "tmin_d0": 8.3, "tmin_d1": 10.1, "tmin_d2": 9.3, "tmin_d3": 8.0, "tmin_d4": 9.6, "tmin_d5": 7.0, "tmin_d6": 8.3, "day_of_year": 230, "uuid": "5a0ca98c-288c-4f9b-9e14-6b1eab232329", "inat_id": 307449292}}, {"type": "Feature", "geometry": {"type": "Point", "coordinates": [-104.9421466667, 38.729605]}, "properties": {"species": "Trichaptum subchartaceum", "date": "2025-08-21", "location": "Victor, CO, US", "elevation": 2981.0, "land_cover_label": "Tree cover", "water_mask": false, "exclude_reason": "keep", "ndvi": null, "soil_moisture": null, "solar_exposure": null, "wind_exposure": null, "water_retention": null, "slope": null, "aspect": null, "num_identification_agreements": 1, "cluster": 0, "tavg": null, "tmin": 18.0, "tmax": 31.0, "prcp_d0": 0.0, "prcp_d1": 0.0, "prcp_d2": 0.0, "prcp_d3": 0.0, "prcp_d4": 0.0, "prcp_d5": 0.0, "prcp_d6": 0.0, "tmax_d0": 22.4, "tmax_d1": 20.5, "tmax_d2": 19.6, "tmax_d3": 19.3, "tmax_d4": 20.8, "tmax_d5": 20.3, "tmax_d6": 22.1, "tmin_d0": 9.4, "tmin_d1": 8.9, "tmin_d2": 9.4, "tmin_d3": 10.9, "tmin_d4": 8.8, "tmin_d5": 10.9, "tmin_d6": 10.9, "day_of_year": 233, "uuid": "721083e6-55b8-42ed-b228-614b53bcef0b", "inat_id": 308072942}}, {"type": "Feature", "geometry": {"type": "Point", "coordinates": [-105.5013883, 39.4066916]}, "properties": {"species": "Trichaptum subchartaceum", "date": "2025-09-07", "location": "Bailey, CO 80421, USA", "elevation": 2428.0, "land_cover_label": "Tree cover", "water_mask": false, "exclude_reason": "keep", "ndvi": null, "soil_moisture": 0.3663732863804009, "solar_exposure": 0.8352420330047607, "wind_exposure": 0.2572548985481262, "water_retention": 0.2465671449899673, "slope": 3.260313034057617, "aspect": 84.53225708007812, "num_identification_agreements": 1, "cluster": 0, "tavg": null, "tmin": 1.8, "tmax": 15.6, "prcp_d0": 0.0, "prcp_d1": 0.0, "prcp_d2": 0.0, "prcp_d3": 0.0, "prcp_d4": 0.0, "prcp_d5": 0.0, "prcp_d6": 0.0, "tmax_d0": 21.7, "tmax_d1": 21.9, "tmax_d2": 21.0, "tmax_d3": 23.6, "tmax_d4": 22.9, "tmax_d5": 22.0, "tmax_d6": 20.8, "tmin_d0": 7.1, "tmin_d1": 3.4, "tmin_d2": 7.8, "tmin_d3": 6.8, "tmin_d4": 7.3, "tmin_d5": 5.5, "tmin_d6": 6.2, "day_of_year": 250, "uuid": "33fe3508-21e0-48bb-97c0-6bffa2205cce", "inat_id": 312303674}}, {"type": "Feature", "geometry": {"type": "Point", "coordinates": [-105.8676138889, 35.7279861111]}, "properties": {"species": "Trichaptum subchartaceum", "date": "2026-02-27", "location": "Santa Fe County, NM, USA", "elevation": 2390.0, "land_cover_label": "Tree cover", "water_mask": false, "exclude_reason": "keep", "ndvi": null, "soil_moisture": null, "solar_exposure": null, "wind_exposure": null, "water_retention": null, "slope": null, "aspect": null, "num_identification_agreements": 1, "cluster": 0, "tavg": null, "tmin": 1.7, "tmax": 19.4, "prcp_d0": 0.0, "prcp_d1": 0.0, "prcp_d2": 0.0, "prcp_d3": 0.0001278966083191, "prcp_d4": 0.0, "prcp_d5": 8.564921699871775e-06, "prcp_d6": 2.1454100608825684, "tmax_d0": 14.5, "tmax_d1": 14.2, "tmax_d2": 15.0, "tmax_d3": 12.7, "tmax_d4": 10.5, "tmax_d5": 8.0, "tmax_d6": 3.5, "tmin_d0": 3.4, "tmin_d1": 5.6, "tmin_d2": 5.6, "tmin_d3": 2.0, "tmin_d4": -0.6, "tmin_d5": -6.2, "tmin_d6": -7.9, "day_of_year": 58, "uuid": "19a43fbb-3a3f-4f62-8449-8288e80014d0", "inat_id": 341400578}}, {"type": "Feature", "geometry": {"type": "Point", "coordinates": [-105.8083888889, 35.7702111111]}, "properties": {"species": "Trichaptum subchartaceum", "date": "2026-03-30", "location": "Santa Fe County, NM, USA", "elevation": 2958.0, "land_cover_label": "Tree cover", "water_mask": false, "exclude_reason": "keep", "ndvi": null, "soil_moisture": null, "solar_exposure": null, "wind_exposure": null, "water_retention": null, "slope": null, "aspect": null, "num_identification_agreements": 1, "cluster": 0, "tavg": null, "tmin": 3.3, "tmax": 23.9, "prcp_d0": 0.0, "prcp_d1": 0.0, "prcp_d2": 0.0, "prcp_d3": 0.0, "prcp_d4": 0.0, "prcp_d5": 0.0, "prcp_d6": 0.0, "tmax_d0": 13.5, "tmax_d1": 13.8, "tmax_d2": 12.0, "tmax_d3": 13.8, "tmax_d4": 17.2, "tmax_d5": 19.7, "tmax_d6": 17.0, "tmin_d0": 2.6, "tmin_d1": 1.1, "tmin_d2": -3.9, "tmin_d3": -0.5, "tmin_d4": 8.0, "tmin_d5": 5.9, "tmin_d6": 4.3, "day_of_year": 89, "uuid": "c648060d-4673-468c-890f-71fde49f3c25", "inat_id": 348836505}}]}