{"type": "FeatureCollection", "features": [{"type": "Feature", "geometry": {"type": "Point", "coordinates": [-108.452, 37.6901]}, "properties": {"species": "Tricholoma populinum", "date": "2016-09-21", "location": "Delores Co., Colorado, USA", "elevation": 2368.0, "land_cover_label": "Grassland", "water_mask": false, "exclude_reason": "keep", "ndvi": null, "soil_moisture": null, "solar_exposure": null, "wind_exposure": null, "water_retention": null, "slope": null, "aspect": null, "num_identification_agreements": 3, "cluster": 1, "tavg": null, "tmin": null, "tmax": null, "prcp_d0": 37.45516204833984, "prcp_d1": 0.0, "prcp_d2": 0.0, "prcp_d3": 0.0, "prcp_d4": 0.0, "prcp_d5": 0.0, "prcp_d6": 0.0, "tmax_d0": 19.3, "tmax_d1": 22.0, "tmax_d2": 24.5, "tmax_d3": 22.3, "tmax_d4": 20.1, "tmax_d5": 19.7, "tmax_d6": 18.4, "tmin_d0": 9.8, "tmin_d1": 9.8, "tmin_d2": 5.7, "tmin_d3": 3.7, "tmin_d4": 3.2, "tmin_d5": 3.1, "tmin_d6": 5.9, "day_of_year": 265, "uuid": "a589984e-5c8d-41a7-ad10-7a682d7c4c3c", "inat_id": 16346939}}, {"type": "Feature", "geometry": {"type": "Point", "coordinates": [-104.9143, 39.1163]}, "properties": {"species": "Tricholoma populinum", "date": "2024-10-24", "location": "Palmer Lake, CO 80133, USA", "elevation": 2180.0, "land_cover_label": "Tree cover", "water_mask": false, "exclude_reason": "keep", "ndvi": null, "soil_moisture": 0.2536770186462381, "solar_exposure": 0.8832774758338928, "wind_exposure": 0.2704071402549743, "water_retention": 0.2271362990140915, "slope": 4.345588207244873, "aspect": 180.0, "num_identification_agreements": 2, "cluster": 2, "tavg": null, "tmin": 1.7, "tmax": 22.4, "prcp_d0": 0.0, "prcp_d1": 0.0, "prcp_d2": 0.0, "prcp_d3": 3.293238401412964, "prcp_d4": 1.9701602458953853, "prcp_d5": 1.9701602458953853, "prcp_d6": 0.0, "tmax_d0": 19.1, "tmax_d1": 17.6, "tmax_d2": 20.3, "tmax_d3": 15.4, "tmax_d4": 15.1, "tmax_d5": 11.8, "tmax_d6": 14.5, "tmin_d0": 4.6, "tmin_d1": 3.6, "tmin_d2": 1.5, "tmin_d3": 3.8, "tmin_d4": 5.9, "tmin_d5": 2.5, "tmin_d6": 5.9, "day_of_year": 298, "uuid": "623edabb-101b-449d-a179-00cda9f807eb", "inat_id": 254748062}}]}