{"type": "FeatureCollection", "features": [{"type": "Feature", "geometry": {"type": "Point", "coordinates": [-108.0079148486, 39.0166647037]}, "properties": {"species": "Tricholoma sp. 'saponaceum-PNW05'", "date": "2024-08-11", "location": "Grand Mesa Uncompahgre and Gunnison National Forests, Cedaredge, CO, US", "elevation": 3080.0, "land_cover_label": "Tree cover", "water_mask": false, "exclude_reason": "keep", "ndvi": null, "soil_moisture": null, "solar_exposure": null, "wind_exposure": null, "water_retention": null, "slope": null, "aspect": null, "num_identification_agreements": 2, "cluster": 0, "tavg": null, "tmin": 16.6, "tmax": 30.7, "prcp_d0": 9.482915878295898, "prcp_d1": 0.0, "prcp_d2": 0.0, "prcp_d3": 0.0, "prcp_d4": 0.0, "prcp_d5": 10.088350296020508, "prcp_d6": 0.0, "tmax_d0": 18.0, "tmax_d1": 16.6, "tmax_d2": 17.0, "tmax_d3": 21.0, "tmax_d4": 21.6, "tmax_d5": 21.7, "tmax_d6": 21.2, "tmin_d0": 7.1, "tmin_d1": 7.5, "tmin_d2": 9.6, "tmin_d3": 11.2, "tmin_d4": 11.5, "tmin_d5": 11.7, "tmin_d6": 9.2, "day_of_year": 224, "uuid": "d6fdb898-dff6-418b-b3ef-cd2ac6b8222b", "inat_id": 235268318}}, {"type": "Feature", "geometry": {"type": "Point", "coordinates": [-108.0097777491, 39.0129117489]}, "properties": {"species": "Tricholoma sp. 'saponaceum-PNW05'", "date": "2024-08-11", "location": "Grand Mesa Uncompahgre and Gunnison National Forests, Cedaredge, CO, US", "elevation": 3101.0, "land_cover_label": "Tree cover", "water_mask": false, "exclude_reason": "keep", "ndvi": null, "soil_moisture": null, "solar_exposure": null, "wind_exposure": null, "water_retention": null, "slope": null, "aspect": null, "num_identification_agreements": 2, "cluster": 0, "tavg": null, "tmin": 16.6, "tmax": 30.7, "prcp_d0": 9.482915878295898, "prcp_d1": 0.0, "prcp_d2": 0.0, "prcp_d3": 0.0, "prcp_d4": 0.0, "prcp_d5": 10.088350296020508, "prcp_d6": 0.0, "tmax_d0": 17.9, "tmax_d1": 16.5, "tmax_d2": 16.8, "tmax_d3": 20.9, "tmax_d4": 21.4, "tmax_d5": 21.5, "tmax_d6": 21.1, "tmin_d0": 6.9, "tmin_d1": 7.4, "tmin_d2": 9.5, "tmin_d3": 11.0, "tmin_d4": 11.4, "tmin_d5": 11.5, "tmin_d6": 9.0, "day_of_year": 224, "uuid": "fb743d78-698e-4612-af11-01f359b1dc15", "inat_id": 235268151}}, {"type": "Feature", "geometry": {"type": "Point", "coordinates": [-107.8549633333, 37.8845866667]}, "properties": {"species": "Tricholoma sp. 'saponaceum-PNW05'", "date": "2024-08-17", "location": "Grand Mesa Uncompahgre and Gunnison National Forests, Ophir, CO, US", "elevation": 3338.0, "land_cover_label": "Tree cover", "water_mask": false, "exclude_reason": "keep", "ndvi": null, "soil_moisture": null, "solar_exposure": null, "wind_exposure": null, "water_retention": null, "slope": null, "aspect": null, "num_identification_agreements": 2, "cluster": 0, "tavg": null, "tmin": 12.0, "tmax": 23.0, "prcp_d0": 14.800861358642578, "prcp_d1": 0.0, "prcp_d2": 0.0, "prcp_d3": 0.0, "prcp_d4": 43.863800048828125, "prcp_d5": 0.0, "prcp_d6": 0.0, "tmax_d0": 18.5, "tmax_d1": 18.2, "tmax_d2": 17.1, "tmax_d3": 15.1, "tmax_d4": 13.7, "tmax_d5": 16.4, "tmax_d6": 17.0, "tmin_d0": 4.6, "tmin_d1": 5.1, "tmin_d2": 2.6, "tmin_d3": 1.7, "tmin_d4": 5.0, "tmin_d5": 5.4, "tmin_d6": 4.7, "day_of_year": 230, "uuid": "e5dac9c7-5204-43dc-ad80-896aedb6745f", "inat_id": 236402328}}, {"type": "Feature", "geometry": {"type": "Point", "coordinates": [-107.854805, 37.8843333333]}, "properties": {"species": "Tricholoma sp. 'saponaceum-PNW05'", "date": "2024-08-17", "location": "Grand Mesa Uncompahgre and Gunnison National Forests, Ophir, CO, US", "elevation": 3338.0, "land_cover_label": "Tree cover", "water_mask": false, "exclude_reason": "keep", "ndvi": null, "soil_moisture": null, "solar_exposure": null, "wind_exposure": null, "water_retention": null, "slope": null, "aspect": null, "num_identification_agreements": 2, "cluster": 0, "tavg": null, "tmin": 12.0, "tmax": 23.0, "prcp_d0": 14.800861358642578, "prcp_d1": 0.0, "prcp_d2": 0.0, "prcp_d3": 0.0, "prcp_d4": 43.863800048828125, "prcp_d5": 0.0, "prcp_d6": 0.0, "tmax_d0": 18.5, "tmax_d1": 18.2, "tmax_d2": 17.1, "tmax_d3": 15.1, "tmax_d4": 13.7, "tmax_d5": 16.4, "tmax_d6": 17.0, "tmin_d0": 4.6, "tmin_d1": 5.1, "tmin_d2": 2.6, "tmin_d3": 1.7, "tmin_d4": 5.0, "tmin_d5": 5.4, "tmin_d6": 4.7, "day_of_year": 230, "uuid": "3af0ae52-8516-43e7-bb2a-07ac04183106", "inat_id": 236402438}}, {"type": "Feature", "geometry": {"type": "Point", "coordinates": [-107.8572986227, 37.884201352]}, "properties": {"species": "Tricholoma sp. 'saponaceum-PNW05'", "date": "2024-08-17", "location": "Grand Mesa Uncompahgre and Gunnison National Forests, Telluride, CO, US", "elevation": 3309.0, "land_cover_label": "Tree cover", "water_mask": false, "exclude_reason": "keep", "ndvi": null, "soil_moisture": null, "solar_exposure": null, "wind_exposure": null, "water_retention": null, "slope": null, "aspect": null, "num_identification_agreements": 1, "cluster": 0, "tavg": null, "tmin": 12.0, "tmax": 23.0, "prcp_d0": 14.800861358642578, "prcp_d1": 0.0, "prcp_d2": 0.0, "prcp_d3": 0.0, "prcp_d4": 43.863800048828125, "prcp_d5": 0.0, "prcp_d6": 0.0, "tmax_d0": 18.9, "tmax_d1": 19.5, "tmax_d2": 18.1, "tmax_d3": 15.7, "tmax_d4": 14.4, "tmax_d5": 16.6, "tmax_d6": 17.4, "tmin_d0": 3.2, "tmin_d1": 3.3, "tmin_d2": 3.7, "tmin_d3": 3.3, "tmin_d4": 4.8, "tmin_d5": 4.9, "tmin_d6": 5.2, "day_of_year": 230, "uuid": "196951b0-9965-4e97-9e70-91334065dbd6", "inat_id": 237737364}}, {"type": "Feature", "geometry": {"type": "Point", "coordinates": [-105.7982944444, 35.8001972222]}, "properties": {"species": "Tricholoma sp. 'saponaceum-PNW05'", "date": "2024-08-18", "location": "Santa Fe County, NM, USA", "elevation": 3269.0, "land_cover_label": "Tree cover", "water_mask": false, "exclude_reason": "keep", "ndvi": null, "soil_moisture": null, "solar_exposure": null, "wind_exposure": null, "water_retention": null, "slope": null, "aspect": null, "num_identification_agreements": 2, "cluster": 0, "tavg": null, "tmin": 16.1, "tmax": 33.3, "prcp_d0": 0.0, "prcp_d1": 0.0, "prcp_d2": 0.0, "prcp_d3": 0.0, "prcp_d4": 0.0, "prcp_d5": 0.0, "prcp_d6": 0.0, "tmax_d0": 19.3, "tmax_d1": 20.8, "tmax_d2": 19.2, "tmax_d3": 19.0, "tmax_d4": 16.9, "tmax_d5": 17.9, "tmax_d6": 18.1, "tmin_d0": 7.9, "tmin_d1": 11.0, "tmin_d2": 8.4, "tmin_d3": 6.7, "tmin_d4": 7.5, "tmin_d5": 8.4, "tmin_d6": 8.5, "day_of_year": 231, "uuid": "823a9164-0146-4e97-a3e4-18c6c8c0d1c0", "inat_id": 237359548}}, {"type": "Feature", "geometry": {"type": "Point", "coordinates": [-105.5864333333, 39.9843866667]}, "properties": {"species": "Tricholoma sp. 'saponaceum-PNW05'", "date": "2025-09-03", "location": "Nederland, CO, US", "elevation": 3047.0, "land_cover_label": "Tree cover", "water_mask": false, "exclude_reason": "keep", "ndvi": null, "soil_moisture": 0.350035299652454, "solar_exposure": 0.7707306742668152, "wind_exposure": 0.2868323624134063, "water_retention": 0.4543100297451019, "slope": 6.712357997894287, "aspect": 28.8039493560791, "num_identification_agreements": 2, "cluster": 3, "tavg": null, "tmin": -0.9, "tmax": 9.6, "prcp_d0": 0.0, "prcp_d1": 0.0, "prcp_d2": 0.0, "prcp_d3": 0.0, "prcp_d4": 4.76094913482666, "prcp_d5": 0.0, "prcp_d6": 0.0, "tmax_d0": 17.0, "tmax_d1": 15.3, "tmax_d2": 16.2, "tmax_d3": 15.4, "tmax_d4": 13.0, "tmax_d5": 16.3, "tmax_d6": 14.7, "tmin_d0": 3.9, "tmin_d1": 2.4, "tmin_d2": 2.3, "tmin_d3": 1.4, "tmin_d4": 4.3, "tmin_d5": 5.6, "tmin_d6": 4.4, "day_of_year": 246, "uuid": "e828bd78-8ec1-4cec-be10-50a55c9cebfd", "inat_id": 313329299}}]}