{"type": "FeatureCollection", "features": [{"type": "Feature", "geometry": {"type": "Point", "coordinates": [-105.7713472222, 39.8226611111]}, "properties": {"species": "Tricholoma pardinum", "date": "2021-08-14", "location": "Winter Park, CO 80482, USA", "elevation": 3282.0, "land_cover_label": "Tree cover", "water_mask": false, "exclude_reason": "keep", "ndvi": null, "soil_moisture": 0.3245060503723351, "solar_exposure": 0.7514186501502991, "wind_exposure": 0.2535563707351684, "water_retention": 0.4055663645267486, "slope": 11.572701454162598, "aspect": 56.17609786987305, "num_identification_agreements": 2, "cluster": 2, "tavg": null, "tmin": 6.0, "tmax": 28.3, "prcp_d0": 4.631547927856445, "prcp_d1": 4.631547927856445, "prcp_d2": 0.0, "prcp_d3": 0.0, "prcp_d4": 0.0, "prcp_d5": 0.0, "prcp_d6": 0.0, "tmax_d0": null, "tmax_d1": null, "tmax_d2": null, "tmax_d3": null, "tmax_d4": null, "tmax_d5": null, "tmax_d6": null, "tmin_d0": null, "tmin_d1": null, "tmin_d2": null, "tmin_d3": null, "tmin_d4": null, "tmin_d5": null, "tmin_d6": null, "day_of_year": 226, "uuid": "bea778d2-904e-4cf5-a170-913220fc7381", "inat_id": 91184456}}, {"type": "Feature", "geometry": {"type": "Point", "coordinates": [-105.7869837997, 39.734018473]}, "properties": {"species": "Tricholoma pardinum", "date": "2023-09-14", "location": "Colorado, US", "elevation": 3571.0, "land_cover_label": "Moss and lichen", "water_mask": false, "exclude_reason": "keep", "ndvi": null, "soil_moisture": 0.3327391805716126, "solar_exposure": 0.6342616677284241, "wind_exposure": 0.2441932410001754, "water_retention": 0.1602374166250229, "slope": 22.289087295532227, "aspect": 54.363712310791016, "num_identification_agreements": 1, "cluster": 3, "tavg": null, "tmin": -1.7, "tmax": 5.7, "prcp_d0": 0.0, "prcp_d1": 0.0, "prcp_d2": 0.0, "prcp_d3": 31.448205947875977, "prcp_d4": 0.0, "prcp_d5": 0.0, "prcp_d6": 0.0, "tmax_d0": null, "tmax_d1": null, "tmax_d2": null, "tmax_d3": null, "tmax_d4": null, "tmax_d5": null, "tmax_d6": null, "tmin_d0": null, "tmin_d1": null, "tmin_d2": null, "tmin_d3": null, "tmin_d4": null, "tmin_d5": null, "tmin_d6": null, "day_of_year": 257, "uuid": "62bb8cf6-b10a-499c-81fe-991d297298cd", "inat_id": 183283648}}, {"type": "Feature", "geometry": {"type": "Point", "coordinates": [-105.8104861111, 35.7738138889]}, "properties": {"species": "Tricholoma pardinum", "date": "2024-08-18", "location": "Santa Fe County, NM, USA", "elevation": 2979.0, "land_cover_label": "Tree cover", "water_mask": false, "exclude_reason": "keep", "ndvi": null, "soil_moisture": null, "solar_exposure": null, "wind_exposure": null, "water_retention": null, "slope": null, "aspect": null, "num_identification_agreements": 1, "cluster": 2, "tavg": null, "tmin": 16.1, "tmax": 33.3, "prcp_d0": 0.0, "prcp_d1": 0.0, "prcp_d2": 0.0, "prcp_d3": 0.0, "prcp_d4": 0.0, "prcp_d5": 0.0, "prcp_d6": 0.0, "tmax_d0": null, "tmax_d1": null, "tmax_d2": null, "tmax_d3": null, "tmax_d4": null, "tmax_d5": null, "tmax_d6": null, "tmin_d0": null, "tmin_d1": null, "tmin_d2": null, "tmin_d3": null, "tmin_d4": null, "tmin_d5": null, "tmin_d6": null, "day_of_year": 231, "uuid": "a8ddbe4f-03ff-4a74-8f8e-ee6449a56256", "inat_id": 237194954}}]}