{"type": "FeatureCollection", "features": [{"type": "Feature", "geometry": {"type": "Point", "coordinates": [-108.35928, 38.97992]}, "properties": {"species": "Verpa bohemica", "date": "2023-05-24", "location": "Whitewater, CO, US", "elevation": 1687.0, "land_cover_label": "Grassland", "water_mask": false, "exclude_reason": "keep", "ndvi": null, "soil_moisture": null, "solar_exposure": null, "wind_exposure": null, "water_retention": null, "slope": null, "aspect": null, "num_identification_agreements": 4, "cluster": 0, "tavg": null, "tmin": 13.9, "tmax": 30.0, "prcp_d0": 4.043850421905518, "prcp_d1": 0.0, "prcp_d2": 0.0, "prcp_d3": 0.0, "prcp_d4": 0.0, "prcp_d5": 0.0, "prcp_d6": 0.0, "tmax_d0": null, "tmax_d1": null, "tmax_d2": null, "tmax_d3": null, "tmax_d4": null, "tmax_d5": null, "tmax_d6": null, "tmin_d0": null, "tmin_d1": null, "tmin_d2": null, "tmin_d3": null, "tmin_d4": null, "tmin_d5": null, "tmin_d6": null, "day_of_year": 144, "uuid": "c8398232-a5af-4738-a3e8-47aaf08ef393", "inat_id": 163533548}}, {"type": "Feature", "geometry": {"type": "Point", "coordinates": [-106.4818963427, 39.5584605633]}, "properties": {"species": "Verpa bohemica", "date": "2023-05-28", "location": "Eagle County, US-CO, US", "elevation": 3167.0, "land_cover_label": "Tree cover", "water_mask": false, "exclude_reason": "keep", "ndvi": null, "soil_moisture": null, "solar_exposure": null, "wind_exposure": null, "water_retention": null, "slope": null, "aspect": null, "num_identification_agreements": 2, "cluster": 0, "tavg": null, "tmin": 2.0, "tmax": 10.0, "prcp_d0": 0.0, "prcp_d1": 0.0, "prcp_d2": 0.0, "prcp_d3": 0.0, "prcp_d4": 4.839668273925781, "prcp_d5": 4.839668273925781, "prcp_d6": 0.0, "tmax_d0": null, "tmax_d1": null, "tmax_d2": null, "tmax_d3": null, "tmax_d4": null, "tmax_d5": null, "tmax_d6": null, "tmin_d0": null, "tmin_d1": null, "tmin_d2": null, "tmin_d3": null, "tmin_d4": null, "tmin_d5": null, "tmin_d6": null, "day_of_year": 148, "uuid": "8cd38688-9c66-4e4a-ad25-b50ddb8e8c26", "inat_id": 164318312}}, {"type": "Feature", "geometry": {"type": "Point", "coordinates": [-107.2860716667, 40.0325916667]}, "properties": {"species": "Verpa bohemica", "date": "2023-06-21", "location": "White River National Forest, Gypsum, CO, US", "elevation": 2643.0, "land_cover_label": "Grassland", "water_mask": false, "exclude_reason": "keep", "ndvi": null, "soil_moisture": null, "solar_exposure": null, "wind_exposure": null, "water_retention": null, "slope": null, "aspect": null, "num_identification_agreements": 1, "cluster": 1, "tavg": null, "tmin": null, "tmax": null, "prcp_d0": 0.0, "prcp_d1": 0.0, "prcp_d2": 0.0, "prcp_d3": 0.0, "prcp_d4": 0.0, "prcp_d5": 16.24293327331543, "prcp_d6": 11.880481719970703, "tmax_d0": null, "tmax_d1": null, "tmax_d2": null, "tmax_d3": null, "tmax_d4": null, "tmax_d5": null, "tmax_d6": null, "tmin_d0": null, "tmin_d1": null, "tmin_d2": null, "tmin_d3": null, "tmin_d4": null, "tmin_d5": null, "tmin_d6": null, "day_of_year": 172, "uuid": "4398c0ca-7954-48d9-88b0-5083246d46fd", "inat_id": 171743210}}, {"type": "Feature", "geometry": {"type": "Point", "coordinates": [-107.3630618047, 40.9843615937]}, "properties": {"species": "Verpa bohemica", "date": "2024-05-28", "location": "Slater, CO, US", "elevation": 2128.0, "land_cover_label": "Grassland", "water_mask": false, "exclude_reason": "keep", "ndvi": null, "soil_moisture": null, "solar_exposure": null, "wind_exposure": null, "water_retention": null, "slope": null, "aspect": null, "num_identification_agreements": 1, "cluster": 0, "tavg": null, "tmin": 4.2, "tmax": 24.0, "prcp_d0": 0.0, "prcp_d1": 0.0, "prcp_d2": 0.0, "prcp_d3": 0.0, "prcp_d4": 0.0, "prcp_d5": 0.0, "prcp_d6": 0.0, "tmax_d0": null, "tmax_d1": null, "tmax_d2": null, "tmax_d3": null, "tmax_d4": null, "tmax_d5": null, "tmax_d6": null, "tmin_d0": null, "tmin_d1": null, "tmin_d2": null, "tmin_d3": null, "tmin_d4": null, "tmin_d5": null, "tmin_d6": null, "day_of_year": 149, "uuid": "bd4ea4aa-39c8-43ec-8443-c1943393894e", "inat_id": 218918298}}, {"type": "Feature", "geometry": {"type": "Point", "coordinates": [-105.4297736619, 36.1649071477]}, "properties": {"species": "Verpa bohemica", "date": "2024-06-08", "location": "New Mexico, US", "elevation": 3198.0, "land_cover_label": "Tree cover", "water_mask": false, "exclude_reason": "keep", "ndvi": null, "soil_moisture": null, "solar_exposure": null, "wind_exposure": null, "water_retention": null, "slope": null, "aspect": null, "num_identification_agreements": 4, "cluster": 0, "tavg": null, "tmin": 4.1, "tmax": 27.5, "prcp_d0": 0.0, "prcp_d1": 0.0, "prcp_d2": 0.0, "prcp_d3": 0.0, "prcp_d4": 0.0, "prcp_d5": 0.0, "prcp_d6": 0.0, "tmax_d0": null, "tmax_d1": null, "tmax_d2": null, "tmax_d3": null, "tmax_d4": null, "tmax_d5": null, "tmax_d6": null, "tmin_d0": null, "tmin_d1": null, "tmin_d2": null, "tmin_d3": null, "tmin_d4": null, "tmin_d5": null, "tmin_d6": null, "day_of_year": 160, "uuid": "279ab95c-f130-42ec-b41b-d20d58f1e5df", "inat_id": 221437621}}, {"type": "Feature", "geometry": {"type": "Point", "coordinates": [-107.2135972222, 40.5132555556]}, "properties": {"species": "Verpa bohemica", "date": "2026-04-12", "location": "Hayden, CO 81639, USA", "elevation": 1945.0, "land_cover_label": "Tree cover", "water_mask": false, "exclude_reason": "keep", "ndvi": null, "soil_moisture": null, "solar_exposure": null, "wind_exposure": null, "water_retention": null, "slope": null, "aspect": null, "num_identification_agreements": 1, "cluster": 0, "tavg": null, "tmin": -0.6, "tmax": 17.8, "prcp_d0": 0.0, "prcp_d1": 1.3088774681091309, "prcp_d2": 0.0, "prcp_d3": 0.0, "prcp_d4": 0.0, "prcp_d5": 0.0, "prcp_d6": 0.0, "tmax_d0": null, "tmax_d1": null, "tmax_d2": null, "tmax_d3": null, "tmax_d4": null, "tmax_d5": null, "tmax_d6": null, "tmin_d0": null, "tmin_d1": null, "tmin_d2": null, "tmin_d3": null, "tmin_d4": null, "tmin_d5": null, "tmin_d6": null, "day_of_year": 102, "uuid": "3fce1196-15b5-4e4e-ac52-9bff82104b36", "inat_id": 349376797}}, {"type": "Feature", "geometry": {"type": "Point", "coordinates": [-107.21598, 40.1608]}, "properties": {"species": "Verpa bohemica", "date": "2026-05-07", "location": "Meeker, CO, US", "elevation": 2551.0, "land_cover_label": "Tree cover", "water_mask": false, "exclude_reason": "keep", "ndvi": null, "soil_moisture": null, "solar_exposure": null, "wind_exposure": null, "water_retention": null, "slope": null, "aspect": null, "num_identification_agreements": 1, "cluster": 0, "tavg": null, "tmin": -1.7, "tmax": 17.2, "prcp_d0": 0.0, "prcp_d1": 5.106046676635742, "prcp_d2": 4.299479961395264, "prcp_d3": 1.2538106441497805, "prcp_d4": 0.018745569512248, "prcp_d5": 0.0390069633722305, "prcp_d6": 0.344986230134964, "tmax_d0": null, "tmax_d1": null, "tmax_d2": null, "tmax_d3": null, "tmax_d4": null, "tmax_d5": null, "tmax_d6": null, "tmin_d0": null, "tmin_d1": null, "tmin_d2": null, "tmin_d3": null, "tmin_d4": null, "tmin_d5": null, "tmin_d6": null, "day_of_year": 127, "uuid": "ae28ee5e-d3ef-4a0f-9ccd-298e8c318d78", "inat_id": 360050504}}, {"type": "Feature", "geometry": {"type": "Point", "coordinates": [-107.5893328234, 39.9679189684]}, "properties": {"species": "Verpa bohemica", "date": "2026-05-22", "location": "Garfield County, US-CO, US", "elevation": 2337.0, "land_cover_label": "Grassland", "water_mask": false, "exclude_reason": "keep", "ndvi": null, "soil_moisture": null, "solar_exposure": null, "wind_exposure": null, "water_retention": null, "slope": null, "aspect": null, "num_identification_agreements": 1, "cluster": 0, "tavg": null, "tmin": -1.7, "tmax": 16.1, "prcp_d0": 0.0, "prcp_d1": 0.0, "prcp_d2": 0.0, "prcp_d3": 0.0, "prcp_d4": 3.2649950981140137, "prcp_d5": 9.7949857711792, "prcp_d6": 0.0, "tmax_d0": null, "tmax_d1": null, "tmax_d2": null, "tmax_d3": null, "tmax_d4": null, "tmax_d5": null, "tmax_d6": null, "tmin_d0": null, "tmin_d1": null, "tmin_d2": null, "tmin_d3": null, "tmin_d4": null, "tmin_d5": null, "tmin_d6": null, "day_of_year": 142, "uuid": "93fbc8f8-73eb-4c3e-a716-eebe49a5093e", "inat_id": 364102603}}, {"type": "Feature", "geometry": {"type": "Point", "coordinates": [-107.6734105724, 39.8780520392]}, "properties": {"species": "Verpa bohemica", "date": "2026-05-22", "location": "Garfield County, US-CO, US", "elevation": 2523.0, "land_cover_label": "Tree cover", "water_mask": false, "exclude_reason": "keep", "ndvi": null, "soil_moisture": null, "solar_exposure": null, "wind_exposure": null, "water_retention": null, "slope": null, "aspect": null, "num_identification_agreements": 1, "cluster": 0, "tavg": null, "tmin": -1.7, "tmax": 16.1, "prcp_d0": 0.0, "prcp_d1": 0.0, "prcp_d2": 0.0, "prcp_d3": 0.0, "prcp_d4": 5.003445625305176, "prcp_d5": 7.505168437957764, "prcp_d6": 0.0, "tmax_d0": null, "tmax_d1": null, "tmax_d2": null, "tmax_d3": null, "tmax_d4": null, "tmax_d5": null, "tmax_d6": null, "tmin_d0": null, "tmin_d1": null, "tmin_d2": null, "tmin_d3": null, "tmin_d4": null, "tmin_d5": null, "tmin_d6": null, "day_of_year": 142, "uuid": "1551400e-fa9b-4a7c-a111-6ee262866a8b", "inat_id": 364102021}}, {"type": "Feature", "geometry": {"type": "Point", "coordinates": [-107.53050686, 39.9164216713]}, "properties": {"species": "Verpa bohemica", "date": "2026-05-22", "location": "Garfield County, US-CO, US", "elevation": 2619.0, "land_cover_label": "Tree cover", "water_mask": false, "exclude_reason": "keep", "ndvi": null, "soil_moisture": null, "solar_exposure": null, "wind_exposure": null, "water_retention": null, "slope": null, "aspect": null, "num_identification_agreements": 1, "cluster": 0, "tavg": null, "tmin": -1.7, "tmax": 16.1, "prcp_d0": 0.0, "prcp_d1": 0.0, "prcp_d2": 0.0, "prcp_d3": 0.0, "prcp_d4": 6.925559043884277, "prcp_d5": 6.925559043884277, "prcp_d6": 0.0, "tmax_d0": null, "tmax_d1": null, "tmax_d2": null, "tmax_d3": null, "tmax_d4": null, "tmax_d5": null, "tmax_d6": null, "tmin_d0": null, "tmin_d1": null, "tmin_d2": null, "tmin_d3": null, "tmin_d4": null, "tmin_d5": null, "tmin_d6": null, "day_of_year": 142, "uuid": "af411751-0c14-4c08-979e-0c6b7988f7f1", "inat_id": 364101975}}, {"type": "Feature", "geometry": {"type": "Point", "coordinates": [-107.310490163, 39.1394102346]}, "properties": {"species": "Verpa bohemica", "date": "2026-05-28", "location": "Grand Mesa Uncompahgre and Gunnison National Forests, Somerset, CO, US", "elevation": 2743.0, "land_cover_label": "Tree cover", "water_mask": false, "exclude_reason": "keep", "ndvi": null, "soil_moisture": null, "solar_exposure": null, "wind_exposure": null, "water_retention": null, "slope": null, "aspect": null, "num_identification_agreements": 1, "cluster": 0, "tavg": null, "tmin": 5.0, "tmax": 18.0, "prcp_d0": 0.3633868992328644, "prcp_d1": 1.33047354221344, "prcp_d2": 1.7629791498184204, "prcp_d3": 2.245363712310791, "prcp_d4": 0.0, "prcp_d5": 0.0, "prcp_d6": 0.0, "tmax_d0": null, "tmax_d1": null, "tmax_d2": null, "tmax_d3": null, "tmax_d4": null, "tmax_d5": null, "tmax_d6": null, "tmin_d0": null, "tmin_d1": null, "tmin_d2": null, "tmin_d3": null, "tmin_d4": null, "tmin_d5": null, "tmin_d6": null, "day_of_year": 148, "uuid": "3e1bee35-2dff-40df-b2ea-d36b9e558db8", "inat_id": 366145096}}, {"type": "Feature", "geometry": {"type": "Point", "coordinates": [-107.2852745129, 39.1224982543]}, "properties": {"species": "Verpa bohemica", "date": "2026-05-28", "location": "Gunnison County, US-CO, US", "elevation": 2704.0, "land_cover_label": "Tree cover", "water_mask": false, "exclude_reason": "keep", "ndvi": null, "soil_moisture": null, "solar_exposure": null, "wind_exposure": null, "water_retention": null, "slope": null, "aspect": null, "num_identification_agreements": 1, "cluster": 0, "tavg": null, "tmin": 5.0, "tmax": 18.0, "prcp_d0": 0.3997542262077331, "prcp_d1": 1.4764565229415894, "prcp_d2": 1.9196938276290887, "prcp_d3": 2.434495449066162, "prcp_d4": 0.0, "prcp_d5": 0.0, "prcp_d6": 0.0, "tmax_d0": null, "tmax_d1": null, "tmax_d2": null, "tmax_d3": null, "tmax_d4": null, "tmax_d5": null, "tmax_d6": null, "tmin_d0": null, "tmin_d1": null, "tmin_d2": null, "tmin_d3": null, "tmin_d4": null, "tmin_d5": null, "tmin_d6": null, "day_of_year": 148, "uuid": "92fbe50b-43c8-4c2d-9f4c-e07abc1e43e5", "inat_id": 366136938}}]}