{"type": "FeatureCollection", "features": [{"type": "Feature", "geometry": {"type": "Point", "coordinates": [-121.8124556914, 45.3143183767]}, "properties": {"species": "Xerocomellus zelleri", "date": "2020-11-26", "location": "Zigzag, OR 97049, USA", "elevation": 905.0, "land_cover_label": "Tree cover", "water_mask": false, "exclude_reason": "keep", "ndvi": null, "soil_moisture": null, "solar_exposure": null, "wind_exposure": null, "water_retention": null, "slope": null, "aspect": null, "num_identification_agreements": 1, "cluster": 1, "tavg": null, "tmin": null, "tmax": null, "prcp_d0": 0.0, "prcp_d1": 0.0, "prcp_d2": 0.0, "prcp_d3": 35.59861373901367, "prcp_d4": 0.0, "prcp_d5": 0.0, "prcp_d6": 0.0, "tmax_d0": 3.1, "tmax_d1": 4.4, "tmax_d2": 5.5, "tmax_d3": 3.4, "tmax_d4": 5.7, "tmax_d5": 7.4, "tmax_d6": 4.0, "tmin_d0": 0.9, "tmin_d1": 0.0, "tmin_d2": -0.1, "tmin_d3": 0.4, "tmin_d4": -2.1, "tmin_d5": -7.8, "tmin_d6": -4.6, "day_of_year": 331, "uuid": "2b47b4d1-db62-4bb6-9760-eb8e564eeabb", "inat_id": 65658006}}, {"type": "Feature", "geometry": {"type": "Point", "coordinates": [-121.9429990356, 45.306379706]}, "properties": {"species": "Xerocomellus zelleri", "date": "2023-09-28", "location": "Zigzag Ranger Station, Government Camp, OR, US", "elevation": 485.0, "land_cover_label": "Tree cover", "water_mask": false, "exclude_reason": "keep", "ndvi": null, "soil_moisture": null, "solar_exposure": null, "wind_exposure": null, "water_retention": null, "slope": null, "aspect": null, "num_identification_agreements": 1, "cluster": 3, "tavg": null, "tmin": 12.2, "tmax": 19.4, "prcp_d0": 0.0, "prcp_d1": 0.0, "prcp_d2": 0.0, "prcp_d3": 43.83153533935547, "prcp_d4": 21.91576766967773, "prcp_d5": 0.0, "prcp_d6": 0.0, "tmax_d0": 12.7, "tmax_d1": 13.6, "tmax_d2": 15.8, "tmax_d3": 15.3, "tmax_d4": 15.3, "tmax_d5": 21.0, "tmax_d6": 22.7, "tmin_d0": 9.7, "tmin_d1": 9.2, "tmin_d2": 10.0, "tmin_d3": 11.7, "tmin_d4": 8.8, "tmin_d5": 11.4, "tmin_d6": 7.4, "day_of_year": 271, "uuid": "2924c585-0f6f-490f-88ac-c6804697912c", "inat_id": 189131373}}, {"type": "Feature", "geometry": {"type": "Point", "coordinates": [-121.8683783333, 45.30357]}, "properties": {"species": "Xerocomellus zelleri", "date": "2023-11-04", "location": "Mt. Hood Park Division Recreation Area, Rhododendron, OR, US", "elevation": 684.0, "land_cover_label": "Tree cover", "water_mask": false, "exclude_reason": "keep", "ndvi": null, "soil_moisture": null, "solar_exposure": null, "wind_exposure": null, "water_retention": null, "slope": null, "aspect": null, "num_identification_agreements": 1, "cluster": 1, "tavg": null, "tmin": 8.7, "tmax": 15.2, "prcp_d0": 105.89942932128906, "prcp_d1": 0.0, "prcp_d2": 21.17988586425781, "prcp_d3": 0.0, "prcp_d4": 0.0, "prcp_d5": 0.0, "prcp_d6": 0.0, "tmax_d0": 13.8, "tmax_d1": 15.3, "tmax_d2": 12.5, "tmax_d3": 14.0, "tmax_d4": 16.7, "tmax_d5": 12.7, "tmax_d6": 11.5, "tmin_d0": 11.6, "tmin_d1": 7.2, "tmin_d2": 9.7, "tmin_d3": 8.8, "tmin_d4": 3.9, "tmin_d5": 2.7, "tmin_d6": -0.1, "day_of_year": 308, "uuid": "e2c3bb41-afd8-4261-8633-3216bf58bba3", "inat_id": 190032833}}, {"type": "Feature", "geometry": {"type": "Point", "coordinates": [-121.7423466667, 45.2693116667]}, "properties": {"species": "Xerocomellus zelleri", "date": "2024-10-11", "location": "Mt. Hood Park Division Recreation Area, Government Camp, OR, US", "elevation": 1127.0, "land_cover_label": "Tree cover", "water_mask": false, "exclude_reason": "keep", "ndvi": null, "soil_moisture": null, "solar_exposure": null, "wind_exposure": null, "water_retention": null, "slope": null, "aspect": null, "num_identification_agreements": 1, "cluster": 2, "tavg": null, "tmin": 7.0, "tmax": 17.1, "prcp_d0": 0.0, "prcp_d1": 0.0, "prcp_d2": 21.25906562805176, "prcp_d3": 0.0, "prcp_d4": 0.0, "prcp_d5": 0.0, "prcp_d6": 1.5438107252120972, "tmax_d0": 18.3, "tmax_d1": 13.5, "tmax_d2": 14.6, "tmax_d3": 20.8, "tmax_d4": 22.2, "tmax_d5": 18.5, "tmax_d6": 16.6, "tmin_d0": 6.8, "tmin_d1": 2.9, "tmin_d2": 8.2, "tmin_d3": 10.7, "tmin_d4": 11.1, "tmin_d5": 7.5, "tmin_d6": 2.1, "day_of_year": 285, "uuid": "1f40a715-a39b-4beb-9133-72bc81298ce0", "inat_id": 268250851}}, {"type": "Feature", "geometry": {"type": "Point", "coordinates": [-122.2646006942, 45.4014070298]}, "properties": {"species": "Xerocomellus zelleri", "date": "2025-11-19", "location": "Sandy, OR 97055, USA", "elevation": 237.0, "land_cover_label": "Tree cover", "water_mask": false, "exclude_reason": "keep", "ndvi": null, "soil_moisture": null, "solar_exposure": null, "wind_exposure": null, "water_retention": null, "slope": null, "aspect": null, "num_identification_agreements": 1, "cluster": 2, "tavg": null, "tmin": 2.0, "tmax": 12.0, "prcp_d0": 0.0, "prcp_d1": 0.0, "prcp_d2": 0.0, "prcp_d3": 0.0, "prcp_d4": 0.0, "prcp_d5": 0.0, "prcp_d6": 28.69449234008789, "tmax_d0": 13.3, "tmax_d1": 8.7, "tmax_d2": 10.8, "tmax_d3": 13.9, "tmax_d4": 15.0, "tmax_d5": 13.6, "tmax_d6": 18.9, "tmin_d0": -0.2, "tmin_d1": 1.1, "tmin_d2": 7.5, "tmin_d3": 6.6, "tmin_d4": 10.7, "tmin_d5": 8.7, "tmin_d6": 9.8, "day_of_year": 323, "uuid": "f652f4b2-5ae9-450d-b4bb-3d0cea4ee769", "inat_id": 327282457}}]}