{"type": "FeatureCollection", "features": [{"type": "Feature", "geometry": {"type": "Point", "coordinates": [-105.60592, 36.6171033333]}, "properties": {"species": "Xerocomellus dryophilus", "date": "2024-07-15", "location": "Carson National Forest, Questa, NM, US", "elevation": 2539.0, "land_cover_label": "Tree cover", "water_mask": false, "exclude_reason": "keep", "ndvi": null, "soil_moisture": null, "solar_exposure": null, "wind_exposure": null, "water_retention": null, "slope": null, "aspect": null, "num_identification_agreements": 1, "cluster": 0, "tavg": null, "tmin": 15.6, "tmax": 31.7, "prcp_d0": 15.318666458129885, "prcp_d1": 0.0, "prcp_d2": 0.0, "prcp_d3": 0.0, "prcp_d4": 0.0, "prcp_d5": 0.0, "prcp_d6": 0.0, "tmax_d0": 27.3, "tmax_d1": 28.8, "tmax_d2": 28.4, "tmax_d3": 27.3, "tmax_d4": 26.0, "tmax_d5": 27.2, "tmax_d6": 23.3, "tmin_d0": 15.8, "tmin_d1": 16.8, "tmin_d2": 14.5, "tmin_d3": 12.7, "tmin_d4": 14.0, "tmin_d5": 12.1, "tmin_d6": 12.2, "day_of_year": 197, "uuid": "e84c299c-0bb3-43dc-941e-0495c3ab8a41", "inat_id": 229637733}}]}