{"type": "FeatureCollection", "features": [{"type": "Feature", "geometry": {"type": "Point", "coordinates": [-104.8935782111, 38.8196584931]}, "properties": {"species": "Xerocomus subtomentosus", "date": "2026-03-27", "location": "Pike and San Isabel National Forests, Colorado Springs, CO, US", "elevation": 2043.0, "num_identification_agreements": 2, "tavg": null, "tmin": 1.6, "tmax": 9.0, "day_of_year": 86, "uuid": "4f70060c-2255-4591-9175-98685f75caa5", "inat_id": 346731084}}, {"type": "Feature", "geometry": {"type": "Point", "coordinates": [-107.8654633333, 38.0508833333]}, "properties": {"species": "Xerocomus subtomentosus", "date": "2024-09-07", "location": "Ouray County, US-CO, US", "elevation": 2837.0, "num_identification_agreements": 1, "tavg": null, "tmin": 10.0, "tmax": 21.0, "day_of_year": 251, "uuid": "3049c4aa-147d-4704-a797-c7a01154cb2c", "inat_id": 240548407}}, {"type": "Feature", "geometry": {"type": "Point", "coordinates": [-106.8222988176, 36.0555783036]}, "properties": {"species": "Xerocomus subtomentosus", "date": "2024-08-12", "location": "Rio Arriba County, NM, USA", "elevation": 2971.0, "num_identification_agreements": 1, "tavg": null, "tmin": null, "tmax": null, "day_of_year": 225, "uuid": "b5568323-bf52-4f31-88e3-a720e25a91e1", "inat_id": 235786220}}, {"type": "Feature", "geometry": {"type": "Point", "coordinates": [-105.5036945, 39.96628895]}, "properties": {"species": "Xerocomus subtomentosus", "date": "2023-09-02", "location": "Boulder Canyon Dr, Nederland, CO, US", "elevation": 2519.0, "num_identification_agreements": 1, "tavg": null, "tmin": 20.0, "tmax": 33.0, "day_of_year": 245, "uuid": "96a60cbe-2a81-4633-b187-36e28fdb7a8c", "inat_id": 181487116}}, {"type": "Feature", "geometry": {"type": "Point", "coordinates": [-105.0117504441, 38.7346213164]}, "properties": {"species": "Xerocomus subtomentosus", "date": "2023-08-14", "location": "Teller County, US-CO, US", "elevation": 2969.0, "num_identification_agreements": 3, "tavg": null, "tmin": 13.0, "tmax": 22.0, "day_of_year": 226, "uuid": "bea9dcb8-d2b5-4e75-b4bb-a7cac0427df3", "inat_id": 178774903}}, {"type": "Feature", "geometry": {"type": "Point", "coordinates": [-105.4446057987, 39.6870835081]}, "properties": {"species": "Xerocomus subtomentosus", "date": "2023-07-19", "location": "Idaho Springs, CO, US", "elevation": 2731.0, "num_identification_agreements": 2, "tavg": null, "tmin": 2.9, "tmax": 13.7, "day_of_year": 200, "uuid": "cec00fd0-bf96-4b23-b1bb-f082e86c4a18", "inat_id": 173838145}}, {"type": "Feature", "geometry": {"type": "Point", "coordinates": [-106.3595583333, 39.25847]}, "properties": {"species": "Xerocomus subtomentosus", "date": "2022-08-30", "location": "Pike and San Isabel National Forests, Leadville, CO, US", "elevation": 3014.0, "num_identification_agreements": 1, "tavg": null, "tmin": 2.8, "tmax": 22.8, "day_of_year": 242, "uuid": "4f5e7fdf-ed0e-4963-8b36-22bc6093e604", "inat_id": 145945295}}, {"type": "Feature", "geometry": {"type": "Point", "coordinates": [-104.9588932431, 38.7289154456]}, "properties": {"species": "Xerocomus subtomentosus", "date": "2022-08-09", "location": "Penrose-Rosemont Reservoir, Divide, CO, US", "elevation": 2953.0, "num_identification_agreements": 3, "tavg": null, "tmin": 14.1, "tmax": 27.7, "day_of_year": 221, "uuid": "d09f4917-21f3-48ec-934b-d48356a2236e", "inat_id": 135678677}}, {"type": "Feature", "geometry": {"type": "Point", "coordinates": [-105.5576718561, 39.6959651568]}, "properties": {"species": "Xerocomus subtomentosus", "date": "2022-08-31", "location": "Colorado, US", "elevation": 2950.0, "num_identification_agreements": 2, "tavg": null, "tmin": 1.3, "tmax": 13.3, "day_of_year": 243, "uuid": "83dd275c-2b24-4f34-8b7d-0e848bdde198", "inat_id": 133132539}}, {"type": "Feature", "geometry": {"type": "Point", "coordinates": [-105.567825, 40.0098]}, "properties": {"species": "Xerocomus subtomentosus", "date": "2022-08-23", "location": "Arapaho & Roosevelt National Forests Pawnee National Grassland, Nederland, CO, US", "elevation": 3049.0, "num_identification_agreements": 1, "tavg": null, "tmin": -0.1, "tmax": 12.0, "day_of_year": 235, "uuid": "cb98dd17-f4d1-474e-a3fb-a77ed5b656e8", "inat_id": 132063091}}, {"type": "Feature", "geometry": {"type": "Point", "coordinates": [-107.8099666667, 37.933195]}, "properties": {"species": "Xerocomus subtomentosus", "date": "2022-08-21", "location": "Grand Mesa Uncompahgre and Gunnison National Forests, Telluride, CO, US", "elevation": 2747.0, "num_identification_agreements": 3, "tavg": null, "tmin": 9.0, "tmax": 17.0, "day_of_year": 233, "uuid": "746c4c93-6b90-427d-b62f-fe8b899fe1b8", "inat_id": 131782129}}, {"type": "Feature", "geometry": {"type": "Point", "coordinates": [-106.2402033333, 38.8901583333]}, "properties": {"species": "Xerocomus subtomentosus", "date": "2022-08-20", "location": "Harvard Lakes, Buena Vista, CO, US", "elevation": 3135.0, "num_identification_agreements": 1, "tavg": null, "tmin": 6.2, "tmax": 15.3, "day_of_year": 232, "uuid": "78b243ef-112f-4c06-be0d-3125cc78fc62", "inat_id": 131634235}}, {"type": "Feature", "geometry": {"type": "Point", "coordinates": [-105.6529423575, 40.3084898422]}, "properties": {"species": "Xerocomus subtomentosus", "date": "2022-08-13", "location": "Rocky Mountain, Rocky Mountain National Park, Rocky Mountain National Park, Larimer County, US-CO, US", "elevation": 2979.0, "num_identification_agreements": 1, "tavg": null, "tmin": 9.5, "tmax": 28.4, "day_of_year": 225, "uuid": "693faae5-6227-4c65-95f9-a62c3456f765", "inat_id": 130722059}}, {"type": "Feature", "geometry": {"type": "Point", "coordinates": [-105.578984, 40.2749909722]}, "properties": {"species": "Xerocomus subtomentosus", "date": "2021-08-27", "location": "Estes Park, CO 80517, USA", "elevation": 3189.0, "num_identification_agreements": 1, "tavg": null, "tmin": 4.7, "tmax": 26.7, "day_of_year": 239, "uuid": "f4ceb148-6f60-4341-a1c1-f62379747d4d", "inat_id": 92988404}}, {"type": "Feature", "geometry": {"type": "Point", "coordinates": [-105.7098295414, 40.818423616]}, "properties": {"species": "Xerocomus subtomentosus", "date": "2021-08-01", "location": "Arapaho & Roosevelt National Forests Pawnee National Grassland, Red Feather Lakes, CO, US", "elevation": 2862.0, "num_identification_agreements": 1, "tavg": null, "tmin": null, "tmax": null, "day_of_year": 213, "uuid": "a424ec1d-354a-40e9-ac34-fc0ecef06277", "inat_id": 90174401}}, {"type": "Feature", "geometry": {"type": "Point", "coordinates": [-105.4384936765, 39.6698792569]}, "properties": {"species": "Xerocomus subtomentosus", "date": "2021-08-04", "location": "Golden, CO 80439, USA", "elevation": 2753.0, "num_identification_agreements": 1, "tavg": null, "tmin": 16.0, "tmax": 28.0, "day_of_year": 216, "uuid": "4bb3c56a-8a89-4b95-bde8-338cb169d234", "inat_id": 89975656}}, {"type": "Feature", "geometry": {"type": "Point", "coordinates": [-105.3826325849, 39.5664128635]}, "properties": {"species": "Xerocomus subtomentosus", "date": "2021-08-01", "location": "Jefferson County, US-CO, US", "elevation": 2575.0, "num_identification_agreements": 1, "tavg": null, "tmin": 17.0, "tmax": 26.0, "day_of_year": 213, "uuid": "e0daff8a-f836-4847-b44b-c5bdf79f7649", "inat_id": 89773203}}, {"type": "Feature", "geometry": {"type": "Point", "coordinates": [-105.2602857644, 39.4561508352]}, "properties": {"species": "Xerocomus subtomentosus", "date": "2021-07-30", "location": "Colorado, US", "elevation": 2360.0, "num_identification_agreements": 1, "tavg": null, "tmin": 18.3, "tmax": 32.2, "day_of_year": 211, "uuid": "cf778e03-c64a-42c5-b738-79579e2dfc39", "inat_id": 89271363}}, {"type": "Feature", "geometry": {"type": "Point", "coordinates": [-108.2637305395, 37.601183482]}, "properties": {"species": "Xerocomus subtomentosus", "date": "2021-07-27", "location": "San Juan National Forest, Dolores, CO, US", "elevation": 2846.0, "num_identification_agreements": 1, "tavg": null, "tmin": null, "tmax": null, "day_of_year": 208, "uuid": "44a90b70-f554-4c5c-8af6-78b06c87ed17", "inat_id": 89018992}}, {"type": "Feature", "geometry": {"type": "Point", "coordinates": [-105.3871233981, 39.4768941641]}, "properties": {"species": "Xerocomus subtomentosus", "date": "2021-07-26", "location": "Colorado, US", "elevation": 2583.0, "num_identification_agreements": 1, "tavg": null, "tmin": 16.7, "tmax": 32.2, "day_of_year": 207, "uuid": "2e64ae2b-0b18-42c2-9bd8-ef35ddca7858", "inat_id": 88890414}}, {"type": "Feature", "geometry": {"type": "Point", "coordinates": [-106.1544028333, 39.494495]}, "properties": {"species": "Xerocomus subtomentosus", "date": "2019-08-29", "location": "Copper Mountain, Frisco, CO, US", "elevation": 3097.0, "num_identification_agreements": 1, "tavg": null, "tmin": 12.0, "tmax": 16.0, "day_of_year": 241, "uuid": "0922b181-fc62-42a9-98d4-8376ace3b685", "inat_id": 31941435}}, {"type": "Feature", "geometry": {"type": "Point", "coordinates": [-105.2729603383, 40.0505347307]}, "properties": {"species": "Xerocomus subtomentosus", "date": "2018-08-08", "location": "Colorado, US", "elevation": 1665.0, "num_identification_agreements": 2, "tavg": null, "tmin": 15.0, "tmax": 28.0, "day_of_year": 220, "uuid": "cfeec52b-dc12-4b89-9b2d-a34d090c9108", "inat_id": 15282372}}]}