{"type": "FeatureCollection", "features": [{"type": "Feature", "geometry": {"type": "Point", "coordinates": [-121.8839083333, 45.6599027778]}, "properties": {"species": "Xerocomellus mendocinensis", "date": "2020-10-15", "location": "Hood River County, OR, USA", "elevation": 250.0, "land_cover_label": "Tree cover", "water_mask": false, "exclude_reason": "keep", "ndvi": null, "soil_moisture": null, "solar_exposure": null, "wind_exposure": null, "water_retention": null, "slope": null, "aspect": null, "num_identification_agreements": 1, "cluster": 1, "tavg": null, "tmin": 5.0, "tmax": 18.3, "prcp_d0": 0.0, "prcp_d1": 0.0, "prcp_d2": 57.50893020629883, "prcp_d3": 0.0, "prcp_d4": 0.0, "prcp_d5": 40.44926071166992, "prcp_d6": 0.0, "tmax_d0": 15.5, "tmax_d1": 13.8, "tmax_d2": 14.2, "tmax_d3": 14.7, "tmax_d4": 12.7, "tmax_d5": 19.7, "tmax_d6": 21.0, "tmin_d0": 4.0, "tmin_d1": 9.6, "tmin_d2": 9.0, "tmin_d3": 11.2, "tmin_d4": 9.9, "tmin_d5": 11.5, "tmin_d6": 9.5, "day_of_year": 289, "uuid": "a2e138b1-0f57-4057-b09c-b20266bbd39b", "inat_id": 63866287}}, {"type": "Feature", "geometry": {"type": "Point", "coordinates": [-122.363499803, 45.5148631543]}, "properties": {"species": "Xerocomellus mendocinensis", "date": "2020-10-21", "location": "Oregon, US", "elevation": 81.0, "land_cover_label": "Tree cover", "water_mask": false, "exclude_reason": "keep", "ndvi": null, "soil_moisture": null, "solar_exposure": null, "wind_exposure": null, "water_retention": null, "slope": null, "aspect": null, "num_identification_agreements": 1, "cluster": 0, "tavg": null, "tmin": 6.1, "tmax": 15.0, "prcp_d0": 0.0, "prcp_d1": 0.0, "prcp_d2": 0.0, "prcp_d3": 0.0, "prcp_d4": 0.0, "prcp_d5": 0.0, "prcp_d6": 0.0, "tmax_d0": null, "tmax_d1": null, "tmax_d2": null, "tmax_d3": null, "tmax_d4": null, "tmax_d5": null, "tmax_d6": null, "tmin_d0": null, "tmin_d1": null, "tmin_d2": null, "tmin_d3": null, "tmin_d4": null, "tmin_d5": null, "tmin_d6": null, "day_of_year": 295, "uuid": "94c9bfcc-d0a4-4797-80a6-9abd16a9207d", "inat_id": 63222593}}, {"type": "Feature", "geometry": {"type": "Point", "coordinates": [-121.9403784134, 45.2875386475]}, "properties": {"species": "Xerocomellus mendocinensis", "date": "2021-07-27", "location": "Clackamas County, US-OR, US", "elevation": 489.0, "land_cover_label": "Tree cover", "water_mask": false, "exclude_reason": "keep", "ndvi": null, "soil_moisture": null, "solar_exposure": null, "wind_exposure": null, "water_retention": null, "slope": null, "aspect": null, "num_identification_agreements": 1, "cluster": 0, "tavg": null, "tmin": 17.2, "tmax": 31.1, "prcp_d0": 0.0, "prcp_d1": 0.0, "prcp_d2": 0.0, "prcp_d3": 0.0, "prcp_d4": 0.0, "prcp_d5": 0.0, "prcp_d6": 0.0, "tmax_d0": 27.9, "tmax_d1": 28.9, "tmax_d2": 28.7, "tmax_d3": 29.7, "tmax_d4": 26.8, "tmax_d5": 23.5, "tmax_d6": 20.9, "tmin_d0": 16.0, "tmin_d1": 14.2, "tmin_d2": 14.4, "tmin_d3": 13.8, "tmin_d4": 10.5, "tmin_d5": 7.5, "tmin_d6": 11.0, "day_of_year": 208, "uuid": "ac5d8ce2-98d8-44ca-a41d-3749853f275f", "inat_id": 88970460}}, {"type": "Feature", "geometry": {"type": "Point", "coordinates": [-122.175966762, 45.5164394385]}, "properties": {"species": "Xerocomellus mendocinensis", "date": "2021-10-23", "location": "Corbett, OR 97019, USA", "elevation": 506.0, "land_cover_label": "Tree cover", "water_mask": false, "exclude_reason": "keep", "ndvi": null, "soil_moisture": null, "solar_exposure": null, "wind_exposure": null, "water_retention": null, "slope": null, "aspect": null, "num_identification_agreements": 1, "cluster": 1, "tavg": null, "tmin": 10.6, "tmax": 11.7, "prcp_d0": 0.0, "prcp_d1": 33.77545547485352, "prcp_d2": 33.77545547485352, "prcp_d3": 8.528984069824219, "prcp_d4": 0.0, "prcp_d5": 0.0, "prcp_d6": 25.58695411682129, "tmax_d0": 9.9, "tmax_d1": 13.5, "tmax_d2": 15.7, "tmax_d3": 12.8, "tmax_d4": 15.1, "tmax_d5": 11.5, "tmax_d6": 14.4, "tmin_d0": 5.3, "tmin_d1": 7.0, "tmin_d2": 6.7, "tmin_d3": 7.4, "tmin_d4": 3.0, "tmin_d5": 5.7, "tmin_d6": 7.0, "day_of_year": 296, "uuid": "1c3a14f4-0c3c-468d-94af-3ced9ab30354", "inat_id": 99174207}}, {"type": "Feature", "geometry": {"type": "Point", "coordinates": [-121.73565, 45.2809416667]}, "properties": {"species": "Xerocomellus mendocinensis", "date": "2021-10-31", "location": "Mt. Hood Park Division Recreation Area, Government Camp, OR, US", "elevation": 1121.0, "land_cover_label": "Tree cover", "water_mask": false, "exclude_reason": "keep", "ndvi": null, "soil_moisture": null, "solar_exposure": null, "wind_exposure": null, "water_retention": null, "slope": null, "aspect": null, "num_identification_agreements": 1, "cluster": 0, "tavg": null, "tmin": null, "tmax": null, "prcp_d0": 0.0, "prcp_d1": 0.0, "prcp_d2": 0.0, "prcp_d3": 0.0, "prcp_d4": 0.0, "prcp_d5": 0.0, "prcp_d6": 0.0, "tmax_d0": 7.6, "tmax_d1": 6.4, "tmax_d2": 11.4, "tmax_d3": 11.8, "tmax_d4": 5.2, "tmax_d5": 5.2, "tmax_d6": 6.4, "tmin_d0": 0.4, "tmin_d1": 0.2, "tmin_d2": 3.4, "tmin_d3": 4.6, "tmin_d4": 3.3, "tmin_d5": 2.3, "tmin_d6": 1.8, "day_of_year": 304, "uuid": "b01905ab-49ff-4ff1-800c-7e8ef648d3db", "inat_id": 100122145}}, {"type": "Feature", "geometry": {"type": "Point", "coordinates": [-122.2616472222, 45.4604138889]}, "properties": {"species": "Xerocomellus mendocinensis", "date": "2023-10-08", "location": "Corbett, OR 97019, USA", "elevation": 79.0, "land_cover_label": "Tree cover", "water_mask": false, "exclude_reason": "keep", "ndvi": null, "soil_moisture": null, "solar_exposure": null, "wind_exposure": null, "water_retention": null, "slope": null, "aspect": null, "num_identification_agreements": 1, "cluster": 0, "tavg": null, "tmin": 12.8, "tmax": 27.8, "prcp_d0": 0.0, "prcp_d1": 0.0, "prcp_d2": 0.0, "prcp_d3": 0.0, "prcp_d4": 0.0, "prcp_d5": 0.0, "prcp_d6": 0.0, "tmax_d0": 26.0, "tmax_d1": 26.5, "tmax_d2": 27.4, "tmax_d3": 26.3, "tmax_d4": 17.3, "tmax_d5": 17.1, "tmax_d6": 17.2, "tmin_d0": 10.5, "tmin_d1": 15.3, "tmin_d2": 16.7, "tmin_d3": 7.9, "tmin_d4": 9.8, "tmin_d5": 12.8, "tmin_d6": 7.8, "day_of_year": 281, "uuid": "b5393569-cdc1-4a3d-8195-be93679a4f09", "inat_id": 189057981}}, {"type": "Feature", "geometry": {"type": "Point", "coordinates": [-122.0887833333, 45.5315]}, "properties": {"species": "Xerocomellus mendocinensis", "date": "2023-10-18", "location": "Cascade Locks, OR 97014, USA", "elevation": 1217.0, "land_cover_label": "Tree cover", "water_mask": false, "exclude_reason": "keep", "ndvi": null, "soil_moisture": null, "solar_exposure": null, "wind_exposure": null, "water_retention": null, "slope": null, "aspect": null, "num_identification_agreements": 1, "cluster": 1, "tavg": null, "tmin": 9.4, "tmax": 22.2, "prcp_d0": 0.0, "prcp_d1": 0.0, "prcp_d2": 32.33617401123047, "prcp_d3": 39.390926361083984, "prcp_d4": 0.0, "prcp_d5": 0.0, "prcp_d6": 0.0, "tmax_d0": 18.6, "tmax_d1": 12.3, "tmax_d2": 11.9, "tmax_d3": 13.6, "tmax_d4": 10.8, "tmax_d5": 13.1, "tmax_d6": 13.1, "tmin_d0": 1.3, "tmin_d1": 5.1, "tmin_d2": 6.8, "tmin_d3": 4.9, "tmin_d4": 5.0, "tmin_d5": 3.9, "tmin_d6": 4.4, "day_of_year": 291, "uuid": "a5334def-1800-45ca-bdce-64996e3d0567", "inat_id": 189057294}}, {"type": "Feature", "geometry": {"type": "Point", "coordinates": [-122.2853166667, 45.4965166667]}, "properties": {"species": "Xerocomellus mendocinensis", "date": "2023-10-21", "location": "Oxbow Regional Park, Corbett, OR, US", "elevation": 57.0, "land_cover_label": "Tree cover", "water_mask": false, "exclude_reason": "keep", "ndvi": null, "soil_moisture": null, "solar_exposure": null, "wind_exposure": null, "water_retention": null, "slope": null, "aspect": null, "num_identification_agreements": 1, "cluster": 0, "tavg": null, "tmin": 12.8, "tmax": 16.7, "prcp_d0": 0.0, "prcp_d1": 0.0, "prcp_d2": 0.0, "prcp_d3": 0.0, "prcp_d4": 0.0, "prcp_d5": 23.62357711791992, "prcp_d6": 0.0, "tmax_d0": 18.0, "tmax_d1": 19.4, "tmax_d2": 19.2, "tmax_d3": 21.5, "tmax_d4": 18.4, "tmax_d5": 19.2, "tmax_d6": 20.2, "tmin_d0": 9.4, "tmin_d1": 9.6, "tmin_d2": 8.1, "tmin_d3": 7.4, "tmin_d4": 10.8, "tmin_d5": 13.5, "tmin_d6": 11.1, "day_of_year": 294, "uuid": "69e7fd41-50af-460d-8d19-3ff208e2860d", "inat_id": 188577459}}, {"type": "Feature", "geometry": {"type": "Point", "coordinates": [-122.5211120359, 45.248354158]}, "properties": {"species": "Xerocomellus mendocinensis", "date": "2025-10-25", "location": "S Brockway Rd, Oregon City, OR, US", "elevation": 212.0, "land_cover_label": "Tree cover", "water_mask": false, "exclude_reason": "keep", "ndvi": null, "soil_moisture": null, "solar_exposure": null, "wind_exposure": null, "water_retention": null, "slope": null, "aspect": null, "num_identification_agreements": 1, "cluster": 1, "tavg": null, "tmin": 7.0, "tmax": 13.0, "prcp_d0": 0.0, "prcp_d1": 37.80050659179688, "prcp_d2": 18.90025329589844, "prcp_d3": 0.0, "prcp_d4": 0.0, "prcp_d5": 0.0, "prcp_d6": 0.0, "tmax_d0": null, "tmax_d1": null, "tmax_d2": null, "tmax_d3": null, "tmax_d4": null, "tmax_d5": null, "tmax_d6": null, "tmin_d0": null, "tmin_d1": null, "tmin_d2": null, "tmin_d3": null, "tmin_d4": null, "tmin_d5": null, "tmin_d6": null, "day_of_year": 298, "uuid": "53f87bb2-db2c-4d6b-9754-5fc0c7fc9785", "inat_id": 323483411}}]}