{"type": "FeatureCollection", "features": [{"type": "Feature", "geometry": {"type": "Point", "coordinates": [-107.1684717656, 38.8568708432]}, "properties": {"species": "Xerocomellus amylosporus", "date": "2024-09-01", "location": "Grand Mesa Uncompahgre and Gunnison National Forests, Somerset, CO, US", "elevation": 2785.0, "land_cover_label": "Tree cover", "water_mask": false, "exclude_reason": "keep", "ndvi": null, "soil_moisture": null, "solar_exposure": null, "wind_exposure": null, "water_retention": null, "slope": null, "aspect": null, "num_identification_agreements": 3, "cluster": 2, "tavg": null, "tmin": null, "tmax": null, "prcp_d0": 0.0, "prcp_d1": 0.0256904307752847, "prcp_d2": 0.6411107182502747, "prcp_d3": 0.2127877175807953, "prcp_d4": 0.7534376382827759, "prcp_d5": 0.3860150873661041, "prcp_d6": 6.573192119598389, "tmax_d0": null, "tmax_d1": null, "tmax_d2": null, "tmax_d3": null, "tmax_d4": null, "tmax_d5": null, "tmax_d6": null, "tmin_d0": null, "tmin_d1": null, "tmin_d2": null, "tmin_d3": null, "tmin_d4": null, "tmin_d5": null, "tmin_d6": null, "day_of_year": 245, "uuid": "2fb111fb-5028-4de6-9e4b-ed493f53c41a", "inat_id": 239246079}}]}