{"type": "FeatureCollection", "features": [{"type": "Feature", "geometry": {"type": "Point", "coordinates": [-122.1674108505, 45.5612911464]}, "properties": {"species": "Xylaria hypoxylon", "date": "2011-12-04", "location": "Multnomah County, OR, USA", "elevation": 89.0, "land_cover_label": "Tree cover", "water_mask": false, "exclude_reason": "keep", "ndvi": null, "soil_moisture": null, "solar_exposure": null, "wind_exposure": null, "water_retention": null, "slope": null, "aspect": null, "num_identification_agreements": 1, "cluster": 0, "tavg": null, "tmin": -1.1, "tmax": 6.7, "prcp_d0": 0.0, "prcp_d1": 0.0, "prcp_d2": 0.0, "prcp_d3": 0.0, "prcp_d4": 0.0, "prcp_d5": 0.0, "prcp_d6": 0.0, "tmax_d0": null, "tmax_d1": null, "tmax_d2": null, "tmax_d3": null, "tmax_d4": null, "tmax_d5": null, "tmax_d6": null, "tmin_d0": null, "tmin_d1": null, "tmin_d2": null, "tmin_d3": null, "tmin_d4": null, "tmin_d5": null, "tmin_d6": null, "day_of_year": 338, "uuid": "7e8e8852-4fe6-4387-969b-6535e42ddd02", "inat_id": 5431886}}, {"type": "Feature", "geometry": {"type": "Point", "coordinates": [-121.8577990359, 45.3265393984]}, "properties": {"species": "Xylaria hypoxylon", "date": "2016-10-24", "location": "Oregon, US", "elevation": 1043.0, "land_cover_label": "Tree cover", "water_mask": false, "exclude_reason": "keep", "ndvi": null, "soil_moisture": null, "solar_exposure": null, "wind_exposure": null, "water_retention": null, "slope": null, "aspect": null, "num_identification_agreements": 1, "cluster": 2, "tavg": null, "tmin": 10.0, "tmax": 15.6, "prcp_d0": 38.31659698486328, "prcp_d1": 0.0, "prcp_d2": 0.0, "prcp_d3": 0.0, "prcp_d4": 24.116161346435547, "prcp_d5": 0.0, "prcp_d6": 24.116161346435547, "tmax_d0": null, "tmax_d1": null, "tmax_d2": null, "tmax_d3": null, "tmax_d4": null, "tmax_d5": null, "tmax_d6": null, "tmin_d0": null, "tmin_d1": null, "tmin_d2": null, "tmin_d3": null, "tmin_d4": null, "tmin_d5": null, "tmin_d6": null, "day_of_year": 298, "uuid": "9ba1c033-fe7a-41fa-8e40-c42cbe63858d", "inat_id": 103565743}}, {"type": "Feature", "geometry": {"type": "Point", "coordinates": [-122.1917000973, 44.8515414494]}, "properties": {"species": "Xylaria hypoxylon", "date": "2016-10-26", "location": "Marion County, US-OR, US", "elevation": 791.0, "land_cover_label": "Tree cover", "water_mask": false, "exclude_reason": "keep", "ndvi": null, "soil_moisture": null, "solar_exposure": null, "wind_exposure": null, "water_retention": null, "slope": null, "aspect": null, "num_identification_agreements": 1, "cluster": 1, "tavg": null, "tmin": null, "tmax": null, "prcp_d0": 76.77598571777344, "prcp_d1": 0.0, "prcp_d2": 42.28094100952149, "prcp_d3": 0.0, "prcp_d4": 0.0, "prcp_d5": 0.0, "prcp_d6": 12.950172424316406, "tmax_d0": null, "tmax_d1": null, "tmax_d2": null, "tmax_d3": null, "tmax_d4": null, "tmax_d5": null, "tmax_d6": null, "tmin_d0": null, "tmin_d1": null, "tmin_d2": null, "tmin_d3": null, "tmin_d4": null, "tmin_d5": null, "tmin_d6": null, "day_of_year": 300, "uuid": "533d5df2-4ab1-4563-83d5-fa9505d06a4d", "inat_id": 4450808}}, {"type": "Feature", "geometry": {"type": "Point", "coordinates": [-122.2592980724, 45.3470243596]}, "properties": {"species": "Xylaria hypoxylon", "date": "2016-11-30", "location": "Oregon, US", "elevation": 371.0, "land_cover_label": "Grassland", "water_mask": false, "exclude_reason": "keep", "ndvi": null, "soil_moisture": null, "solar_exposure": null, "wind_exposure": null, "water_retention": null, "slope": null, "aspect": null, "num_identification_agreements": 1, "cluster": 2, "tavg": null, "tmin": 6.7, "tmax": 10.0, "prcp_d0": 0.0, "prcp_d1": 0.0, "prcp_d2": 16.687349319458008, "prcp_d3": 16.687349319458008, "prcp_d4": 16.687349319458008, "prcp_d5": 18.49406814575196, "prcp_d6": 30.823448181152344, "tmax_d0": null, "tmax_d1": null, "tmax_d2": null, "tmax_d3": null, "tmax_d4": null, "tmax_d5": null, "tmax_d6": null, "tmin_d0": null, "tmin_d1": null, "tmin_d2": null, "tmin_d3": null, "tmin_d4": null, "tmin_d5": null, "tmin_d6": null, "day_of_year": 335, "uuid": "3a931268-95a6-45b5-9ddb-796320ebb14d", "inat_id": 34987288}}, {"type": "Feature", "geometry": {"type": "Point", "coordinates": [-122.3462835966, 45.3213898302]}, "properties": {"species": "Xylaria hypoxylon", "date": "2016-12-01", "location": "Oregon, US", "elevation": 124.0, "land_cover_label": "Tree cover", "water_mask": false, "exclude_reason": "keep", "ndvi": null, "soil_moisture": null, "solar_exposure": null, "wind_exposure": null, "water_retention": null, "slope": null, "aspect": null, "num_identification_agreements": 1, "cluster": 2, "tavg": null, "tmin": 4.4, "tmax": 8.9, "prcp_d0": 0.0, "prcp_d1": 0.0, "prcp_d2": 0.0, "prcp_d3": 0.0, "prcp_d4": 21.061357498168945, "prcp_d5": 21.061357498168945, "prcp_d6": 21.1489200592041, "tmax_d0": null, "tmax_d1": null, "tmax_d2": null, "tmax_d3": null, "tmax_d4": null, "tmax_d5": null, "tmax_d6": null, "tmin_d0": null, "tmin_d1": null, "tmin_d2": null, "tmin_d3": null, "tmin_d4": null, "tmin_d5": null, "tmin_d6": null, "day_of_year": 336, "uuid": "0067b1f9-ca07-4cbc-8b21-6d8bcc975d28", "inat_id": 35090975}}, {"type": "Feature", "geometry": {"type": "Point", "coordinates": [-121.9402923584, 45.2778091431]}, "properties": {"species": "Xylaria hypoxylon", "date": "2017-09-21", "location": "E Salmon River Rd, Welches, OR 97067, USA", "elevation": 509.0, "land_cover_label": "Tree cover", "water_mask": false, "exclude_reason": "keep", "ndvi": null, "soil_moisture": null, "solar_exposure": null, "wind_exposure": null, "water_retention": null, "slope": null, "aspect": null, "num_identification_agreements": 1, "cluster": 1, "tavg": null, "tmin": 9.4, "tmax": 16.7, "prcp_d0": 6.698614597320557, "prcp_d1": 17.030927658081055, "prcp_d2": 11.25743579864502, "prcp_d3": 10.69863224029541, "prcp_d4": 0.0, "prcp_d5": 0.0, "prcp_d6": 0.0, "tmax_d0": null, "tmax_d1": null, "tmax_d2": null, "tmax_d3": null, "tmax_d4": null, "tmax_d5": null, "tmax_d6": null, "tmin_d0": null, "tmin_d1": null, "tmin_d2": null, "tmin_d3": null, "tmin_d4": null, "tmin_d5": null, "tmin_d6": null, "day_of_year": 264, "uuid": "0d419505-d664-40eb-b409-76b93141e0b1", "inat_id": 8528871}}, {"type": "Feature", "geometry": {"type": "Point", "coordinates": [-122.0305416667, 45.3756466667]}, "properties": {"species": "Xylaria hypoxylon", "date": "2017-10-04", "location": "61800 E Jett View Ln, Brightwood, OR, US", "elevation": 319.0, "land_cover_label": "Tree cover", "water_mask": false, "exclude_reason": "keep", "ndvi": null, "soil_moisture": null, "solar_exposure": null, "wind_exposure": null, "water_retention": null, "slope": null, "aspect": null, "num_identification_agreements": 1, "cluster": 0, "tavg": null, "tmin": 3.9, "tmax": 22.2, "prcp_d0": 0.0, "prcp_d1": 0.0, "prcp_d2": 0.0, "prcp_d3": 0.0, "prcp_d4": 0.0, "prcp_d5": 0.0, "prcp_d6": 0.0, "tmax_d0": null, "tmax_d1": null, "tmax_d2": null, "tmax_d3": null, "tmax_d4": null, "tmax_d5": null, "tmax_d6": null, "tmin_d0": null, "tmin_d1": null, "tmin_d2": null, "tmin_d3": null, "tmin_d4": null, "tmin_d5": null, "tmin_d6": null, "day_of_year": 277, "uuid": "650b2dea-90c7-4a9a-bca8-121330dbd951", "inat_id": 8261202}}, {"type": "Feature", "geometry": {"type": "Point", "coordinates": [-121.9634027778, 45.3311388889]}, "properties": {"species": "Xylaria hypoxylon", "date": "2018-04-15", "location": "Clackamas County, OR, USA", "elevation": 411.0, "land_cover_label": "Tree cover", "water_mask": false, "exclude_reason": "keep", "ndvi": null, "soil_moisture": null, "solar_exposure": null, "wind_exposure": null, "water_retention": null, "slope": null, "aspect": null, "num_identification_agreements": 1, "cluster": 2, "tavg": null, "tmin": 7.8, "tmax": 10.6, "prcp_d0": 0.0, "prcp_d1": 15.468146324157717, "prcp_d2": 0.0, "prcp_d3": 30.93629264831543, "prcp_d4": 15.468146324157717, "prcp_d5": 28.2994327545166, "prcp_d6": 0.0, "tmax_d0": null, "tmax_d1": null, "tmax_d2": null, "tmax_d3": null, "tmax_d4": null, "tmax_d5": null, "tmax_d6": null, "tmin_d0": null, "tmin_d1": null, "tmin_d2": null, "tmin_d3": null, "tmin_d4": null, "tmin_d5": null, "tmin_d6": null, "day_of_year": 105, "uuid": "06d1e6cf-056b-45b1-a0e7-568c98cbf584", "inat_id": 11209977}}, {"type": "Feature", "geometry": {"type": "Point", "coordinates": [-121.8845583333, 45.2985633333]}, "properties": {"species": "Xylaria hypoxylon", "date": "2019-09-21", "location": "Mt. Hood National Forest, Rhododendron, OR, US", "elevation": 584.0, "land_cover_label": "Tree cover", "water_mask": false, "exclude_reason": "keep", "ndvi": null, "soil_moisture": null, "solar_exposure": null, "wind_exposure": null, "water_retention": null, "slope": null, "aspect": null, "num_identification_agreements": 1, "cluster": 0, "tavg": null, "tmin": 13.9, "tmax": 22.2, "prcp_d0": 0.0, "prcp_d1": 0.0, "prcp_d2": 0.0, "prcp_d3": 0.0, "prcp_d4": 0.0, "prcp_d5": 0.0, "prcp_d6": 0.0, "tmax_d0": null, "tmax_d1": null, "tmax_d2": null, "tmax_d3": null, "tmax_d4": null, "tmax_d5": null, "tmax_d6": null, "tmin_d0": null, "tmin_d1": null, "tmin_d2": null, "tmin_d3": null, "tmin_d4": null, "tmin_d5": null, "tmin_d6": null, "day_of_year": 264, "uuid": "f88bc649-a32a-4855-8537-7f00f2bddb41", "inat_id": 33169283}}, {"type": "Feature", "geometry": {"type": "Point", "coordinates": [-122.0345473335, 45.3994059746]}, "properties": {"species": "Xylaria hypoxylon", "date": "2019-09-30", "location": "Oregon, US", "elevation": 801.0, "land_cover_label": "Tree cover", "water_mask": false, "exclude_reason": "keep", "ndvi": null, "soil_moisture": null, "solar_exposure": null, "wind_exposure": null, "water_retention": null, "slope": null, "aspect": null, "num_identification_agreements": 1, "cluster": 0, "tavg": null, "tmin": 5.0, "tmax": 15.0, "prcp_d0": 0.0, "prcp_d1": 0.0, "prcp_d2": 0.0, "prcp_d3": 0.0, "prcp_d4": 0.0, "prcp_d5": 0.0, "prcp_d6": 0.0, "tmax_d0": null, "tmax_d1": null, "tmax_d2": null, "tmax_d3": null, "tmax_d4": null, "tmax_d5": null, "tmax_d6": null, "tmin_d0": null, "tmin_d1": null, "tmin_d2": null, "tmin_d3": null, "tmin_d4": null, "tmin_d5": null, "tmin_d6": null, "day_of_year": 273, "uuid": "5306a69f-3c6e-460d-aa1a-f54d77c792ce", "inat_id": 33706802}}, {"type": "Feature", "geometry": {"type": "Point", "coordinates": [-122.0373472222, 45.38295]}, "properties": {"species": "Xylaria hypoxylon", "date": "2019-10-04", "location": "Clackamas County, OR, USA", "elevation": 323.0, "land_cover_label": "Tree cover", "water_mask": false, "exclude_reason": "keep", "ndvi": null, "soil_moisture": null, "solar_exposure": null, "wind_exposure": null, "water_retention": null, "slope": null, "aspect": null, "num_identification_agreements": 2, "cluster": 0, "tavg": null, "tmin": 9.4, "tmax": 17.2, "prcp_d0": 0.0, "prcp_d1": 0.0, "prcp_d2": 0.0, "prcp_d3": 0.0, "prcp_d4": 0.0, "prcp_d5": 0.0, "prcp_d6": 0.0, "tmax_d0": null, "tmax_d1": null, "tmax_d2": null, "tmax_d3": null, "tmax_d4": null, "tmax_d5": null, "tmax_d6": null, "tmin_d0": null, "tmin_d1": null, "tmin_d2": null, "tmin_d3": null, "tmin_d4": null, "tmin_d5": null, "tmin_d6": null, "day_of_year": 277, "uuid": "65223060-a5b5-480d-a2c7-b9e37883088d", "inat_id": 34220674}}, {"type": "Feature", "geometry": {"type": "Point", "coordinates": [-122.29176319, 45.48819237]}, "properties": {"species": "Xylaria hypoxylon", "date": "2019-11-09", "location": "Multnomah County, US-OR, US", "elevation": 142.0, "land_cover_label": "Tree cover", "water_mask": false, "exclude_reason": "keep", "ndvi": null, "soil_moisture": null, "solar_exposure": null, "wind_exposure": null, "water_retention": null, "slope": null, "aspect": null, "num_identification_agreements": 1, "cluster": 0, "tavg": null, "tmin": 3.9, "tmax": 11.7, "prcp_d0": 0.0, "prcp_d1": 0.0, "prcp_d2": 0.0, "prcp_d3": 0.0, "prcp_d4": 0.0, "prcp_d5": 0.0, "prcp_d6": 0.0, "tmax_d0": null, "tmax_d1": null, "tmax_d2": null, "tmax_d3": null, "tmax_d4": null, "tmax_d5": null, "tmax_d6": null, "tmin_d0": null, "tmin_d1": null, "tmin_d2": null, "tmin_d3": null, "tmin_d4": null, "tmin_d5": null, "tmin_d6": null, "day_of_year": 313, "uuid": "7beeacea-9536-4c2b-a997-d5e1a107a7c5", "inat_id": 35516702}}, {"type": "Feature", "geometry": {"type": "Point", "coordinates": [-121.6856090689, 45.6877926137]}, "properties": {"species": "Xylaria hypoxylon", "date": "2019-12-15", "location": "Columbia River Gorge National Scenic Area, Hood River, OR, US", "elevation": 194.0, "land_cover_label": "Tree cover", "water_mask": false, "exclude_reason": "keep", "ndvi": null, "soil_moisture": null, "solar_exposure": null, "wind_exposure": null, "water_retention": null, "slope": null, "aspect": null, "num_identification_agreements": 2, "cluster": 0, "tavg": null, "tmin": -1.1, "tmax": 8.9, "prcp_d0": 0.0, "prcp_d1": 10.355512619018556, "prcp_d2": 0.0, "prcp_d3": 0.0, "prcp_d4": 10.355512619018556, "prcp_d5": 0.0, "prcp_d6": 0.0, "tmax_d0": null, "tmax_d1": null, "tmax_d2": null, "tmax_d3": null, "tmax_d4": null, "tmax_d5": null, "tmax_d6": null, "tmin_d0": null, "tmin_d1": null, "tmin_d2": null, "tmin_d3": null, "tmin_d4": null, "tmin_d5": null, "tmin_d6": null, "day_of_year": 349, "uuid": "b3b4e8ad-6852-4fdb-8b32-ad26fbf4bd8c", "inat_id": 36736324}}, {"type": "Feature", "geometry": {"type": "Point", "coordinates": [-122.3757238429, 45.2449433631]}, "properties": {"species": "Xylaria hypoxylon", "date": "2020-01-02", "location": "Beavercreek, OR, US", "elevation": 356.0, "land_cover_label": "Tree cover", "water_mask": false, "exclude_reason": "keep", "ndvi": null, "soil_moisture": null, "solar_exposure": null, "wind_exposure": null, "water_retention": null, "slope": null, "aspect": null, "num_identification_agreements": 1, "cluster": 1, "tavg": null, "tmin": 6.7, "tmax": 10.6, "prcp_d0": 0.0, "prcp_d1": 22.410938262939453, "prcp_d2": 11.30969524383545, "prcp_d3": 0.0, "prcp_d4": 0.0, "prcp_d5": 0.0, "prcp_d6": 0.0, "tmax_d0": null, "tmax_d1": null, "tmax_d2": null, "tmax_d3": null, "tmax_d4": null, "tmax_d5": null, "tmax_d6": null, "tmin_d0": null, "tmin_d1": null, "tmin_d2": null, "tmin_d3": null, "tmin_d4": null, "tmin_d5": null, "tmin_d6": null, "day_of_year": 2, "uuid": "7d534e40-a482-433f-93fb-d3fdd3db6c25", "inat_id": 41152950}}, {"type": "Feature", "geometry": {"type": "Point", "coordinates": [-122.3736671101, 45.2417290424]}, "properties": {"species": "Xylaria hypoxylon", "date": "2020-01-02", "location": "S Shady Forest Ln, Beavercreek, OR, US", "elevation": 344.0, "land_cover_label": "Tree cover", "water_mask": false, "exclude_reason": "keep", "ndvi": null, "soil_moisture": null, "solar_exposure": null, "wind_exposure": null, "water_retention": null, "slope": null, "aspect": null, "num_identification_agreements": 1, "cluster": 1, "tavg": null, "tmin": 6.7, "tmax": 10.6, "prcp_d0": 0.0, "prcp_d1": 22.410938262939453, "prcp_d2": 11.30969524383545, "prcp_d3": 0.0, "prcp_d4": 0.0, "prcp_d5": 0.0, "prcp_d6": 0.0, "tmax_d0": null, "tmax_d1": null, "tmax_d2": null, "tmax_d3": null, "tmax_d4": null, "tmax_d5": null, "tmax_d6": null, "tmin_d0": null, "tmin_d1": null, "tmin_d2": null, "tmin_d3": null, "tmin_d4": null, "tmin_d5": null, "tmin_d6": null, "day_of_year": 2, "uuid": "7adc2f82-78e7-40d4-aa8e-540d52a1f579", "inat_id": 145715819}}, {"type": "Feature", "geometry": {"type": "Point", "coordinates": [-122.3295038216, 45.5346288996]}, "properties": {"species": "Xylaria hypoxylon", "date": "2020-10-20", "location": "Columbia River Gorge National Scenic Area, Troutdale, OR, US", "elevation": 212.0, "land_cover_label": "Tree cover", "water_mask": false, "exclude_reason": "keep", "ndvi": null, "soil_moisture": null, "solar_exposure": null, "wind_exposure": null, "water_retention": null, "slope": null, "aspect": null, "num_identification_agreements": 1, "cluster": 0, "tavg": null, "tmin": 9.4, "tmax": 17.8, "prcp_d0": 0.0, "prcp_d1": 0.0, "prcp_d2": 0.0, "prcp_d3": 0.0, "prcp_d4": 0.0, "prcp_d5": 0.0, "prcp_d6": 0.0, "tmax_d0": null, "tmax_d1": null, "tmax_d2": null, "tmax_d3": null, "tmax_d4": null, "tmax_d5": null, "tmax_d6": null, "tmin_d0": null, "tmin_d1": null, "tmin_d2": null, "tmin_d3": null, "tmin_d4": null, "tmin_d5": null, "tmin_d6": null, "day_of_year": 294, "uuid": "8099eb8b-ea83-4f54-954b-c8c05da108da", "inat_id": 63133665}}, {"type": "Feature", "geometry": {"type": "Point", "coordinates": [-122.1271133423, 45.5737978197]}, "properties": {"species": "Xylaria hypoxylon", "date": "2020-11-10", "location": "Multnomah County, OR, USA", "elevation": 183.0, "land_cover_label": "Tree cover", "water_mask": false, "exclude_reason": "keep", "ndvi": null, "soil_moisture": null, "solar_exposure": null, "wind_exposure": null, "water_retention": null, "slope": null, "aspect": null, "num_identification_agreements": 1, "cluster": 0, "tavg": null, "tmin": 6.7, "tmax": 11.1, "prcp_d0": 0.0, "prcp_d1": 0.0, "prcp_d2": 0.0, "prcp_d3": 0.0, "prcp_d4": 0.0, "prcp_d5": 0.0, "prcp_d6": 0.0, "tmax_d0": null, "tmax_d1": null, "tmax_d2": null, "tmax_d3": null, "tmax_d4": null, "tmax_d5": null, "tmax_d6": null, "tmin_d0": null, "tmin_d1": null, "tmin_d2": null, "tmin_d3": null, "tmin_d4": null, "tmin_d5": null, "tmin_d6": null, "day_of_year": 315, "uuid": "37fdad71-ed81-42da-b254-fee2dd49ab92", "inat_id": 66301540}}, {"type": "Feature", "geometry": {"type": "Point", "coordinates": [-122.3707866669, 45.2986185102]}, "properties": {"species": "Xylaria hypoxylon", "date": "2020-11-30", "location": "Clackamas County, OR, USA", "elevation": 86.0, "land_cover_label": "Tree cover", "water_mask": false, "exclude_reason": "keep", "ndvi": null, "soil_moisture": null, "solar_exposure": null, "wind_exposure": null, "water_retention": null, "slope": null, "aspect": null, "num_identification_agreements": 2, "cluster": 0, "tavg": null, "tmin": 2.2, "tmax": 11.1, "prcp_d0": 0.0, "prcp_d1": 0.0, "prcp_d2": 0.0, "prcp_d3": 0.0, "prcp_d4": 0.0, "prcp_d5": 0.0, "prcp_d6": 0.0, "tmax_d0": null, "tmax_d1": null, "tmax_d2": null, "tmax_d3": null, "tmax_d4": null, "tmax_d5": null, "tmax_d6": null, "tmin_d0": null, "tmin_d1": null, "tmin_d2": null, "tmin_d3": null, "tmin_d4": null, "tmin_d5": null, "tmin_d6": null, "day_of_year": 335, "uuid": "2faf7148-a360-4498-97ff-6108ba910fd7", "inat_id": 66626611}}, {"type": "Feature", "geometry": {"type": "Point", "coordinates": [-121.90503, 45.39083]}, "properties": {"species": "Xylaria hypoxylon", "date": "2021-10-07", "location": "Rhododendron, OR, US", "elevation": 607.0, "land_cover_label": "Tree cover", "water_mask": false, "exclude_reason": "keep", "ndvi": null, "soil_moisture": null, "solar_exposure": null, "wind_exposure": null, "water_retention": null, "slope": null, "aspect": null, "num_identification_agreements": 1, "cluster": 0, "tavg": null, "tmin": 7.2, "tmax": 16.7, "prcp_d0": 0.0, "prcp_d1": 0.0, "prcp_d2": 0.0, "prcp_d3": 0.0, "prcp_d4": 0.0, "prcp_d5": 0.0, "prcp_d6": 0.0, "tmax_d0": null, "tmax_d1": null, "tmax_d2": null, "tmax_d3": null, "tmax_d4": null, "tmax_d5": null, "tmax_d6": null, "tmin_d0": null, "tmin_d1": null, "tmin_d2": null, "tmin_d3": null, "tmin_d4": null, "tmin_d5": null, "tmin_d6": null, "day_of_year": 280, "uuid": "d781a291-c251-491d-9a0e-ccd5619cd403", "inat_id": 319218466}}, {"type": "Feature", "geometry": {"type": "Point", "coordinates": [-122.18095, 45.5554388889]}, "properties": {"species": "Xylaria hypoxylon", "date": "2021-10-13", "location": "Bridal Veil, OR 97010, USA", "elevation": 35.0, "land_cover_label": "Tree cover", "water_mask": false, "exclude_reason": "keep", "ndvi": null, "soil_moisture": null, "solar_exposure": null, "wind_exposure": null, "water_retention": null, "slope": null, "aspect": null, "num_identification_agreements": 2, "cluster": 0, "tavg": null, "tmin": 7.8, "tmax": 12.2, "prcp_d0": 0.0, "prcp_d1": 0.0, "prcp_d2": 0.0, "prcp_d3": 0.0, "prcp_d4": 0.0, "prcp_d5": 0.0, "prcp_d6": 0.0, "tmax_d0": null, "tmax_d1": null, "tmax_d2": null, "tmax_d3": null, "tmax_d4": null, "tmax_d5": null, "tmax_d6": null, "tmin_d0": null, "tmin_d1": null, "tmin_d2": null, "tmin_d3": null, "tmin_d4": null, "tmin_d5": null, "tmin_d6": null, "day_of_year": 286, "uuid": "3da0c90d-3977-49b4-a910-3363415e1f03", "inat_id": 98174968}}, {"type": "Feature", "geometry": {"type": "Point", "coordinates": [-122.1950738132, 45.5906558832]}, "properties": {"species": "Xylaria hypoxylon", "date": "2021-10-16", "location": "Washougal, WA 98671, USA", "elevation": 330.0, "land_cover_label": "Tree cover", "water_mask": false, "exclude_reason": "keep", "ndvi": null, "soil_moisture": null, "solar_exposure": null, "wind_exposure": null, "water_retention": null, "slope": null, "aspect": null, "num_identification_agreements": 1, "cluster": 0, "tavg": null, "tmin": 7.2, "tmax": 20.6, "prcp_d0": 0.0, "prcp_d1": 0.0, "prcp_d2": 0.0, "prcp_d3": 0.0, "prcp_d4": 0.0, "prcp_d5": 0.0, "prcp_d6": 0.0, "tmax_d0": null, "tmax_d1": null, "tmax_d2": null, "tmax_d3": null, "tmax_d4": null, "tmax_d5": null, "tmax_d6": null, "tmin_d0": null, "tmin_d1": null, "tmin_d2": null, "tmin_d3": null, "tmin_d4": null, "tmin_d5": null, "tmin_d6": null, "day_of_year": 289, "uuid": "83404c19-724f-4d22-adba-5858744c7786", "inat_id": 98648725}}, {"type": "Feature", "geometry": {"type": "Point", "coordinates": [-122.2945284089, 45.3067852533]}, "properties": {"species": "Xylaria hypoxylon", "date": "2021-10-17", "location": "Oregon, US", "elevation": 284.0, "land_cover_label": "Tree cover", "water_mask": false, "exclude_reason": "keep", "ndvi": null, "soil_moisture": null, "solar_exposure": null, "wind_exposure": null, "water_retention": null, "slope": null, "aspect": null, "num_identification_agreements": 1, "cluster": 0, "tavg": null, "tmin": 7.8, "tmax": 17.2, "prcp_d0": 16.12194061279297, "prcp_d1": 0.0, "prcp_d2": 0.0, "prcp_d3": 0.0, "prcp_d4": 0.0, "prcp_d5": 0.0, "prcp_d6": 0.0, "tmax_d0": null, "tmax_d1": null, "tmax_d2": null, "tmax_d3": null, "tmax_d4": null, "tmax_d5": null, "tmax_d6": null, "tmin_d0": null, "tmin_d1": null, "tmin_d2": null, "tmin_d3": null, "tmin_d4": null, "tmin_d5": null, "tmin_d6": null, "day_of_year": 290, "uuid": "5cfbb675-19e9-410b-aae5-9c6e139b8a7f", "inat_id": 98859421}}, {"type": "Feature", "geometry": {"type": "Point", "coordinates": [-122.5181072914, 45.0387438788]}, "properties": {"species": "Xylaria hypoxylon", "date": "2021-10-17", "location": "Clackamas County, OR, USA", "elevation": 526.0, "land_cover_label": "Tree cover", "water_mask": false, "exclude_reason": "keep", "ndvi": null, "soil_moisture": null, "solar_exposure": null, "wind_exposure": null, "water_retention": null, "slope": null, "aspect": null, "num_identification_agreements": 1, "cluster": 0, "tavg": null, "tmin": 8.3, "tmax": 17.2, "prcp_d0": 0.0, "prcp_d1": 0.0, "prcp_d2": 0.0, "prcp_d3": 0.0, "prcp_d4": 0.0, "prcp_d5": 0.0, "prcp_d6": 0.0, "tmax_d0": null, "tmax_d1": null, "tmax_d2": null, "tmax_d3": null, "tmax_d4": null, "tmax_d5": null, "tmax_d6": null, "tmin_d0": null, "tmin_d1": null, "tmin_d2": null, "tmin_d3": null, "tmin_d4": null, "tmin_d5": null, "tmin_d6": null, "day_of_year": 290, "uuid": "60bce132-5f3e-49d2-a996-6adf8588480c", "inat_id": 99111421}}, {"type": "Feature", "geometry": {"type": "Point", "coordinates": [-122.0528081215, 45.4138108605]}, "properties": {"species": "Xylaria hypoxylon", "date": "2021-10-18", "location": "Oregon, Lewis and Clark National Historic Trail, US", "elevation": 753.0, "land_cover_label": "Tree cover", "water_mask": false, "exclude_reason": "keep", "ndvi": null, "soil_moisture": null, "solar_exposure": null, "wind_exposure": null, "water_retention": null, "slope": null, "aspect": null, "num_identification_agreements": 1, "cluster": 0, "tavg": null, "tmin": 6.1, "tmax": 13.9, "prcp_d0": 0.0, "prcp_d1": 26.85873794555664, "prcp_d2": 0.0, "prcp_d3": 0.0, "prcp_d4": 0.0, "prcp_d5": 0.0, "prcp_d6": 0.0, "tmax_d0": null, "tmax_d1": null, "tmax_d2": null, "tmax_d3": null, "tmax_d4": null, "tmax_d5": null, "tmax_d6": null, "tmin_d0": null, "tmin_d1": null, "tmin_d2": null, "tmin_d3": null, "tmin_d4": null, "tmin_d5": null, "tmin_d6": null, "day_of_year": 291, "uuid": "5b543757-f8b5-49ac-aff3-6abf35c6592e", "inat_id": 98830931}}, {"type": "Feature", "geometry": {"type": "Point", "coordinates": [-122.4295921962, 45.2475759207]}, "properties": {"species": "Xylaria hypoxylon", "date": "2021-10-20", "location": "S Upper Highland Rd, Beavercreek, OR, US", "elevation": 415.0, "land_cover_label": "Tree cover", "water_mask": false, "exclude_reason": "keep", "ndvi": null, "soil_moisture": null, "solar_exposure": null, "wind_exposure": null, "water_retention": null, "slope": null, "aspect": null, "num_identification_agreements": 1, "cluster": 0, "tavg": null, "tmin": 10.6, "tmax": 16.7, "prcp_d0": 21.44836807250977, "prcp_d1": 10.724184036254885, "prcp_d2": 0.0, "prcp_d3": 0.0, "prcp_d4": 0.0, "prcp_d5": 0.0, "prcp_d6": 0.0, "tmax_d0": null, "tmax_d1": null, "tmax_d2": null, "tmax_d3": null, "tmax_d4": null, "tmax_d5": null, "tmax_d6": null, "tmin_d0": null, "tmin_d1": null, "tmin_d2": null, "tmin_d3": null, "tmin_d4": null, "tmin_d5": null, "tmin_d6": null, "day_of_year": 293, "uuid": "9d86704a-70e9-4f9e-8d09-2f93c528a28c", "inat_id": 98795038}}, {"type": "Feature", "geometry": {"type": "Point", "coordinates": [-121.5571533781, 45.5212989619]}, "properties": {"species": "Xylaria hypoxylon", "date": "2021-11-07", "location": "Mount Hood Parkdale, OR, US", "elevation": 559.0, "land_cover_label": "Tree cover", "water_mask": false, "exclude_reason": "keep", "ndvi": null, "soil_moisture": null, "solar_exposure": null, "wind_exposure": null, "water_retention": null, "slope": null, "aspect": null, "num_identification_agreements": 1, "cluster": 0, "tavg": null, "tmin": 1.7, "tmax": 12.8, "prcp_d0": 0.0, "prcp_d1": 0.0, "prcp_d2": 0.0, "prcp_d3": 8.923866271972656, "prcp_d4": 0.0, "prcp_d5": 8.923866271972656, "prcp_d6": 8.923866271972656, "tmax_d0": null, "tmax_d1": null, "tmax_d2": null, "tmax_d3": null, "tmax_d4": null, "tmax_d5": null, "tmax_d6": null, "tmin_d0": null, "tmin_d1": null, "tmin_d2": null, "tmin_d3": null, "tmin_d4": null, "tmin_d5": null, "tmin_d6": null, "day_of_year": 311, "uuid": "651ee01c-6857-40b8-98b0-9c1c13f6234a", "inat_id": 100546513}}, {"type": "Feature", "geometry": {"type": "Point", "coordinates": [-121.9405612695, 45.2964289107]}, "properties": {"species": "Xylaria hypoxylon", "date": "2021-11-14", "location": "Clackamas County, US-OR, US", "elevation": 469.0, "land_cover_label": "Tree cover", "water_mask": false, "exclude_reason": "keep", "ndvi": null, "soil_moisture": null, "solar_exposure": null, "wind_exposure": null, "water_retention": null, "slope": null, "aspect": null, "num_identification_agreements": 1, "cluster": 1, "tavg": null, "tmin": 16.7, "tmax": 20.0, "prcp_d0": 0.0, "prcp_d1": 0.0, "prcp_d2": 52.59257507324219, "prcp_d3": 17.53085708618164, "prcp_d4": 0.0, "prcp_d5": 51.378326416015625, "prcp_d6": 0.0, "tmax_d0": null, "tmax_d1": null, "tmax_d2": null, "tmax_d3": null, "tmax_d4": null, "tmax_d5": null, "tmax_d6": null, "tmin_d0": null, "tmin_d1": null, "tmin_d2": null, "tmin_d3": null, "tmin_d4": null, "tmin_d5": null, "tmin_d6": null, "day_of_year": 318, "uuid": "ebc37d3f-404f-4d39-a1e1-9ba106229c18", "inat_id": 101219164}}, {"type": "Feature", "geometry": {"type": "Point", "coordinates": [-122.1958381944, 45.3733174722]}, "properties": {"species": "Xylaria hypoxylon", "date": "2021-11-26", "location": "Sandy, OR 97055, USA", "elevation": 368.0, "land_cover_label": "Tree cover", "water_mask": false, "exclude_reason": "keep", "ndvi": null, "soil_moisture": null, "solar_exposure": null, "wind_exposure": null, "water_retention": null, "slope": null, "aspect": null, "num_identification_agreements": 2, "cluster": 0, "tavg": null, "tmin": 8.3, "tmax": 11.1, "prcp_d0": 13.539236068725586, "prcp_d1": 0.0, "prcp_d2": 0.0, "prcp_d3": 0.0, "prcp_d4": 0.0, "prcp_d5": 0.0, "prcp_d6": 0.0, "tmax_d0": null, "tmax_d1": null, "tmax_d2": null, "tmax_d3": null, "tmax_d4": null, "tmax_d5": null, "tmax_d6": null, "tmin_d0": null, "tmin_d1": null, "tmin_d2": null, "tmin_d3": null, "tmin_d4": null, "tmin_d5": null, "tmin_d6": null, "day_of_year": 330, "uuid": "21044a28-5194-4200-a5b1-f99345d6b98b", "inat_id": 101959494}}, {"type": "Feature", "geometry": {"type": "Point", "coordinates": [-122.0078138833, 45.6481883333]}, "properties": {"species": "Xylaria hypoxylon", "date": "2022-02-13", "location": "Beacon Rock State Park, Stevenson, WA, US", "elevation": 621.0, "land_cover_label": "Tree cover", "water_mask": false, "exclude_reason": "keep", "ndvi": null, "soil_moisture": null, "solar_exposure": null, "wind_exposure": null, "water_retention": null, "slope": null, "aspect": null, "num_identification_agreements": 1, "cluster": 0, "tavg": null, "tmin": 6.1, "tmax": 16.1, "prcp_d0": 0.0, "prcp_d1": 0.0, "prcp_d2": 0.0, "prcp_d3": 0.0, "prcp_d4": 0.0, "prcp_d5": 0.0, "prcp_d6": 0.0, "tmax_d0": null, "tmax_d1": null, "tmax_d2": null, "tmax_d3": null, "tmax_d4": null, "tmax_d5": null, "tmax_d6": null, "tmin_d0": null, "tmin_d1": null, "tmin_d2": null, "tmin_d3": null, "tmin_d4": null, "tmin_d5": null, "tmin_d6": null, "day_of_year": 44, "uuid": "c39d4ad2-0749-495a-a597-b8e551129884", "inat_id": 106682479}}, {"type": "Feature", "geometry": {"type": "Point", "coordinates": [-122.3663305556, 45.3418777778]}, "properties": {"species": "Xylaria hypoxylon", "date": "2022-11-24", "location": "Eagle Creek, OR, USA", "elevation": 112.0, "land_cover_label": "Tree cover", "water_mask": false, "exclude_reason": "keep", "ndvi": null, "soil_moisture": null, "solar_exposure": null, "wind_exposure": null, "water_retention": null, "slope": null, "aspect": null, "num_identification_agreements": 1, "cluster": 0, "tavg": null, "tmin": 5.6, "tmax": 11.7, "prcp_d0": 0.0, "prcp_d1": 0.0, "prcp_d2": 17.658981323242188, "prcp_d3": 0.0, "prcp_d4": 0.0, "prcp_d5": 0.0, "prcp_d6": 0.0, "tmax_d0": null, "tmax_d1": null, "tmax_d2": null, "tmax_d3": null, "tmax_d4": null, "tmax_d5": null, "tmax_d6": null, "tmin_d0": null, "tmin_d1": null, "tmin_d2": null, "tmin_d3": null, "tmin_d4": null, "tmin_d5": null, "tmin_d6": null, "day_of_year": 328, "uuid": "fb93b69a-8362-4e66-9d90-5a38cb53451d", "inat_id": 142854160}}, {"type": "Feature", "geometry": {"type": "Point", "coordinates": [-122.3807133333, 45.3069583333]}, "properties": {"species": "Xylaria hypoxylon", "date": "2022-12-15", "location": "Milo McIver State Park, Eagle Creek, OR, US", "elevation": 120.0, "land_cover_label": "Tree cover", "water_mask": false, "exclude_reason": "keep", "ndvi": null, "soil_moisture": null, "solar_exposure": null, "wind_exposure": null, "water_retention": null, "slope": null, "aspect": null, "num_identification_agreements": 1, "cluster": 2, "tavg": null, "tmin": 1.7, "tmax": 6.1, "prcp_d0": 0.0, "prcp_d1": 0.0, "prcp_d2": 0.0, "prcp_d3": 0.0, "prcp_d4": 8.179964065551758, "prcp_d5": 26.6685791015625, "prcp_d6": 0.0, "tmax_d0": null, "tmax_d1": null, "tmax_d2": null, "tmax_d3": null, "tmax_d4": null, "tmax_d5": null, "tmax_d6": null, "tmin_d0": null, "tmin_d1": null, "tmin_d2": null, "tmin_d3": null, "tmin_d4": null, "tmin_d5": null, "tmin_d6": null, "day_of_year": 349, "uuid": "75c698c2-be36-450b-a1b3-e63d98f8b24e", "inat_id": 144454569}}, {"type": "Feature", "geometry": {"type": "Point", "coordinates": [-122.3059853997, 45.2111249]}, "properties": {"species": "Xylaria hypoxylon", "date": "2022-12-18", "location": "Estacada, OR 97023, USA", "elevation": 405.0, "land_cover_label": "Tree cover", "water_mask": false, "exclude_reason": "keep", "ndvi": null, "soil_moisture": null, "solar_exposure": null, "wind_exposure": null, "water_retention": null, "slope": null, "aspect": null, "num_identification_agreements": 1, "cluster": 0, "tavg": null, "tmin": 2.8, "tmax": 6.1, "prcp_d0": 0.0, "prcp_d1": 0.0, "prcp_d2": 0.0, "prcp_d3": 0.0, "prcp_d4": 0.0, "prcp_d5": 0.0, "prcp_d6": 0.0, "tmax_d0": null, "tmax_d1": null, "tmax_d2": null, "tmax_d3": null, "tmax_d4": null, "tmax_d5": null, "tmax_d6": null, "tmin_d0": null, "tmin_d1": null, "tmin_d2": null, "tmin_d3": null, "tmin_d4": null, "tmin_d5": null, "tmin_d6": null, "day_of_year": 352, "uuid": "687ac9e8-52cc-4755-bd00-fcca06476495", "inat_id": 144653551}}, {"type": "Feature", "geometry": {"type": "Point", "coordinates": [-122.1557158421, 45.3836089856]}, "properties": {"species": "Xylaria hypoxylon", "date": "2023-01-01", "location": "Oregon, US", "elevation": 326.0, "land_cover_label": "Tree cover", "water_mask": false, "exclude_reason": "keep", "ndvi": null, "soil_moisture": null, "solar_exposure": null, "wind_exposure": null, "water_retention": null, "slope": null, "aspect": null, "num_identification_agreements": 1, "cluster": 2, "tavg": null, "tmin": 3.9, "tmax": 9.4, "prcp_d0": 0.0, "prcp_d1": 0.0, "prcp_d2": 0.0, "prcp_d3": 0.0, "prcp_d4": 9.717995643615724, "prcp_d5": 48.5899772644043, "prcp_d6": 58.30797576904297, "tmax_d0": null, "tmax_d1": null, "tmax_d2": null, "tmax_d3": null, "tmax_d4": null, "tmax_d5": null, "tmax_d6": null, "tmin_d0": null, "tmin_d1": null, "tmin_d2": null, "tmin_d3": null, "tmin_d4": null, "tmin_d5": null, "tmin_d6": null, "day_of_year": 1, "uuid": "549a4990-2fc2-490b-813c-c1604f26d38c", "inat_id": 145631342}}, {"type": "Feature", "geometry": {"type": "Point", "coordinates": [-122.2187716667, 45.5324083333]}, "properties": {"species": "Xylaria hypoxylon", "date": "2023-01-14", "location": "Columbia River Gorge National Scenic Area - Headquarters, Corbett, OR, US", "elevation": 213.0, "land_cover_label": "Tree cover", "water_mask": false, "exclude_reason": "keep", "ndvi": null, "soil_moisture": null, "solar_exposure": null, "wind_exposure": null, "water_retention": null, "slope": null, "aspect": null, "num_identification_agreements": 1, "cluster": 1, "tavg": null, "tmin": 8.3, "tmax": 10.6, "prcp_d0": 4.737451553344727, "prcp_d1": 18.949806213378903, "prcp_d2": 28.42470932006836, "prcp_d3": 4.737451553344727, "prcp_d4": 4.169218063354492, "prcp_d5": 8.338436126708984, "prcp_d6": 8.338436126708984, "tmax_d0": null, "tmax_d1": null, "tmax_d2": null, "tmax_d3": null, "tmax_d4": null, "tmax_d5": null, "tmax_d6": null, "tmin_d0": null, "tmin_d1": null, "tmin_d2": null, "tmin_d3": null, "tmin_d4": null, "tmin_d5": null, "tmin_d6": null, "day_of_year": 14, "uuid": "8c99a080-e085-40f5-b250-b162f2f9a2b7", "inat_id": 146714056}}, {"type": "Feature", "geometry": {"type": "Point", "coordinates": [-122.2882680204, 45.3195463303]}, "properties": {"species": "Xylaria hypoxylon", "date": "2023-01-23", "location": "Eagle Fern Park, Eagle Creek, OR, US", "elevation": 226.0, "land_cover_label": "Tree cover", "water_mask": false, "exclude_reason": "keep", "ndvi": null, "soil_moisture": null, "solar_exposure": null, "wind_exposure": null, "water_retention": null, "slope": null, "aspect": null, "num_identification_agreements": 1, "cluster": 0, "tavg": null, "tmin": 2.8, "tmax": 9.4, "prcp_d0": 0.0, "prcp_d1": 0.0, "prcp_d2": 0.0, "prcp_d3": 0.0, "prcp_d4": 0.0, "prcp_d5": 13.112278938293455, "prcp_d6": 0.0, "tmax_d0": null, "tmax_d1": null, "tmax_d2": null, "tmax_d3": null, "tmax_d4": null, "tmax_d5": null, "tmax_d6": null, "tmin_d0": null, "tmin_d1": null, "tmin_d2": null, "tmin_d3": null, "tmin_d4": null, "tmin_d5": null, "tmin_d6": null, "day_of_year": 23, "uuid": "39bd0c37-80c9-4226-827f-b165837a5f9d", "inat_id": 147219803}}, {"type": "Feature", "geometry": {"type": "Point", "coordinates": [-122.2617716667, 45.5068133333]}, "properties": {"species": "Xylaria hypoxylon", "date": "2023-10-02", "location": "SE Louden Rd, Corbett, OR, US", "elevation": 273.0, "land_cover_label": "Tree cover", "water_mask": false, "exclude_reason": "keep", "ndvi": null, "soil_moisture": null, "solar_exposure": null, "wind_exposure": null, "water_retention": null, "slope": null, "aspect": null, "num_identification_agreements": 1, "cluster": 0, "tavg": null, "tmin": 10.6, "tmax": 16.1, "prcp_d0": 0.0, "prcp_d1": 0.0, "prcp_d2": 0.0, "prcp_d3": 0.0, "prcp_d4": 0.0, "prcp_d5": 21.752471923828125, "prcp_d6": 0.0, "tmax_d0": null, "tmax_d1": null, "tmax_d2": null, "tmax_d3": null, "tmax_d4": null, "tmax_d5": null, "tmax_d6": null, "tmin_d0": null, "tmin_d1": null, "tmin_d2": null, "tmin_d3": null, "tmin_d4": null, "tmin_d5": null, "tmin_d6": null, "day_of_year": 275, "uuid": "0479c0d1-1ab4-4ea6-be5f-bc405e1c8fa7", "inat_id": 187848986}}, {"type": "Feature", "geometry": {"type": "Point", "coordinates": [-122.138294, 45.522656]}, "properties": {"species": "Xylaria hypoxylon", "date": "2023-10-22", "location": "Corbett, OR 97019, USA", "elevation": 672.0, "land_cover_label": "Tree cover", "water_mask": false, "exclude_reason": "keep", "ndvi": null, "soil_moisture": null, "solar_exposure": null, "wind_exposure": null, "water_retention": null, "slope": null, "aspect": null, "num_identification_agreements": 1, "cluster": 0, "tavg": null, "tmin": 12.8, "tmax": 17.2, "prcp_d0": 0.0, "prcp_d1": 0.0, "prcp_d2": 0.0, "prcp_d3": 0.0, "prcp_d4": 0.0, "prcp_d5": 0.0, "prcp_d6": 31.94695281982422, "tmax_d0": null, "tmax_d1": null, "tmax_d2": null, "tmax_d3": null, "tmax_d4": null, "tmax_d5": null, "tmax_d6": null, "tmin_d0": null, "tmin_d1": null, "tmin_d2": null, "tmin_d3": null, "tmin_d4": null, "tmin_d5": null, "tmin_d6": null, "day_of_year": 295, "uuid": "50c0b05a-8fbe-4cf9-bb23-f7235d0cc3c8", "inat_id": 188630787}}, {"type": "Feature", "geometry": {"type": "Point", "coordinates": [-122.3822676112, 45.486222636]}, "properties": {"species": "Xylaria hypoxylon", "date": "2023-10-28", "location": "SE Glacier Ln, Gresham, OR, US", "elevation": 138.0, "land_cover_label": "Tree cover", "water_mask": false, "exclude_reason": "keep", "ndvi": null, "soil_moisture": null, "solar_exposure": null, "wind_exposure": null, "water_retention": null, "slope": null, "aspect": null, "num_identification_agreements": 1, "cluster": 0, "tavg": null, "tmin": 3.9, "tmax": 12.2, "prcp_d0": 0.0, "prcp_d1": 0.0, "prcp_d2": 0.0, "prcp_d3": 15.37752914428711, "prcp_d4": 15.37752914428711, "prcp_d5": 0.0, "prcp_d6": 0.0, "tmax_d0": null, "tmax_d1": null, "tmax_d2": null, "tmax_d3": null, "tmax_d4": null, "tmax_d5": null, "tmax_d6": null, "tmin_d0": null, "tmin_d1": null, "tmin_d2": null, "tmin_d3": null, "tmin_d4": null, "tmin_d5": null, "tmin_d6": null, "day_of_year": 301, "uuid": "b37f300f-5b43-4a15-8799-bdecf1b35321", "inat_id": 189255002}}, {"type": "Feature", "geometry": {"type": "Point", "coordinates": [-121.980440826, 44.7821060764]}, "properties": {"species": "Xylaria hypoxylon", "date": "2023-11-08", "location": "Marion County, US-OR, US", "elevation": 693.0, "land_cover_label": "Tree cover", "water_mask": false, "exclude_reason": "keep", "ndvi": null, "soil_moisture": null, "solar_exposure": null, "wind_exposure": null, "water_retention": null, "slope": null, "aspect": null, "num_identification_agreements": 1, "cluster": 1, "tavg": null, "tmin": null, "tmax": null, "prcp_d0": 0.0, "prcp_d1": 17.16029167175293, "prcp_d2": 51.48087692260742, "prcp_d3": 19.49851417541504, "prcp_d4": 58.49554061889648, "prcp_d5": 0.0, "prcp_d6": 19.49851417541504, "tmax_d0": null, "tmax_d1": null, "tmax_d2": null, "tmax_d3": null, "tmax_d4": null, "tmax_d5": null, "tmax_d6": null, "tmin_d0": null, "tmin_d1": null, "tmin_d2": null, "tmin_d3": null, "tmin_d4": null, "tmin_d5": null, "tmin_d6": null, "day_of_year": 312, "uuid": "0a373ff0-58e2-4be5-ad1f-1d86adbdbf1c", "inat_id": 190456903}}, {"type": "Feature", "geometry": {"type": "Point", "coordinates": [-121.879529, 45.32002145]}, "properties": {"species": "Xylaria hypoxylon", "date": "2023-11-23", "location": "Mt. Hood Park Division Recreation Area, Rhododendron, OR, US", "elevation": 807.0, "land_cover_label": "Tree cover", "water_mask": false, "exclude_reason": "keep", "ndvi": null, "soil_moisture": null, "solar_exposure": null, "wind_exposure": null, "water_retention": null, "slope": null, "aspect": null, "num_identification_agreements": 1, "cluster": 0, "tavg": null, "tmin": 1.0, "tmax": 9.0, "prcp_d0": 0.0, "prcp_d1": 0.0, "prcp_d2": 0.0, "prcp_d3": 0.0, "prcp_d4": 0.0, "prcp_d5": 0.0, "prcp_d6": 0.0, "tmax_d0": null, "tmax_d1": null, "tmax_d2": null, "tmax_d3": null, "tmax_d4": null, "tmax_d5": null, "tmax_d6": null, "tmin_d0": null, "tmin_d1": null, "tmin_d2": null, "tmin_d3": null, "tmin_d4": null, "tmin_d5": null, "tmin_d6": null, "day_of_year": 327, "uuid": "deca4f0f-e746-4c03-aa9b-3336aea6d04b", "inat_id": 191856323}}, {"type": "Feature", "geometry": {"type": "Point", "coordinates": [-122.0923221667, 45.6420583333]}, "properties": {"species": "Xylaria hypoxylon", "date": "2023-11-23", "location": "Columbia River Gorge National Scenic Area, Stevenson, WA, US", "elevation": 464.0, "land_cover_label": "Tree cover", "water_mask": false, "exclude_reason": "keep", "ndvi": null, "soil_moisture": null, "solar_exposure": null, "wind_exposure": null, "water_retention": null, "slope": null, "aspect": null, "num_identification_agreements": 1, "cluster": 0, "tavg": null, "tmin": 1.7, "tmax": 13.3, "prcp_d0": 0.0, "prcp_d1": 0.0, "prcp_d2": 21.54094314575196, "prcp_d3": 0.0, "prcp_d4": 0.0, "prcp_d5": 0.0, "prcp_d6": 0.0, "tmax_d0": null, "tmax_d1": null, "tmax_d2": null, "tmax_d3": null, "tmax_d4": null, "tmax_d5": null, "tmax_d6": null, "tmin_d0": null, "tmin_d1": null, "tmin_d2": null, "tmin_d3": null, "tmin_d4": null, "tmin_d5": null, "tmin_d6": null, "day_of_year": 327, "uuid": "e62d4f79-9457-4083-836a-87f2dde3884b", "inat_id": 191870777}}, {"type": "Feature", "geometry": {"type": "Point", "coordinates": [-122.1110888889, 44.9708944444]}, "properties": {"species": "Xylaria hypoxylon", "date": "2023-11-26", "location": "Clackamas County, OR, USA", "elevation": 600.0, "land_cover_label": "Tree cover", "water_mask": false, "exclude_reason": "keep", "ndvi": null, "soil_moisture": null, "solar_exposure": null, "wind_exposure": null, "water_retention": null, "slope": null, "aspect": null, "num_identification_agreements": 1, "cluster": 0, "tavg": null, "tmin": null, "tmax": null, "prcp_d0": 0.0, "prcp_d1": 0.0, "prcp_d2": 0.0, "prcp_d3": 0.0, "prcp_d4": 0.0, "prcp_d5": 0.0, "prcp_d6": 0.0, "tmax_d0": null, "tmax_d1": null, "tmax_d2": null, "tmax_d3": null, "tmax_d4": null, "tmax_d5": null, "tmax_d6": null, "tmin_d0": null, "tmin_d1": null, "tmin_d2": null, "tmin_d3": null, "tmin_d4": null, "tmin_d5": null, "tmin_d6": null, "day_of_year": 330, "uuid": "d6e04750-66a1-45ce-b615-673c466e6d9e", "inat_id": 192883639}}, {"type": "Feature", "geometry": {"type": "Point", "coordinates": [-122.2749580443, 45.4688136532]}, "properties": {"species": "Xylaria hypoxylon", "date": "2023-12-07", "location": "Corbett, OR 97019, USA", "elevation": 130.0, "land_cover_label": "Tree cover", "water_mask": false, "exclude_reason": "keep", "ndvi": null, "soil_moisture": null, "solar_exposure": null, "wind_exposure": null, "water_retention": null, "slope": null, "aspect": null, "num_identification_agreements": 1, "cluster": 1, "tavg": null, "tmin": 7.8, "tmax": 10.6, "prcp_d0": 0.0, "prcp_d1": 38.7874755859375, "prcp_d2": 37.66147994995117, "prcp_d3": 0.0, "prcp_d4": 25.10765266418457, "prcp_d5": 37.66147994995117, "prcp_d6": 12.553826332092283, "tmax_d0": null, "tmax_d1": null, "tmax_d2": null, "tmax_d3": null, "tmax_d4": null, "tmax_d5": null, "tmax_d6": null, "tmin_d0": null, "tmin_d1": null, "tmin_d2": null, "tmin_d3": null, "tmin_d4": null, "tmin_d5": null, "tmin_d6": null, "day_of_year": 341, "uuid": "8192e412-95ca-4152-85f4-60295e7dfe09", "inat_id": 193350529}}, {"type": "Feature", "geometry": {"type": "Point", "coordinates": [-121.6890428969, 45.6882381823]}, "properties": {"species": "Xylaria hypoxylon", "date": "2023-12-08", "location": "Hood River County, US-OR, Lewis and Clark National Historic Trail, US", "elevation": 68.0, "land_cover_label": "Tree cover", "water_mask": false, "exclude_reason": "keep", "ndvi": null, "soil_moisture": null, "solar_exposure": null, "wind_exposure": null, "water_retention": null, "slope": null, "aspect": null, "num_identification_agreements": 1, "cluster": 2, "tavg": null, "tmin": 0.2, "tmax": 6.8, "prcp_d0": 0.0, "prcp_d1": 0.0, "prcp_d2": 0.0, "prcp_d3": 17.050952911376953, "prcp_d4": 0.0, "prcp_d5": 34.101905822753906, "prcp_d6": 51.15285873413086, "tmax_d0": null, "tmax_d1": null, "tmax_d2": null, "tmax_d3": null, "tmax_d4": null, "tmax_d5": null, "tmax_d6": null, "tmin_d0": null, "tmin_d1": null, "tmin_d2": null, "tmin_d3": null, "tmin_d4": null, "tmin_d5": null, "tmin_d6": null, "day_of_year": 342, "uuid": "4a342c1f-8e2f-46b0-9d04-98f3bed78774", "inat_id": 193495712}}, {"type": "Feature", "geometry": {"type": "Point", "coordinates": [-122.0324416385, 45.2366348788]}, "properties": {"species": "Xylaria hypoxylon", "date": "2024-09-15", "location": "Clackamas County, US-OR, US", "elevation": 1259.0, "land_cover_label": "Tree cover", "water_mask": false, "exclude_reason": "keep", "ndvi": null, "soil_moisture": null, "solar_exposure": null, "wind_exposure": null, "water_retention": null, "slope": null, "aspect": null, "num_identification_agreements": 1, "cluster": 0, "tavg": null, "tmin": 11.1, "tmax": 20.0, "prcp_d0": 5.630091667175293, "prcp_d1": 0.4221982061862945, "prcp_d2": 1.1883975267410278, "prcp_d3": 9.385169982910156, "prcp_d4": 28.45977020263672, "prcp_d5": 0.0, "prcp_d6": 0.0, "tmax_d0": null, "tmax_d1": null, "tmax_d2": null, "tmax_d3": null, "tmax_d4": null, "tmax_d5": null, "tmax_d6": null, "tmin_d0": null, "tmin_d1": null, "tmin_d2": null, "tmin_d3": null, "tmin_d4": null, "tmin_d5": null, "tmin_d6": null, "day_of_year": 259, "uuid": "1236c8ed-b8a8-44ed-9fea-2571fbf8895b", "inat_id": 241936686}}, {"type": "Feature", "geometry": {"type": "Point", "coordinates": [-122.452346749, 45.4210243195]}, "properties": {"species": "Xylaria hypoxylon", "date": "2024-10-09", "location": "Oregon, US", "elevation": 213.0, "land_cover_label": "Tree cover", "water_mask": false, "exclude_reason": "keep", "ndvi": null, "soil_moisture": null, "solar_exposure": null, "wind_exposure": null, "water_retention": null, "slope": null, "aspect": null, "num_identification_agreements": 1, "cluster": 2, "tavg": null, "tmin": 11.1, "tmax": 20.0, "prcp_d0": 0.0, "prcp_d1": 0.0, "prcp_d2": 0.0, "prcp_d3": 0.0, "prcp_d4": 0.8386602401733398, "prcp_d5": 27.43719291687012, "prcp_d6": 0.0044050430878996, "tmax_d0": null, "tmax_d1": null, "tmax_d2": null, "tmax_d3": null, "tmax_d4": null, "tmax_d5": null, "tmax_d6": null, "tmin_d0": null, "tmin_d1": null, "tmin_d2": null, "tmin_d3": null, "tmin_d4": null, "tmin_d5": null, "tmin_d6": null, "day_of_year": 283, "uuid": "3229e17f-ce81-4066-ab19-55d771a81ccd", "inat_id": 246666369}}, {"type": "Feature", "geometry": {"type": "Point", "coordinates": [-122.2183007374, 45.5365143427]}, "properties": {"species": "Xylaria hypoxylon", "date": "2024-10-11", "location": "Corbett, OR 97019, USA", "elevation": 163.0, "land_cover_label": "Tree cover", "water_mask": false, "exclude_reason": "keep", "ndvi": null, "soil_moisture": null, "solar_exposure": null, "wind_exposure": null, "water_retention": null, "slope": null, "aspect": null, "num_identification_agreements": 1, "cluster": 0, "tavg": null, "tmin": 14.4, "tmax": 21.1, "prcp_d0": 19.26920318603516, "prcp_d1": 0.0, "prcp_d2": 0.0, "prcp_d3": 0.0, "prcp_d4": 0.0, "prcp_d5": 0.0, "prcp_d6": 1.725049376487732, "tmax_d0": null, "tmax_d1": null, "tmax_d2": null, "tmax_d3": null, "tmax_d4": null, "tmax_d5": null, "tmax_d6": null, "tmin_d0": null, "tmin_d1": null, "tmin_d2": null, "tmin_d3": null, "tmin_d4": null, "tmin_d5": null, "tmin_d6": null, "day_of_year": 285, "uuid": "503f4227-4ea7-43e0-8a39-17a24ff37cdc", "inat_id": 247046965}}, {"type": "Feature", "geometry": {"type": "Point", "coordinates": [-122.3028532997, 45.4883735]}, "properties": {"species": "Xylaria hypoxylon", "date": "2024-10-12", "location": "Gresham, OR 97080, USA", "elevation": 72.0, "land_cover_label": "Tree cover", "water_mask": false, "exclude_reason": "keep", "ndvi": null, "soil_moisture": null, "solar_exposure": null, "wind_exposure": null, "water_retention": null, "slope": null, "aspect": null, "num_identification_agreements": 1, "cluster": 0, "tavg": null, "tmin": 8.9, "tmax": 24.4, "prcp_d0": 0.0, "prcp_d1": 19.49992752075196, "prcp_d2": 0.0, "prcp_d3": 0.0, "prcp_d4": 0.0, "prcp_d5": 0.0, "prcp_d6": 0.0, "tmax_d0": null, "tmax_d1": null, "tmax_d2": null, "tmax_d3": null, "tmax_d4": null, "tmax_d5": null, "tmax_d6": null, "tmin_d0": null, "tmin_d1": null, "tmin_d2": null, "tmin_d3": null, "tmin_d4": null, "tmin_d5": null, "tmin_d6": null, "day_of_year": 286, "uuid": "b4d412ba-3abd-4c8b-b67b-08e46904ffe3", "inat_id": 247140883}}, {"type": "Feature", "geometry": {"type": "Point", "coordinates": [-122.2734216667, 45.47438]}, "properties": {"species": "Xylaria hypoxylon", "date": "2024-10-12", "location": "SE Trout Creek Rd, Corbett, OR, US", "elevation": 247.0, "land_cover_label": "Tree cover", "water_mask": false, "exclude_reason": "keep", "ndvi": null, "soil_moisture": null, "solar_exposure": null, "wind_exposure": null, "water_retention": null, "slope": null, "aspect": null, "num_identification_agreements": 1, "cluster": 0, "tavg": null, "tmin": 8.9, "tmax": 24.4, "prcp_d0": 0.0, "prcp_d1": 13.305500984191896, "prcp_d2": 0.0, "prcp_d3": 0.0, "prcp_d4": 0.0, "prcp_d5": 0.0, "prcp_d6": 0.0, "tmax_d0": null, "tmax_d1": null, "tmax_d2": null, "tmax_d3": null, "tmax_d4": null, "tmax_d5": null, "tmax_d6": null, "tmin_d0": null, "tmin_d1": null, "tmin_d2": null, "tmin_d3": null, "tmin_d4": null, "tmin_d5": null, "tmin_d6": null, "day_of_year": 286, "uuid": "97690075-5c27-49df-b031-27f4c886f89e", "inat_id": 247026445}}, {"type": "Feature", "geometry": {"type": "Point", "coordinates": [-122.290293, 45.503126]}, "properties": {"species": "Xylaria hypoxylon", "date": "2024-10-19", "location": "Corbett, OR 97019, USA", "elevation": 146.0, "land_cover_label": "Grassland", "water_mask": false, "exclude_reason": "keep", "ndvi": null, "soil_moisture": null, "solar_exposure": null, "wind_exposure": null, "water_retention": null, "slope": null, "aspect": null, "num_identification_agreements": 1, "cluster": 0, "tavg": null, "tmin": 12.2, "tmax": 22.8, "prcp_d0": 0.0, "prcp_d1": 0.0, "prcp_d2": 0.0, "prcp_d3": 0.0, "prcp_d4": 0.0, "prcp_d5": 0.0, "prcp_d6": 0.0, "tmax_d0": null, "tmax_d1": null, "tmax_d2": null, "tmax_d3": null, "tmax_d4": null, "tmax_d5": null, "tmax_d6": null, "tmin_d0": null, "tmin_d1": null, "tmin_d2": null, "tmin_d3": null, "tmin_d4": null, "tmin_d5": null, "tmin_d6": null, "day_of_year": 293, "uuid": "82ec8012-cc60-45bb-b5a1-92eba3c70b29", "inat_id": 248888459}}, {"type": "Feature", "geometry": {"type": "Point", "coordinates": [-122.290293, 45.503126]}, "properties": {"species": "Xylaria hypoxylon", "date": "2024-10-19", "location": "Corbett, OR 97019, USA", "elevation": 146.0, "land_cover_label": "Grassland", "water_mask": false, "exclude_reason": "keep", "ndvi": null, "soil_moisture": null, "solar_exposure": null, "wind_exposure": null, "water_retention": null, "slope": null, "aspect": null, "num_identification_agreements": 1, "cluster": 0, "tavg": null, "tmin": 12.2, "tmax": 22.8, "prcp_d0": 0.0, "prcp_d1": 0.0, "prcp_d2": 0.0, "prcp_d3": 0.0, "prcp_d4": 0.0, "prcp_d5": 0.0, "prcp_d6": 0.0, "tmax_d0": null, "tmax_d1": null, "tmax_d2": null, "tmax_d3": null, "tmax_d4": null, "tmax_d5": null, "tmax_d6": null, "tmin_d0": null, "tmin_d1": null, "tmin_d2": null, "tmin_d3": null, "tmin_d4": null, "tmin_d5": null, "tmin_d6": null, "day_of_year": 293, "uuid": "2e73fc45-5f91-497f-83db-ea573e314674", "inat_id": 248888590}}, {"type": "Feature", "geometry": {"type": "Point", "coordinates": [-122.3686366667, 45.2278366667]}, "properties": {"species": "Xylaria hypoxylon", "date": "2024-10-23", "location": "Estacada, OR, US", "elevation": 231.0, "land_cover_label": "Tree cover", "water_mask": false, "exclude_reason": "keep", "ndvi": null, "soil_moisture": null, "solar_exposure": null, "wind_exposure": null, "water_retention": null, "slope": null, "aspect": null, "num_identification_agreements": 2, "cluster": 1, "tavg": null, "tmin": 3.3, "tmax": 14.4, "prcp_d0": 0.0, "prcp_d1": 0.0, "prcp_d2": 115.2123565673828, "prcp_d3": 0.0, "prcp_d4": 0.0, "prcp_d5": 0.0, "prcp_d6": 0.0, "tmax_d0": null, "tmax_d1": null, "tmax_d2": null, "tmax_d3": null, "tmax_d4": null, "tmax_d5": null, "tmax_d6": null, "tmin_d0": null, "tmin_d1": null, "tmin_d2": null, "tmin_d3": null, "tmin_d4": null, "tmin_d5": null, "tmin_d6": null, "day_of_year": 297, "uuid": "ae14501a-8232-4fe7-a9ad-b88237d7627a", "inat_id": 252035071}}, {"type": "Feature", "geometry": {"type": "Point", "coordinates": [-122.3131846361, 45.3314742623]}, "properties": {"species": "Xylaria hypoxylon", "date": "2024-11-14", "location": "Estacada, OR, US", "elevation": 148.0, "land_cover_label": "Tree cover", "water_mask": false, "exclude_reason": "keep", "ndvi": null, "soil_moisture": null, "solar_exposure": null, "wind_exposure": null, "water_retention": null, "slope": null, "aspect": null, "num_identification_agreements": 1, "cluster": 1, "tavg": null, "tmin": 8.3, "tmax": 13.9, "prcp_d0": 10.660967826843262, "prcp_d1": 53.30484008789063, "prcp_d2": 0.0, "prcp_d3": 21.321935653686523, "prcp_d4": 0.0, "prcp_d5": 13.995858192443848, "prcp_d6": 0.0, "tmax_d0": null, "tmax_d1": null, "tmax_d2": null, "tmax_d3": null, "tmax_d4": null, "tmax_d5": null, "tmax_d6": null, "tmin_d0": null, "tmin_d1": null, "tmin_d2": null, "tmin_d3": null, "tmin_d4": null, "tmin_d5": null, "tmin_d6": null, "day_of_year": 319, "uuid": "9faba99c-b6e8-4875-98c3-311b6e8b8d72", "inat_id": 251705671}}, {"type": "Feature", "geometry": {"type": "Point", "coordinates": [-121.946963421, 45.2689127242]}, "properties": {"species": "Xylaria hypoxylon", "date": "2024-11-15", "location": "Zigzag Ranger Station, Government Camp, OR, US", "elevation": 655.0, "land_cover_label": "Tree cover", "water_mask": false, "exclude_reason": "keep", "ndvi": null, "soil_moisture": null, "solar_exposure": null, "wind_exposure": null, "water_retention": null, "slope": null, "aspect": null, "num_identification_agreements": 1, "cluster": 1, "tavg": null, "tmin": 5.0, "tmax": 9.4, "prcp_d0": 0.0, "prcp_d1": 0.0, "prcp_d2": 94.54602813720705, "prcp_d3": 0.0, "prcp_d4": 0.0, "prcp_d5": 14.256714820861816, "prcp_d6": 0.0, "tmax_d0": null, "tmax_d1": null, "tmax_d2": null, "tmax_d3": null, "tmax_d4": null, "tmax_d5": null, "tmax_d6": null, "tmin_d0": null, "tmin_d1": null, "tmin_d2": null, "tmin_d3": null, "tmin_d4": null, "tmin_d5": null, "tmin_d6": null, "day_of_year": 320, "uuid": "0210effd-f4c9-48ac-8a18-62b94cdeffd7", "inat_id": 251857007}}, {"type": "Feature", "geometry": {"type": "Point", "coordinates": [-121.688761261, 45.6882057385]}, "properties": {"species": "Xylaria hypoxylon", "date": "2024-11-27", "location": "Columbia River Gorge National Scenic Area, Cascade Locks, OR, US", "elevation": 68.0, "land_cover_label": "Tree cover", "water_mask": false, "exclude_reason": "keep", "ndvi": null, "soil_moisture": null, "solar_exposure": null, "wind_exposure": null, "water_retention": null, "slope": null, "aspect": null, "num_identification_agreements": 1, "cluster": 2, "tavg": null, "tmin": 0.3, "tmax": 9.1, "prcp_d0": 0.0, "prcp_d1": 0.0, "prcp_d2": 14.625910758972168, "prcp_d3": 0.0, "prcp_d4": 0.0, "prcp_d5": 43.87773513793945, "prcp_d6": 14.625910758972168, "tmax_d0": null, "tmax_d1": null, "tmax_d2": null, "tmax_d3": null, "tmax_d4": null, "tmax_d5": null, "tmax_d6": null, "tmin_d0": null, "tmin_d1": null, "tmin_d2": null, "tmin_d3": null, "tmin_d4": null, "tmin_d5": null, "tmin_d6": null, "day_of_year": 332, "uuid": "9c14ed91-625b-4f43-928f-5bbd6f8f6d3c", "inat_id": 253519055}}, {"type": "Feature", "geometry": {"type": "Point", "coordinates": [-121.6887065038, 45.6877545039]}, "properties": {"species": "Xylaria hypoxylon", "date": "2024-11-27", "location": "Columbia River Gorge National Scenic Area, Cascade Locks, OR, US", "elevation": 68.0, "land_cover_label": "Tree cover", "water_mask": false, "exclude_reason": "keep", "ndvi": null, "soil_moisture": null, "solar_exposure": null, "wind_exposure": null, "water_retention": null, "slope": null, "aspect": null, "num_identification_agreements": 1, "cluster": 2, "tavg": null, "tmin": 0.3, "tmax": 9.1, "prcp_d0": 0.0, "prcp_d1": 0.0, "prcp_d2": 14.625910758972168, "prcp_d3": 0.0, "prcp_d4": 0.0, "prcp_d5": 43.87773513793945, "prcp_d6": 14.625910758972168, "tmax_d0": null, "tmax_d1": null, "tmax_d2": null, "tmax_d3": null, "tmax_d4": null, "tmax_d5": null, "tmax_d6": null, "tmin_d0": null, "tmin_d1": null, "tmin_d2": null, "tmin_d3": null, "tmin_d4": null, "tmin_d5": null, "tmin_d6": null, "day_of_year": 332, "uuid": "98aaafa9-f929-4e26-b489-bb59d71671fb", "inat_id": 253519292}}, {"type": "Feature", "geometry": {"type": "Point", "coordinates": [-122.3911635997, 45.4219150997]}, "properties": {"species": "Xylaria hypoxylon", "date": "2024-11-28", "location": "Boring, OR, USA", "elevation": 140.0, "land_cover_label": "Tree cover", "water_mask": false, "exclude_reason": "keep", "ndvi": null, "soil_moisture": null, "solar_exposure": null, "wind_exposure": null, "water_retention": null, "slope": null, "aspect": null, "num_identification_agreements": 1, "cluster": 2, "tavg": null, "tmin": 1.1, "tmax": 6.7, "prcp_d0": 0.0, "prcp_d1": 0.0, "prcp_d2": 0.0, "prcp_d3": 37.72804260253906, "prcp_d4": 0.0, "prcp_d5": 0.0, "prcp_d6": 28.296031951904297, "tmax_d0": null, "tmax_d1": null, "tmax_d2": null, "tmax_d3": null, "tmax_d4": null, "tmax_d5": null, "tmax_d6": null, "tmin_d0": null, "tmin_d1": null, "tmin_d2": null, "tmin_d3": null, "tmin_d4": null, "tmin_d5": null, "tmin_d6": null, "day_of_year": 333, "uuid": "7f1abd25-c5d6-4ba7-8551-6106ba0b985d", "inat_id": 253446329}}, {"type": "Feature", "geometry": {"type": "Point", "coordinates": [-122.3931999997, 45.420062]}, "properties": {"species": "Xylaria hypoxylon", "date": "2024-11-28", "location": "Boring, OR, USA", "elevation": 143.0, "land_cover_label": "Tree cover", "water_mask": false, "exclude_reason": "keep", "ndvi": null, "soil_moisture": null, "solar_exposure": null, "wind_exposure": null, "water_retention": null, "slope": null, "aspect": null, "num_identification_agreements": 1, "cluster": 2, "tavg": null, "tmin": 1.1, "tmax": 6.7, "prcp_d0": 0.0, "prcp_d1": 0.0, "prcp_d2": 0.0, "prcp_d3": 37.72804260253906, "prcp_d4": 0.0, "prcp_d5": 0.0, "prcp_d6": 28.296031951904297, "tmax_d0": null, "tmax_d1": null, "tmax_d2": null, "tmax_d3": null, "tmax_d4": null, "tmax_d5": null, "tmax_d6": null, "tmin_d0": null, "tmin_d1": null, "tmin_d2": null, "tmin_d3": null, "tmin_d4": null, "tmin_d5": null, "tmin_d6": null, "day_of_year": 333, "uuid": "adfdcd00-1f0a-43f1-8eab-4c6c4dd9d095", "inat_id": 253446162}}, {"type": "Feature", "geometry": {"type": "Point", "coordinates": [-122.3779365997, 45.4269841997]}, "properties": {"species": "Xylaria hypoxylon", "date": "2024-11-28", "location": "Boring, OR, USA", "elevation": 151.0, "land_cover_label": "Tree cover", "water_mask": false, "exclude_reason": "keep", "ndvi": null, "soil_moisture": null, "solar_exposure": null, "wind_exposure": null, "water_retention": null, "slope": null, "aspect": null, "num_identification_agreements": 1, "cluster": 2, "tavg": null, "tmin": 1.1, "tmax": 6.7, "prcp_d0": 0.0, "prcp_d1": 0.0, "prcp_d2": 0.0, "prcp_d3": 37.72804260253906, "prcp_d4": 0.0, "prcp_d5": 0.0, "prcp_d6": 28.296031951904297, "tmax_d0": null, "tmax_d1": null, "tmax_d2": null, "tmax_d3": null, "tmax_d4": null, "tmax_d5": null, "tmax_d6": null, "tmin_d0": null, "tmin_d1": null, "tmin_d2": null, "tmin_d3": null, "tmin_d4": null, "tmin_d5": null, "tmin_d6": null, "day_of_year": 333, "uuid": "8bef0061-a7a7-4606-9d1c-a657d28a318a", "inat_id": 253446047}}, {"type": "Feature", "geometry": {"type": "Point", "coordinates": [-122.1184109151, 45.577438916]}, "properties": {"species": "Xylaria hypoxylon", "date": "2024-11-30", "location": "Corbett, OR 97019, USA", "elevation": 12.0, "land_cover_label": "Tree cover", "water_mask": false, "exclude_reason": "keep", "ndvi": null, "soil_moisture": null, "solar_exposure": null, "wind_exposure": null, "water_retention": null, "slope": null, "aspect": null, "num_identification_agreements": 1, "cluster": 2, "tavg": null, "tmin": 0.6, "tmax": 8.3, "prcp_d0": 0.0, "prcp_d1": 0.0, "prcp_d2": 0.0, "prcp_d3": 0.0, "prcp_d4": 0.0, "prcp_d5": 39.36248779296875, "prcp_d6": 0.0, "tmax_d0": null, "tmax_d1": null, "tmax_d2": null, "tmax_d3": null, "tmax_d4": null, "tmax_d5": null, "tmax_d6": null, "tmin_d0": null, "tmin_d1": null, "tmin_d2": null, "tmin_d3": null, "tmin_d4": null, "tmin_d5": null, "tmin_d6": null, "day_of_year": 335, "uuid": "4e95de27-c3d2-4d58-bf3a-e56b2450f1c3", "inat_id": 257690849}}, {"type": "Feature", "geometry": {"type": "Point", "coordinates": [-122.116831094, 45.5773281494]}, "properties": {"species": "Xylaria hypoxylon", "date": "2024-11-30", "location": "Cascade Locks, OR 97014, USA", "elevation": 12.0, "land_cover_label": "Tree cover", "water_mask": false, "exclude_reason": "keep", "ndvi": null, "soil_moisture": null, "solar_exposure": null, "wind_exposure": null, "water_retention": null, "slope": null, "aspect": null, "num_identification_agreements": 1, "cluster": 2, "tavg": null, "tmin": 0.6, "tmax": 8.3, "prcp_d0": 0.0, "prcp_d1": 0.0, "prcp_d2": 0.0, "prcp_d3": 0.0, "prcp_d4": 0.0, "prcp_d5": 39.36248779296875, "prcp_d6": 0.0, "tmax_d0": null, "tmax_d1": null, "tmax_d2": null, "tmax_d3": null, "tmax_d4": null, "tmax_d5": null, "tmax_d6": null, "tmin_d0": null, "tmin_d1": null, "tmin_d2": null, "tmin_d3": null, "tmin_d4": null, "tmin_d5": null, "tmin_d6": null, "day_of_year": 335, "uuid": "4eeeb913-d7f5-4619-883c-cd35ccd984a2", "inat_id": 257691530}}, {"type": "Feature", "geometry": {"type": "Point", "coordinates": [-122.1146361111, 45.5759805556]}, "properties": {"species": "Xylaria hypoxylon", "date": "2024-12-27", "location": "Cascade Locks, OR 97014, USA", "elevation": 225.0, "land_cover_label": "Tree cover", "water_mask": false, "exclude_reason": "keep", "ndvi": null, "soil_moisture": null, "solar_exposure": null, "wind_exposure": null, "water_retention": null, "slope": null, "aspect": null, "num_identification_agreements": 1, "cluster": 1, "tavg": null, "tmin": 6.7, "tmax": 12.2, "prcp_d0": 38.15756607055664, "prcp_d1": 38.15756607055664, "prcp_d2": 38.862247467041016, "prcp_d3": 38.862247467041016, "prcp_d4": 0.0, "prcp_d5": 0.0, "prcp_d6": 29.146684646606445, "tmax_d0": null, "tmax_d1": null, "tmax_d2": null, "tmax_d3": null, "tmax_d4": null, "tmax_d5": null, "tmax_d6": null, "tmin_d0": null, "tmin_d1": null, "tmin_d2": null, "tmin_d3": null, "tmin_d4": null, "tmin_d5": null, "tmin_d6": null, "day_of_year": 362, "uuid": "453cb3e7-7743-4144-b3a6-579075522343", "inat_id": 256426578}}, {"type": "Feature", "geometry": {"type": "Point", "coordinates": [-121.9402877997, 45.3000480997]}, "properties": {"species": "Xylaria hypoxylon", "date": "2025-01-12", "location": "Clackamas County, OR, USA", "elevation": 496.0, "land_cover_label": "Tree cover", "water_mask": false, "exclude_reason": "keep", "ndvi": null, "soil_moisture": null, "solar_exposure": null, "wind_exposure": null, "water_retention": null, "slope": null, "aspect": null, "num_identification_agreements": 1, "cluster": 0, "tavg": null, "tmin": 3.3, "tmax": 8.3, "prcp_d0": 0.0, "prcp_d1": 0.0, "prcp_d2": 0.0, "prcp_d3": 0.0, "prcp_d4": 0.0, "prcp_d5": 0.0, "prcp_d6": 24.3442611694336, "tmax_d0": null, "tmax_d1": null, "tmax_d2": null, "tmax_d3": null, "tmax_d4": null, "tmax_d5": null, "tmax_d6": null, "tmin_d0": null, "tmin_d1": null, "tmin_d2": null, "tmin_d3": null, "tmin_d4": null, "tmin_d5": null, "tmin_d6": null, "day_of_year": 12, "uuid": "e4b9e0f0-f51f-492e-a86a-deea1f737c0a", "inat_id": 258337925}}, {"type": "Feature", "geometry": {"type": "Point", "coordinates": [-122.290886, 45.3232319722]}, "properties": {"species": "Xylaria hypoxylon", "date": "2025-02-09", "location": "Estacada, OR 97023, USA", "elevation": 201.0, "land_cover_label": "Tree cover", "water_mask": false, "exclude_reason": "keep", "ndvi": null, "soil_moisture": null, "solar_exposure": null, "wind_exposure": null, "water_retention": null, "slope": null, "aspect": null, "num_identification_agreements": 1, "cluster": 0, "tavg": null, "tmin": 1.7, "tmax": 6.1, "prcp_d0": 0.5146657824516296, "prcp_d1": 2.387214183807373, "prcp_d2": 1.359595537185669, "prcp_d3": 1.890365481376648, "prcp_d4": 0.0, "prcp_d5": 0.0, "prcp_d6": 0.0, "tmax_d0": null, "tmax_d1": null, "tmax_d2": null, "tmax_d3": null, "tmax_d4": null, "tmax_d5": null, "tmax_d6": null, "tmin_d0": null, "tmin_d1": null, "tmin_d2": null, "tmin_d3": null, "tmin_d4": null, "tmin_d5": null, "tmin_d6": null, "day_of_year": 40, "uuid": "671c90c4-539f-4497-8272-1abd4b98266b", "inat_id": 261197463}}, {"type": "Feature", "geometry": {"type": "Point", "coordinates": [-121.99734043, 44.77711989]}, "properties": {"species": "Xylaria hypoxylon", "date": "2025-09-26", "location": "Marion County, US-OR, US", "elevation": 669.0, "land_cover_label": "Tree cover", "water_mask": false, "exclude_reason": "keep", "ndvi": null, "soil_moisture": null, "solar_exposure": null, "wind_exposure": null, "water_retention": null, "slope": null, "aspect": null, "num_identification_agreements": 1, "cluster": 0, "tavg": null, "tmin": null, "tmax": null, "prcp_d0": 0.0, "prcp_d1": 0.0, "prcp_d2": 0.0, "prcp_d3": 0.0, "prcp_d4": 0.0, "prcp_d5": 0.0, "prcp_d6": 0.0, "tmax_d0": null, "tmax_d1": null, "tmax_d2": null, "tmax_d3": null, "tmax_d4": null, "tmax_d5": null, "tmax_d6": null, "tmin_d0": null, "tmin_d1": null, "tmin_d2": null, "tmin_d3": null, "tmin_d4": null, "tmin_d5": null, "tmin_d6": null, "day_of_year": 269, "uuid": "e5f781b8-720e-4d7e-b1f6-0311dea03c7f", "inat_id": 316884705}}, {"type": "Feature", "geometry": {"type": "Point", "coordinates": [-121.9411697388, 45.2951622009]}, "properties": {"species": "Xylaria hypoxylon", "date": "2025-10-05", "location": "Clackamas County, US-OR, US", "elevation": 497.0, "land_cover_label": "Tree cover", "water_mask": false, "exclude_reason": "keep", "ndvi": null, "soil_moisture": null, "solar_exposure": null, "wind_exposure": null, "water_retention": null, "slope": null, "aspect": null, "num_identification_agreements": 1, "cluster": 0, "tavg": null, "tmin": 9.0, "tmax": 23.0, "prcp_d0": 0.0, "prcp_d1": 0.0, "prcp_d2": 0.0, "prcp_d3": 0.0, "prcp_d4": 12.460249900817873, "prcp_d5": 0.0, "prcp_d6": 24.68353843688965, "tmax_d0": null, "tmax_d1": null, "tmax_d2": null, "tmax_d3": null, "tmax_d4": null, "tmax_d5": null, "tmax_d6": null, "tmin_d0": null, "tmin_d1": null, "tmin_d2": null, "tmin_d3": null, "tmin_d4": null, "tmin_d5": null, "tmin_d6": null, "day_of_year": 278, "uuid": "191a1bf4-d888-44de-a606-5e2eb02f1964", "inat_id": 319299312}}, {"type": "Feature", "geometry": {"type": "Point", "coordinates": [-122.2948837222, 45.4871711667]}, "properties": {"species": "Xylaria hypoxylon", "date": "2025-10-13", "location": "Gresham, OR 97080, USA", "elevation": 161.0, "land_cover_label": "Tree cover", "water_mask": false, "exclude_reason": "keep", "ndvi": null, "soil_moisture": null, "solar_exposure": null, "wind_exposure": null, "water_retention": null, "slope": null, "aspect": null, "num_identification_agreements": 1, "cluster": 0, "tavg": null, "tmin": 3.0, "tmax": 16.0, "prcp_d0": 5.249322414398193, "prcp_d1": 11.691224098205566, "prcp_d2": 2.690173387527466, "prcp_d3": 6.074175834655762, "prcp_d4": 12.564714431762695, "prcp_d5": 0.0, "prcp_d6": 0.0, "tmax_d0": null, "tmax_d1": null, "tmax_d2": null, "tmax_d3": null, "tmax_d4": null, "tmax_d5": null, "tmax_d6": null, "tmin_d0": null, "tmin_d1": null, "tmin_d2": null, "tmin_d3": null, "tmin_d4": null, "tmin_d5": null, "tmin_d6": null, "day_of_year": 286, "uuid": "dc63256f-8e12-45f7-b313-db5b3839e588", "inat_id": 320950794}}, {"type": "Feature", "geometry": {"type": "Point", "coordinates": [-121.879529, 45.32002145]}, "properties": {"species": "Xylaria hypoxylon", "date": "2025-10-20", "location": "Mt. Hood Park Division Recreation Area, Rhododendron, OR, US", "elevation": 807.0, "land_cover_label": "Tree cover", "water_mask": false, "exclude_reason": "keep", "ndvi": null, "soil_moisture": null, "solar_exposure": null, "wind_exposure": null, "water_retention": null, "slope": null, "aspect": null, "num_identification_agreements": 1, "cluster": 0, "tavg": null, "tmin": 6.0, "tmax": 16.0, "prcp_d0": 2.31465220451355, "prcp_d1": 14.315701484680176, "prcp_d2": 0.0, "prcp_d3": 0.0, "prcp_d4": 0.0, "prcp_d5": 0.0, "prcp_d6": 0.0, "tmax_d0": null, "tmax_d1": null, "tmax_d2": null, "tmax_d3": null, "tmax_d4": null, "tmax_d5": null, "tmax_d6": null, "tmin_d0": null, "tmin_d1": null, "tmin_d2": null, "tmin_d3": null, "tmin_d4": null, "tmin_d5": null, "tmin_d6": null, "day_of_year": 293, "uuid": "a39b0f6a-1d02-4cd4-8bfe-a6f2bd7b36b3", "inat_id": 322139680}}, {"type": "Feature", "geometry": {"type": "Point", "coordinates": [-122.2306954921, 45.4810381208]}, "properties": {"species": "Xylaria hypoxylon", "date": "2025-10-22", "location": "United States", "elevation": 289.0, "land_cover_label": "Grassland", "water_mask": false, "exclude_reason": "keep", "ndvi": null, "soil_moisture": null, "solar_exposure": null, "wind_exposure": null, "water_retention": null, "slope": null, "aspect": null, "num_identification_agreements": 1, "cluster": 0, "tavg": null, "tmin": 9.0, "tmax": 18.0, "prcp_d0": 0.0, "prcp_d1": 0.0, "prcp_d2": 0.0, "prcp_d3": 19.24942970275879, "prcp_d4": 0.0, "prcp_d5": 0.0, "prcp_d6": 0.0, "tmax_d0": null, "tmax_d1": null, "tmax_d2": null, "tmax_d3": null, "tmax_d4": null, "tmax_d5": null, "tmax_d6": null, "tmin_d0": null, "tmin_d1": null, "tmin_d2": null, "tmin_d3": null, "tmin_d4": null, "tmin_d5": null, "tmin_d6": null, "day_of_year": 295, "uuid": "e7674f1f-5c4a-4240-a5d0-15a511b68c30", "inat_id": 322528782}}, {"type": "Feature", "geometry": {"type": "Point", "coordinates": [-122.1780473815, 45.5331993449]}, "properties": {"species": "Xylaria hypoxylon", "date": "2025-10-25", "location": "NE Brower Rd, Corbett, OR, US", "elevation": 568.0, "land_cover_label": "Tree cover", "water_mask": false, "exclude_reason": "keep", "ndvi": null, "soil_moisture": null, "solar_exposure": null, "wind_exposure": null, "water_retention": null, "slope": null, "aspect": null, "num_identification_agreements": 1, "cluster": 1, "tavg": null, "tmin": 8.0, "tmax": 13.0, "prcp_d0": 39.33016586303711, "prcp_d1": 9.666159629821776, "prcp_d2": 0.0, "prcp_d3": 0.0, "prcp_d4": 0.0, "prcp_d5": 2.290600538253784, "prcp_d6": 17.700969696044922, "tmax_d0": null, "tmax_d1": null, "tmax_d2": null, "tmax_d3": null, "tmax_d4": null, "tmax_d5": null, "tmax_d6": null, "tmin_d0": null, "tmin_d1": null, "tmin_d2": null, "tmin_d3": null, "tmin_d4": null, "tmin_d5": null, "tmin_d6": null, "day_of_year": 298, "uuid": "d5baa80d-3f31-4ad5-85f1-2074a41328a7", "inat_id": 327463856}}, {"type": "Feature", "geometry": {"type": "Point", "coordinates": [-122.0991909181, 45.0446681556]}, "properties": {"species": "Xylaria hypoxylon", "date": "2025-10-30", "location": "Oregon, US", "elevation": 737.0, "land_cover_label": "Tree cover", "water_mask": false, "exclude_reason": "keep", "ndvi": null, "soil_moisture": null, "solar_exposure": null, "wind_exposure": null, "water_retention": null, "slope": null, "aspect": null, "num_identification_agreements": 1, "cluster": 0, "tavg": null, "tmin": null, "tmax": null, "prcp_d0": 0.0, "prcp_d1": 0.0, "prcp_d2": 0.0, "prcp_d3": 0.0, "prcp_d4": 0.0, "prcp_d5": 0.0, "prcp_d6": 0.0, "tmax_d0": null, "tmax_d1": null, "tmax_d2": null, "tmax_d3": null, "tmax_d4": null, "tmax_d5": null, "tmax_d6": null, "tmin_d0": null, "tmin_d1": null, "tmin_d2": null, "tmin_d3": null, "tmin_d4": null, "tmin_d5": null, "tmin_d6": null, "day_of_year": 303, "uuid": "da684d86-2eb1-48de-b1d3-e8973aa51306", "inat_id": 324098734}}, {"type": "Feature", "geometry": {"type": "Point", "coordinates": [-121.94152, 45.3033216667]}, "properties": {"species": "Xylaria hypoxylon", "date": "2025-11-02", "location": "Old Salmon River Trail, Government Camp, OR, US", "elevation": 472.0, "land_cover_label": "Tree cover", "water_mask": false, "exclude_reason": "keep", "ndvi": null, "soil_moisture": null, "solar_exposure": null, "wind_exposure": null, "water_retention": null, "slope": null, "aspect": null, "num_identification_agreements": 1, "cluster": 0, "tavg": null, "tmin": 6.0, "tmax": 15.0, "prcp_d0": 0.0, "prcp_d1": 0.0, "prcp_d2": 0.0, "prcp_d3": 0.0, "prcp_d4": 10.06683349609375, "prcp_d5": 0.0, "prcp_d6": 2.7471957206726074, "tmax_d0": null, "tmax_d1": null, "tmax_d2": null, "tmax_d3": null, "tmax_d4": null, "tmax_d5": null, "tmax_d6": null, "tmin_d0": null, "tmin_d1": null, "tmin_d2": null, "tmin_d3": null, "tmin_d4": null, "tmin_d5": null, "tmin_d6": null, "day_of_year": 306, "uuid": "ab826db2-a674-4bdd-bd47-af7960cb412d", "inat_id": 337961521}}, {"type": "Feature", "geometry": {"type": "Point", "coordinates": [-121.6855005044, 45.6918260303]}, "properties": {"species": "Xylaria hypoxylon", "date": "2025-11-16", "location": "I-84 E, Cascade Locks, OR, US", "elevation": 25.0, "land_cover_label": "Tree cover", "water_mask": false, "exclude_reason": "keep", "ndvi": null, "soil_moisture": null, "solar_exposure": null, "wind_exposure": null, "water_retention": null, "slope": null, "aspect": null, "num_identification_agreements": 1, "cluster": 0, "tavg": null, "tmin": 6.0, "tmax": 12.0, "prcp_d0": 0.0, "prcp_d1": 0.0, "prcp_d2": 0.0, "prcp_d3": 35.74452590942383, "prcp_d4": 0.0, "prcp_d5": 0.0, "prcp_d6": 0.0, "tmax_d0": null, "tmax_d1": null, "tmax_d2": null, "tmax_d3": null, "tmax_d4": null, "tmax_d5": null, "tmax_d6": null, "tmin_d0": null, "tmin_d1": null, "tmin_d2": null, "tmin_d3": null, "tmin_d4": null, "tmin_d5": null, "tmin_d6": null, "day_of_year": 320, "uuid": "61243683-c1f4-40c3-be17-a33e0e0a67ad", "inat_id": 326884833}}, {"type": "Feature", "geometry": {"type": "Point", "coordinates": [-121.9211508706, 45.2631707753]}, "properties": {"species": "Xylaria hypoxylon", "date": "2025-11-18", "location": "Rhododendron, OR 97049, USA", "elevation": 555.0, "land_cover_label": "Tree cover", "water_mask": false, "exclude_reason": "keep", "ndvi": null, "soil_moisture": null, "solar_exposure": null, "wind_exposure": null, "water_retention": null, "slope": null, "aspect": null, "num_identification_agreements": 1, "cluster": 2, "tavg": null, "tmin": 4.0, "tmax": 10.0, "prcp_d0": 0.0, "prcp_d1": 0.0, "prcp_d2": 0.0, "prcp_d3": 0.0, "prcp_d4": 0.0, "prcp_d5": 31.27838897705078, "prcp_d6": 0.0, "tmax_d0": null, "tmax_d1": null, "tmax_d2": null, "tmax_d3": null, "tmax_d4": null, "tmax_d5": null, "tmax_d6": null, "tmin_d0": null, "tmin_d1": null, "tmin_d2": null, "tmin_d3": null, "tmin_d4": null, "tmin_d5": null, "tmin_d6": null, "day_of_year": 322, "uuid": "c9108b04-0025-43e4-84fb-f544731b71f6", "inat_id": 327309136}}, {"type": "Feature", "geometry": {"type": "Point", "coordinates": [-121.8818218928, 45.3153410732]}, "properties": {"species": "Xylaria hypoxylon", "date": "2025-11-22", "location": "Clackamas County, OR, USA", "elevation": 829.0, "land_cover_label": "Tree cover", "water_mask": false, "exclude_reason": "keep", "ndvi": null, "soil_moisture": null, "solar_exposure": null, "wind_exposure": null, "water_retention": null, "slope": null, "aspect": null, "num_identification_agreements": 1, "cluster": 1, "tavg": null, "tmin": 0.0, "tmax": 6.0, "prcp_d0": 9.105814388021828e-05, "prcp_d1": 0.0322876907885074, "prcp_d2": 32.12649917602539, "prcp_d3": 0.0, "prcp_d4": 0.0, "prcp_d5": 0.0, "prcp_d6": 0.0, "tmax_d0": null, "tmax_d1": null, "tmax_d2": null, "tmax_d3": null, "tmax_d4": null, "tmax_d5": null, "tmax_d6": null, "tmin_d0": null, "tmin_d1": null, "tmin_d2": null, "tmin_d3": null, "tmin_d4": null, "tmin_d5": null, "tmin_d6": null, "day_of_year": 326, "uuid": "69864176-5124-4416-8681-7d8a801722ac", "inat_id": 328157433}}, {"type": "Feature", "geometry": {"type": "Point", "coordinates": [-122.2456971556, 45.5100306661]}, "properties": {"species": "Xylaria hypoxylon", "date": "2025-11-24", "location": "Corbett, OR 97019, USA", "elevation": 275.0, "land_cover_label": "Tree cover", "water_mask": false, "exclude_reason": "keep", "ndvi": null, "soil_moisture": null, "solar_exposure": null, "wind_exposure": null, "water_retention": null, "slope": null, "aspect": null, "num_identification_agreements": 1, "cluster": 0, "tavg": null, "tmin": 5.0, "tmax": 11.0, "prcp_d0": 9.67793083190918, "prcp_d1": 5.265736103057861, "prcp_d2": 0.0, "prcp_d3": 0.0108662173151969, "prcp_d4": 0.0, "prcp_d5": 0.0, "prcp_d6": 0.0, "tmax_d0": null, "tmax_d1": null, "tmax_d2": null, "tmax_d3": null, "tmax_d4": null, "tmax_d5": null, "tmax_d6": null, "tmin_d0": null, "tmin_d1": null, "tmin_d2": null, "tmin_d3": null, "tmin_d4": null, "tmin_d5": null, "tmin_d6": null, "day_of_year": 328, "uuid": "9c3ee7d9-6d9e-433d-8eb3-20cd900439aa", "inat_id": 330790072}}, {"type": "Feature", "geometry": {"type": "Point", "coordinates": [-122.2578718, 45.5145484]}, "properties": {"species": "Xylaria hypoxylon", "date": "2025-11-24", "location": "Corbett, OR 97019, USA", "elevation": 206.0, "land_cover_label": "Tree cover", "water_mask": false, "exclude_reason": "keep", "ndvi": null, "soil_moisture": null, "solar_exposure": null, "wind_exposure": null, "water_retention": null, "slope": null, "aspect": null, "num_identification_agreements": 1, "cluster": 0, "tavg": null, "tmin": 5.0, "tmax": 11.0, "prcp_d0": 5.430159568786621, "prcp_d1": 3.0692358016967773, "prcp_d2": 0.0, "prcp_d3": 0.0055052884854376, "prcp_d4": 0.0, "prcp_d5": 0.0, "prcp_d6": 0.0, "tmax_d0": null, "tmax_d1": null, "tmax_d2": null, "tmax_d3": null, "tmax_d4": null, "tmax_d5": null, "tmax_d6": null, "tmin_d0": null, "tmin_d1": null, "tmin_d2": null, "tmin_d3": null, "tmin_d4": null, "tmin_d5": null, "tmin_d6": null, "day_of_year": 328, "uuid": "71e08c7f-9ead-4f72-ac5f-3a494abfe71a", "inat_id": 328276661}}, {"type": "Feature", "geometry": {"type": "Point", "coordinates": [-122.0498004052, 45.5532754439]}, "properties": {"species": "Xylaria hypoxylon", "date": "2025-11-27", "location": "Oregon, US", "elevation": 923.0, "land_cover_label": "Tree cover", "water_mask": false, "exclude_reason": "keep", "ndvi": null, "soil_moisture": null, "solar_exposure": null, "wind_exposure": null, "water_retention": null, "slope": null, "aspect": null, "num_identification_agreements": 1, "cluster": 1, "tavg": null, "tmin": 7.0, "tmax": 14.0, "prcp_d0": 3.029923439025879, "prcp_d1": 14.107508659362791, "prcp_d2": 10.750094413757324, "prcp_d3": 13.343780517578123, "prcp_d4": 7.127678394317627, "prcp_d5": 0.0006038242136128, "prcp_d6": 0.013582014478743, "tmax_d0": null, "tmax_d1": null, "tmax_d2": null, "tmax_d3": null, "tmax_d4": null, "tmax_d5": null, "tmax_d6": null, "tmin_d0": null, "tmin_d1": null, "tmin_d2": null, "tmin_d3": null, "tmin_d4": null, "tmin_d5": null, "tmin_d6": null, "day_of_year": 331, "uuid": "3c44c7b9-e48b-48f4-9e76-024e8872ac33", "inat_id": 330818997}}, {"type": "Feature", "geometry": {"type": "Point", "coordinates": [-121.9436706265, 45.3106478065]}, "properties": {"species": "Xylaria hypoxylon", "date": "2025-12-13", "location": "Zigzag Ranger Station, Welches, OR, US", "elevation": 542.0, "land_cover_label": "Tree cover", "water_mask": false, "exclude_reason": "keep", "ndvi": null, "soil_moisture": null, "solar_exposure": null, "wind_exposure": null, "water_retention": null, "slope": null, "aspect": null, "num_identification_agreements": 1, "cluster": 2, "tavg": null, "tmin": 6.0, "tmax": 13.0, "prcp_d0": 0.0, "prcp_d1": 0.0, "prcp_d2": 0.0, "prcp_d3": 27.152278900146484, "prcp_d4": 67.88069915771484, "prcp_d5": 27.152278900146484, "prcp_d6": 13.576139450073242, "tmax_d0": null, "tmax_d1": null, "tmax_d2": null, "tmax_d3": null, "tmax_d4": null, "tmax_d5": null, "tmax_d6": null, "tmin_d0": null, "tmin_d1": null, "tmin_d2": null, "tmin_d3": null, "tmin_d4": null, "tmin_d5": null, "tmin_d6": null, "day_of_year": 347, "uuid": "7fa997ac-3b62-40ec-b90a-4a80f88c1a8c", "inat_id": 330655565}}, {"type": "Feature", "geometry": {"type": "Point", "coordinates": [-122.1139083333, 45.6160055556]}, "properties": {"species": "Xylaria hypoxylon", "date": "2026-01-03", "location": "Washougal, WA 98671, USA", "elevation": 232.0, "land_cover_label": "Tree cover", "water_mask": false, "exclude_reason": "keep", "ndvi": null, "soil_moisture": null, "solar_exposure": null, "wind_exposure": null, "water_retention": null, "slope": null, "aspect": null, "num_identification_agreements": 1, "cluster": 0, "tavg": null, "tmin": 5.0, "tmax": 7.0, "prcp_d0": 0.0, "prcp_d1": 0.0, "prcp_d2": 0.0, "prcp_d3": 0.0, "prcp_d4": 0.0, "prcp_d5": 0.0, "prcp_d6": 0.0, "tmax_d0": null, "tmax_d1": null, "tmax_d2": null, "tmax_d3": null, "tmax_d4": null, "tmax_d5": null, "tmax_d6": null, "tmin_d0": null, "tmin_d1": null, "tmin_d2": null, "tmin_d3": null, "tmin_d4": null, "tmin_d5": null, "tmin_d6": null, "day_of_year": 3, "uuid": "e126c9ef-0d15-4e29-a72c-489bd7d11f37", "inat_id": 333402302}}, {"type": "Feature", "geometry": {"type": "Point", "coordinates": [-122.1817851823, 45.5538346215]}, "properties": {"species": "Xylaria hypoxylon", "date": "2026-01-05", "location": "Bridal Veil Falls Trail, Corbett, OR, US", "elevation": 99.0, "land_cover_label": "Tree cover", "water_mask": false, "exclude_reason": "keep", "ndvi": null, "soil_moisture": null, "solar_exposure": null, "wind_exposure": null, "water_retention": null, "slope": null, "aspect": null, "num_identification_agreements": 1, "cluster": 1, "tavg": null, "tmin": 1.0, "tmax": 10.0, "prcp_d0": 0.0, "prcp_d1": 40.69664764404297, "prcp_d2": 0.0, "prcp_d3": 0.0, "prcp_d4": 0.0, "prcp_d5": 0.0, "prcp_d6": 0.0, "tmax_d0": null, "tmax_d1": null, "tmax_d2": null, "tmax_d3": null, "tmax_d4": null, "tmax_d5": null, "tmax_d6": null, "tmin_d0": null, "tmin_d1": null, "tmin_d2": null, "tmin_d3": null, "tmin_d4": null, "tmin_d5": null, "tmin_d6": null, "day_of_year": 5, "uuid": "4e516d32-43b7-4e8a-ab3f-bd114708a9d9", "inat_id": 333667974}}, {"type": "Feature", "geometry": {"type": "Point", "coordinates": [-122.2654810161, 45.4661708028]}, "properties": {"species": "Xylaria hypoxylon", "date": "2026-01-25", "location": "Multnomah County, US-OR, US", "elevation": 140.0, "land_cover_label": "Tree cover", "water_mask": false, "exclude_reason": "keep", "ndvi": null, "soil_moisture": null, "solar_exposure": null, "wind_exposure": null, "water_retention": null, "slope": null, "aspect": null, "num_identification_agreements": 2, "cluster": 0, "tavg": null, "tmin": -2.9, "tmax": 6.0, "prcp_d0": 0.0, "prcp_d1": 0.0, "prcp_d2": 0.0, "prcp_d3": 0.0, "prcp_d4": 0.0, "prcp_d5": 0.0, "prcp_d6": 0.0, "tmax_d0": null, "tmax_d1": null, "tmax_d2": null, "tmax_d3": null, "tmax_d4": null, "tmax_d5": null, "tmax_d6": null, "tmin_d0": null, "tmin_d1": null, "tmin_d2": null, "tmin_d3": null, "tmin_d4": null, "tmin_d5": null, "tmin_d6": null, "day_of_year": 25, "uuid": "961aa5da-3dbf-4b99-bdfa-15872c0b20f3", "inat_id": 336194758}}]}