{
  "type": "FeatureCollection",
  "features": [
    {
      "type": "Feature",
      "properties": {
        "uuid": "8efe998f-4488-4c17-bbbd-4a98dfe24223",
        "inat_id": 136861669,
        "timestamp": "2022-09-28T12:57:38-06:00",
        "date": "2022-09-28",
        "olc": "85FPM978+",
        "elevation": 3093.0,
        "tavg": null,
        "tmin": -3.4,
        "tmax": 9.9,
        "precipitation": 0.0,
        "windspeed": 7.1,
        "winddirection": null,
        "presure": 1026.9,
        "species": "Coprinopsis pseudoradiata",
        "location": "Clear Creek County, US-CO, US",
        "num_identification_agreements": 3
      },
      "geometry": {
        "type": "Point",
        "coordinates": [
          -105.6342746,
          39.66484593
        ]
      }
    }
  ]
}