{
  "type": "FeatureCollection",
  "features": [
    {
      "type": "Feature",
      "properties": {
        "uuid": "a4888b5e-558f-482f-8358-ffb2f73e34f9",
        "inat_id": 307794990,
        "timestamp": "2025-08-20T12:15:26-06:00",
        "date": "2025-08-20",
        "olc": "85FPR668+",
        "elevation": 3391.0,
        "tavg": null,
        "tmin": 0.7,
        "tmax": 16.0,
        "precipitation": 0.0,
        "windspeed": 12.5,
        "winddirection": null,
        "presure": 1024.8,
        "species": "Hygrophorus sp. 'purpurascens-PNW04'",
        "location": "Winter Park, CO 80482, USA",
        "num_identification_agreements": 1
      },
      "geometry": {
        "type": "Point",
        "coordinates": [
          -105.7839736667,
          39.8103675833
        ]
      }
    }
  ]
}