{
  "type": "FeatureCollection",
  "features": [
    {
      "type": "Feature",
      "properties": {
        "uuid": "b1103d9a-0063-4816-ab7f-9248dff49e58",
        "inat_id": 237505038,
        "timestamp": "2024-08-17T11:22:39-06:00",
        "date": "2024-08-17",
        "olc": "859JV4MW+",
        "elevation": 3347.0,
        "tavg": null,
        "tmin": 12.0,
        "tmax": 23.0,
        "precipitation": 4.9,
        "windspeed": 9.4,
        "winddirection": null,
        "presure": 1034.5,
        "species": "Albatrellopsis confluens",
        "location": "Grand Mesa Uncompahgre and Gunnison National Forests, Ophir, CO, US",
        "num_identification_agreements": 1
      },
      "geometry": {
        "type": "Point",
        "coordinates": [
          -107.8549716667,
          37.883295
        ]
      }
    }
  ]
}