{
  "type": "FeatureCollection",
  "features": [
    {
      "type": "Feature",
      "properties": {
        "uuid": "f415cd90-c7bc-4ab6-8886-f7aab6b27dbb",
        "inat_id": 306515574,
        "timestamp": "2025-08-14T12:30:00-06:00",
        "date": "2025-08-14",
        "olc": "859JR39X+",
        "elevation": 3162.0,
        "tavg": null,
        "tmin": 14.0,
        "tmax": 23.0,
        "precipitation": 1.2,
        "windspeed": 9.1,
        "winddirection": null,
        "presure": 1030.5,
        "species": "Albatrellopsis confluens",
        "location": "Lizard Head Trail, Telluride, CO, US",
        "num_identification_agreements": 1
      },
      "geometry": {
        "type": "Point",
        "coordinates": [
          -107.9023057776,
          37.8182139228
        ]
      }
    }
  ]
}