{
  "type": "FeatureCollection",
  "features": [
    {
      "type": "Feature",
      "properties": {
        "uuid": "80349eb6-c0a7-486c-916b-ec60d66de97f",
        "inat_id": 239550490,
        "timestamp": "2024-09-01T11:54:00-06:00",
        "date": "2024-09-01",
        "olc": "859P8V34+",
        "elevation": 3322.0,
        "tavg": null,
        "tmin": null,
        "tmax": null,
        "precipitation": null,
        "windspeed": null,
        "winddirection": null,
        "presure": null,
        "species": "Albatrellopsis confluens",
        "location": "Huerfano County, CO, USA",
        "num_identification_agreements": 1
      },
      "geometry": {
        "type": "Point",
        "coordinates": [
          -105.1425401047,
          37.3049944013
        ]
      }
    }
  ]
}