{
  "type": "FeatureCollection",
  "features": [
    {
      "type": "Feature",
      "properties": {
        "uuid": "86a6a520-043c-455b-b90c-358d4e431ee9",
        "inat_id": 132721097,
        "timestamp": "2022-08-28T12:53:35-06:00",
        "date": "2022-08-28",
        "olc": "85FMCRJQ+",
        "elevation": 3421.0,
        "tavg": null,
        "tmin": 2.8,
        "tmax": 17.8,
        "precipitation": null,
        "windspeed": 10.1,
        "winddirection": null,
        "presure": 1012.7,
        "species": "Albatrellopsis confluens",
        "location": "White River National Forest, Breckenridge, CO, US",
        "num_identification_agreements": 1
      },
      "geometry": {
        "type": "Point",
        "coordinates": [
          -106.1600945,
          39.4323916667
        ]
      }
    }
  ]
}