{
  "type": "FeatureCollection",
  "features": [
    {
      "type": "Feature",
      "properties": {
        "uuid": "0e228ef4-6e8a-4e8d-ab9e-568ac4fffb1d",
        "inat_id": 93330713,
        "timestamp": "2021-08-31T17:13:00-06:00",
        "date": "2021-08-31",
        "olc": "85FMFVW2+",
        "elevation": 3031.0,
        "tavg": null,
        "tmin": 2.0,
        "tmax": 19.0,
        "precipitation": 0.1,
        "windspeed": 10.9,
        "winddirection": null,
        "presure": 1025.0,
        "species": "Albatrellopsis confluens",
        "location": "Copper Mountain, Frisco, CO, US",
        "num_identification_agreements": 1
      },
      "geometry": {
        "type": "Point",
        "coordinates": [
          -106.1480721667,
          39.4970083333
        ]
      }
    }
  ]
}