{
  "type": "FeatureCollection",
  "features": [
    {
      "type": "Feature",
      "properties": {
        "uuid": "5982ae05-ff26-484d-ac57-f8b571ff87ff",
        "inat_id": 237968620,
        "timestamp": "2024-08-25T17:21:32-06:00",
        "date": "2024-08-25",
        "olc": "85FMFXH8+",
        "elevation": 3045.0,
        "tavg": null,
        "tmin": 6.1,
        "tmax": 17.2,
        "precipitation": null,
        "windspeed": 9.7,
        "winddirection": null,
        "presure": 1018.3,
        "species": "Albatrellopsis confluens",
        "location": "White River National Forest, Breckenridge, CO, US",
        "num_identification_agreements": 1
      },
      "geometry": {
        "type": "Point",
        "coordinates": [
          -106.0346752411,
          39.4778736465
        ]
      }
    }
  ]
}