{
  "type": "FeatureCollection",
  "features": [
    {
      "type": "Feature",
      "properties": {
        "uuid": "10750fc2-8b38-4236-b22b-18bbafdf167a",
        "inat_id": 137016981,
        "timestamp": "2022-09-29T09:29:46-06:00",
        "date": "2022-09-29",
        "olc": "85FPG75P+",
        "elevation": 2958.0,
        "tavg": null,
        "tmin": -1.1,
        "tmax": 9.3,
        "precipitation": 0.6,
        "windspeed": 9.6,
        "winddirection": null,
        "presure": 1024.1,
        "species": "Albatrellopsis confluens",
        "location": "Keystone, CO 80435, USA",
        "num_identification_agreements": 2
      },
      "geometry": {
        "type": "Point",
        "coordinates": [
          -105.7133111111,
          39.5092305556
        ]
      }
    }
  ]
}