{
  "type": "FeatureCollection",
  "features": [
    {
      "type": "Feature",
      "properties": {
        "uuid": "3cb1dd65-6dfc-42be-bbbb-b66e1c0705a8",
        "inat_id": 244431088,
        "timestamp": "2024-09-17T10:17:06-06:00",
        "date": "2024-09-17",
        "olc": "85FPMGJV+",
        "elevation": 2734.0,
        "tavg": null,
        "tmin": -1.8,
        "tmax": 10.0,
        "precipitation": 4.6,
        "windspeed": 16.1,
        "winddirection": null,
        "presure": 1012.4,
        "species": "Albatrellopsis confluens",
        "location": "Clear Creek County, US-CO, US",
        "num_identification_agreements": 1
      },
      "geometry": {
        "type": "Point",
        "coordinates": [
          -105.4563179722,
          39.68139
        ]
      }
    }
  ]
}