{
  "type": "FeatureCollection",
  "features": [
    {
      "type": "Feature",
      "properties": {
        "uuid": "358372a9-4480-4d87-a52f-9c7247115bfd",
        "inat_id": 307435601,
        "timestamp": "2025-08-14T12:47:57-06:00",
        "date": "2025-08-14",
        "olc": "85FPHJRG+",
        "elevation": 2498.0,
        "tavg": null,
        "tmin": 8.0,
        "tmax": 15.0,
        "precipitation": 1.3,
        "windspeed": 9.3,
        "winddirection": null,
        "presure": 1017.6,
        "species": "Albatrellopsis confluens",
        "location": "Colorado, US",
        "num_identification_agreements": 1
      },
      "geometry": {
        "type": "Point",
        "coordinates": [
          -105.3747451391,
          39.5918121741
        ]
      }
    }
  ]
}