{
  "type": "FeatureCollection",
  "features": [
    {
      "type": "Feature",
      "properties": {
        "uuid": "83853d3e-e57b-4bd0-b846-16cc9d8e6452",
        "inat_id": 391941792,
        "timestamp": "2026-08-16T11:40:26-06:00",
        "date": "2026-08-16",
        "olc": "85FPR78X+",
        "elevation": 3412.0,
        "tavg": null,
        "tmin": 4.0,
        "tmax": 11.0,
        "precipitation": 1.8,
        "windspeed": 7.2,
        "winddirection": null,
        "presure": null,
        "species": "Albatrellopsis confluens",
        "location": "Upper Chinns Dam, Idaho Springs, CO 80452, USA",
        "num_identification_agreements": 1
      },
      "geometry": {
        "type": "Point",
        "coordinates": [
          -105.7018388889,
          39.8163777778
        ]
      }
    }
  ]
}