{
  "type": "FeatureCollection",
  "features": [
    {
      "type": "Feature",
      "properties": {
        "uuid": "689026fe-e2f7-4dc9-b9f9-9dcb9991f4e0",
        "inat_id": 177461259,
        "timestamp": "2023-08-08T15:56:37-06:00",
        "date": "2023-08-08",
        "olc": "85FPMGRR+",
        "elevation": 2690.0,
        "tavg": null,
        "tmin": -0.4,
        "tmax": 13.3,
        "precipitation": 0.5,
        "windspeed": 15.9,
        "winddirection": null,
        "presure": 1017.2,
        "species": "Albatrellopsis confluens",
        "location": "Idaho Springs, CO, US",
        "num_identification_agreements": 1
      },
      "geometry": {
        "type": "Point",
        "coordinates": [
          -105.4598166667,
          39.6902366667
        ]
      }
    }
  ]
}