{
  "type": "FeatureCollection",
  "features": [
    {
      "type": "Feature",
      "properties": {
        "uuid": "32b51cb0-2d1f-445f-9149-d7fb141d3aa9",
        "inat_id": 311411152,
        "timestamp": "2025-08-31T13:56:23-06:00",
        "date": "2025-08-31",
        "olc": "85FPW6C6+",
        "elevation": 2698.0,
        "tavg": null,
        "tmin": -2.2,
        "tmax": 8.3,
        "precipitation": 0.0,
        "windspeed": 11.1,
        "winddirection": null,
        "presure": 1027.2,
        "species": "Albatrellopsis confluens",
        "location": "Alpine Trail, Winter Park, CO, US",
        "num_identification_agreements": 1
      },
      "geometry": {
        "type": "Point",
        "coordinates": [
          -105.7891080153,
          39.9223673137
        ]
      }
    }
  ]
}