{
  "type": "FeatureCollection",
  "features": [
    {
      "type": "Feature",
      "properties": {
        "uuid": "ca89480c-c726-4bf8-852a-22541dc9e72c",
        "inat_id": 131231473,
        "timestamp": "2022-08-17T12:20:16-06:00",
        "date": "2022-08-17",
        "olc": "85FPH339+",
        "elevation": 3304.0,
        "tavg": null,
        "tmin": -1.7,
        "tmax": 12.6,
        "precipitation": 0.0,
        "windspeed": 7.0,
        "winddirection": null,
        "presure": 1025.0,
        "species": "Albatrellopsis confluens",
        "location": "Keystone, CO 80435, USA",
        "num_identification_agreements": 1
      },
      "geometry": {
        "type": "Point",
        "coordinates": [
          -105.93106276,
          39.55296772
        ]
      }
    }
  ]
}