{
  "type": "FeatureCollection",
  "features": [
    {
      "type": "Feature",
      "properties": {
        "uuid": "7a81a672-a38f-479a-a604-a2da3f2ab123",
        "inat_id": 91596902,
        "timestamp": "2021-08-17T11:26:57-06:00",
        "date": "2021-08-17",
        "olc": "85FPRC3Q+",
        "elevation": 2857.0,
        "tavg": null,
        "tmin": 16.0,
        "tmax": 35.0,
        "precipitation": 0.0,
        "windspeed": 6.5,
        "winddirection": null,
        "presure": 1013.8,
        "species": "Albatrellopsis confluens",
        "location": "Colorado, US",
        "num_identification_agreements": 1
      },
      "geometry": {
        "type": "Point",
        "coordinates": [
          -105.5613420722,
          39.8049450362
        ]
      }
    }
  ]
}