{
  "type": "FeatureCollection",
  "features": [
    {
      "type": "Feature",
      "properties": {
        "uuid": "5345b4ca-8497-4685-b903-a5f997232b2f",
        "inat_id": 172915494,
        "timestamp": "2023-07-14T15:47:58-06:00",
        "date": "2023-07-14",
        "olc": "85FPXF2V+",
        "elevation": 2642.0,
        "tavg": null,
        "tmin": 17.0,
        "tmax": 27.0,
        "precipitation": 0.0,
        "windspeed": 7.5,
        "winddirection": null,
        "presure": 1020.3,
        "species": "Albatrellopsis confluens",
        "location": "Eldora Rd, Nederland, CO, US",
        "num_identification_agreements": 1
      },
      "geometry": {
        "type": "Point",
        "coordinates": [
          -105.5056128278,
          39.9505773278
        ]
      }
    }
  ]
}