{
  "type": "FeatureCollection",
  "features": [
    {
      "type": "Feature",
      "properties": {
        "uuid": "03fd8787-8332-4e2d-8507-cf87c8e93c93",
        "inat_id": 132106728,
        "timestamp": "2022-08-20T14:24:50-06:00",
        "date": "2022-08-20",
        "olc": "85GP2FCG+",
        "elevation": 2785.0,
        "tavg": null,
        "tmin": 15.0,
        "tmax": 26.0,
        "precipitation": 4.0,
        "windspeed": 9.2,
        "winddirection": null,
        "presure": 1022.1,
        "species": "Albatrellopsis confluens",
        "location": "Colorado, US",
        "num_identification_agreements": 1
      },
      "geometry": {
        "type": "Point",
        "coordinates": [
          -105.52391251,
          40.0205412583
        ]
      }
    }
  ]
}