{
  "type": "FeatureCollection",
  "features": [
    {
      "type": "Feature",
      "properties": {
        "uuid": "cfede5ed-ef67-4c62-9791-0e0cea1ab7f7",
        "inat_id": 306600098,
        "timestamp": "2025-08-14T12:28:10-06:00",
        "date": "2025-08-14",
        "olc": "859JR47F+",
        "elevation": 3048.0,
        "tavg": null,
        "tmin": 14.0,
        "tmax": 23.0,
        "precipitation": 1.2,
        "windspeed": 9.1,
        "winddirection": null,
        "presure": 1030.5,
        "species": "Hygrophorus pudorinus",
        "location": "Ophir, CO 81426, USA",
        "num_identification_agreements": 2
      },
      "geometry": {
        "type": "Point",
        "coordinates": [
          -107.8766277778,
          37.8127416667
        ]
      }
    }
  ]
}