{
  "type": "FeatureCollection",
  "features": [
    {
      "type": "Feature",
      "properties": {
        "uuid": "707ca491-6cfa-40c6-a5fa-16755acd8e1d",
        "inat_id": 10631537,
        "timestamp": "2010-08-23",
        "date": "2010-08-23",
        "olc": "85GM3VP6+",
        "elevation": 2696.0,
        "tavg": null,
        "tmin": null,
        "tmax": null,
        "precipitation": null,
        "windspeed": null,
        "winddirection": null,
        "presure": null,
        "species": "Hygrophorus pudorinus",
        "location": "Grand Co., Colorado, USA",
        "num_identification_agreements": 1
      },
      "geometry": {
        "type": "Point",
        "coordinates": [
          -106.1395,
          40.0852
        ]
      }
    }
  ]
}