{
  "type": "FeatureCollection",
  "features": [
    {
      "type": "Feature",
      "properties": {
        "uuid": "fe3aab1e-7d03-4115-ad19-bc0a47590195",
        "inat_id": 132699226,
        "timestamp": "2022-08-28T10:27:01-06:00",
        "date": "2022-08-28",
        "olc": "85GP2C6J+",
        "elevation": 3040.0,
        "tavg": null,
        "tmin": 2.8,
        "tmax": 12.1,
        "precipitation": 2.9,
        "windspeed": 11.9,
        "winddirection": null,
        "presure": 1016.2,
        "species": "Hygrophorus pudorinus",
        "location": "Nederland, CO 80466, USA",
        "num_identification_agreements": 1
      },
      "geometry": {
        "type": "Point",
        "coordinates": [
          -105.5691375556,
          40.0100402778
        ]
      }
    }
  ]
}