{
  "type": "FeatureCollection",
  "features": [
    {
      "type": "Feature",
      "properties": {
        "uuid": "65138f68-deb6-4143-a66b-759264658360",
        "inat_id": 235267983,
        "timestamp": "2024-08-11T19:39:23-06:00",
        "date": "2024-08-11",
        "olc": "85FH2W74+",
        "elevation": 3181.0,
        "tavg": null,
        "tmin": 16.6,
        "tmax": 30.7,
        "precipitation": 1.2,
        "windspeed": 10.6,
        "winddirection": null,
        "presure": 1016.3,
        "species": "Hygrophorus aurorae",
        "location": "Delta County, US-CO, US",
        "num_identification_agreements": 1
      },
      "geometry": {
        "type": "Point",
        "coordinates": [
          -108.0931867339,
          39.0149393058
        ]
      }
    }
  ]
}