{
  "type": "FeatureCollection",
  "features": [
    {
      "type": "Feature",
      "properties": {
        "uuid": "2c8942d5-ecef-440c-954d-cf6d921329b4",
        "inat_id": 243178724,
        "timestamp": "2024-09-21T11:42:20-06:00",
        "date": "2024-09-21",
        "olc": "857MVJR5+",
        "elevation": 2856.0,
        "tavg": null,
        "tmin": 10.8,
        "tmax": 21.2,
        "precipitation": 3.4,
        "windspeed": 15.0,
        "winddirection": null,
        "presure": 1019.3,
        "species": "Trichaptum subchartaceum",
        "location": "Pajarito Mountain, Los Alamos, NM, US",
        "num_identification_agreements": 1
      },
      "geometry": {
        "type": "Point",
        "coordinates": [
          -106.3902666667,
          35.8918033333
        ]
      }
    }
  ]
}