{
  "type": "FeatureCollection",
  "features": [
    {
      "type": "Feature",
      "properties": {
        "uuid": "50380216-7fb0-415c-93db-8fdb8f1c95ba",
        "inat_id": 304864076,
        "timestamp": "2025-08-07T18:14:05-06:00",
        "date": "2025-08-07",
        "olc": "857MVJR9+",
        "elevation": 2795.0,
        "tavg": null,
        "tmin": 20.1,
        "tmax": 30.3,
        "precipitation": 0.7,
        "windspeed": 9.7,
        "winddirection": null,
        "presure": 1029.7,
        "species": "Trichaptum subchartaceum",
        "location": "Los Alamos County, NM, USA",
        "num_identification_agreements": 1
      },
      "geometry": {
        "type": "Point",
        "coordinates": [
          -106.3824819997,
          35.8918145997
        ]
      }
    }
  ]
}