{
  "type": "FeatureCollection",
  "features": [
    {
      "type": "Feature",
      "properties": {
        "uuid": "b430132e-334f-4631-acd2-a8aa6ad29ab9",
        "inat_id": 243612443,
        "timestamp": "2024-09-22T16:50:56-06:00",
        "date": "2024-09-22",
        "olc": "857PR65V+",
        "elevation": 3427.0,
        "tavg": null,
        "tmin": 8.9,
        "tmax": 20.6,
        "precipitation": 0.0,
        "windspeed": 12.1,
        "winddirection": null,
        "presure": 1014.7,
        "species": "Trichaptum subchartaceum",
        "location": "Santa Fe National Forest, Tererro, NM, US",
        "num_identification_agreements": 1
      },
      "geometry": {
        "type": "Point",
        "coordinates": [
          -105.7556107027,
          35.8086665709
        ]
      }
    }
  ]
}