{
  "type": "FeatureCollection",
  "features": [
    {
      "type": "Feature",
      "properties": {
        "uuid": "5b1cdf53-dd66-4063-a32a-ffb358615d4e",
        "inat_id": 240547632,
        "timestamp": "2024-09-04T14:33:45-06:00",
        "date": "2024-09-04",
        "olc": "858P9PHC+",
        "elevation": 2661.0,
        "tavg": null,
        "tmin": 0.5,
        "tmax": 25.3,
        "precipitation": 0.2,
        "windspeed": 4.9,
        "winddirection": null,
        "presure": 1032.3,
        "species": "Trichaptum subchartaceum",
        "location": "Angel Fire, NM, US",
        "num_identification_agreements": 1
      },
      "geometry": {
        "type": "Point",
        "coordinates": [
          -105.2776466667,
          36.3792216667
        ]
      }
    }
  ]
}