{
  "type": "FeatureCollection",
  "features": [
    {
      "type": "Feature",
      "properties": {
        "uuid": "682897ce-909c-42a4-9591-79dcfe0e0121",
        "inat_id": 305663448,
        "timestamp": "2025-08-11T18:38:49-06:00",
        "date": "2025-08-11",
        "olc": "859JW264+",
        "elevation": 2849.0,
        "tavg": null,
        "tmin": 7.0,
        "tmax": 22.0,
        "precipitation": 0.0,
        "windspeed": 5.7,
        "winddirection": null,
        "presure": 1030.5,
        "species": "Trichaptum subchartaceum",
        "location": "Colorado, US",
        "num_identification_agreements": 2
      },
      "geometry": {
        "type": "Point",
        "coordinates": [
          -107.9934982624,
          37.9115386566
        ]
      }
    }
  ]
}