{
  "type": "FeatureCollection",
  "features": [
    {
      "type": "Feature",
      "properties": {
        "uuid": "2e0c04ec-a7d2-4afb-ae50-614d6ac64cd7",
        "inat_id": 226020701,
        "timestamp": "2024-06-29T11:54:14-06:00",
        "date": "2024-06-29",
        "olc": "85CPMX49+",
        "elevation": 2818.0,
        "tavg": null,
        "tmin": 15.0,
        "tmax": 25.0,
        "precipitation": 16.5,
        "windspeed": 22.4,
        "winddirection": null,
        "presure": 1027.0,
        "species": "Trichaptum subchartaceum",
        "location": "Colorado, US",
        "num_identification_agreements": 3
      },
      "geometry": {
        "type": "Point",
        "coordinates": [
          -105.0302581286,
          38.6564857901
        ]
      }
    }
  ]
}