{
  "type": "FeatureCollection",
  "features": [
    {
      "type": "Feature",
      "properties": {
        "uuid": "fb5f921e-c3bc-46fa-adce-3fa02fcaac56",
        "inat_id": 225231371,
        "timestamp": "2024-06-25T14:42:18-06:00",
        "date": "2024-06-25",
        "olc": "85CQM59X+",
        "elevation": 1803.0,
        "tavg": null,
        "tmin": 19.0,
        "tmax": 35.5,
        "precipitation": null,
        "windspeed": 12.4,
        "winddirection": null,
        "presure": 1010.0,
        "species": "Trichaptum subchartaceum",
        "location": "Colorado, US",
        "num_identification_agreements": 1
      },
      "geometry": {
        "type": "Point",
        "coordinates": [
          -104.8004723746,
          38.6686872119
        ]
      }
    }
  ]
}