{
  "type": "FeatureCollection",
  "features": [
    {
      "type": "Feature",
      "properties": {
        "uuid": "33fe3508-21e0-48bb-97c0-6bffa2205cce",
        "inat_id": 312303674,
        "timestamp": "2025-09-07T11:44:14-06:00",
        "date": "2025-09-07",
        "olc": "85FPCF4X+",
        "elevation": 2428.0,
        "tavg": null,
        "tmin": 1.8,
        "tmax": 15.6,
        "precipitation": 0.8,
        "windspeed": 11.2,
        "winddirection": null,
        "presure": 1020.5,
        "species": "Trichaptum subchartaceum",
        "location": "Bailey, CO 80421, USA",
        "num_identification_agreements": 1
      },
      "geometry": {
        "type": "Point",
        "coordinates": [
          -105.5013883,
          39.4066916
        ]
      }
    }
  ]
}